Name,Sector,City,Address,Phone,Email,Lat-Long
Jayawantrao Sawant College of Pharmacy and Research,College,4.6,,,"jspm.jscopr@gmail.com,,u003ejspm.jscopr@gmail.com,","18.4720134,73.9350095"
JSPM University,College,4.5,,,",info@jspm.edu.in,principal@jspmicoer.edu.in,principal@jspmjscoe.edu.in,principal@jspmrscoe.edu.in,","18.5811436,73.9652743"
JSPM’s Bhivarabai Sawant Institute of Technology and Research,College,Govt,"Wagholi, Pune, Maharashtra 412207",020 6733 5100,"u003eprincipal@jspmbsiotr.edu.in,,principal@jspmbsiotr.edu.in,principal@tssm.edu.in,","18.5863574,74.001669"
MIT-WPU,College,  (843),,,",international.admissions@mitwpu.edu.in,admissions@mitwpu.edu.in,admissions@mit.edu,x3eadmissions@mit.edu,","18.5137377,73.8121678"
"Dr. D.Y. Patil Institute of Engineering Management and Research, Akurdi",College,Pvt,"D. Y. Patil Educational Complex, Akurdi, Sector 29, Ravet Village Rd, Gurudwara Colony, Nigdi, Pimpri-Chinchwad, Maharashtra 411035",,",principal.dypiemr@gmail.com,admission@dypakurdipune.edu.in,dyppeca@gmail.com,tpo@dypiemr.ac.in,","18.6457064,73.757415"
MIT-WPU,College, +4 ,,,",mit@mitpune.com,international.admissions@mitwpu.edu.in,admissions@mitwpu.edu.in,outreach@mitwpu.edu.in,admissions@mit.edu,x3eadmissions@mit.edu,","18.5137377,73.8121678"
Sinhgad College of Engineering,College, +3 ,"FR8F+CR7, Jadhav Nagar, Vadgaon Budruk, Pune, Maharashtra 411041",,"principal.scos@sinhgad.edu,,principal.nbnscoe@sinhgad.edu,u003eprincipal_sits@sinhgad.edu,sitsaccounts@sinhgad.edu,principal.scoe@sinhgad.edu,principal_sits@sinhgad.edu,sinhgad.edu_exam_sits@sinhgad.edu,hr.scos@sinhgad.edu,admin.scos@sinhgad.edu,exam_sits@sinhgad.edu,saeprincipal@sinhgad.edu,studentsection_sits@sinhgad.edu,sniranjan@sinhgad.edu,registrar_sits@sinhgad.edu,registrar.scoe@sinhgad.edu,","18.4760447,73.8286071"
"MIT Institute of Design, MIT-ADT University",College,  (2099),,,",hr@mitid.edu.in,admissions@mit.edu,admissions@mitid.edu.in,admissions2024@mitid.edu.in,x3eadmissions@mit.edu,","18.4936405,74.0211248"
VIT - Vidyalankar Institute of Technology,College,  (1784),,,",principal@vit.edu.in,Sangeeta.joshi@vit.edu.in,","19.0214443,72.8676344"
Jayawantrao Sawant College of Engineering,College,Pvt,,,",jspm.jscoed@gmail.com,principal@jspmjscoe.edu.in,info@jspm.edu.in,","18.4760581,73.8698087"
JSPM’s Narhe Technical Campus,College,Pvt,"Survey No. 12/2/2 & 14/9, Pune Bangalore Highway, Taluka Haveli, Narhe, Pune, Maharashtra 411041",094227 78611,",director@jspmntc.edu.in,director.jspmntc@mail.com,info@jspmntc.edu.in,director@jspmntc.edu,","18.4414459,73.8291741"
Vidyavardhini's College of Engineering and Technology,College, +9 ,"9RMH+GFX, K.T. Marg, Vartak College Campus Vasai Road, Vasai-Virar, Maharashtra 401202",0250 233 8234,",parag.patil@vcet.edu.in,hr@vcet.edu.in,vcet_inbox@vcet.edu.in,","19.3838746,72.8261587"
JSPM’s Bhivarabai Sawant Institute of Technology and Research,College,Govt,"Wagholi, Pune, Maharashtra 412207",020 6733 5100,"u003eprincipal@jspmbsiotr.edu.in,,principal@jspmbsiotr.edu.in,principal@tssm.edu.in,","18.5863574,74.001669"
Marathwada Mitra Mandal's College of Engineering,College,  (1420),,,",principal@mmcoe.edu.in,mmcoe@mmcoe.edu.in,","18.4909825,73.8071681"
"Indira College of Engineering and Management, Indira Group of Institutes",College,  (2099),,,",u003einfo@indiraicem.ac.in,placements_isbs@indiraisbs.ac.in,taritashankar@indiraedu.com,principal@indiraicem.ac.in,info@indiraicem.ac.in,","18.7173672,73.6458281"
Jayawantrao Sawant College of Education,College, +3 ,,,"u003eprincipal@jspmjscoed.edu.in,jspm.jscoed@gmail.com,principal@jspmjscoed.edu.in,,","18.472173,73.9358412"
Marathwada Mitramandal's Institute of Technology,College,  (2099),,,",overseassupport@mmcoe.edu.in,mmit@mmit.edu.in,","18.4759913,73.7461982"
"College of Engineering, Shivnagar Vidya Prasarak Mandal's",College,  (852),"4FPX+WHV, Nira-Baramati Rd, Malegaon Budruk, Malegaon Bk, Maharashtra 413115",,"coembk.office@gmail.com,,office@engg.svpm.org.in,","18.1373621,74.4963344"
Prerana Pratishthan's Universal College of Engineering and Research,College,Pvt,"Universal college of engineering and research, Sasewadi, Maharashtra 412205",093705 21538,",preranap.pune@gmail.com,","18.3821427,73.8445016"
Rajarshi Shahu College of Education,College,3.8,,,"rscoed@gmail.com,,pramodyadavrscoe@gmail.com,hod_civil@jspmrscoe.edu.in,principal@rssc.edu.in,","18.4759913,73.7461982"
Jaihind College of Engineering,College, +4 ,"SH 52, Narayangaon - Junnar Rd, Narayangaon, Pimpalgaon Tarfe Narayangaon, Maharashtra 410502",099606 62727,"jcei.jaihind@gmail.com,,jcoekuran@gmail.com,","19.162908,73.9118941"
Rajgad Dnyanpeeth's Shri Chhatrapati Shivajiraje College of Engineering,College,3.8,,,",scscoe@gmail.com,","18.2125233,73.932987"
Jayawantrao Sawant College of Pharmacy and Research,College,  (3185),,,"jspm.jscopr@gmail.com,,","18.4720134,73.9350095"
Navsahyadri Education Society's Group of Institutions,College,  (2099),,,"director@NESGI.edu.in,1515principal@msbte.com,,directormba@navsahyadri.edu.in,director@navsahyadri.edu.in,Emailadmissions@navsahyadri.edu.in,","18.2685751,73.881008"
SKN Sinhgad Institute of Technology and Science,College,  (852),"PCGH+X2X, Sinhagad campus, Kusgaon, Lonavala, Kurvande, Maharashtra 410401",,"principal.scos@sinhgad.edu,,principal.skncc@sinhgad.edu,principal.sknsits@sinhgad.edu,scosci@sinhgad.edu,sknccaccounts@sinhgad.edu,registrar.sknsits@sinhgad.edu,","18.7274856,73.4262518"
Jayawantrao Sawant College of Education,College,  (843),,,",jspm.jscoed@gmail.com,principal@jspmjscoed.edu.in,nspe@rediifmail.com,","18.472173,73.9358412"
Jayawantrao Sawant College of Education,College,3.6,,,",jspm.jscoed@gmail.com,jspm.jscopr@gmail.com,u003eprincipal@jspmjscoed.edu.in,principal@jspmjscoed.edu.in,","18.472173,73.9358412"
Dr. D.Y. Patil College Of Engineering And Innovation,College,4.3,"27/A/1/2C, Varale, Talegaon Dabhade, Maharashtra 410507",,"dyppeca@gmail.com,,edsicell@dypvp.edu.in,principal.dypcoei@dypatilef.com,","18.747123,73.6856526"
Rajarshi Shahu College of Education,College,4.4,,,"rscoed@gmail.com,,principal@rssc.edu.in,principal@jspmrscoe.edu.in,","18.4759913,73.7461982"
Jagdish Sheth School of Management (JAGSoM),College,Pvt,"KIADB Industrial Area 8 P & 9 P, Infosys Drive, Electronics City Phase 1, Electronic City, Bengaluru, Karnataka 560100",099000 67702,",director@jagsom.edu.in,shilpanwita.ghosh@ifimbschool.com,info@collegefunda.com,","12.8493528,77.6600029"
Pimpri Chinchwad College of Engineering and Research,College,  (3185),,,",info@pcu.edu.in,x3einfo@pcu.edu.in,","18.6517819,73.7431259"
JSPM’s Imperial Adyapak Vidyalay,College,Bangalore  (2099),,,",mba@imperial.ac.uk,principal@jspmicoer.edu.in,ahmedvasif@gmail.com,summerschool@imperial.ac.uk,business.admissions@imperial.ac.uk,jspms.iav@gmail.com,","18.4760447,73.8286071"
"School of Management, MIT WPU",College,  (1113),,,",international.admissions@mitwpu.edu.in,admissions@mitwpu.edu.in,mitcoe@mitpune.com,admissions@mit.edu,x3eadmissions@mit.edu,principal_mitcoe@mitpune.com,gautam.bapat@mitwpu.edu.in,","18.5166484,73.8127646"
Jayawantrao Sawant College of Pharmacy and Research,College,4.6,"Handewadi Rd, Satav Nagar, Hadapsar, Pune, Maharashtra 411028",084849 00750,"jspm.jscopr@gmail.com,,u003ejspm.jscopr@gmail.com,","18.4721126,73.9341289"
"School of Management, MIT WPU",College,Model Colony,,,"sspp@mitsspp.edu.in,,international.admissions@mitwpu.edu.in,admissions@mitwpu.edu.in,outreach@mitwpu.edu.in,rskale@mitpune.com,admissions@mit.edu,x3eadmissions@mit.edu,gautam.bapat@mitwpu.edu.in,","18.5168293,73.8129073"
Siddhant College of Engineering,College,3.4,"Talegaon-Chakan Rd, Sudumbre, Maharashtra 412109",099239 06993,",engineeringprincipal@gmail.com,Engineeringprincipal@gmail.com,tpo.siddhantengg@gmail.com,","18.7593617,73.7539566"
"School of Management, MIT WPU",College,Pvt,,,",admissions@mitwpu.edu.in,outreach@mitwpu.edu.in,pgdmsob@gmail.com,admissions@mit.edu,x3eadmissions@mit.edu,gautam.bapat@mitwpu.edu.in,learning@mitsob.net,","18.5174333,73.8140521"
SIES College of Management Studies,College, +5 ,,,",irak@sies.edu.in,admissions@siescoms.edu,sies@siescoms.edu,info@siescoms.edu,","19.0426525,73.0204597"
"S.B Patil Institute of Management, Pimpri Chinchwad Educations Trust's",College,Bangalore  (2099),"Sector No. 26, Pradhikaran, Nigdi, near Akurdi Railway Station, Pune, Maharashtra 411044",020 2765 6900,",arch@meaec.edu.in,","18.653618,73.7598517"
Indira Institute of Management - IIMP,College,  (2099),,,",info@indiraicem.ac.in,admissions@indiraisbs.ac.in,info@indiraedu.com,admissions@indiraicem.ac.in,","18.6086555,73.7478989"
AIMSR - Aditya Institute of Management Studies and Research,College,  (1784),,,",director@aimsr.edu.in,admissions@aimsr.edu.in,placement@aimsr.edu.in,info@aimsr.edu.in,","19.2194006,72.8445023"
Rajarshi Shahu College of Education,College,  (852),,,"rscoed@gmail.com,,support_dcd@jspm.edu.in,principal@rssc.edu.in,principal@jspmrscoe.edu.in,","18.4759913,73.7461982"
Tolani Maritime Institute- TMI,College,4.5,"Talegaon - Chakan Road, Induri, Talegaon Dabhade, Maharashtra 410507",02114 669 600,",dlp@tolani.edu,admissions@tmi.tolani.edu,info@tmi.tolani.edu,","18.7357094,73.730707"
"MIT School of Bio-Engineering Sciences and Research, MIT-ADT University",College,Pvt,"Rajbaug Campus, Loni Kalbhor, Maharashtra 412201",091460 51842,",info.mitbio@mituniversity.edu.in,admissions.mitbio@mituniversity.edu.in,","18.4910727,74.0204409"
upGrad,College,Pvt,,,",studentsupport@upgrad.com,","18.4759913,73.7461982"
"All India Shri Shivaji Memorial Society's, Institute of Management",College,  (1420),,,"principal@aissmscoe.com,,director@aissmsiom.org,vijaypachgade@gmail.com,reg@aiims.ac.in,honsecretary@aissms.org,","18.5307296,73.8634301"
Fergusson College,College,  (3185),,,",principal@fergusson.edu,","18.5241806,73.8364292"
Universal AI University,College,  (1784),"W93F+9GH, Kushiwali, Maharashtra 410201",,",info@universalai.in,salma@universalai.in,","18.9028543,73.3720032"
SIT - Sinhgad Institute of Technology,College, +4 ,,,",u003eprincipal_sit@sinhgad.edu,principal_sit@sinhgad.edu,principal_sits@sinhgad.edu,srp.sit@sinhgad.edu,sits@sinhgad.edu,msc.sit@sinhgad.edu,registrar_sits@sinhgad.edu,","18.4759913,73.7461982"
S K Somaiya College,College,4.1,,,",communications@somaiya.edu,admissions@somaiya.edu,alpa.somaiya@somaiya.edu,principal.sksac@somaiya.edu,sundarrajan@somaiya.edu,x3eadmissions@somaiya.edu,info.sksac@somaiya.edu,","19.074275,72.8960368"
AIMSR - Aditya Institute of Management Studies and Research,College,4.1,,,",admissions@aimsr.edu.in,info@aimsr.edu.in,director@aimsr.edu.in,","19.2194006,72.8445023"
"Dr. D. Y. Patil Medical College, Hospital and Research Centre",College, +9 ,"Sant Tukaram Nagar, Pimpri Colony, Pimpri-Chinchwad, Maharashtra 411018",,"info@dpu.edu.in,,","18.6241907,73.8185743"
Bhavan's College,College, +5 ,,,",bhavansartscollege@gmail.com,principal@bhavans.ac.in,info@bhavans.ac.in,bhavanskottayam@gmail.com,hazarimalsomani@rediffmail.com,","19.041066,72.7417606"
Vishwakarma University,College,Pvt,"Survey No 2, 3,4, Kondhwa Main Rd, Laxmi Nagar, Betal Nagar, Kondhwa, Pune, Maharashtra 411048",095903 00911,",admissions@vit.edu,director@vit.edu,connect@vupune.ac.in,info@svsu.ac.in,x3eadmissions@vit.edu,bipin.sule@vit.edu,admissions@svsu.ac.in,admissions@vupune.ac.in,","18.4603081,73.881008"
"MIT Institute of Design, MIT-ADT University",College,3.9,,,",hr@mitid.edu.in,admissions@mit.edu,admissions2024@mitid.edu.in,x3eadmissions@mit.edu,","18.4936405,74.0211248"
"Government College of Engineering & Research, Avasari Khurd",College, +5 ,"Avasari - Khurd, Taluka - Ambegaon, Maharashtra 412405",02133 230 582,,"18.98812,73.9609172"
"Ajeenkya DY Patil University, School of Engineering",College,4.0,,,",admissions@adypu.edu.in,info@advpu.edu.in,","18.4759913,73.7461982"
"D. Y. Patil Institute of Master of Computer Applications and Management, Akurdi",College,Pvt,"29, Pradhikaran, Sector No. 27, Gurudwara Colony, Nigdi, Pimpri-Chinchwad, Maharashtra 411044",,"director@dypimca.ac.in,,enquiry@dypimca.ac.in,","18.6468561,73.7578621"
SNDT College,College,Pvt,,,",spvsndtcentre@gmail.com,vc@sndt.ac.in,librarymumbai@sndt.ac.in,nss@sndt.ac.in,librarian@sndt.ac.in,","18.4759913,73.7461982"
Tolani Maritime Institute- TMI,College, +2 ,"Talegaon - Chakan Road, Induri, Talegaon Dabhade, Maharashtra 410507",02114 669 600,",pramilas@tmi.tolani.edu,sanjeetk@tmi.tolani.edu,info@tmi.tolani.edu,dnsadmissions@tmi.tolani.edu,u003einfo@tmi.tolani.edu,","18.7357094,73.730707"
Indira College of Commerce and Science,College,3.6,"UNIVERSE Campus”, Dhruv, New, Mumbai Hwy, Tathawade, Pune, Maharashtra 411033",020 6675 9504,"scienceicacs@indiraedu.com,,nalanda.wani@iccs.ac,shivendu@iccs.ac.in,commerceicacs@indiraedu.com,principal@iccs.ac.in,artsicacs@indiraedu.com,janardanp@iccs.ac.in,thomson.varghese@iccs.ac.in,iccsadmissions@iccs.ac.in,","18.6112236,73.7463364"
"B.K. Birla College of Arts, Science and Commerce",College,3.2,"Birla College Campus Rd, Gauripada, Kalyan, Maharashtra 421301",0251 223 1294,",priyanka.pawar@bkbirlacollegekalyan.com,kiran.j.patil@bkbirlacollegekalyan.com,principal@bkbirlacollegekalyan.com,","19.2479325,73.1445468"
"B.P. Marine Academy, Panvel",College,Pvt,"X4Q2+VJ9, Bandar Rd, near Court, near Near Court, Old Panvel, Panvel, Navi Mumbai, Maharashtra 410206",022 2745 0271,",bpmarine.academy@gmail.com,info@bpmarineacademy.in,x3eonlinetransaction.bpmarine@gmail.com,onlinetransaction.bpmarine@gmail.com,","18.9894158,73.0990887"
K J Somaiya College of Arts and Commerce,College,3.5,,,",principal.sksac@somaiya.edu,a.bal@somaiya.edu,principal.kjsac@somaiya.edu,hari.sabnis@somaiya.edu,niteenpawar@somaiya.edu,admission.simsr@somaiya.edu,placements.simsr@somaiya.edu,info.sksac@somaiya.edu,","19.0749651,72.8969432"
Dr. D. Y. Patil School of Engineering and Technology,College,3.1,"Sector 24, Nerul, Navi Mumbai, Maharashtra 400614",,",dypcoe.ambi@gmail.com,info@dypic.in,admissions@dypic.in,dypeect@gmail.com,dyppeca@gmail.com,chancellor@dpu.edu.in,contact@collegeworld.in,u003edypeect@gmail.com,info.engg@dypvp.edu.in,","18.6230833,73.813445"
JSPM University,College,4.1,"Gat No. 720, Nagar Road, Wagholi, Pune, Maharashtra 412207",090672 82222,",jspm.jscoed@gmail.com,info@jspmuni.ac.in,admissions@jspmuni.ac.in,info@jspm.edu.in,principal@jspmrscoe.edu.in,","18.5853214,74.0006983"
Dr. D. Y. Patil College of Nursing,College,Pvt,,,",info@dypatil.edu,info.nursing@dpu.edu.in,info.nursing@dypvp.edu.in,u003einfo.nursing@dypvp.edu.in,dypatilnursingcollege@gmail.com,info@nursing.dypvp.edu.in,","18.6243353,73.822676"
Smt. Kashibai Navale Medical College and General Hospital,College,4.2,,,",vc@muhs.ac.in,dean@sknmcgh.org,collegeadmin@sknmcgh.org,vcoffice@muhs.ac.in,drnandadhavle@gmail.com,","18.4563062,73.7935666"
Sinhgad College of Pharmacy,College,4.3,,,",mukta.abhyankar.skncop@sinhgad.edu,skncop@rediffmail.com,principal.siop@sinhgad.edu,principal.scop@sinhgad.edu,scop@sinhgad.edu,","18.4616255,73.8172255"
CDAC - Centre for Development of Advanced Computing,College,PPP,,,",x3eacts@cdac.in,course-enquiry@cdac.in,techsupport@cdac.in,actssupport@cdac.in,acts@cdac.in,secretary.icsta2023@cdac.in,","18.4759913,73.7461982"
Dr. D. Y. Patil Law College,College,4.2,,,",principal.law@dypvp.edu.in,dypatillawcollege01@gmail.com,info.law@dypvp.edu.in,info@law.dypvp.edu.inDr,","18.621309,73.8201451"
"Dr. D. Y. Patil Biotechnology and Bioinformatics Institute, Dr. D. Y. Patil Vidyapeeth",College,Govt,"Service Rd, Tathawade, Pimpri-Chinchwad, Maharashtra 411033",020 6791 9444,",info.biotech@dpu.edu.in,","18.6145482,73.7472151"
"MIT School of Food Technology, MIT-ADT University",College,2,"F2RF+M4H, MIT School of Food Technology, MIT ADT University, Loni Kalbhor",,"office@manetpune.edu.in,,anjali.bhoite@mituniversity.edu.in,admissions@manetpune.edu.in,","18.491676,74.0202919"
Dr. D. Y. Patil Institute of Management Studies,College,Govt,,,"info@dpu.edu.in,dr.ophaldar@dypic.in,,mba@dypims.com,dypsom@dypic.in,dyppeca@gmail.com,contact@collegeworld.in,","18.4759913,73.7461982"
"Dr. D. Y. Patil College of Architecture, Akurdi",College,Pvt,"D. Y. Patil Educational Complex, Sector 29, Nigdi, Akurdi, Maharashtra 411044",,"dyppeca@gmail.com,,cdhananjay27@gmail.com,u003ecdhananjay27@gmail.com,","18.6476626,73.7578662"
Kohinoor Technical Institute,College,3.9,,,",kktiprinci@gmail.com,contact@kohinoorcollege.com,service@kohinoor.ac.in,service@KTI.com,","18.4760447,73.8286071"
"Faculty of Law, MIT WPU",College,5,,,",international.admissions@mitwpu.edu.in,admissions@mitwpu.edu.in,vilas.shinde@mitwpu.edu.in,gautam.bapat@mitwpu.edu.in,","18.5161638,73.8128061"
Abhinav Education Society's College of Pharmacy,College,Pvt,,,"abhinavpharmacycollege@gmail.com,,u003eabhinav_bpharm@yahoo.co.in,abhinav_bpharm@yahoo.co.in,","18.4424409,73.8218563"
ICSI Delhi - Institute of Company Secretaries of India,College,3,"22, ICSI HOUSE, Lodhi Rd, Institutional Area, Lodi Colony, New Delhi, Delhi 110003",0120 452 2000,",dss@icsi.edu,bhavna.rakte@icsi.edu,enrollment@icsiiip.in,cpe@icsi.edu,info@icsi.edu,x3ecpe@icsi.edu,bengaluru@icsi.edu,e-training@icsi.edu,wiro@icsi.edu,niro@icsi.edu,nikhat.khan@icsi.edu,x3ebengaluru@icsi.edu,","28.5888489,77.225714"
Online Manipal,College,Pvt,onlinemanipal.com,,",quality.mit@manipal.edu,info@manipal.edu,academic@jaipur.manipal.edu,","19.6973806,61.0776043"
Thakur Polytechnic,College,4,,,",tpoly@thakureducation.org,","19.2070504,72.8641306"
Sir J.J. School of Art,College,3.7,,,"asirjjcoa@gmail.com,jjschoolofart@gmail.com,x3easirjjcoa@gmail.com,,","18.9354647,72.8232382"
"IndSearch Institute of Management Studies and Research, Law College Road Campus",College,5,,,",bmsadmission@indsearch.org,diploma@indsearch.org,","18.4759913,73.7461982"
JSPMâ€™s Kautilya Institute of Management and Research,College,5,,,",Patil_020-67335104_director@jspmkimr.edu,director@jspmkimr.edu.in,","18.580797,73.9633549"
G.V. Acharya Institute of Engineering and Technology,College,Pvt,"Opp. Shelu Suburban Railway Station, Veeracharya Technical Education Campus Taluka - Karjat, Shelu, Maharashtra 410201",,",contact@gvaiet.org,info@gvaiet.org,principalgvaiet@yahoo.com,","19.061403,73.3085919"
Sinhgad Law College,College,3,"S.No.10/1 Near Maharashtra Bank Wadgaon Campus, Sinhgad Institute Rd, Ambegaon Budruk, Pune, Maharashtra 411041",020 2435 0595,",u003eprincipal_slc@sinhgad.edu,Placementcellslc@sinhgad.edu,stes@sinhgad.edu,principal_slc@sinhgad.edu,info@sinhgad.eduHow,stes@pn2.vsnl.net.in,","18.4637961,73.8335311"
NCRDâ€™s Sterling Institute of Pharmacy,College,4,,,",info@ncrdsip.com,principal@ncrdsip.com,","19.0339486,73.0116511"
Pimpri Chinchwad Polytechnic,College,4,"Akurdi Railway Station Rd, Sector No. 26, Pradhikaran, Nigdi, Pimpri-Chinchwad, Maharashtra 411044",,",madhavi5289@gmail.com,principal@pcpolytechnic.com,ldahiwal@gmail.com,","18.652323,73.7590429"
"Vijaybhoomi School of Science and Technology, Vijaybhoomi University",College,2,"Village Jamrung, Post Ambivali, Taluka Karjat, Dist Raigad, Maharashtra 410201",063665 68101,,"19.0206364,73.5199174"
R. D. National and W. A. Science College,College,4,"Smt Jotu Kundnani Chowk, Off Linking Rd, Bandra West, W, Maharashtra 400050",022 2604 1777,",rdnational1949@gmail.com,","19.0641877,72.8326009"
Dattakala College of Pharmacy,College,2,,,",dattakaladpharm@gmail.com,dkcom.edu@rediffmail.com,u003edkcom.edu@rediffmail.com,vyavahareb.dkcop@dattakala.edu.in,payal.snikam17@gmail.com,","18.3122419,74.732616"
Academy of Carver Aviation Pvt. Ltd.,College,3.4,,,",info@carveraviation.com,sxxxxc@carveraviation.com,","18.2014502,74.5794432"
RMPS Bhalchandra College of Pharmacy,College,3.4,"S.No.437, Sikhago Hills, Panshet Road, Gorhe Kd, Taluka Haweli, Khanapur, Maharashtra 411025",,",g.swami2009@gmail.com,rmp.pune2013@gmail.com,","18.4025007,73.735502"
Vivekanand Education Societyâ€™s College of Law,College,Pvt,,,",vesasc.admin@ves.ac.in,x3evesasc.admin@ves.ac.in,ves.law@ves.ac.in,","19.0479827,72.8878384"
MES Institute of Management and Career Courses,College,3.8,,,",mail@mesce.ac.in,principal@mesce.ac.in,info@mesce.ac.in,avd.mes@mespune.in,","18.5044939,73.8149235"
Indrayani Institute of Pharmaceutical Education and Research,College,3.4,,,",principal.liper@gmail.com,info@indrayanividyamandir.org,","18.7368225,73.676923"
Parul University Online,College,3.4,"Post Limda, Waghodia, Gujarat 391760",,",admissions@paruluniversity.online,x3eadmissions@paruluniversity.ac.in,alumni@paruluniversity.ac.in,admissions@paruluniversity.ac.in,info@paruluniversity.ac.in,","22.2886958,73.3608455"
"Atlas SkillTech University, School of Design and Innovation",College,3.4,,,",mayur.bedbansi@atlasuniversity.edu.in,","19.0708113,72.8735243"
Nalanda Law College,College,4.4,,,",infonalandalaw2002@gmail.com,nalandalawcollege172@gmail.com,","19.226474,72.822181"
Shivajirao S. Jondhale College of Engineering and Technology,College,4,,,"vjtsscoe@rediffmail.com,,u003evjtsscoe@rediffmail.com,office@shivajiraojondhalecoe.org.in,office@shivajiraojondhalecoe.com,","19.3219508,73.0463341"
Aptech Computer Education,College,4.5,,,"customercare@aptech.ac.in,,x3ecustomercare@aptech.ac.in,cs@aptech.ac.in,","18.4760581,73.8698087"
"Indian School of Business Management and Administration, Mira Road",College,4.3,,,",pune@isbm.org.in,","19.2830961,72.8554754"
Jayawant Institute of Pharmacy,College,Pvt,"33, Ashok Nagar, Tathawade, Pimpri-Chinchwad, Maharashtra 411033",020 6712 7715,"jspm_pharmacy@rediffmail.com,,jspm.jscopr@gmail.com,","18.6200866,73.7466831"
Abhinav Kala Mahavidyalaya,College,Pvt,,,",u003egajrajchvan@yahoo.co.in,vitthal@quriousmedia.com,gajrajchvan@yahoo.co.in,","18.5096551,73.848443"
Kohinoor College of Hotel and Tourism Management Studies,College,3.2,,,",contact@kohinoorcollege.com,","19.0226377,72.8333583"
"The True School of Music, Vijaybhoomi University",College,4,"Vijaybhoomi University Performance Wing, Jambrung, Maharashtra 410201",,"contact@trueschool.in,,admissions@vijaybhoomi.edu.in,communications@kadenze.com,","19.022278,73.5197641"
"International Institute of Management and Human Resource Development, Sai Balaji Education Society",College,4,"It Park, Survey No # 54 (1A/1-1), Nere, Marunji Rd, near Hinjewadi, Pune, Maharashtra 411033",020 6654 7500,,"18.6169988,73.7026133"
Jawed Habib Hair and Beauty Academy,College,Pvt,,,",customercare@jawedhabib.com,","18.4760622,73.9007086"
"College of Architecture, Bharati Vidyapeeth",College,1.2,,,",coedelhi@bharatividyapeeth.edu,mswpune@bharatividyapeeth.edu,principalbvcoanm@gmail.com,principal.bvcoanm@bharatividyapeeth.edu,drgrrs@gmail.com,coarcpune@bharatividyapeeth.edu,","18.461905,73.8344525"
"Guru Nanak College of Arts, Science and Commerce",College,Pvt,,,"Emailprincipal@gurunanakcollegeasc.in,,principal@gurunanakcollegeasc.in,","19.0308457,72.8554306"
Reliance Education : VFX and Animation Academy,College,5,,,",marketingreliancevns@gmail.com,enquiry@relianceedu.com,punjagutta@relianceedu.com,","18.5394775,73.8724223"
Proactive - D Y Patil,College,3,,,",dyppeca@gmail.com,chancellor@dpu.edu.in,info.acs@dypvp.edu.in,dypiemradmission@dypiemr.ac.in,info.sod@dpu.edu.in,","18.4759913,73.7461982"
Vijaybhoomi University,College,3.6,"Village Jamrung, Post Ambivali, Taluka Karjat, Dist Raigad, Maharashtra 410201",,"contact@trueschool.in,,info@vijaybhoomi.edu.in,","19.0206364,73.5199174"
Samarth Institute of Pharmacy,College,3.3,,,"nshrisamarthcop@gmail.com,,shrisamarthcop@gmail.com,samarthiop@gmail.com,","18.8463138,73.6650197"
"Rajmata Jijau Shikshan Prasarak Mandal's Arts, Commerce and Science College",College,3.8,,,",rjspmacs@gmail.com,directorrjspmicmr@gmail.com,rjspmcop123@gmail.com,rajmata_college@yahoo.co.in,rjspmcop123@gmail.comWebsitewww,","18.6464033,73.8399587"
Academy of Fine Arts and Crafts,College,Pvt,,,",mail@hampsteadfinearts.com,info@rachanasansad.edu.in,x3email@hampsteadfinearts.com,","19.0365622,72.8271489"
Suburban College of Paramedical Education,College,5,,,",gobharateducation@gmail.com,info@suburbancollege.com,","18.8398766,72.711371"
"Social Sciences Centre (M.S.W.), Bharati Vidyapeeth",College,3.7,,,"Emailmswpune@bharatividyapeeth.edu,,mswpune@bharatividyapeeth.edu,ymimkarad@bharatividyapeeth.edu,","18.5114223,73.8182028"
Indian Institute of Packaging,College,3.3,,,",iipdelhi@iip-in.com,director-iip@iip-in.com,tneiipdelhi@iip-in.com,labiipdelhi@iip-in.com,rdiip@iip-in.com,iipdesign@iip-in.com,dpc@iip-in.com,","19.1198015,72.8584667"
Trinity Institute of Management and Research,College,3.9,,,",timr_mba@kjei.edu.in,info@tiips.ac.in,info@trinitycampus.in,","18.4348681,73.8934109"
Manav Rachna Centre for Distance and Online Education,College,4,"Manav Rachna Campus Rd, Gadakhor Basti Village, Sector 43, Faridabad, Haryana 121004",,",sfconline@mriu.edu.in,helpdesk@manavrachnaonline.edu.in,","28.4503781,77.2811725"
Prahladrai Dalmia Lions College of Commerce and Economics,College,5,,,"placement@dalmialionscollege.ac.in,principal@dalmialionscollege.ac.in,dalmialionscollege@gmail.com,,","19.1880908,72.8354548"
Dr. D.Y. Patil Institute of Hotel Management and Catering Technology,College,Pvt,"Dr. D. Y. Patil Institute of Hotel Management & Catering Technology, Tathawade, Pimpri-Chinchwad, Maharashtra 411033",,",info@hmct.dypvp.edu.in,Emailinfo.hmct@dypvp.edu,info.hmct@dypvp.edu.in,admin.shts@dypatil.edu,info@hmct.dypvp,","18.6152629,73.7468787"
YES Education,College,2,"B Wing Second Floor 206, Pranav Commercial Plaza, Above Shiv Sena Shakha, M.G.Road, Mulund West, Mumbai, Maharashtra 400080",,",info@yeseducation.in,","18.4759913,73.7461982"
Sitabai Thite College of Pharmacy,College,2,"Pune-Ahmednagar Bypass, road, behind HUDCO Colony, Shirur, Maharashtra 412210",02138 222 680,",dgbaheti@yahoo.com,u003edgbaheti@yahoo.com,principalstcop@gmail.com,","18.8205143,74.3684937"
MAEERs Physiotherapy College,College,Govt,"Near, MIMER Medical College Campus, Talegaon Station Rd, Talegaon Dabhade, Maharashtra 410507",02114 308 391,",mpc@mitmimer.com,u003empc@mitmimer.com,principal_th@mitmimer.com,Emailmpc@mitmimer.com,","18.7355764,73.6734615"
Le Mark School of Art,College,7,,,",study@lemarkinstitute.com,","19.0950423,72.7312675"
"Sinhagad College of Arts,Science and Commerce",College,4,,,"principal.scos@sinhgad.edu,scoac_admin@sinhgad.edu,kscoascaccounts@sinhgad.edu,,scoac_accounts@sinhgad.edu,scosci@sinhgad.edu,hr.scos@sinhgad.edu,sinhgad.edu_scoac_accounts@sinhgad.edu,naresh.g@sinhgad.edu,principal_scoac@sinhgad.edu,u003eprincipal_scoac@sinhgad.edu,","18.4759913,73.7461982"
Dr. D.Y. Patil Educational Academy's Dr. D.Y. Patil College of Engineering,College,5,,,",contact@collegeworld.in,dypsea.ambi@gmail.com,enquiry@dypimca.ac.in,","18.4759913,73.7461982"
Cliniminds Institute of Health Science Training and Mangement,College,3.4,,,",admissions@cliniminds.com,","18.776175,72.8006259"
Jetking Infotrain Ltd,College,2.3,,,",cs@jetking.com,","18.5193616,73.8427043"
National Stock Exchange (NSE),College,4,,,",JSmith@nse.co.in,international@nse.co.in,acctsmem@nse.co.in,nseiscahm@nse.co.in,ifscmembership@nseifsc.co.in,ncfm_ahmedabad@nse.co.in,John@nseindia.com,x3eJSmith@nse.co.in,","19.0703807,72.8527646"
Vidyalankar Institute of Technology,College,4.2,,,",principal@vit.edu.in,info@vidyalankar.org,","19.0214443,72.8676344"
"Arihant Group of Institutes, Camp Campus",College,3.4,,,"info@arihantacs.edu.in,,enquiry@agiedu.in,","18.5065123,73.8771055"
"Late. Fakirabai Pansare Education Foundation, Pradhikaran Homoeopathic Medical College",College,Pvt,,,",dshmc@vsnl.net,chinchom@rediffmail.com,","18.6447339,73.7666941"
Sinhgad Institute of Business Management,College,3,,,"vishalgaikwad.sbs@sinhgad.edu,,sraju1977@gmail.com,sibmmca1@gmail.com,samitakher@sinhgad.edu,","18.4534247,73.8247989"
Samarth College of Pharmacy,College,Pvt,,,",scopdeulgaonraja2019@gmail.com,Emailsamarthcop@gmail.com,samarthcop@gmail.com,Emailsamarthiop@gmail.com,","18.6156364,73.7849639"
Siddharth College,College,3.3,,,",iqacsiddharthcollege@gmail.com,scce1953@gmail.com,siddharth_asc@rediffmail.com,info@ssmctumkur.org,","19.5163808,70.4957167"
NIIT Institute,College,3,,,"corptraining@niit.com,,Placements@niit.com,info@niit.com,niithaldwani@gmail.com,businessimpact@niit.com,meettejas@rediffmail.com,","18.4760581,73.8698087"
KLE College of Science and Commerce,College,3.6,,,",principalklecc@gmail.com,scpdgcol@gmail.com,kleccadm@gmail.com,klekalamboli@gmail.com,enquiry@klessccmumbai.edu.in,","19.0259697,73.0945299"
Army Law College,College,Pvt,"QH3P+MHH, Kanhe, Maharashtra 412106",,",info@ail.ac.in,armylawcollegepune@gmail.com,u003earmylawcollegepune@gmail.com,admissions@alcpune.com,info@alcpune.com,Emailinfo@alcpune.com,","18.7541973,73.5839169"
Indian Institute of Materials Management,College,3.7,,,",ashok.siloni@gmail.com,edu@iimmchennai.org,admin@iimmchennai.org,iimmdelhimmr@gmail.com,iimmedu@iimm.co.in,","18.4760447,73.8286071"
Bhabha Atomic Research Centre,College,3.5,,,",webmaster@barc.gov.in,x3ewebmaster@barc.gov.in,headmd@barc.gov.in,queryonline@barcindia.co.in,barc@thewhistleblower.co.in,","19.1022295,72.8494538"
361 Degree Minds - Annamalai University,College,Pvt,"1st Floor, 10, 80 Feet Road, Kamarajar Nagar, Sathya Garden, Saligramam, Chennai, Tamil Nadu 600093",,",x3epvijayanannamalai@gmail.com,pvijayanannamalai@gmail.com,info@361dm.com,","13.046723,80.1964001"
D.Y.Patil School of Architecture,College,4.1,,,",c.renu98@gmail.com,admissions@dypic.in,","18.4759913,73.7461982"
Dr. D.Y. Patil College of Education,College,4.4,,,",info.coed@dypvp.edu.in,info.pcoed@dypvp.edu.in,chancellor@dpu.edu.in,info.pcoed@dypvp.edu,info@dyppharmaakurdi.ac.in,placements@dyppharmaakurdi.ac.in,","18.4759913,73.7461982"
Amigo Academy,College,Pvt,,,",info@amigoacademy.in,Emailinfo@amigoacademy.in,support@rstheme.com,support@trinitycollege.in,","18.8085519,72.7338365"
"Inter National Institute of Fashion Design, Deccan",College,6,,,",talk@inifdpune.co.in,info@nifd.net,inifdpune@yahoo.com,info@inifdpune.co.in,","18.4760447,73.8286071"
"MIT School of Distance Education, Kothrud",College,Pvt,,,",admissions@mitsde.com,Emailcampussupport@mitsde.com,7@www.mitsde.com,psmalik@mitsde.com,","18.5126313,73.8036644"
Father Agnel Technical College,College,4.7,,,"crce@fragnel.edu,,crce@frcrce.ac.in,fragnel_bandra@yahoo.com,fragnel_bandra@rediffmail.com,agnelbiz@gmail.com,principal@fragnelcollege.edu.in,","19.0601594,72.7408293"
Delight College of Pharmacy,College,4.7,,,",amaanshaikh.shaikh@gmail.com,yspmadmin@yes.edu.in,","18.6516498,74.0548403"
Chaudhary Attarsingh Yadav Memorial Education Trusts,College,Pvt,"HRGF+X3G, Dapodi, Pimpri-Chinchwad, Maharashtra 411012",,",engineeringprincipal@gmail.com,siddhantcollegeofpharmacy@yahoo.in,siddhantmgtstudies@gmail.com,","18.5774356,73.8201337"
Indian Institute of Aviation and Hospitality Management,College,Pvt,,,"iiscnagercoil@gmail.com,,info@bluewhaleacademy.com,info@iihm.edu.in,","18.5330046,73.7234615"
Shri Chhatrapati Shivajiraje College of Engineering,College,2,"Near Shedung Toll Plaza, Old Mumbai-Pune Highway Post - Shedung, Taluka, Panvel, Maharashtra 410216",083693 44356,",scscoe@gmail.com,u003escscoe@gmail.com,sescoe@gmail.com,","18.9476554,73.1724707"
Vidyalankar Danyanpeeth College of B.Sc. I.T.,College,Pvt,,,",info@ordsuniversal.edu.in,principal@vsit.edu.in,info@vidyalankar.org,","18.4759913,73.7461982"
Sushrusha Institute of Nursing Science,College,2.7,"Mazanine Floor, krishna complex, Sushrusha Nursing Home, Vallipeer Road, near Allahabad Bank, Bhanu Sagar Talkies, Bhanunagar Kalyan(West), Bail Bazar, Bhoiwada, Kalyan, Maharashtra 421301",092212 34709,",snsdaund@gmail.com,sushrutha_nsg@rediffmail.com,valueplusmsrketing17@gmail.com,","19.2363794,73.1247098"
Vishal Junnar Seva Mandal's Vishal Institute of Pharmaceutical Education and Research,College,2,"NIMSE MALA ROAD, Ale, Maharashtra 412411",,"info@vjsmale.com,,vjsmiopw@gmail.com,","19.1806543,74.1120575"
Manjara Charitable Rajiv Gandhi Institute of Technology,College,2,,,"placement@rgit.ac.in,,rgit02@rediffmail.com,sanjay.bokade@mctrgit.ac.in,","18.7869199,72.6800128"
"Centre for Development of Advanced Computing, Pashan",College,2,,,",x3eacts@cdac.in,course-enquiry@cdac.in,techsupport@cdac.in,u003eacts-placement@cdac.in,director@ncl.res.in,acts-placement@cdac.in,acts@cdac.in,","18.5344433,73.806391"
D.Y.Patil Institute of Management,College,Pvt,,,",dypimdirector@gmail.com,mba@dypims.com,director.dypimed@dypatilef.com,u003edypimdirector@gmail.com,admission@dypakurdipune.edu.in,admissions@dypatilef.com,dyppeca@gmail.com,chancellor@dpu.edu.in,contact@collegeworld.in,tpo@dypiemr.ac.in,","18.4759913,73.7461982"
"Institute of Online Learning, Chandigarh University",College,2,"SCO-223 First Floor, Sector 36-D, Chandigarh, 160036",,"registrar@cumail.in,,admissions@cuidol.in,","30.7333871,76.7507597"
Maeer's MIT Polytechnic,College,3.7,,,",Emailadmissions@mitwpu.edu.in,international.admissions@mitwpu.edu.in,contact@mitpolytechnic.edu.in,Emailcontact@mitpolytechnic.edu.in,","18.5146271,73.8092105"
Dr. D.Y. Patil School of Engineering and Technology,College,Pvt,,,",dypcoe.ambi@gmail.com,info@dypic.in,admissions@dypic.in,dyppeca@gmail.com,contact@collegeworld.in,u003edypcoe.ambi@gmail.com,info.engg@dypvp.edu.in,","18.6218113,73.7815844"
Dr. BalabhaiÂ Nanavati Hospital,College,3,,,",info@nanvatihospital.org,","19.0957507,72.837685"
Parvatibai Jondhale womens law college,College,3,"Lodha Heaven, Shastri Nagar, Dombivli West, Dombivli, Maharashtra 421202",,",contact@lawbhoomi.com,law@sndt.ac.in,hello@collegedekho.com,","19.2180268,73.0816179"
Pramod Ram Ujagar Tiwari Saket Institute Of Management,College,Pvt,"Saket Vidyanagari Marg, Chinchpada Road, Katemanivali, Kalyan, Maharashtra 421306",0251 225 0469,",info@collegefunda.com,info@prutsim.edu.in,","19.2184352,73.1407333"
ICFAI University â€“ Distance Education,College,2,,,"flp@icfaiuniversity.in,,admissions@iutripura.edu.in,","18.8707363,72.8429957"
Kala Vidyamandir Institute of Technology,College,5,,,",info@kvmt.co.in,kvmitpolytechnic@gmail.com,","19.1810086,72.7927864"
Narottam Morarjee Institute of Shipping,College,4.2,,,",admin@nmis.net,director@nmis.net,admission@nmis.net,","18.949713,72.8073004"
Pibm Tirupati Institute of Business Management,College,3.2,"Tal - Mulshi, Gut No. 605/1 Lavasa Road, Paud Rd, Pirangut, Maharashtra 412115",,",jiten3003@gmail.com,pibm@pratibhagroup.org.in,","18.4909758,73.7037407"
Jawed Habib Academy,College,4,,,",customercare@jawedhabib.com,info@jawedhabibacademy.com,hello@collegedekho.com,","18.4760581,73.8698087"
Seven Mentor Pvt Ltd,College,4.4,"Office No.21 and 25 A Wing Shreenath Plaza 1st floor Dnyaneshwar Paduka, Chowk, Fergusson College Rd, Shivajinagar, Pune, Maharashtra 411005",020 7117 3071,,"18.5263113,73.8399876"
La Sphere School of Hotel Management,College,Pvt,"Monarch Crystal, Kalyan - Shilphata Rd, Near Tata Power, Tata Power Company Limited, Dombivli East, Kalyan, Dombivli, Maharashtra 421301",088810 12012,",hello@collegedekho.com,info@lasphere.edu.in,","19.219351,73.1171921"
Oxford B.Ed. College,College,2,,,",oxfordb.edcollege01052@gmail.com,info@theoxford.edu,hodplacements@theoxford.edu,recruiters@careers.ox.ac.uk,contact@oxfordced.edu.in,entrepreneurship@sbs.ox.ac.uk,collaboration@admin.ox.ac.uk,scienceprincipal@theoxford.edu,enquiries@begbroke.ox.ac.uk,principal_coe@oxfordced.edu.in,","19.5716989,68.9371226"
Nirmala Memorial Foundation College,College,Pvt,,,"nirmalajunior@nirmala.edu.in,,nirmalacollege@nirmala.edu.in,info@nirmala.edu.in,","19.2140902,72.8627631"
BITS Pilani - Online Programme,College,5,,,",jitendrarathore@pilani.bits-pilani.ac.in,wilp@wilp.bits-pilani.ac.in,x3ebitsat2023@pilani.bits-pilani.ac.in,bitsat2023@pilani.bits-pilani.ac.in,deanwilp@pilani.bits-pilani.ac.in,khari@pilani.bits-pilani.ac.in,","28.3624441,75.5854663"
Anekant Institute of Management Studies,College,5,,,",contact@jaysingpurcollege.edu.in,director.aimsbaramati@gmail.com,","18.4468928,73.8709041"
N.R. Swami College of Commerce and Economics and Smt. Thirumalai College of Science,College,Pvt,"Plot No 337 , Major R. Parameshwaran Road, Sewree Wadala Estate, Mumbai, Maharashtra 400031",022 2411 8658,",shivlecollege@rediffmail.com,siws@siwscollege.edu.in,","19.0208369,72.8566467"
"Post Graduate Institute, Yashwantrao Chavan Memorial Hospital",College,4.7,"JQHX+WV8, MIDC, Pimpri Colony, Pimpri-Chinchwad, Maharashtra 411019",,",as.knhpmcpune@gmail.com,kirancmhankale@gmail.com,deanpgiycmh@pcmcindia.gov.in,","18.6297811,73.7971345"
ST.Gonsalo Garcia college,College,Pvt,"Mahatma Gandhi Rd, Naigaon West, Naigaon, Vasai-Virar, Maharashtra 401201",,"office@ggcollege.in,stgonsalogarciacollege@gmail.com,Emailstgonsalogarciacollege@gmail.com,,","19.3424658,72.8055583"
Chandrashekar Agashe College of Physical Education,College,Pvt,"3, Shankar Rao Lohane Marg, Opposite Tilak Maharshtra Vidyapeeth, Gultekadi, Pune, Maharashtra 411037",020 2426 1872,",u003eagashecollegepune@gmail.com,agashecollegepune@gmail.com,","18.4967755,73.8654229"
ICFL - Icicidirect Centre For Financial Learning,College,3,,,",learning@icicisecurities.com,helpdesk@icicidirect.com,x3ehelpdesk@icicidirect.com,","18.4760447,73.8286071"
Jaipuria Institute of Management Online,College,5,,,",pragati.bansal.23l@jaipuria.ac.in,rashmi.chaudhary@jaipuria.ac.in,","25.5904661,73.1204511"
Jawed Habib Hair And Beauty Academy And Premium Salon,College,Pvt,,,",info@jawedhabibacademy.com,customercare@jawedhabib.com,","18.4760622,73.9007086"
NIBMS,College,3,,,"info@nibms.org,,","19.2278041,72.8550424"
Rizvi College of Education,College,Pvt,,,"rizvi_education@yahoo.co.in,,principal.asc@rizvicollege.edu.in,","19.0623011,72.8195018"
Government Ayurved College and Hospital,College,1,,,",govtayurcollegenagpur@gmail.com,dean.gaco@maharashtra.gov.in,gacbaramati@gmail.com,gahbaramati@gmail.com,","21.1263884,79.1118675"
Universal College of Architecture,College,4.6,"Near Bhajansons & Punyadham Kaman, Bhiwandi Rd, Vasai-Virar, Maharashtra 401208",,",info.ucoe@universal.edu.in,hirayarch@yahoo.co.in,admission.kjcoemr@kjei.edu.in,principalkjcoemr@gmail.com,info.ucoa@universal.edu.in,","19.3502993,72.9146589"
"Arena Animation, Chembur",College,5,"401, The Central Complex, near Chembur Station, Postal Colony, Chembur, Mumbai, Maharashtra 400071",091367 91066,",x3ecustomercare@arena-pakistan.com,customercare@arena-pakistan.com,","19.0585756,72.8833386"
Sahyadri Institute of Vocational Training,College,Pvt,,,",editorbuzz@sahyadri.edu.in,aifsgondia@gmail.com,sivtpune@gmail.com,","18.4759913,73.7461982"
Ignite Education- NMIMS,College,  (1420),,,",lcchandigarh@nmims.edu,enquiry@nmims.edu,x3engasce@nmims.edu,admissions.MPSTME@nmims.edu,ngasce@nmims.edu,enquiry.mpstme@nmims.edu,","19.1034894,72.8339975"
Siddharth College of Commerce And Economics,College,Pvt,,,",Emailoffice@siddharthcollege.com,principal@siddharthcollegeasc.com,shivlecollege@rediffmail.com,scceravisir@gmail.com,principal@pbsiddhartha.ac.in,","18.9456047,72.8192521"
Shivaji Shikshan Sansthas Science and Commerce College,College,Pvt,,,"shivaji.shikshan.santha@gmail.com,,shivaji.shikshan.sanstha@gmail.com,contacts@shivajiakola.org,shivlecollege@rediffmail.com,","19.2430751,72.4559808"
College of Commerce and Economics,College,4.2,,,",principalconnect@hrcollege.edu,apcce_college@yahoo.co.in,transcripts@hrcollege.edu,admin@hvdesaicollege.edu,examcommittee@hrcollege.edu,principal.llc@gmail.com,rupalipragati77@gmail.com,","18.8342847,72.6964704"
College of Computer  Sciences,College,2,,,"FanCHL@sau.edu.cn,snehlata.shirude@gmail.com,besant_college@rediffmail.com,,besant.womens.college@gmail.com,principal@ccspune.in,bwc@besant.edu.in,","18.5553206,73.7200689"
Rasiklal M. Dhariwal Institute of Technology,College,PPP,"near Fattechand Jain School, near juna jakat naka, Pawana Nagar Housing Society, Chinchwad, Pimpri-Chinchwad, Maharashtra 411033",,",rmdiper@gmail.com,info@sjvpmp.org.in,","18.6324189,73.7747454"
Rise WPU,College,Govt,"84, Regency Cosmos Rd, Lalit Estate, Baner, Pune, Maharashtra 411045",,",admissions@wpurise.com,support@wpurise.com,","18.5377352,73.7707673"
Jogeshwari Education Society,College,Pvt,,,"admin@jescollege.edu.in,,jescollegecom@gmail.com,jescollagecom@gmail.com,jesprimary1932@gmail.com,","19.1373593,72.8489854"
"Rustomjee Academy for Global Careers, Dahanu",College,2,"WRXQ+6X9, Dahanu - Jawhar Rd, Dahanu, Manipur, Maharashtra 401602",,"Emailenquiries@ragc.rustomjee.com,,info@ragc.in,enquiries@ragc.rustomjee.com,","19.9631137,72.7602616"
"Maya Academy of Advanced Cinematics, JM Road",College,2,,,",jmroad2@maacmail.com,nashik-collegeroad@maacmail.com,careers@aptech.ac.in,customercare@aptech.ac.in,","18.5196637,73.8421517"
Akshar Education,College,4,,,",admissions@akshara.in,admin@akshara.in,","18.4760581,73.8698087"
Sasmira Integrated Skill Development Scheme,College,4,,,",Emailsasmira@vsnl.com,sidt@sasmira.edu.in,","19.0106222,72.8174441"
ATSS College of Business Studies and Computer Application,College,4,"Service Rd, Anna Sahib Nagar, Chinchwad, Pimpri-Chinchwad, Maharashtra 411019",020 2747 2079,",u003eatssitc@yahoo.co.in,atssitc@yahoo.co.in,","18.638905,73.7934273"
Camp Education Societyâ€™s Institute of Management,College,PPP,"Camp Education Society's Rasiklal M. Dhariwal Institute of Management, near Lokmanya Hospital, Sector No 27/A, Nigdi, Pimpri-Chinchwad, Maharashtra 411044",,",director@campmba.com,director.campmba@gmail.com,","18.6533513,73.7700736"
Tikaram Jagannath College,College,Pvt,,,",comp@tjcollege.org,tjciqac@gmail.com,art@tjcollege.org,admin@tjcollege.org,comm@tjcollege.org,u003eadmin@tjcollege.org,","18.4760447,73.8286071"
MIT Saint Dnyaneshwar B.Ed. College,College,2.8,"MVFQ+4JP, Opp. Gajanan Maharaj Temple Dehu Phata, Alandi Devachi, Alandi, Maharashtra 412105",020 3987 5191,",principal.sdbed@mitpune.edu.in,","18.6728259,73.886516"
Saifee Hospital,College,2,,,",write@saifeehospital.com,Emailwrite@saifeehospital.com,hrsaifeehospital@yahoo.com,","18.9755006,72.8086067"
Institute for Advanced Computing and Software Development,College,Pvt,"Railway Station, Akurdi, Sector 29, Nigdi, Pimpri-Chinchwad, Maharashtra 411044",,",x3eacts@cdac.in,ittrg@iacsd.com,techsupport@cdac.in,enquiry@iacsd.com,acts@cdac.in,","18.6456567,73.7552577"
"Maya Academy of Advanced Cinematics, Camp",College,PPP,,,",careers@aptech.ac.in,grievances-hppa.crid@hry.gov.in,","18.4760581,73.8698087"
Nalanda Educational Foundations Dr Babasaheb Ambedkar College of Arts Science and Commerce,College,2,"3W72+9CG, PL Lokhande Marg, Chembur West, Muncipal Labour Colony, Kurla, Mumbai, Maharashtra 400089",022 2525 2928,,"19.0634333,72.8984949"
"Dnyanvardhini College of Arts, Science and Commerce",College,Pvt,"MR74+H93, Shivatej Nagar, Chikhali, Vitthal Nagar, Maharashtra 411019",,",u003ednyanvardhini@gmail.com,dnyanvardhini@gmail.com,dnyanacs@rediffmail.com,","18.6638873,73.8033357"
M.E.S's New Law College,College,Pvt,,,"nlc70.ahmednagar@gmail.com,,cet@bharatividyapeeth.edu,bvnlck@gmail.com,newlawcollege@yahoo.co.in,info@gtnlawcollege.com,","18.7651878,72.6913544"
Acme Education,College,4.6,,,",acmeeducation@gmail.com,languages.acme@gmail.com,","18.4759913,73.7461982"
"Mahatma Phule Education Societys College of Arts, Commerce, Science and Management",College,3,,,",shivlecollege@rediffmail.com,Emailmpes2007@gmail.com,mpes2007@gmail.com,","18.5028342,73.9507784"
"School of Nursing, Talegaon General Hospital and Convalescent Home",College,3,,,",intcent@unipune.ernet.in,tghandch_08@yahoo.co.in,","18.7398618,73.6710017"
Institute of Taxation and Accounting Professionals (ITAP),College,2,,,",itapbengaluru@gmail.com,","18.5756715,73.7808154"
MIT School of Distance Education,College,2,,,",last@mitsde.com,admissions@mitsde.com,support@mitsde.com,Emailcampussupport@mitsde.com,7@www.mitsde.com,psmalik@mitsde.com,","18.4760447,73.8286071"
The Mahindra Institute,College,Pvt,,,",x3eceo@mahendras.org,info@mahendrainstitutions.com,ceo@mahendras.org,","18.4759913,73.7461982"
Indian School Of Management and Studies,College,Pvt,"502 , 5th Floor, Sanatana Eternal, Himayat Nagar Rd, above Linga Universe, Gagan Mahal, AP State Housing Board, Basheer Bagh, Hyderabad, Telangana 500029",,",info@kkcemnalanda.ac.in,admissions@iimspune.edu.in,admissions@aimsr.edu.in,","17.404825,78.4776241"
Anantrao Pawar College,College,Pvt,,,",apcpirangut@gmail.com,abmspcoa@rediffmail.com,info@collegefunda.com,abmspcoe@yahoo.com,","18.4913194,73.8384682"
Novel College of BBA and BCA,College,PPP,,,",gccbachd@hotmail.com.com,ich38.cl@unishivaji.ac.in,dkasccollege@gmail.com,","18.5566714,73.698953"
"VLCC Institute of Beauty, Health and Management, Kandivalli West",College,Pvt,,,",feedback@vlccwellness.com,","19.2171083,72.8308996"
Sinhagad Institute of Business Management,College,2.8,,,"principal.scos@sinhgad.edu,,scosci@sinhgad.edu,registrar.siom@sinhgad.edu,registrar_sibar@sinhgad.edu,manish.kasbekar@sinhgad.edu,","18.4534247,73.8247989"
Progressive Education Society's B.Ed.College,College,Pvt,,,",modernedu@hotmail.com,ssd0703@gmail.com,","18.5154567,73.8402672"
Noble Hospital,College,Pvt,,,",Emailcare@noblehospitalspune.com,noblecares@noblehrc.com,contact@noblehospital.in,recruitment@noblehrc.com,noblehospital@ngivbt.edu,","18.4760581,73.8698087"
SP Finance Academy,College,Pvt,,,",contactus@sp.edu.sg,","18.500566,73.8078881"
Global Academy of Professional Accountants,College,Pvt,,,",accounts@sparkrecreation.com,info@masba.edu.ua,info@gapaeducation.com,employers@accaglobal.com,","19.1662419,72.8237392"
Rameshwari Mauli Prathishtan of Bhalchnadra Institute of Pharmacy,College,Pvt,"S.No.437, Sikhago Hills, Panshet Road, Gorhe Kd, Taluka Haweli, Khanapur, Maharashtra 411025",,",rmp.pune2013@gmail.com,","18.4025007,73.735502"
Fat mu - Pro Makeup Academy,College,Pvt,fatmu.com,,",fatmuacademy@gmail.com,","19.6973806,61.0776043"
Leena Education College,College,3,,,"leenaguruprasad.mba@bmsce.ac.in,,enquiry@rmc.edu.in,drleenaram@rediffmail.com,leena.jadhav@vsit.edu.in,","18.4760447,73.8286071"
Indira College of Engineering and Management,College,Govt,"Gat No 276, Tal. Maval, S.NO 64,65, Indira College Road, Parandvadi, Maharashtra 410506",,",u003einfo@indiraicem.ac.in,admissions@indiraicem.ac.in,hr@indiraicem.ac.in,principal@indiraicem.ac.in,info@indiraicem.ac.in,","18.7067776,73.65566"
Mahatma Phule Vidyaniketan College,College,Pvt,,,"vpmkinhavalicollege@gmail.com,,mahatmaphulepimpri@yahoo.com,vidyaniketan.7@gmail.com,","18.4938979,73.9278814"
Mastermind Technologies,College,Govt,,,",santekedu@gmail.com,themastermindsschools01@gmail.com,info@mastermindcollege.in,","18.4760447,73.8286071"
Ashwath Infotech,College,4,"164, Begum Peth Rd, Railway lines, Jawaharlal Housing Society, Keshav Nagra, Solapur, Maharashtra 413002",,",rohit@ashwath.com,info@ashwath.com,","17.6633602,75.904038"
Anjuman I Islam Research Institute,College,Pvt,,,",anjumanislam@rediffmail.com,anjumanallana.cst1@gmail.com,nisar_oomer@yahoo.co.in,smag2002@rediffmail.com,onarch.pvt@gmail.com,info@anjumaniislam.org,itsmi_rane@yahoo.co.in,president@anjumaniislam.org,","18.8194844,72.6826708"
Cosmos Animation Academy,College,Pvt,,,",baramati@cosmosmaya.com,","18.8801677,72.6837676"
Shri Bhimashankar B.Ed. College,College,PPP,"2V6R+QX8, Landewadi,Manchar,Ambegaon, Maharashtra 410503",,"bhimshankar_b.edcollege@rediffmail.com,,info@shreebhairavnatheducation.com,bhimashankarbed@rediffmail.com,","19.011916,73.8898648"
Goa Swiss Institute of Hotel Management,College,Pvt,,,",admin@gchce.com,goaswissinstitute@yahoo.co.in,","17.2013377,72.1482971"
Subhash Anna Kul College of Education,College,Pvt,"CFG8+3WJ Madhukarnagar, Patas Rd, Daund, Virobawadi, Maharashtra 412219",,",sakbedpatas@gmail.com,u003esakbedpatas@gmail.com,hello@collegedekho.com,","18.4252067,74.4647045"
Kompass Aviation,College,5,,,",info@airlineprepschool.com,info@kompass-overseas.com,caoshe@gmail.com,","23.8137436,69.6565797"
Rashmis Transworld Academy (IATA Authorised Training Centre),College,5,,,",info@collegemarg.com,","18.8401482,72.7647259"
Imagin XP - Ajeenkya DY Patil University,College,Pvt,,,"convocation@adypu.edu.in,,","18.4759913,73.7461982"
Talentedge - Lincoln University College,College,PPP,,,",admissions@lincolnuca.edu,helpline@lincoln.edu.my,admissions@lincoln.edu,amiya@lincoln.edu.my,info@lincoln.edu.my,x3einfo@lincoln.edu.my,x3eadmissions@lincoln.edu,lucalifornia@lincolnuca.edu,x22admissions@lincoln.edu,banerjee@lincoln.edu.my,","18.4760628,73.9007086"
Sharadchandraji Pawar College of Education. (B.Ed.),College,Pvt,,,",alameenbed@gmail.com,u003ealameenbed@gmail.com,","18.6528453,74.0550493"
Babasaheb Phadtare Polytechnic,College,  (1420),"Indapur Rd, Nimgaon Ketki, Maharashtra 413120",,"1513principal@msbte.com,,swamipolytechnic@gmail.com,bpp.kalamb@dkkkpbpp.com,","18.087592,74.9148373"
"Laqshya Institute of Skills Training, Dadar",College,Pvt,,,"ccat@laqshya.in,,info@laqshya.in,","19.0688755,72.8029488"
Swaraj College of Commerce,College,Pvt,,,",swarajcollege@gmail.com,creativepune@gmail.com,u003eswarajcollege@gmail.com,","18.4659218,73.8422871"
"College of Education and Research, Parel",College,3.8,,,",skcollegeofeducation.ghansoli@gmail.com,info@bttc.edu,info@gescer.com,","19.0321086,72.8286263"
EduMine Institute- NMIMS Global AEP,College,3.8,,,",enquiry@nmims.edu,ngasce@nmims.edu,x3engasce@nmims.edu,","19.2200257,73.0893699"
Creative Concept,College,2,,,",info@creativeconcept.co,","18.4760581,73.8698087"
Ira Education Societys College of Education,College,2,"S.No 149/1, Arvi, Haveli, Maharashtra 412205",,"u003einfo@iraeducation.com,,info@iraeducation.com,iraedu100@gmail.com,hello@collegedekho.com,","18.3537666,73.8138121"
Star Fly Aviation Academy,College,4,,,"info@staraviationacademy.com,info@starflyaviation.com,,","18.6404383,72.683158"
"CLINI India, Somajiguda",College,Pvt,"Swathi Plaza, Raj Bhavan Rd, Durga Nagar Colony, Somajiguda, Hyderabad, Telangana 500082",,"info@cliniIndia.com,u003einfo@cliniindia.com,info@cliniindia.com,,","17.4264007,78.4542427"
Don Bosco College,College,2.8,,,",admin@dbatura.com,collegeoffice@donboscogoa.ac.in,director@dbatura.com,accounts@donboscogoa.ac.in,dbc@dbclmumbai.org,don.bosco.bd@gmail.com,admissions@dbcblr.in,","18.4760447,73.8286071"
The British Institutes,College,3,,,",info@thebritishinstitutes.com,","18.7615063,72.7320812"
Propus Education Society,College,3,,,",sathayecollege@gmail.com,pesmcoe@moderncoe.edu.in,","18.4915143,73.8550135"
Savitribai Phule Mahila Mahavidyalaya,College,PPP,"Karmaveer Samadhi Parisar, Raviwar Peth Rd, kesarkar peth, Powai Naka, Satara, Maharashtra 415001",,",mavalspm@gmail.com,info@mjpedugroup.com,sfmm709@sgbau.ac.in,savitribai_phule@yahoo.com,","17.6849487,74.0008383"
"Hutatma Rajguru Arts, Science and Commerce College",College,Pvt,"VV2Q+352, Talkhed, Rajgurunagar, Maharashtra 410505",,"hrmrajguru@yahoo.com,,admin@hrmrajgurunagar.com,u003ehrmrajguru@yahoo.com,","18.8501374,73.8853312"
e-Careers..,College,Pvt,"40- 45, 1st Floor, Rajaram Estate, Rajaramseth Lad Chowk Near Dadar East Railway Station, Dadar (E, Maharashtra 400014",,",admission@careercollegeindi.com,","18.597552,73.8026921"
Saraswati Mandir Arts and Commerce College,College,Pvt,,,",smncca@rediffmail.com,smncca@redifmail.com,Emailsmncca@rediffmail.com,u003esmncca@rediffmail.com,","18.509966,73.8514039"
"College of Education and Research, Bhandup West",College,4.4,,,",gurunanakcer@gmail.com,","19.1471543,72.9235449"
Disha Computer Institute,College,Delhi/NCR  (3185),,,",dics.ho@gmail.com,dishadadar@gmail.com,","18.4760581,73.8698087"
Mahatma Phule Mahavidyalaya Arts Science and Commerce,College,Bangalore  (2099),,,",shahajibmore1964@gmail.com,mahatmaphulepimpri@yahoo.com,principalmjf173@gmail.com,sarodemadhav@gmail.com,borasepravins@gmail.com,n@yahoo.com,prinmpascpanvel@yahoo.co.in,","18.737663,72.8641"
Stock Market Institute,College,Pvt,,,",info@ibbm.co.in,","18.4760581,73.8698087"
Modern College of Agriculture Bio-Technology,College,1,,,",Pravaracabt@gmail.com,","18.5423016,73.5803159"
Padmashree Dr. D.Y.Patil Institute of Pharmacy (D.Pharm),College,Pvt,,,",info.pharmacy@dypvp.edu.in,","18.4759913,73.7461982"
AES College of Pharmacy,College,Pvt,"99F8+M7R, Karoor - Ambalapuzha Temple Rd, Ambalapuzha, Kerala 688561",0477 227 8877,",principalaescp@gmail.com,aesambalapuzha@gmail.com,abhinavcop2006@gmail.com,abhinav_cop@yahoo.co.in,","9.3742397,76.3630757"
ERP Training Academy,College,Pvt,,,",info@uniterpacademy.com,learnerpacademy@gmail.com,info@serosoft.com,erpacademy.pune@gmail.com,","18.4760581,73.8698087"
AAEMF's Delight Institute of Pharmacy,College,Pvt,"Sharad Campus, Pimple Jagtap, Road, Koregaon Bhima, Maharashtra 412216",,",yasmeentamboli07@gmail.com,safiyainamdar09@gmail.com,gmail.com_safiyainamdar09@gmail.com,mominhina2012@gmail.com,amaanshaikh.shaikh@gmail.com,u003eamaanshaikh.shaikh@gmail.com,","18.6457637,74.0399293"
Zen Technologies,College,Pvt,,,",cosec@zentechnologies.com,info@zentechnologies.com,x3ecosec@zentechnologies.com,investors@zentechnologies.com,","18.4760447,73.8286071"
Lords School of Management,College,Pvt,"104, Salt Pan Rd, Azad Mohalla, Sangam Nagar, Mumbai, Maharashtra 400037",092222 22619,",info@lordsb-school.com,info.lucjr@universal.edu,admissions@lordsuni.edu.in,chairman@lords.ac.in,info@lordsuni.edu.in,principal@lords.ac.in,info@lim.edu,hr@lordsuni.edu.in,","19.022112,72.8698222"
Aspire Technology,College,Pvt,,,"aspire.ku.brt@gmail.com,,anilkhajinkar@gmail.com,info@aspirecollege.edu.np,","18.4759913,73.7461982"
S I W S College of Commerce and Economics,College,3,,,",siws@siwscollege.edu.in,","19.0208644,72.8567731"
Naigaon Education Societys Arts And Commerce College,College,  (1420),,,",kunal_katkade@yahoo.com,principal.dtac@gmail.com,","19.1966878,72.7070624"
OM Solutions,College,Pvt,,,",omgroup@omlogistics.co.in,maes04office@gmail.com,info@omeducation.edu.in,munish.saini123@rediffmail.com,om.college@rediffmail.com,","18.4760581,73.8698087"
Analytics17,College,Pvt,,,",admission@jecrcu.edu.in,Info@sce.org.in,director.admission@jecrcu.edu.in,","18.4760628,73.9007086"
"EduFirst Computer Institute, Thane",College,Pvt,,,",edufirstcomputers.thane@gmail.com,","19.187465,72.9045896"
Jay Bajrang Pratishthans B.Ed College,College,3.8,,,"shyamjikrishnavermab.ed.college@gmail.com,,","18.4760581,73.8698087"
DRM Institute Of Paramedical Science,College,Malappuram,Near HMS Hospital Kottakkal; Road Palathara Kottakkal; 676503,8488958920.0,"minps@rediffmail.com,drmscollege@yahoo.co.in,",10.9828681592; 75.998934321176
Sims Distance Education,College,Malappuram,AL MANARA COMPLEX Downhill; TIRUR ROAD Downhill; 676519,8734966061.0,"sims@simsindia.org,",11.045322222222; 76.071852777778
Dr. MS College and Paramedical Study Center,College,Malappuram,Near Bus Stand Bypass Junction Kondotti Malappuram; Kondotty Kondotti Malappuram; 673638,9724659787.0,"admission@mesams.com,mesmc@mesams.com,",11.1458333333; 75.9638888889
RMC No.1 Distance Education Centre,College,Kottayam,Near Passport Office Malappuram Civil Station; Malappuram Civil Station; 676505,9054659093.0,"sde@mgu.ac.in,srikumarc53@gmail.com,office@cmscollege.ac.in,rmcmlp18@gmail.com,sde.documents@mgu.ac.in,",11.04284; 76.0831989
MALABAR INSTITUTE OF PARAMEDICAL,College,Tirur,Near Police Sataion Middle Hill; Hill - Malappuram Middle Hill; 676505,8488078250.0,"mimsclt@mimsindia.co,reitirur@gmail.com,mail@almascollegeofnursing.com,",11.045; 76.076944444444
IQJITA,College,Coimbatore, Kottakkal; Mini Road Kottakkal; 676503,9054698196.0,"info@kgcas.com,principal@gct.ac.in,info@actechnology.in,admission@actechnology.in,",11.0041987; 76.0051648
Matha College Of Medical Technology,College,Malappuram,Near By Old ITI BULDING Thalakkadathur; Tharayil Thalakkadathur; 676103,8123859895.0,"hmmctgroup@gmail.com,mathacollegeofmedicaltech@gmail.com,mathacollege@sify.com,cthmmc@gmail.com,",10.9297805556; 75.9470111111
Intimate Career,College,Tirur,Near Bypass Junction; A K Road; 676505,,"career@myschooltirur.com,mail@idealeducation.org,mail@myschooltirur.com,",11.04323; 76.0762879
Viswavidyapeedhom Educational Institution,College,Nagar,Near Kuzhikkattumoola Juma Masjid Kakkanad; Kakkanad Kakkanad; 682030,9054768084.0,"viswavidyapeedhom@gmail.com,registrar@newhorizonindia.edu,principal@newhorizonindia.edu,",10.0165356; 76.3548837
Uic,College,Arang,Near Panampilly Nagar; SA Road Panampilly Nagar; 682036,8460394095.0,"applygrad@uic.edu,x3eundergradmail@uic.edu,x3ecs-ugrad@uic.edu,scholarshiphelp@uic.edu,cs-ugrad@uic.edu,smcginn@uic.edu,undergradmail@uic.edu,x3escholarshiphelp@uic.edu,gradbusiness@uic.edu,records@uic.edu,nmoruzzi@uic.edu,registration@uic.edu,",9.9650913; 76.292677
Loyal Academy,College,Cochin,Near StAlberts College Kochi; Logic Tower Kacheripady Kochi; 682001,,"sulthanabalqees@thecochincollege.edu.in,enquiry@ihna.edu.au,event-CCEVENT2023@10068.jpeg,thecochincollegekochi2@gmail.com,event-CCEVENT2023@10071.jpg,event-CCEVENT2023@10072.jpg,event-CCEVENT2023@10077.jpg,",9.985919; 76.277901
Amritha College,College,Basi,nan; nan; 682001,,"a_shalini@amrita.edu.in,contact@amrita.edu.in,avkozhikode@kzkd.amritavidyalayam.edu.in,agriculture@amrita.edu,Amritacollegeofnursing@gmail.comOpens,admissions@my.amrita.edu,",9.952017; 76.245933
Theni College Of Arts & Science,College,Cherthala,"Theni College Of Arts Scince Veerapandi Veerapandi; Theni,Veerapandi; 625534",8734820866.0,,9.953802777778; 77.434563888889
Chep Educational Trust,College,Muvattupuzha,"Near housing board office Cherthala Alappuzha; Alappuzha,Cherthala Alappuzha; 688531",,"principal.rightpath@gmail.com,admission@nirmalacollege.ac.in,library@nirmalacollege.ac.inCollege,",9.73838; 76.31852
Ilahia School Of Science And Technology (Issat),College,Kottayam," Muvattupuzha; Ernakulam,Muvattupuzha; 686673",,"issamtmpz@gmail.com,",10.0235848; 76.5656256
Kvm Trust Institute,College,Coimbatore,"KVM College Of Engineering and IT Kokkothamangalam; Alappuzha,Kokkothamangalam; 688527",,"kvmtrustchla@gmail.com,",9.6788716; 76.358417299722
MAHARAJAS INSTITUTE OF MEDICAL SCIENCE,College,Kozhikode,"NEAR AMRITHA UNIVERSITY Ettimadai; Coimbatore,Ettimadai; 641112",8490884607.0,"maharajascollege2015@gmail.com,directormaharajas@gmail.com,",10.8877219; 76.8984837
St Alphonsa Group Of Institutions,College,Coimbatore," Elathur; Kozhikode,Elathur; 673303",,"constalphonsa@gmail.com,principal@stalphonsa.edu.in,stalphons2014@gmail.com,",11.322901; 75.747491
Shree Vari Groups,College,Thrissur,"Near Ganapathy Bus Stop Ganapathy; Coimbatore,Ganapathy; 641006",8460494957.0,"mail@srivyasanss.ac.in,govtcollegetcr@yahoo.co.in,shreevarieducationalgroups@gmail.com,admissions@ncerc.ac,scamgovtcollege@gmail.com,",11.0352868889; 76.9780807222
Eagle Academy & Educational Consultancy,College,Mysore,"Opp to Bnk Kokkalai; Thrissur,Kokkalai; 680021",,"info@yourdomain.com,",10.513639444444; 76.211700416667
Triveda Study Links,College,Banga,Near Old Bus Stand Kalpetta; Vezhpoor Road Kalpetta; 673121,8123188932.0,"akhilraj.dhanaraj@gmail.com,",11.607579; 76.082773
Educonsultant.in - Admission Consultants India,College,Ongole,"Near Police Station Madiwala; Bangalore,Madiwala; 560068",,"mdhelpuindia@gmail.comHow,",12.921152; 77.617932
Ace College Bharathiar University,College,Coimbatore,Bus Stand Complex Palakkad City; Tb Road Palakkad City; 678014,8734963655.0,"acepkd@gmail.com,internationalaffairs@buc.edu.in,bucia@buc.edu.in,regr@buc.edu.in,acemanjeri@gmail.com,",10.770524; 76.651421
Cheran College Of Arts and Science Pharmacy Nursing & Physiotherapy,College,Palakkad,nan; Coimbatore; 678012,9725064266.0,,10.79228; 76.631508
Sri Uma Maheshwara School & College Of Nursing,College,Indi,"Near Birla International School Gulbarga HO; Gulbarga,Gulbarga HO; 585101",7383498756.0,,17.329731; 76.8342957
Girijyothi College,College,Varkala, Vazhathope; Vazhathope; 685602,,"girijyothicollegeidukki@gmail.com,sncvpr@gmail.com,info@sncsivagirivarkala.com,Sobha864@gmail.com,info@sngcassivagiri.org,",9.859365; 76.9567233
College Of Engineering,College,Munnar, Munnar Idukki; County Hills Munnar Idukki; 685612,,"mail@cemunnar.ac.in,mail@cemunnar.org,",10.0850873; 77.0723581
MG COLLEGE,College,Kannur,Near Moothedath Higher Secondary School Taliparamba; Main Road Taliparamba; 670141,8401883859.0,"principal@mgcollege.ac.in,deptsws@kannuruniv.ac.in,ugsws@kannuruniv.ac.in,info@mgcollege.ac.in,bedsws@kannuruniv.ac.in,mgcollege.ac.in@gmail.com,Emailinfo@mgcollege.ac.in,",12.036104083333; 75.360968277778
Geethanjali Group Of Institutions,College,Thrissur,Vyapara Bavan South Bazar Road; Parakkandy Road South Bazar Road; 670002,8460557218.0,"prashanthtpo@gcet.edu.in,kishorecr@gcet.edu.in,civilhod@gist.edu,ecehod@gist.edu.in,csehod@gist.edu.in,eeehod@gist.edu.in,principal@gectcr.ac.in,mechod@gist.edu.in,",11.87655; 75.3626
Microtec Educational Services,College,Thrissur, Thrissur East; East Fort Junction Thrissur East; 680005,9054338838.0,"u003einfo@microtec.in,info@microtec.in,",10.522499; 76.225466
Iiahsr Paramedical College,College,Thrissur,Opp Raymond Thrissur Central; Kuruppam Road Thrissur Central; 680001,8732942894.0,"wims33@gmail.com,nchs@nirmalacollege.edu.in,info@iiahsr.com,info@co-operativecollegethrissur.org,",10.521111111111; 76.212222222222
Mercy Institute Of Technology,College,Thrissur, Guruvayur; Punnathoor Road Guruvayur; 680101,,"info@mercycollege.co.in,mercycollegepkd@yahoo.com,Mercycon@gmail.com,mercy.pursuits@gmail.com,principal@mercycollege.edu.in,",10.60416096; 76.04425397
G-Tec Kechery,College,Thrissur,Oposite Mambaul Hudha Markaz Kecheri; Near Dubai Road Kecheri; 680501,9724610022.0,"principal@vidyaacademy.ac.in,mail@keralavarma.ac.in,12@gmail.com,om@gteceducation.com,kozhencherry.pta@gteceducation.com,tcrround.tcr@gteceducation.com,",10.628577222222; 76.120941138889
Kairali Vidya Peedam,College,Thrissur,Near North Bus Stand Thrissur City; West Palace Road Thrissur City; 680020,8460511338.0,"pradhukkrishna@gmail.com,",10.5308789; 76.2145162
Techshore Inspections Services,College,Thrissur, Poothole; Pottayil Lane Poothole; 680004,,"dataworld1999@gmail.com,tcilittvm06@gmail.com,techshoreinspections@gmail.com,techshore.kottayam@gmail.com,info@techshore.in,",10.522252; 76.2064661
Institute Of Engineering,College,Thrissur,Near Mathrubhumi Thrissur Railway Station; Thrissur Railway Station; 680021,9725258632.0,"x3e@gectcr.ac.in,principal@gectcr.ac.in,info@gectcr.ac.in,admissions@ncerc.ac,",10.518561111111; 76.212158333333
RVM and Associates,College,Thrissur,Nearby Christ College Irinjalakuda; Christ College Road Irinjalakuda; 680121,8460385667.0,"rvm.ahmedabad@gmail.com,mail@srivyasanss.ac.in,srmthrissur@gmail.com,",10.3539829; 76.2155807
Govt. Polytechnic College,College,Munnar, Chottupara Periyar; Chottupara Periyar; 685533,,"govtcollegetly@gmail.com,gptcctl@gmail.com,gptcvchr@gmail.com,principal.cptc@gmail.com,",9.5840807; 77.1202824
I C A R College,College,Attingal,"Beside Prime Hospital Ameerpet; Hyderabad,Ameerpet; 500016",8197712844.0,"chowdappa.p@icar.gov.in,ceattingal.ihrd@gmail.com,hello@collegedekho.com,cpcrinews@gmail.com,",17.437801361111; 78.4459915
UIC,College,Varkala, Palayam; Nh Road Palayam; 695034,8460489638.0,"x3eois@uic.edu,newintl@uic.edu,info@sncsivagirivarkala.com,applygrad@uic.edu,x3eundergradmail@uic.edu,undergradmail@uic.edu,vloomba@uic.edu,sncvpr@gmail.com,gradcoll@uic.edu,",8.502435309; 76.95417182
Sree Narayana Guru College of Advanced Studies,College,Sivagiri, Varkala; Varkala; 695141,,"sngcasa@gmail.com,sncollegevazhukumpara@gmail.com,info@sngcassivagiri.org,x3eEmailprincipalsncc@shreenarayanaguru.in,x3eEmailsudinivinod@shreenarayanaguru.in,",8.7453867; 76.7321919
Rti College Of Engineering,College,Sivagiri, Temple Road; West Hill Temple Road; 695141,,"drvgeetha1967@gmail.com,kumarisankar.v@gmail.com,rti@gcebargur.ac.in,iqbalcollege@rediffmail.com,",8.7353845014; 76.7172608813
Sn College,College,Varkala,Sivagiri Varkala; Varkala; 695141,,"info@sncsivagirivarkala.com,info@sncollegevarkala.org,sncvlibrary@gmail.com,saiju.davidson@gmail.com,sncpr@gmail.com,sncvpr@gmail.com,",8.74544; 76.733352
Unison College,College,Varkala,Varkala; Mundayil Road; 695141,,"info@entranceindia.com,admission@iuu.ac,",8.7372632; 76.7232823
Panackal Travels,College,Varkala, Varkala; Paravur Road Varkala; 695141,,"adv.niyas@rediffmail.com,info@sncsivagirivarkala.com,du@gmail.com,rahul@bluerient.co,sncvpr@gmail.com,knprm@iclfincorp.com,",8.731998; 76.721907
Federal College,College,Varkala, Varkala; Varkala; 695141,,"info@sncsivagirivarkala.com,sncpr@gmail.com,info@entranceindia.com,sncvpr@gmail.com,",8.7335937; 76.7257704
Sagar College,College,Varkala, Varkala; Station Road Varkala; 695141,,"info@jit.edu.in,sncvpr@gmail.com,info@sncsivagirivarkala.com,eedu@gmail.co,info@entranceindia.com,cmmanaguli@yahoo.in,admissions@jit.edu.in,",8.7364295; 76.7247367
Department Of Economics,College,Sivagiri,nan; Varkala; 695145,,"sncpr@gmail.com,gcascs@gmail.com,snc.org@gmail.com,",8.7448561; 76.7337137
Alburhan Arabic College,College,Attingal, Perumkulam; Alamcode Perumkulam; 695102,,"alburhanpkm@gmail.com,gcatl2021@gmail.com,",8.7044364; 76.7875591
Career Plus,College,Kottayam,Near Head Post Office Thodupuzha; Thodupuzha; 685584,,"principal@sjihmct.ac.in,office@cmscollege.ac.in,",9.8974541; 76.7154449
Sree Narayana Arts And Science College,College,Nagar, Chakrampady; Chakrampady Chakrampady; 686563,,"sngcollegeprincipal@gmail.com,neethuanil2004@gmail.com,mail@metcollege.org,harshmahadevan@gmail.com,sncollege.kedamangalam@gmail.com,snnattika@gmail.com,snascoffice@gmail.com,info@sncollegenattika.ac.in,",9.6137282; 76.4319873
