Name,Sector,City,Address,Phone,Email,Lat-Long
Stedman Pharmaceuticals Pvt Ltd,Companies(Private),Noida,"3-A, Adyar Bridge Road, Adyar, Chennai 600020, TN",,",info@mastersindia.co,pbalu@stedmanpharma.com,x3epbalu@stedmanpharma.com,doe@stedmanpharma.com,x3eaccounts@usanpharma.com,",
Net Gully,Companies(Private),Noida,"386/1-A, Jodhpur Park, Kolkata 700068, WB",+91-9836397132,"career@appinventiv.com,,accounts@spatniassociates.com,",
Azico Pharmaceuticals Pvt Ltd,Companies(Private),Noida,"425, Door No 7-1-621/328, Sanjeeva Reddy Nagar, Hyderabad 500038, TS",,",finance@azicobiophore.com,x3ecorphrd@rakshitdrugspvtltd.com,gsnrao@biophore.com,x3egsnrao@biophore.com,avinash@azicobiophore.com,corphrd@rakshitdrugspvtltd.com,",
RTC Restaurants India Ltd,Companies(Private),Noida,"703 & 705, Chiranjiv Tower 43, Nehru Place, New Delhi 110019, DL","+91-11-26447971, +91-11-26447972",",info@rtcindia.co.in,info@hotz.in,SHIVARAM.V@DYNAMATICS.NET,shivaram.v@dynamatics.net,",
WNS Global Services,Companies(Private),Noida,"Plant No. 10/11, Gate No. 4, Godrej & Boyce Complex, Pirojshanagar, Vikhroli (West), Mumbai – 400 079",+91-2268262100,"x3einfo@wns.com,,x3ejane.doe@wns.com,Dipti.Thakker@wns.com,",
Alrite Infotech,Companies(Private),Noida,"1st floor, Padma Nivas, Second Cross Rd, Hindwadi, Belagavi 590011, Karnataka",+91-088824570,"x3eramyinfotechprivatelimited@gmail.com,,ramyinfotechprivatelimited@gmail.com,ceo@impact-infotech.com,x22ceo@impact-infotech.com,x3echairman@avvasinfotech.com,sales@chromeinfotech.com,ravijnr9@gmail.com,info@makshiinfotech.co.in,x3eceo@impact-infotech.com,chairman@avvasinfotech.com,x22ramyinfotechprivatelimited@gmail.com,x3einfo@makshiinfotech.co.in,sales@infoicontechnologies.com,",
Sabine Immigration,Companies(Private),Noida,"No. 756, 2nd Floor, Jayanagar 4th Block, Bengaluru 560011,KA",+91-9740245941,",vtfortabrez@gmail.com,sabineimmigration@gmail.com,dcsindia11@gmail.com,",
Device Doctor India,Companies(Private),Noida,"42, Sukhdev, near Maharana Pratap Marriage Garden, Kota 324002,RJ",+91-8114471036,",sk.mata@jalindia.co.in,arun_kasauli@yahoo.co,Vivek.nic@rediffmail.co,nclkasauli@gmail.com,",
Webtech Core,Companies(Private),Noida,+91-9110170824,,",info@webtechsolution.co,",
JKNP and Associates,Companies(Private),Noida,"6 & 7, 1st Floor, Naya Bazar, Tura Mandi, Najafgarh, New Delhi 110043, DL",+91-11-25322333,"rkdas.associates@gmail.com,pankaj.bansal@jknp.in,,rkdas.associates@yahoo.com,",
Techflow Engineers,Companies(Private),Noida,"Building 2(A-3), Unit 415, Sector – 1, Millennium Business Park, Mahape, Navi Mumbai",,"Info@techflowengg.com,techflowus@techflowengg.com,,",
Restromark,Companies(Private),Noida,"Level 1, Building 10A, Cyber Hub, DLF Cyber City, Gurugram, Haryana",+91-9315935527,,
Godbms Infotech,Companies(Private),Noida,,,",shrimalitanmay@gmail.com,",
Webiopr Tech Solution,Companies(Private),Noida,"Gomti Nagar, Lucknow, Uttar Pradesh",+91-9455605492,,
Prapanjan Waterproofing,Companies(Private),Noida,,,",vijaiprakash76@gmail.com,hrsanchar@gmail.com,",
Techsensial Software,Companies(Private),Noida,"RZQ-53, Khasra No-34/21, Nihar Vihar, Nangloi, Delhi 110041, DL",+91-9818988501,,
Gcon Technologies,Companies(Private),Noida,"B-6, Hargovind Vihar, Sector 4, Rohini, New Delhi 110085, DL",+91-9711001193,",info@gcontech.com,",
Softvanz Technologies,Companies(Private),Noida,"BT-22/9, Somdatt Chamber, Bhikaji Cama Place, New Delhi 110066, DL",+91-9508989778,"x22SANJEEV08G@GMAIL.COM,,taxes@saigun.com,SANJEEV08G@GMAIL.COM,x3eSANJEEV08G@GMAIL.COM,mukund2401@gmail.com,na@cirrius.com,vishysk@gmail.com,x3etaxes@saigun.com,x22vishysk@gmail.com,x3evishysk@gmail.com,support@skugal.com,x3ena@cirrius.com,",
Nissan Steel,Companies(Private),Noida,"301 / B, Pratiksha Tower, Near Navjeevan Soc., Faras Road, Mumbai, India, 400008",+91-9869755546,",archana@anandandanand.com,customercare.nissan@email.nissan.in,sales@nissansteel.com,email@anandandanand.com,chennaianandandanand@yahoo.co.in,",
Xalcontech,Companies(Private),Noida,"102, Pinnacle Corporate Park, Next To Trade Center, Bandra Kurla Complex, Bandra East, Mumbai 400051, MH",+91-9930300662,,
Micron Technology,Companies(Private),Noida,+39-0396-3751,,",JSmith@micron.com,gxx@micron.com,jane@micronems.com,",
Technixia Automation,Companies(Private),Noida,"302/AE-41/AA-1, Vikram Co-operative Housing Society, Street No 68, Newtown, Kolkata 700156, WB",+91-9163436948,",india@gmail.com,technixia.india@gmail.com,",
MNS Digital Flip,Companies(Private),Noida,"821/1, Jaina Tower, District Center, Janakpuri, New Delhi 110058, DL",+91-9625884803,",mnsdigitalflip@gmail.com,marketing@mnsdigitalflip.com,",
Fybros,Companies(Private),Noida,"217, Patparganj Industrial Area, New Delhi 110092, DL",,"sales@fybros.com,,customercare@fybros.com,",
Gifts World Expo,Companies(Private),Noida,"New Delhi 110001, DL",+91-11-46464848,",info@mexexhibits.com,",
Gatha Enterprises,Companies(Private),Noida,"3, Snehdeep Apartment, Sahakar Nagar, Parvati Paytha, Pune 411009, MH",+91-8048967333,",gathaent@gatha.com,",
Worldwide Transcripts,Companies(Private),Noida,"Opposite Kurla Nursing Home, Kurla West, Mumbai 400070, MH",+91-9340899870,,
Map Worldwide Services,Companies(Private),Noida,"1, Divya Vinayak, Behind Lilac Garden, Charkop Link Road, Kandivali West, Mumbai 400067, MH",+91-22-28678467,,
Makarand Electronics Pvt Ltd,Companies(Private),Noida,"3/103, Darshan Udyog Bhavan, Andheri Kurla Road, Safed Pool, Andheri, Mumbai 400072, MH",+91-22-28513023,",manish@tak-technologies.com,info@aaemtlabs.com,ACCURATETESTS@GMAIL.COM,makarand.shenwai@bmnsspl.com,INFO@MRLINDIA.COM,cml@ecil.co.in,response@makarandelectronics.com,shenwai@bmnsspl.com,",
Le Champ (S.E.A) Pte Ltd,Companies(Private),Noida,"18, 1, Frazer Town, Standage Road, Bangalore 560005, KA",+91-80-25488844,"sales@lechamp.com,sales@lechamp.com.sg,,",
LBT Electronics Pvt Ltd,Companies(Private),Noida,"485,Wz, 12-A, Basai Dara Pur, New Delhi 110015, DL",+91-11-45390331,",u003elbtlighting@gmail.com,lbtlighting@gmail.com,",
Kapil Pumps & Cables,Companies(Private),Noida,"20, Opposite Christian College, Nasiya Road, Indore 452001, MP",+91-731-2365441,,
Kapco Electric Pvt Ltd,Companies(Private),Noida,"8-A, Sector 83, Phase 2, Noida 201305, UP",+91-120-4630212,",x3esupport@registrationmart.in,sales@kapco.in,kapco@airtelmail.in,finance@kapco.in,support@registrationmart.in,x3efinance@kapco.in,",
John Mech-El Technologies Pvt Ltd,Companies(Private),Noida,"109-B, Andheri Industrial Estate, Veera Desai Road, Andheri, Mumbai 400053, MH",+91-22-40165381,",info@johnmech-el.com,",
Jalan Wires Pvt Ltd,Companies(Private),Noida,"320, Dheeraj Heritage, Near Bus Depot, S.V. Road, Santacruz, Mumbai 400054, MH",+91-22-26609071,",vimal.jalan@seplco.com,info@mastersindia.co,sales@jalanwires.in,sales@seplco.com,vinodjalan@jalanwires.com,",
Infinity Power Technologies Pvt Ltd,Companies(Private),Noida,"2, 1, Avvaiyar Street, Ekkattuthangal, Chennai 600032, TN",+91-44-22250530,"xxxx@ist-india.com,,company@esaigroups.com,",
Indotech Industrial Solutions Pvt Ltd,Companies(Private),Noida,"1 & 2, Ankur Plaza Bangalore Highway, Warje, Pune 411058, MH",+91-20-65272221,"Contact@indotechindustries.com,,contact@indotechindustries.com,dwivediindrasen57@gmail.com,",
Indo Electricals,Companies(Private),Noida,"1-C, 675, Gidc Makarpura, Vadodara 390010, GJ",+91-265-6672123,",info@indoelectricals.com,info@indoappliances.com,sales@indoelectricals.com,",
Indo Cable Industries,Companies(Private),Noida,"77, 12, 3-C, 2, Ganesh Complex, Lakshmi Vilas Bank, Hosur 635109, TN",+91-4344-244830,",waghodia.rrkabel@rrglobal.com,",
Indian Society of Lighting Engineers,Companies(Private),Noida,"3, 1513, Gumanpuri Complex, Bhishma Pitamah Marg, Wazir Nagar, New Delhi 110003, DL",+91-11-24624063,",SharadKumar.Singh@gmrgroup.in,",
Howden Solyvent (India) Pvt Ltd,Companies(Private),Noida,"Budge Trunk Road, Maheshtala, Kolkata 700141, WB",+91-33-71204000,",enquiries@howdenindia.com,webenquiries@howden.com,",
Hi-Tech Audio Systems Pvt Ltd,Companies(Private),Noida,"12-F, Okhla, Phase? 1, New Delhi 110020, DL",+91-11-43174317,",skmehta@skmehta.co.in,",
HBL Power Systems Ltd,Companies(Private),Noida,"Lalgadi Malakpet, Shameerpet Manda Rangareddy, Medchal 500078, AP",+91-8418-301640,"x3ehro@hbl..in,hro@hbl..in,,last@hbl.in,contact@hbl.in,jane_doe@hbl.in,",
Goliya Instruments Pvt Ltd,Companies(Private),Noida,"311, Bharat Industrial Estate, T. J. Road, Sewree, Mumbai 400015, MH",+91-22-24149657,",golia@bom5.vsnl.net.in,info@goliyainstruments.com,",
Glacier Technologies Pvt Ltd,Companies(Private),Noida,"Kamala Marketing Point, Opposite Gauhati Commerce College, R. G. Baruah Road, Guwahati 781003, AS",+91-361-2461400,",sales@elica.in,customercare@elica.in,rocblaghy@gmail.com,captsandeep@uvmshipping.com,",
Epoch Instruments & Controls Pvt Ltd,Companies(Private),Noida,"Paradise 5th Cross, Prashant Nagar, Bangalore 560079, KA",+91-80-23283728,,
EOS Power India Pvt Ltd,Companies(Private),Noida,"57, Sdf II, Seepz Andheri 400096, MH",+91-22-67744000,",india@eospower.com,Vijay.Gujarathi@belf.com,last@eospower.com,parag.patil@eospower.com,",
Eolane Electronics Bangalore Pvt Ltd,Companies(Private),Noida,"8-B, Velankani Information System Campus, Hosur Road, Phase 1, Electronic City, Bangalore 560100, KA",+91-80-25017000,",gnvmail@gmail.com,info.bangalore@eolane.com,CMACS.SA@gmail.com,",
Enertech Pvt Ltd,Companies(Private),Noida,"62, 1, Raja Industrial Estate, P. K. Road, Mulund 400080, MH",+91-22-25611865,"business@enertechups.com,,cyberspaceansh@gmail.com,",
Elgi Electric & Industrial Ltd,Companies(Private),Noida,"737-D, Green Fields, ELGI Towers, Puliakulam Road, Coimbatore 641045, TN",+91-422-2311711,,
Electrotech Industries,Companies(Private),Noida,"123-82, Pushpak Industrial Estate, Neeka Tube Compound, Vatva, Phase 1, Ahmedabad 382445, GJ",+91-79-9879527191,"Sumits976@gmail.com,,anujku@gmail.com,",
Electro Crimp Contacts (India) Pvt Ltd,Companies(Private),Noida,"44, 17, 1, Midc, Satpur, Nashik 422007, MH",+91-253-2354348,",enquiries@jst-india.com,sales@eccipl.com,sales2@eccipl.com,marketing@eccipl.com,",
Elcon Cable Trays Pvt Ltd,Companies(Private),Noida,"1, Dynasty, Near Hotel-Nebula, Pashan Road, Bavdhan Kh, Pune 411021, MH",+91-20-24690776,",dinesh@elconpune.com,Skauldel@Gmail.Com,info@elconglobal.com,",
Eco Lite Technologies,Companies(Private),Noida,"139-N, Sector 7, Part 2, Manesar, Gurgaon 122001, HR",+91-124-4845447,",last@ecolitetechnologies.co.in,ecolitewire@gmail.com,",
DOMINANT Opto Technologies,Companies(Private),Noida,"11-C, 86, Vesanth Business Centre, Ttk Road, Alwarpet, Chennai 600018, TN",+91-44-42030616,",sales@dominant-semi.com,",
DMS Technologies Pvt Ltd,Companies(Private),Noida,"34, Industrial Area, Belawadi, Mysore 570018, KA",+91-821-4001252,",contact@softage.net,accounts@dmstech.in,info@mastersindia.co,",
Diagnostic Technologies India Pvt Ltd,Companies(Private),Noida,"207, Gauri Complex, Vasai 401210, MH",+91-251-2392162,",jane_d@diatech.in,info@mastersindia.co,amar.mehta@in.acteongr,x3eoffice@diatech.in,regulatory@bpl.in,office@diatech.in,aditya.korde@diatech.in,manan@ozonebio.com,naimex@aimil.com,",
Delta Energy System (India) Pvt Ltd,Companies(Private),Noida,"43, Hiidc, Sector-35, Gurgaon 122001, HR",+91-124-4874945,",sanjay.gupta@deltaww.com,u003esanjay.gupta@deltaww.com,x3esanjay.gupta@deltaww.com,",
Cummins India Ltd (Cummins),Companies(Private),Noida,"21, 6th Floor, Tower A, Balewadi, Pune 411045, MH",+91-20-67067001,",x3ecompanysecretarial.CIL@cummins.com,svds_1@rediffmail.com,boschgde2@gmail.com,gasbangalore.cummins@gmail.com,gdmotors.cummins@gmail.com,companysecretarial.CIL@cummins.com,gdmotors11@gmail.com,svds.cummins@gmail.com,",
Creative Systems & Solutions (Libani),Companies(Private),Noida,"117, 134, 35, Dsidc Himmatpuri, Opposite Trilokpuri, New Delhi 110091, DL",+91-11-22710328,,
Cosonic Components Pvt Ltd,Companies(Private),Noida,"5, Srinagar Colony, Kalyani Cross Street, Saidapet, Chennai 600015, TN",+91-44-42119733,",info@aurorait.com,rssmanian@cosonic.in,",
Contech Instruments Ltd,Companies(Private),Noida,"301, 3, Punit Industrial Premises, Near Turbhe, Mumbai 400705, MH",+91-22-27611177,",response@contechweighingscales.com,",
Circutor Energy Management India Pvt Ltd,Companies(Private),Noida,"89-B, MES Colony, Konena Agrahara HAL, Bangalore 560017, KA",+91-80-25233141,",accounts@circutorindia.com,",
CECO Electronics Pvt Ltd,Companies(Private),Noida,"18, 9, R N Mukherjee Road, Kolkata 700001, WB",+91-33-22108785,",chetan.dugar@gmail.com,sk@triparulexfire.com,cecokolkata@gmail.com,PURLIEUSINC@GMAIL.COM,",
Cascade Electro Thermic Pvt Ltd,Companies(Private),Noida,"3, Cascade Layout, Luna Nagar, Coimbatore 641025, TN",+91-422-2402406,",info@visitcascade.com,jane@visitcascade.com,",
Captain Gears & Fans,Companies(Private),Noida,"35-D, Sector-11, Noida 201301, UP",+91-120-4203319,",Captainseries-01-03_13965ab5-7c80-47e9-b064-2f8883e076f5_1024x1024@2x.jpg,",
Capital Urjatech Ltd,Companies(Private),Noida,"112, Ecotech 12, Greater Noida 201308, UP",+91-120-4648000,"cable@capitalurjatech.com,,manish.goswami@gmail.com,",
C & S Electric Ltd,Companies(Private),Noida,"222, Okhla Industrial Estate, Phase 3, New Delhi 110020, DL",+91-11-30887520,,
Bartakke Electrofab Pvt Ltd,Companies(Private),Noida,"20-L, MIDC, Satara 415004, MH",+91-2162-240431,"bepl@bartakke.co.in,,",
Avon Data Cables Pvt Ltd,Companies(Private),Noida,"74-C, Electronic City, Hosur Road, Bangalore 560100, KA","+91-80-28520647,",",u003eavon@avondatacables.com,avon@avondatacables.com,",
Aveco Technologies Pvt Ltd,Companies(Private),Noida,"104, 4, F, Surya Towers, Sardar Patel Road, Secunderabad 500003, AP",+91-40-27814365,",info@aveco.com,info-us@aveco.com,vinodh@avecoindia.com,bhavani@avecoindia.com,",
Autonics Automation India Pvt Ltd,Companies(Private),Noida,"174-G, 175, 42, Haware Fantasia Business Park, Inorbit, Sector 30-A, Vashi 400705, MH",+91-22-27814518,",x3eindia@autonics.com,india@autonics.com,info@mastersindia.co,",
ARC Insulations & Insulators Pvt Ltd,Companies(Private),Noida,"25-B, 1, South City Apartment Towers, Kolkata 700068, WB",+91-33-9748708809,,
AMCO Saft India Ltd (Amalgamations),Companies(Private),Noida,"10, 1-A, 1B, 1C, Abbanakuppe Bidadi Industrial Area, Bangalore 562109, KA",+91-80-27287947,"vinyl@del3.vsnl.net.in,vinyl@del3.vsnl.net,doe_jane@amcosaft.com,,",
Advance Tech Services Pvt Ltd,Companies(Private),Noida,"709, 710, B-8, GD-ITL Towers, Netaji Subhash Place, Ring Road, Pitampura, New Delhi 110034, DL",+91-11-47002024,"info@advancetech.co.in,,account@advancetechonline.in,",
Abhinav Constructions,Companies(Private),Noida,"Abhinav Constructions, Risdi Ring Road, Korba, Chattisgarh 495684, CG",+91-7759-226030,"casclekhwani_company@rediffmail.com,,",
Zenith Fibres ltd,Companies(Private),Noida,"401-402, Taksh Paradigm, Charotar Co Operative Housing Soceity, Old Padra Road, Vadodara 390020, GJ","+91-265-2337247, +91-265-2345184",",mumbai@zenithfibres.com,investor@bigshareonline.com,info@mastersindia.co,",
Toyota Industries India Pvt Ltd (Kirloskar),Companies(Private),Noida,"10-13, Phase 2, Jigani Industrial Area, Anekal 562106, KA",+91-8110-419555,",sales@dnm.pw,legal@toyota-kirloskar.co.in,am@dnm.pw,tiei@tiei.toyota,x3elegal@toyota-kirloskar.co.in,",
VT Exports Pvt Ltd,Companies(Private),Noida,"24, 3rd Floor, Netaji Subhash Road, Kolkata 700001, WB",+91-33-22311785,",shankar@kikaniexports.com,x22info@vineetaz.com,x3eshankar@kikaniexports.com,x3einfo@vineetaz.com,rakesh.shejwal@aartigroup.cominfo,vishwamfoodproducts389@gmail.com,info@vineetaz.com,INFO@VTEXPORTS.COM,agarwal@ryal.in,djexport@vsnal.net,valfridinternationalp@gmail.com,",
Vishnu Clothing Company,Companies(Private),Noida,"SF-45, Venus Garden Mangalam Road, Andiapalayam, Tirupur 641687, TN",+91-421-2262772,",info@vishnuclothing.in,L@GMAIL.COM,vikas@vrindaexim.com,raj@vishnuclothing.in,",
Unnati Exports,Companies(Private),Noida,"B-48, Surya Nagar, Ghaziabad 201011, UP",+91-120-4263809,",unnatihomes@yahoo.com,unnatipharma@gmail.com,accounts@virtualemployee.com,",
Triage Overseas,Companies(Private),Noida,"16-18, Begumpur, Malviya Nagar, New Delhi 110017, DL","+91-11-26692380, +91-11-26738000",",basu@oshoworld.com,gmmktg@cottageemporium.in,charufactory@camc.in,",
The English Home Company,Companies(Private),Noida,"SCO-10-11-12, 2nd Floor, Sector 17/B, Chandigarh, 160017, CH",+91-172-4602722,,
Rainbow Denim Ltd (Rama Group),Companies(Private),Noida,"51-52, 215, Free Press House, Nariman Point, Mumbai 400021, MH","+91-22-22834123, +91-22-22834182",",compliance@ramagroup.co.in,rainbowdenimlimited@gmail.com,",
Sun Star Apparels Pvt Ltd,Companies(Private),Noida,"201, SG Mall, Off SG Highway, Thaltej Gam Road, Ahmedabad 380055, GJ",+91-79-26854352,",munesh.joshi@sunstar.co.in,sales@sunstar.co.in,info@mastersindia.co,",
Sheetal India,Companies(Private),Noida,"Grant Road, Mumbai 400007, MH","+91-22-23856565, +91-22-23876114",",sxxxxxxxxxxxxxxa@cielhr.com,",
Sedeor Export Import Pvt Ltd,Companies(Private),Noida,"A/60/A, Duggal Area, Ambedkar Nagar, New Delhi 110062, DL",+91-9990338154,"info@rajfoods.co.in,,praveen.3650@gmail.com,info@kansingroup.com,",
Sandeep Verma Designs,Companies(Private),Noida,"1150, 1st Floor, New Rohtak Road, Karol Bagh, New Delhi 110005, DL","+91-11-78381543, +91-9811991101",,
Intermarket (India) Pvt Ltd,Companies(Private),Noida,"406, Western EDGE 1, Western Express Highway, Borivali East, Mumbai 400066, MH",+91-22-61936700,",intermarket@intermarket.co.in,u003eintermarket@intermarket.co.in,",
Rughani Brothers,Companies(Private),Noida,"B-5, 247, Mittal Industrial Estate, Andheri Kurla Road, Andheri East, Mumbai 400059, MH","+91-22-28563975, +91-22-28563859","kothari_jasoi@yahoo.co.in,,HAZARI_SANDIPAN@REDIFFMAIL.COM,shrutienterprises@hotmail.com,rughani@vsnl.net,",
Redon Exports,Companies(Private),Noida,"WZ-407/B2, Basai, Darapur, New Delhi 110015, DL","+91-11-45120535, +91-11-25454053","rahulsharma1912@gmail.com,,samarth@wellmedindia.com,",
Parshad Exporters,Companies(Private),Noida,"307, 3rd Floor, DLF Tower B, Jasola, New Delhi 110025, DL",+91-11-40518463,",varun@bmghinges.com,cestat08@gmail.com,info.delhi@kanuexports.com,gargind.noida@gmail.com,",
Ashokas Dummy Art (India) Pvt Ltd,Companies(Private),Noida,"Mata Annpoorna Mandir Complex, Tronica City Road, Sonia Vihar, New Delhi 110094, DL",+91-11-22961212,,
Asarwa Mills (A Division of Bengal Tea & Fabrics Ltd),Companies(Private),Noida,"Asarwa Road, Ahmedabad 380016, GJ",+91-79-22125719,,
Om Processors Pvt Ltd,Companies(Private),Noida,"K-3, Textile Colony, Industrial Area A, Ludhiana 141003, PB","+91-161-9876105, +91-9876305742","x3einfo.in@transsion.com,harsh@creativeeyeinternational.com,,fineprocessors@gmail.com,chinmoy.dutta@enervisiongroup.com,x3einfo@geofluid.com,info@geofluid.com,info.in@transsion.com,ssprocessors43@gmail.com,",
NYSA Industries Pvt Ltd,Companies(Private),Noida,"205/3B, Mangaldas Building, Mangaldas Market, Antop Hill, Mumbai 400002, MH",+91-22-22008800,",cs@agindus.com,x3ecs@agindus.com,info@nysatex.in,info@nysamed.com,John.Smith@nysamed.com,",
Narinder International,Companies(Private),Noida,"B-285/35, A/B, Sunder Nagar, Ritambara, Ludhiana 141008, PB","+91-161-2620621, +91-161-2620620","narinderintl@gmail.com,JYOTIPATENT@GMAIL.COM,,narinderintl@hotmail.com,",
Naman Creations,Companies(Private),Noida,"Navrang Society, Socio Circle 48, New Textile Market, Surat 395002, GJ","+91-261-2630684, +91-261-2634253",",navdeepsingh1@kpmg.co,naman.siddharth@gmail.co,info@upinternationaltradeshow.com,",
Mittal Clothing Pvt Ltd,Companies(Private),Noida,"240/410/2, Roopena Agrahara, Hosur Road, Bangalore 560068, KA",+91-80-64909012,",aprakash@jiwan.co.in,x3evineet@mittalagro.com,hrm@rbrindia.com,vineet@mittalagro.com,info@reliablespaces.com,info@jiwan.co.in,x3einfo@reliablespaces.com,",
Megatech Overseas India Ltd,Companies(Private),Noida,"317, MJ Shopping Center, 3, Veer Savarkar Block, Shakarpur, New Delhi 110092, DL","+91-11-22500341, +91-11-22052813",",iimc@vsnl.net,kksharma@megatechindia.in,iimc@bol.net.in,pascal.noida@gmail.com,off.qa.ardc@hal-india.com,",
Mahajan Silk Mills Pvt Ltd,Companies(Private),Noida,"LBS Marg, Vikroli West, Mumbai 400079, MH","+91-22-61197979, +91-22-61197999",",inmails@mahajansilkmills.com,manoj@swayamindia.com,admin@mahajansilkmills.com,gtplgrace@gmail.com,",
Madhubani Exports,Companies(Private),Noida,"403, 402, Phase 4, Udyog Vihar, Gurgaon 122001, HR",+91-124-4017944,",export@makhanaking.com,malikaincorporation@gmail.com,malikainc@gmail.com,anupama@mbaniexports.com,dee@fieradeals.com,",
Lilliput Kidswear Ltd,Companies(Private),Noida,"D-95, Industrial Area Phase 1, Okhla, New Delhi 110020, DL",+91-11-66462000,",x3earun.jain@lilliputkids.com,kxxxxxxxxd@lilliput-india.com,arun.jain@lilliputkids.com,",
Jain Textile Industries,Companies(Private),Noida,"38th, Behrampur Road, Khandsa, Gurgaon 122001, HR","+91-124-2215344, +91-124-4031671",",sanjay.g@pcjsgroup.com,info@jaincord.com,wtil@winsometextile.com,mail@premtextiles.com,",
In Style Embroideries Pvt Ltd,Companies(Private),Noida,"A-23, 1st Floor, Industrial Area Phase 1, Okhla, New Delhi 110020, DL",+91-9810330719,",instyleemb@yahoo.co.in,",
Glass Exports India,Companies(Private),Noida,"231, SN Road, Firozabad 283203, UP",+91-9837049583,",Infophoenixglass@gmail.com,GGHINDIA@GMAIL.COM,gargind.noida@gmail.com,agi@agi-glaspac.com,varun@bmghinges.com,info@goelexports.com,",
Ganga Stitch Design Pvt Ltd,Companies(Private),Noida,"H-224, Riico Industrial Area, Mansarovar, Jaipur 302020, RJ",+91-141-2395825,",rsood@sancharnet.in,keshav_singh@welspun.com,rganga716@gmail.com,amd@arvind.in,karan@artisanindiaexports.com,",
Filatex Fashions Ltd,Companies(Private),Noida,"201, 2nd Floor, Mayfair Garden, Road 12, Banjara Hills, Hyderabad 500034, TS","+91-40-66748930, +91-9966459705",",Unisox@yahoo.com,x3eunisox@yahoo.com,unisox@yahoo.com,",
Fair Lady Exports,Companies(Private),Noida,"576, Phase 5, Gurgaon 122016, HR",+91-124-4711500,",exports@fairexports.net,varadaexport@gmail.com,FLUERIR@GMAIL.COM,info@fairexports.net,x3eSreeji@sreeragamexports.com,fairladyexport@yahoo.co.in,Sreeji@sreeragamexports.com,x3eexports@fairexports.net,fairlady@satyam.net.in,delhi@shahi.co.in,office@fairladyexports.co.in,x22Sreeji@sreeragamexports.com,",
Fabricraft Impex Pvt Ltd,Companies(Private),Noida,"110, Wanjar Industrial Layout, Kamptee Road, Nagpur 440026, MH","+91-712-6578010, +91-712-6578011",",sameer@fabricraftimpex.com,",
Eastern Jutex Industries,Companies(Private),Noida,"Opposite Loknath Ashram, Jugberia, Sodepur Road, Muragacha, Kolkata 700110, WB","+91-33-25370044, +91-9674944055","e.v.ast.o.go.du.kl.ov.e.l.if.e@gmail.com,,",
E. Hill & Company Ltd,Companies(Private),Noida,"Khamaria, Bhadohi 221306, UP",+91-5414-243159,,
Cylwin Knit Fashions,Companies(Private),Noida,"502/B1, Nadupangu Dharapuram Road, Paradise, Tirupur 641608, TN","+91-421-2430003, +91-9944944613","mail@cylwin.com,,md@cylwin.com,exim@kgfabrics.com,documents@cylwin.com,",
Chaitanya Silks,Companies(Private),Noida,"79/8, Paripaty Plaza, JM Road, Karnataka, Bangalore 560002, KA","+91-80-41136806, +91-80-22259662",",info@himalayanshipping.com,hariomdixit@hotmail.com,",
Centex Fabrics Export Unit,Companies(Private),Noida,"D-217, Phase 7, Focal Point, Ludhiana 141010, PB","+91-161-2672947, +91-161-2677276","info@centexexports.com,,",
Cambrics Clothing Co,Companies(Private),Noida,"7, Nadupangu Thottam, Aranmanaipudur Extension, Tirupur 641604, TN",+91-421-4255020,",customercare@tcnsclothing.com,",
Bluberry International Clothing Pvt Ltd,Companies(Private),Noida,"8th Phase, JP Nagar, Bangalore 560078, KA",+91-9986416972,",bl.corporate@blinternational.net,",
Blessings Exports,Companies(Private),Noida,"A-59, Sector 2, Noida 201301, UP","+91-120-4320259, +91-120-4320359",",spinx.sanjay@gmail.com,",
B. Chorosch,Companies(Private),Noida,"31, 1st Floor, Dongersey Road, Mumbai 400006, MH",+91-22-23770817,,
Aradhana Fabrics Pvt Ltd,Companies(Private),Noida,"144, Industrial Area A, Ludhiana 141003, PB","+91-161-2225250, +91-161-4625021","aradhana.gm.unit@gmail.com,jane@saivana.com,,accounts@gmfabrics.com,x3eaccounts@gmfabrics.com,rmx@rmxjoss.com,captsandeep@uvmshipping.com,",
Amritsar Swadeshi Textile Corporation Pvt Ltd,Companies(Private),Noida,"Ram Tirath Road, Amritsar 143001, PB","+91-183-2225618, +91-183-2220782",",mail@hansablankets.com,info@mastersindia.co,",
Amrit Raj Fashions Pvt Ltd,Companies(Private),Noida,"F-13, Sector 6, Noida 201301, UP",+91-9810014646,",cmapremgupta@gmail.com,sonu197327@yahoo.com,clifford.pinto@roquette.com,x3ecmapremgupta@gmail.com,x3eclifford.pinto@roquette.com,u003esonu197327@yahoo.com,",
Abhiasmi International Pvt Ltd,Companies(Private),Noida,"Plot No 268, Krishna Garden Road, Sector 29, Panipat 132103, UP","+91-180-4013111, +91-7082404446",",aalishanexport@gmail.com,abhijat@paliwal.com,sga.ack@gmail.com,",
Aauraa International,Companies(Private),Noida,"665/A&B & 666/A&B, Ramagoundanpudur, Andankovil West, Karur 639002, TN","+91-4324-227124, +91-4324-227324",",nittin@aay-kay.com,",
Sybly Industries Ltd,Companies(Private),Noida,"Pawan Puri, Near Canal, Murad Nagar, Modinagar 201206, UP","+91-1232-261765, +91-1232-261521",",beetal@beetalfinancial.com,",
Vibgyor Trims,Companies(Private),Noida,"331/1, Periya Thottam, 15, Velampalayam Road, Annupparpalayam, Tirupur 641652, TN",+91-421-0994494,",anand@vibgyorgroups.com,",
Vactech Composites Pvt Ltd,Companies(Private),Noida,"19-20, Sahara Market, Near Reliance Petrol Pump, Silvassa Road, Imran Nagar, Vapi 396191, GJ","+91-260-2431488, +91-260-2421488",",info@mastersindia.co,vcare@vactechcomposites.com,first@vactechcomposites.com,bhavin@vactechcomposites.com,",
Uniroyal Industries Ltd,Companies(Private),Noida,"365, Phase 2, Industrial Estate, Panchkula 134113, HR","+91-172-5066533, +91-172-5066532",",uniroyalgurgaon@gmail.com,info@mastersindia.co,accounts@uniroyalgroup.com,n@airtelmail.in,noida@uniroyalgroup.com,uniroyal@airtelmail.in,nuniroyalgurgaon@gmail.com,",
Tirupati Foam Ltd,Companies(Private),Noida,"4th Floor, Tirupati House, Near Topaz Restaurent, University Road, Polytechnic Char Rasta, Ambawadi, Ahmedabad 380015, GJ","+91-79-26304652, +91-79-26304653",",Emailtflmktg@tirupatifoam.com,tirufoam@tirupatifoam.com,tfl.cs@tirupatifoam.com,",
The Sohrab Group,Companies(Private),Noida,"Nabha Road, Malerkotla 148023, PB","+91-1675-260040, +91-1675-260041",",xx@hcltech.com,",
Techno Electronics & Instruments,Companies(Private),Noida,"82-B, SIDCO Industrial Estate, SIDCO, Coimbatore 641021, TN","+91-422-6573158, +91-422-2595456",,
Yamuna Machine Works Ltd,Companies(Private),Noida,"D-17, Akurli Industrial Estate, Kandivali East, Mumbai 400101, MH","+91-22-28879920, +91-22-32564275",",ho@yamunamachine.com,info@mastersindia.co,",
Suripi Textiles Pvt Ltd,Companies(Private),Noida,"B4/63, Greenfields, Jogeshwari-Vikhroli Link Road, Andheri East, Mumbai 400093, MH",+91-22-28255744,",suripig@gmail.com,info@suripitextiles.com,",
Sunny International Ltd,Companies(Private),Noida,"10, Stone Gohana Road, Naultha, Panipat 132103, HR",+91-180-2580704,",info@sunnyil.com,x3einfo@sunnyil.com,uniperm.int@gmail.com,sarna@sarnaexport.com,sunny.sarna@sarnaexport.com,",
Sunita Impex Pvt Ltd,Companies(Private),Noida,"36/A, 1st Floor, Bentinck Street, Kolkata 700069, WB",+91-33-22430102,",x3ebcpl_calcutta@bcplindia.com,x22ram@alphaogm.com,x3esupport@navpad.in,x22support@navpad.in,bcpl_calcutta@bcplindia.com,ram@alphaogm.com,support@navpad.in,accounts@sunitaimpex.com,rockdude232@gmail.com,x22rockdude232@gmail.com,x3erockdude232@gmail.com,x3eram@alphaogm.com,",
Suditi Industries Ltd,Companies(Private),Noida,"C-253/254, MIDC, TTC Industrial Area, Pawne Vil, Turbhe, Mumbai 400705, MH",+91-22-67368600,",abcl@amritbanaspati.com,jane@suditi.in,cs@suditi.in,",
Sree Karpagambal Mills Ltd,Companies(Private),Noida,"Cholapuram South, Rajapalayam 626139, TN",+91-4563-284985,",weaving@karpagambal.com,parasrampuria@gmail.com,spinning@karpagambal.com,kpr_icospin@sancharnet.in,j-d@karpagambal.com,palaniappan@karpagambal.com,",
Silver Star Fashion Pvt Ltd,Companies(Private),Noida,"298, 299 & 300, Phase 6, Udyog Vihar, Gurgaon 122015, HR",+91-124-4098800,,
Shah Originals,Companies(Private),Noida,"G-107, Malviya Industrial Area, Malviya Nagar, Jaipur 302017, RJ",+91-141-2751634,",n@zydus.cadila.com,rjdave@trumacin.com,varun@bmghinges.com,mail@shahoriginals.com,vishal@zybra.in,info@shahoriginals.com,contact@zybra.in,gargind.noida@gmail.com,",
Seer Global Ltd,Companies(Private),Noida,"C-797, New Friends Colony, New Delhi 110065, DL","+91-11-26837917, +91-11-26315286",",sanjeev@seerglobal.com,info@mastersindia.co,seerglobal@seerglobal.com,seerglobal@seerglobal.net,",
Savita Exports,Companies(Private),Noida,"272, Green Avenue, Amritsar 143001, PB",+91-183-2508383,",adamyag@gmail.com,gargind.noida@gmail.com,varangi.fashion@gmail.com,John@savitaexports.com,varun@bmghinges.com,",
Anmol Fabrics Pvt Ltd,Companies(Private),Noida,"61, Ainmol House, Hirabhai Market, Diwan Ballubhai Road, Ahmedabad 380022, GJ","+91-79-25467122, +91-9099066002",",sunrayjt@gmail.com,rahul@moglix.com,",
Sahyog International,Companies(Private),Noida,"F-3, Phase 7, Focal Point, Ludhiana 141010, PB","+91-161-2678783, +91-9815990720",",sahyogtownship@gmail.com,lochan415@yahoo.com,",
Anjani Synthetics Ltd,Companies(Private),Noida,"140, Gopalpur, Pirana Road, Piplej, Ahmedabad 380006, GJ",+91-79-25715545,",export@anjanisynthetics.com,info@anjanisynthetics.com,investor@anjanisynthetics.com,",
Rohan Global Inc,Companies(Private),Noida,"T-1/87-88, Industrial Area Phase 1, Mangolpuri, New Delhi 110083, DL",+91-11-27911012,",post@rohan.co.uk,rohan.soni@timesinternet.in,sales@rohanglobalco.com,virenderkumar@rohanmotors.co.in,",
Pushpsons Industries Ltd,Companies(Private),Noida,"B-40, Industiral Area Phase 1, Okhla, New Delhi 110020, DL","+91-11-41610121, +91-11-26818632","info@pushpsons.com,,",
Amrit Impex Pvt Ltd,Companies(Private),Noida,"EN-26, Amrit Tower, Salt Lake City, Sector 5, Kolkata 700091, WB","+91-33-23575907, +91-33-25183898",",info@mastersindia.co,admin@amritimpex.com,",
Network Clothing Company Pvt Ltd,Companies(Private),Noida,"2/641, NCC House, Mangalam Road, Andipalayam, Tirupur 641687, TN",+91-421-2262022,",x3epiyush.asija@tcnsclothing.com,chawlarohit07@gmail.com,mano@nccindia.com,piyush.asija@tcnsclothing.com,network@md2.vsnl.net.in,gmfinance@nccindia.com,",
Mohamad Idris Brothers Pvt Ltd (KIBS),Companies(Private),Noida,"5, Armenian Street, Chennai 600001, TN",+91-44-25221371,"info@kibs.co.in,,u003einfo@kibs.co.in,",
Kudu Knit Fab Pvt Ltd,Companies(Private),Noida,"B-1112-1106/2, Turn Gahlewal, Rohan Road, Ludhiana 141007, PB",+91-9814029700,",john.jomon@mectech.co,marketing@kuduonline.com,accounts@kuduonline.com,",
Karle Group Of Companies,Companies(Private),Noida,"151, Industrial Suburb, Yeshwanthpur, Bangalore 560022, KA","+91-80-23577009, +91-80-23570407","bhat@karlegroup.com,,info@mastersindia.co,jane-doe@karleinfra.com,last_initial@karleinfra.com,x3ebhat@karlegroup.com,",
Kamarhatty Company Ltd,Companies(Private),Noida,"16/A, 8th Floor, Brabourne Road, Kolkata 700001, WB","+91-33-40211900, +91-33-40211901","jute@kamarhatty.com,,bijay@kamarhatty.com,mdpldc@yahoo.com,",
Jupiter Comtex Pvt Ltd,Companies(Private),Noida,"Plot No 510, Mehmedabad Road, Phase 4, GIDC Vatva, Ahmedabad 382445, GJ",+91-79-25835313,",accounts@jupitercomtex.com,",
JBF Industries Ltd,Companies(Private),Noida,"8th Floor, Express Towers, Nariman Point, Mumbai 400021, MH",+91-22-22885959,",x3ejbf_buyback@jbfmail.com,ingrevia.support@jubl.com,doej@jbfindia.com,jbf_buyback@jbfmail.com,",
Jay Group of Companies,Companies(Private),Noida,"5, Charles Campbell Road, Cox Town, Bangalore 560005, KA","+91-80-25483508, +91-80-25483928",",saumasm@gmail.com,JPINFRATECH.INVESTOR@JALINDIA.CO.IN,x3ehr@jaypee.in,x3esectl.dept@jalindia.co.in,media@jaypee.in,x3eJPINFRATECH.INVESTOR@JALINDIA.CO.IN,sectl.dept@jalindia.co.in,jaypee@jalindia.co.in,hr@jaypee.in,",
Jai Corp Ltd,Companies(Private),Noida,"1st Floor, B Wing, Mittal Towers, Free Press Journal Marg, Nariman Point, Mumbai 400021, MH",+91-22-61155300,",jal.investor@jalindia.co.in,x3ecs2@jaicorpindia.com,cs2@jaicorpindia.com,",
J C Tex Mach Marketing Pvt Ltd,Companies(Private),Noida,"38, Mahadev Estate, Near Shivram Processors, Kadiwala Street, Khatodra, Surat 395002, GJ",+91-261-2632421,,
Hrishikesh Industrial Fabrics Pvt Ltd,Companies(Private),Noida,"18-A, Jayshivam Apartment, Subhash Lane, Malad East, Mumbai 400097, MH",+91-22-28839478,",shrikumarmimani@geo-textiles.com,",
Hindustan Garments,Companies(Private),Noida,"Plot No 15, William Hazlitt House, Shreeji Industrial Estate, Saraspur, Ahmedabad 380018, GJ","+91-79-22730948, +91-79-22731580","hrm@rbrindia.com,,mail@proteamindia.com,",
Hemshri International,Companies(Private),Noida,"RTO Office, Central Academy Road, Jodhpur 342006, RJ",+91-291-2530652,,
Din Dayal Purushottam Lal (DDPL Group),Companies(Private),Noida,"40/41 CC, Janta Bhawan Road, Sirsa 125055, HR","+91-1666-220628, +91-1666-280206",,
Devdeep Cotton Industries,Companies(Private),Noida,"8-B, National Highway, Rajkot Gondal, Industrial Area, Hadamtala, Kotdasangani 360030, GJ","+91-2827-270585, +91-2827-270590",",rajan@glovel.in,jamil.78663@gmail.com,n.velayutham72@gmail.com,",
Deeco Mechatron Mktg Pvt Ltd,Companies(Private),Noida,"96, Maker Chambers 3, Nariman Point, Mumbai 400021, MH",+91-22-22844080,",charuduttm@vahoo.co.in,armin.geigle@oerlikon.com,",
Capital Carpet Exim Pvt Ltd,Companies(Private),Noida,"3728, 2nd Floor, Netaji Subhash Marg, Daryaganj, New Delhi 110002, DL","+91-11-23254614, +91-11-32222847",",cecarpets@gmail.com,cfbbsr@gmail.com,u003ececarpets@gmail.com,accounts@ushaexim.com,carpetbazaar@ymail.com,ajay.kadyan@gmail.com,x3ekanwal@banox.in,cavkco@gmail.com,accounts@kashmirloom.com,info@capitalcarpetcompany.com,kanwal@banox.in,x3eaccounts@ushaexim.com,",
Brandix India Apparel City Pvt Ltd,Companies(Private),Noida,"SEZ, Atchutapuram Mandal, Pudimadaka Road, Anakapalle 531011, AP","+91-8924-237000, +91-8924-237001",",biacinfo@brandix.com,gxxxxxxxxxxxxxxxxxxxxxxxxh@gmail.com,NaveenW@brandix.com,x3eNaveenW@brandix.com,",
Bhupendra Textiles,Companies(Private),Noida,"1014-15, 1st Floor, Shree Sai Ram Textile Market, Opposite Jash Market, Begampura, Surat 395002, GJ",+91-261-2349999,",navdeepsingh1@kpmg.co,",
Bal Krishna Textile Pvt Ltd,Companies(Private),Noida,"Bombay Highway, Narol Cross Road, Narol, Ahmedabad 382405, GJ","+91-79-25713878, +91-79-25713879",",vishal@zybra.in,balkrishnatxt@gmail.com,system@balkrishnatextiles.com,contact@zybra.in,",
Aashirwad Marketing Corporation,Companies(Private),Noida,"A-15, 4th Floor, Sumel Business Park 1, Behind New Cloth Market, Raipur, Ahmedabad 380002, GJ","+91-79-22163153, +91-79-22161115",",info@jalanca.com,",
United Timber Industries,Companies(Private),Noida,"59, Sant Savta Marg, Mustafa Bazar, Mumbai 400010, MH",+91-22-23738024,",iiagr.noida@gmail.com,info@unitedtimberworks.com,",
The English Home Company,Companies(Private),Noida,"SCO 10/11/12, 2nd Floor, Sector 17-B, Chandigarh 160017, CH",+91-9915900553,,
Swati Interior Concepts Pvt Ltd,Companies(Private),Noida,"110, Navneelam Chambers, Dr. R. G. Thadani Marg, Worli, Mumbai 400018, MH",+91-22-24913268,",u003eswaticoncepts@hotmail.com,swaticoncepts@hotmail.com,",
Swani Furniture Point Pvt Ltd,Companies(Private),Noida,"D-388, Sector 10, Noida 201301, UP","+91-120-4238265, +91-120-4238266","acccountswani@yahoo.com,,anoopgupta7269@yahoo.co.in,",
SVR Global,Companies(Private),Noida,"37, N. G. R Street, Pappanaicken Palayam, Coimbatore 641037, TN",+91-9626918710,,
Rushil Decor Ltd,Companies(Private),Noida,"1, Krinkal Apartment, Mahalaxmi Society, Opposite Mahalaxmi Temple, Paldi, Ahmedabad 380007, GJ","+91-79-26651346, +91-79-26622323","ipo@rushil.com,,info@rushil.com,info@mastersindia.co,",
M H Interior,Companies(Private),Noida,"502, Ramgundanhalli, Whitefield Main Road, Bangalore 560066, KA",+91-9845448233,"anilskariah@dezignareindia.com,,pi.noida@pavilionsinteriors.com,",
Kutty Flush Doors & Furniture Co. Pvt Ltd,Companies(Private),Noida,"167, Old No 37, Poonamallee High Road, koyambedu, Chennai 600107, TN","+91-44-64539494, +91-44-64609484",,
Home Fit Exports,Companies(Private),Noida,"A-9, Industrial Estate, Aligarh 202001, UP",+91-571-2970097,",cajitusharma1@gmail.com,ashok.shalgar@gmail.com,info@ebco.in,info@ksindustrise.in,csc@ebco.in,royal.home.exports@gmail.com,",
Elegant Modular Kitchens,Companies(Private),Noida,"1013, 7th Cross, 8th Main, Judicial Layout, Yelahanka, Bangalore 560065, KA",+91-9886335924,"sales@elegantmodulars.com,,elegantmodulars@gmail.com,info@mastersindia.co,",
Chinar Enterprises,Companies(Private),Noida,"2, 130/1/2, Dodke Towers, Opposite Petrol Pump, Warje, Pune 411052, MH","+91-20-25230003, +91-20-25230046",",thechinarservices@yahoo.com,chinargroup4@gmail.com,",
Aura Global Furniture,Companies(Private),Noida,"12, Kanwal Complex, Next To PMC Bank, Indira Nagar, Andheri West, Mumbai 400053, MH",+91-22-32039488,",sales@auraglobalfurniture.com,aura38d@gmail.com,kscmarketing@kewaunee.com,",
Agarwalla Teak International Pvt Ltd,Companies(Private),Noida,"54/2, Assam Timber Market, Swarn Park, Main Rohtak Road, Nangloi, New Delhi 110041, DL",+91-8043046138,",info@agarwallateak.com,info@mastersindia.co,delhi@agarwallateak.com,mradul.mishra@careedge.in,",
Agarwal & Associates Impex Pvt Ltd,Companies(Private),Noida,"C-8, Sector 26, Noida 201301, UP",+91-120-4267736,,
A R Polymers Pvt Ltd,Companies(Private),Noida,"105, 26/72-D, Chandarlok Complex, Birhana Road, Kanpur 208001, UP","+91-9005094903, +91-7897100366",",d.j@arp.org.in,info@arp.org.in,",
Steel Products Ltd,Companies(Private),Noida,"96, 2, Garden Reach Road, Hastings Court, Kolkata 700023, WB",+91-33-24597878,",AJAY12MDI@GMAIL.COM,sales@hisarsteels.com,wap2005@airtelmail.in,hisarsteelspvtltd@gmail.com,info@jindalsteel.com,info@ramasteel.com,info@interarchbuildings.com,",
Statcon Power Controls Ltd,Companies(Private),Noida,"34-A, Sector 59, Noida 201301, UP",+91-120-3851760,"accounts@sindia.co.in,,anil.dhar@statconenergiaa.com,info@energiaa.in,",
Sri Ganesh Wind Power Engineers Pvt Ltd,Companies(Private),Noida,"7-1, B-2, Main Road Aralvoimozhi, Kanyakumari 629161, TN",+91-4652-262134,",ramanathan@ganwinpo.com,",
Senvion India Pvt Ltd,Companies(Private),Noida,"2-B, Incubation, ITPB-SEZ Whitefield Road, Bangalore 560066, KA",+91-80-71070800,",amit.kansal@senvion.com,",
SAVEMAX Solar Systems Pvt Ltd,Companies(Private),Noida,"48, 14-A, 2-B, Narhe Industrial Zone, Opposite Sinhgad Arts & Commerce College, Manajinagar, Pune 411041, MH",+91-20-9730015801,"u003esavemax1@gmail.com,,savemax1@gmail.com,info@kamalsolar.com,",
Rattan Power Presses Pvt Ltd,Companies(Private),Noida,"4, Dasmesh Nagar, Gill Road, Ludhiana 141003, PB",+91-161-4633380,",vishal@zybra.in,sanjeevbimlafca@rediffmail.com,contact@zybra.in,rattan@airtelmail.in,",
Pace Power Systems Pvt Ltd,Companies(Private),Noida,"186, 3, 117, Hoody Village, Mahadevapura, Whitefield Road, Bangalore 560048, KA",+91-80-28437792,",info@mastersindia.co,",
Okaya Power Pvt Ltd,Companies(Private),Noida,"7-D, Udyog Nagar, Rohtak Road, New Delhi 110041, DL",+91-11-49803300,",okayacare@okayapowerltd.com,vp.fbcl@okayapowerltd.com,info@mastersindia.co,x3eokayacare@okayapowerltd.com,marketing@okayapowerltd.com,",
Nortech Power Projects Pvt Ltd,Companies(Private),Noida,"603, 7, 1, Lord Sinha Road, Kolkata 700071, WB",+91-33-22820710,",info@mastersindia.co,lalit.sikaria@careedge.in,secretarialdepartment111@gmail.com,u003esecretarialdepartment111@gmail.com,",
Mech-well Industries Ltd,Companies(Private),Noida,"7-A, Old Anijrwadi, Mazgaon, Mumbai 400010, MH",+91-22-66200300,"marketingnsk@mechwell.org,,last@mechwell.com,minal@mechwell.org,",
Meatech Solutions LLP,Companies(Private),Noida,"805, Vikas Deep Building, Laxmi Nagar District Centre, New Delhi 110092, DL",+91-11-43087212,",meatech@meatechsolutions.com,info@ebatterydirectory.com,",
Malaxmi Group,Companies(Private),Noida,"157, Malaxmi Courtyard, Khajaguda Village, Golconda, Hyderabad 500008, TS",+91-40-65817775,",sbhati731@gmail.com,munishbansal22@gmail.com,mgrppl@mail.com,",
Mahindra Solar One Pvt Ltd,Companies(Private),Noida,"6, APL House, Log Bharti Complex, Marol Maroshi, Andheri 400059, MH",+91-22-61741500,",narayan.shankar@mahindra.com,x3ecustomercare@mahindra.com,info@renewpower.in,customercare@mahindra.com,joshi.mandar@mahindra.com,x3ejoshi.mandar@mahindra.com,",
Lall King Generators Pvt Ltd,Companies(Private),Noida,"Nirmal Cinema Complex, G.T. Road, Daba Road Daba, Ludhiana 141014, PB",+91-161-2542644,",vickykishore@icloud.com,ay18121983@gmail.com,",
Jaipur Vidyut Vitran Nigam Ltd,Companies(Private),Noida,"Vidyut Bhawan, Janpath, Jaipur 302005, RJ",+91-141-2740451,",chairmandiscom@gmail.com,recipmt@gmail.com,caqm-ncr@gov.in,dirtechnical@jvvnl.in,x3ecemm@jvvnl.in,helpdesk@jvvnl.org,cemm@jvvnl.in,",
InSolare Energy Pvt Ltd,Companies(Private),Noida,"5, ASK Towers, ITPL Road AECS Layout, Bangalore 560037, KA",+91-80-41279386,",x3eramaswamy.p@nuevo-sol.com,jane_d@insolare.com,info@mastersindia.co,ramaswamy.p@nuevo-sol.com,info@insolare.com,jane.doe@insolare.com,",
Indowind Energy Ltd,Companies(Private),Noida,"4, 114, Kothari Buildings, MG Road, Nungambakkam, Chennai 600034, TN",+91-44-28330867,",contact@indowind.com,jane@indowind.com,",
Howden Solyvent,Companies(Private),Noida,"Budge Trunk Road, Maheshtala, Kolkata 700141, WB",+91-33-71204000,",x3eenquiries@howdenindia.com,info@mastersindia.co,x22enquiries@howdenindia.com,enquiries@howdenindia.com,webenquiries@howden.com,",
Evergreen Solar Systems India Pvt Ltd,Companies(Private),Noida,"Sulochana Mills Campus, Mettupalayam Road, Vadamadurai, Coimbatore 641017, TN",+91-422-2642564,",sales.reliancesolar@ril.com,accounts@sulochanamills.in,",
Counto Microsystems And Energy Pvt Ltd,Companies(Private),Noida,"201-B, 2, Akash Bhavan 18th, June Road, Panjim 403001, GA",+91-832-2234301,",support@arup.com,info@amrutenergy.com,india.support@arup.com,info@ourem.in,",
Bhoruka Power Corporation Ltd,Companies(Private),Noida,"48, Hitananda 2, Lavelle Road, Bangalore 560001, KA",+91-80-22630100,",chayadevi@bhorukapower.com,info@mastersindia.co,",
Bhavnagar Energy Company Ltd,Companies(Private),Noida,"3, 8, Udhyog Bhavan, Sector 11, Gandhinagar 382011, GJ",+91-79-23241391,",info@jakson.com,pradeep.kumar@careratings.com,info@becl.in,INFO@SUNSHADEENERGY.IN,info@renewpower.in,info@exolarenergy.com,cs@becl.in,",
Better Power Services Pvt Ltd,Companies(Private),Noida,"A.K.Azad Road Rehabari, Guwahati 781008, AS",+91-361-09864157410,",rnd@betterpower.co.in,swarup.paul@betterpower.co.in,info@renewpower.in,u003eswarup.paul@betterpower.co.in,",
Andhra Pradesh Power Generation Corporation Ltd,Companies(Private),Noida,"Vidyutsoudha, Khairatabad, Hyderabad 500082, TS",+91-40-23499514,"co.secretary@apgenco.gov.in,,secretary@apgenco.gov.in,chairman@apgenco.gov,apg.md@apgenco.gov.in,",
Amar Transformers Pvt Ltd,Companies(Private),Noida,"765, Chikhali, Kudalwadi Pawar Vasti, Pune 412114, MH",+91-20-27492548,",info@aepgroup.in,amartrafo@gmail.com,",
Alstom T&D India Ltd,Companies(Private),Noida,"7-A, Sector 65, Noida 201301, UP",+91-120-4790000,,
Aegasun,Companies(Private),Noida,"102, Swasti Appartment, Road No 6, Pune 411006, MH",+91-20-26652496,",saisolar2@gmail.com,hr@aegasun.com,",
Advance Navigation And Solar Technologies Pvt Ltd,Companies(Private),Noida,"83-D, 85, Epip Kasna, Noida 201306, UP",+91-120-09910090894,,
Ace Electromagnetics Pvt Ltd,Companies(Private),Noida,"61, Bindal Industrial Premises, Sakinaka, Andheri, Mumbai 400072, MH",+91-22-66453333,",pascal.noida@gmail.com,purchase@aceelectromagnetics.com,email@asbsystems.co.in,",
Triburg,Companies(Private),Noida,"182, Udyog Vihar, Phase 1, Gurgaon 122016, HR",+91-124-4859500,"robin.sharma@triburg.co.in,,",
Trends In Vogue Pvt Ltd (CavinKare),Companies(Private),Noida,"12, Cenetoph Road, Chennai 600095, TN",+91-44-66317569,,
The Kesavi,Companies(Private),Noida,"S-14, Heta Complex, Near L. P Savani School, Honey Park Road, Surat 395009, GJ",+91-8905316809,",jotwani.shivgangaindustries@gmail.com,info@mastersindia.co,",
The Gourmet Jar,Companies(Private),Noida,"A-67, A Block, Sector 83, Noida 201305, UP",+91-9560077622,",hello@thegourmetjar.com,",
Style Spa Furniture Ltd (Adventz),Companies(Private),Noida,"41, Montieth Road, Egmore, Chennai 600008, TN",+91-44-27662420,,
Spykar Lifestyles Pvt Ltd,Companies(Private),Noida,"271, 1st Floor, Business Park, Model Industrial Colony, Goregaon East, Mumbai 400063, MH",+91-22-42175300,",bhavini.galaiya@spykar.com,xx@spykar.com,jane.doe@spykar.com,x3ebhavini.galaiya@spykar.com,",
Royalty House Retail Ltd,Companies(Private),Noida,"Commercial Center 2nd Floor, Office No 32, Gondal Road, Rajkot 360002, GJ",+91-9904408109,",royaltyhouse9@gmail.com,wecare@in.nestle.com,investor@in.nestle.com,communication@in.nestle,",
Raisons,Companies(Private),Noida,"E-4, South Extension II, New Delhi 110049, DL","+91-11-26251054, +91-11-26257294",,
Radico,Companies(Private),Noida,"129G, 6 & 7, Noida Special Economic Zone, Noida 201305, UP","+91-120-4999444, +91-120-4568418","sales@radico.com,,gxxxxxxxxxxxxxxxk@gmail.com,investor@radico.co.in,",
NM Fashion Pvt Ltd,Companies(Private),Noida,"901-902, B Wing, Lotus Corporate Park, Gram Firth Steel Compound, Old Jay Coach Lane, Off Western Express Highway, Mumbai 400063, MH",+91-22-61775888,",nmf144@gmail.com,NMF144@GMAIL.COM,",
Louis Philippe (Madura Fashion) (Aditya Birla),Companies(Private),Noida,"5B, Regent Gateway, KIADB, Industrial Area, Whitefield, Bangalore 560048, KA",+91-80-67271600,"customerservice@abfrl.adityabirla.com,,sandy@lafeminite.com,x3eanil.malik@abfrl.adityabirla.com,happytohelp@abfrl.in,anil.malik@abfrl.adityabirla.com,",
Krishna Plastics,Companies(Private),Noida,"1st Floor & 2nd Floor, Avishkar II, Opposite V. S. Hospital, Madalpur, Ellis Bridge, Ahmedabad 380006, GJ","+91-79-26576779, +91-79-32922199","x3ekrishnaplasticprivatelimited@gmail.com,,info@mastersindia.co,krishnaplasticprivatelimited@gmail.com,info@krishnaplastics.com,",
Kirpal Export Overseas,Companies(Private),Noida,"BP-130, Shalimar Bagh West, New Delhi 110088, DL",+91-11-27481102,",xxxx@henna-suppliers.com,keohenna@gmail.com,kirpaloverseas@gmail.com,xxxx@henna-manufacturers.com,",
JadeBlue Lifestyle India Ltd,Companies(Private),Noida,"B-61, Pari Seema Complex, CG Road, Ahmedabad 380006, GJ","+91-79-26468181, +91-79-26468182",",estore@jadeblue.com,info@mastersindia.co,",
Gulzar Impex Pvt Ltd,Companies(Private),Noida,"G-56/15, Shaheen Bagh, Sarita Vihar, ?Kalindi Kunj Road, New Delhi 110025, DL",+91-11-29945161,",x22ram@alphaogm.com,info@dmdagro.in,x3eadmin@rampimpex.com,admin@rampimpex.com,excal@excaliburindia.com,a_rashid08@yahoo.com,ram@alphaogm.com,accounts@leaderma.in,x3eram@alphaogm.com,",
Elvy Lifestyle Pvt Ltd,Companies(Private),Noida,"D-9 & 10, Infocity, Phase II Sector 33, Gurgaon 122001, HR",+91-124-4039940,",j-doe@elvy.com,Lovy@elvy.in,",
D.S.Corporation (Ruff),Companies(Private),Noida,"143/145, Dimtimkar Road, Nagpada, Byculla, Mumbai 400008, MH","+91-22-23051427, +91-9819260052",",dfu@rediffmail.com,sunriseipr@gmail.com,dfuif@yahoo.co.in,",
Customized Premiums And Promotions,Companies(Private),Noida,"C-33, Basement, Opposite Kalkaji Bus Depot, Street No 1 Govindpuri, New Delhi 110019, DL",+91-11-26291717,",Anuj@promotionalgifts.co.in,info@totalsmartgifts.com,",
Coral Carebook,Companies(Private),Noida,"B1, H4, Mohan Co-Operative Industrial Estate, New Delhi 110044, DL",+91-9555742742,"corporate@coraltele.com,,",
Cafe Delhi Heights,Companies(Private),Noida,"121 & ?123, 1st Floor, Cross Point Mall, DLF Phase 4, Gurgaon 122002, HR",+91-124-4229797,",cdhmallofindia@gmail.com,",
Bodycraft Spa & Salon,Companies(Private),Noida,"10/1, Mariyappa Road, After Parikrama School, Ashoka Pillar, 1st Block, Jayanagar, Bangalore 560011, KA","+91-80-40951444, +91-80-40951445",,
Australian Foods India Pvt Ltd (Cookie Man),Companies(Private),Noida,"Plot No 22 & 23, Ambattur Industrial Estate, Chennai 600058, TN",+91-44-42083939,",customercare@cookiemanindia.com,x3ecustomercare@cookiemanindia.com,",
Anoush Gifts,Companies(Private),Noida,"1004, Sapphire Building, Regency Tower, Ghodbunder Road, Thane 400607, MH",+91-9466253825,,
A I Enterprises Pvt Ltd,Companies(Private),Noida,"F-41A, Near Chinthamani Super Market, Anna Nagar East, Chennai 600102, TN","+91-44-26263875, +91-44-42920110",",usha@aie-group.com,info@mastersindia.co,aiemain@aie-group.com,janedoe@aie-group.com,c7-hr@aie-group.com,ganesh@aie-group.com,",
Zest Pharma Ltd,Companies(Private),Noida,"275, Industrial Area, Sector F, Sanwer Road, Indore 452015, MP",,"shatammohan@gmail.com,Ashishjain611@gmail.com,,",
Unicure Remedies Pvt Ltd,Companies(Private),Noida,"F/25, BIDC Estate, Gorwa, Vadodara 390016, GJ",,",last@unicurepharma.com,vpd@unicurepharma.com,unicure@unicureindia.com,x3evpd@unicurepharma.com,",
Unicure India Pvt Ltd,Companies(Private),Noida,"C-22, Sector 3, Noida 201301, UP",,",x3efinance@unicureindia.com,unicure@unicureindia.com,finance@unicureindia.com,",
TGV Pharma Pvt Ltd,Companies(Private),Noida,"87/304, K.J. Complex, 1st Floor, Bhagyanagar, Kurnool 518004, AP",,"NIRMALFCA@GMAIL.COM,,rayalaseema.delhi@gmail.com,info@pharmexcil.com,",
Surya Pharmaceutical Ltd,Companies(Private),Noida,"71, Krishna Bagh, Nagwa, Varanasi 221005, UP",,",info@suryaherbal.co,info@mastersindia.co,",
Sophisticated Industrial Materials Analytic Labs Pvt Ltd,Companies(Private),Noida,"A-3/7, Mayapuri Industrial Area, Phase ?2, New Delhi 110064, DL",,",info@mastersindia.co,info@sigmatest.org,haridwar.qa@simalab.co.in,ashokaggarwalca@hotmail.com,",
Pharmalab India PVt Ltd,Companies(Private),Noida,"Kasturi, Sanghvi Estate, Govandi Station Road, Govandi East, Mumbai 400088, MH",,",contact@raptakos.com,mkt@pharmalab.com,",
Missionpharma Logistics India Pvt Ltd,Companies(Private),Noida,"5-A/1-2-3, Kandla Special Economic Zone, Sector 3, Gandhidham 370230, GJ",,",vinod.sreedharan@missionpharma.com,info@mastersindia.co,",
Medybiz Pharma Pvt Ltd (Health Vista India),Companies(Private),Noida,"29/2, K R Road, 2nd Street, Banashankari, Bengaluru 560070, KA",,",LEGAL@PORTEAMEDICAL.COM,infoindia@actavis.com,x3eLEGAL@PORTEAMEDICAL.COM,x3einfoindia@actavis.com,",
Kabs Pharma,Companies(Private),Noida,"C-128, Clock Tower, Hari Nagar, New Delhi 110064, DL",,",x3einfo@anuhpharma.com,info@anuhpharma.com,",
Jupiter Pharmaceuticals Ltd,Companies(Private),Noida,"9-C(A), Synthesis Business Park, Action Area 2, Rajarhat, New Town, Kolkata 700156, WB",,",info@pharmexcil.com,cs@jupiterhospital.com,cs@jupiterwagons.com,accounts@jupiterpharma.in,x3eaccounts@jupiterpharma.in,",
Jubilant Life Sciences Ltd,Companies(Private),Noida,"1-A, Sector 16-A, Noida 201301, UP",,",amit_chaurasia@jubl.com,last@jubl.com,ingrevia.support@jubl.com,support@jubl.com,x3eamit_chaurasia@jubl.com,",
Jubilant Clinsys Ltd,Companies(Private),Noida,"C-46, Sector 62, Noida 201307, UP",,",amit_chaurasia@jubl.com,naresh.kapoor@jubl.com,x3esupport@jubl.com,support@jubl.com,x3eamit_chaurasia@jubl.com,",
J-Sil Scientific Industries,Companies(Private),Noida,"48-B, Industrial Estate, Nunhai, Agra 282006, UP",,",info@jsgw.com,info@rivieraglass.co.in,",
Hillgreen Herbals Pvt Ltd,Companies(Private),Noida,"17, 13th Cross, Vasanthnagar East, Bengaluru 560052, KA",,",karthik@hillgreen.com,",
Haritha Pharmaceuticals,Companies(Private),Noida,"Varantharappilly, Irinjalakuda 680303, KL",,",ashusoni.pharma@gmail.com,mail.rosh91@gmail.com,",
Foss India Pvt Ltd,Companies(Private),Noida,"195, Central Camera Building, D N Road, Fort, Mumbai 400001, MH",,",baswani@foss.dk,x3ebaswani@foss.dk,yashwinee@primeinsights.in,india@foss.dk,",
Foresight Group International AG,Companies(Private),Noida,"Advant IT Park, 904/7, 9th Floor, Tower A, Sector-142, Noida 201008, UP",,",John@foresightgroup.eu,JSmith@foresightgroup.eu,last@foresightgroup.com,",
Fair Pharma,Companies(Private),Noida,"Broadway, Ernakulam, Kochi 682031, KL",,",tamajeed@fairpharmacochin.com,vchauhan@feindustriesindia.com,support@jubl.com,",
Devon Innovations Pvt Ltd,Companies(Private),Noida,"27-A, Near SBI Hossur Main Road, Electronic City, Phase 1, Bengaluru 560100, KA",,",n@gmail.com,jane@devoncath.com,cfo.devon@gmail.com,",
Curative Power Lab Pvt Ltd,Companies(Private),Noida,"C-39, TTC Industrial Area, Turbhe Mahape Road, MIDC, Pawne, Navi Mumbai 400705, MH",,"manoj@incoindia.com,,",
Bidhan Pharmaceuticals,Companies(Private),Noida,"9/2-A, Lakhi Narayan, Motilal Road, Kolkata 700061, WB",,",dmc-rc@esic.nic.in,anil.shukla@dabur.com,",
Acebright India Pharma Pvt Ltd,Companies(Private),Noida,"77-D & 116/117, KIADB Industrial Area, Jigan, Anekal 560105, KA",,",infoindia@actavis.com,x3emanorama@acebright.in,last@acebright.com,lalan.yadav@abbott.com,x3einfoindia@actavis.com,manorama@acebright.in,",
Venkataramana Food Specialities Ltd,Companies(Private),Noida,"Road No 34, Wagle Industrial Estate, Thane 400604, MH","+91-22-25838211, +91-22-25838215","got2invest@rediffmail.com,,info@mastersindia.co,dj@vfslsnacks.com,",
Vedant Tapioca Pvt Ltd,Companies(Private),Noida,"Gat No 1007/2/1, Near Mohanrao Shinde Co-Operative Sugar Factory, Bedag, Miraj, Sangli 416421, MH","+91-233-2269990, +91-233-2269991",",pkmeher2005@rdiffmail.com,makeinindia@nic.in,vtpl_starch@yahoo.com,info@investindia.org.in,",
Uttara Foods & Feeds Pvt Ltd,Companies(Private),Noida,"Uttara House, 2, Wellesley Road, Camp, Pune 411001, MH",+91-20-26137971,,
Tropical Biomarine Systems Pvt Ltd,Companies(Private),Noida,"1 st Floor, 103, Mahaveer Chambers, Nyniappa Naicken Street, Chennai 600003, TN",+91-44-45124221,",tbmsinfo@yahoo.co.in,",
Tarseel Exports,Companies(Private),Noida,"505, Mohammadi Building, Maulana Azad Road, Mumbai 400004, MH",+91-22-27889016,",tarseel.docs@gmail.com,",
Suttind Seeds Pvt Ltd,Companies(Private),Noida,"A-1/29, 1st Floor, Sector 15, Rohini, New Delhi 110085, DL",+91-11-27851094,",info@suttind.com,ikarora@suttind.com,",
Sunshine Tea,Companies(Private),Noida,"14, School Lane, Barakhamba Avenue, New Delhi 110001, DL",+91-11-23722424,",cs@farmersfamily.in,Info@sunshinetea.in,",
Standard Machinery Marketing Co Pvt Ltd,Companies(Private),Noida,"205-B, Brooklyn Apartments, No 63, Banaswadi Road, Jaybharath Nagar, Bangalore 560033, KA","+91-80-25495844, +91-80-25495845",",standardmachinery@vsnl.net,marketing@magsolvics.com,",
Simfa Labs Pvt Ltd,Companies(Private),Noida,"1-B, Vikas Rekha Complex, Khatiwala Tank, Indore 452001, MP","+91-731-2477100, +91-731-4255900","x3eaccounts@vetline.in,,accounts@vetline.in,info@vetlineindia.com,",
SBEC Sugar Ltd (Modi Group) (Modi),Companies(Private),Noida,"1502-A, 16th Floor, Modi Tower, 98, Nehru Place, New Delhi 110019, DL","+91-11-42504559, +91-11-26289558",",investors@sbecsugar.com,admin.malakpur@sbecsugar.com,anilgupta@modisugar.com,",
Savorit Ltd,Companies(Private),Noida,"131, Trichy Road, Dindigul 600081, TN","+91-451-2411055, +91-451-2411054",",enquiry@savorit.com,",
Sambandam Solvent Extraction Pvt Ltd,Companies(Private),Noida,"97, Thulasingam Street, Perambur, Chennai 600011, TN",+91-44-25515142,"sraja1971@gmail.com,,ssel_refinery@yahoo.co.in,",
S.A.Exports,Companies(Private),Noida,"Marine Division, 548, Jessor Road, Kolkata 700055, WB",+91-33-25790526,",SAITRADINGCO9009@GMAIL.COM,enquiry@saexports.in,ho@hitaishi.com,sxx@modelama.com,ranjit@aarfashions.com,",
Rite Equipments Pvt Ltd,Companies(Private),Noida,"G-36, 2nd Floor, Green Park Main, New Delhi 110016, DL","+91-11-26850460, +91-11-26960862",",vshekhar@rite-equipment.com,info@mastersindia.co,",
Ovobel Foods Ltd,Companies(Private),Noida,"46, Old No 32/1, 3rd Cross, Aga Abbas Ali Road, Ulsoor, Bangalore 560042, KA","+91-80-25594145, +91-80-25594146",",sales@ovobelfoods.com,production@ovobelfoods.com,sales.india@ovobelfoods.com,",
Oriflame India Pvt Ltd,Companies(Private),Noida,"Plot No 5, Corporate One, NHCC Jasola, New Delhi 110076, DL",+91-11-43665565,",contactcenter.india@oriflame.com,xxxxxxxx@gmail.com,karan.mehra@oriflame.com,",
NHC Foods Ltd,Companies(Private),Noida,"2/13, NHC House, Anand Nagar, Santacruz East, Mumbai 400055, MH",91-22-61522020,",info@mastersindia.co,contact@nhcgroup.com,jane@nhcgroup.com,grievances@nhcgroup.com,",
MP State Cooperative Dairy Federation Ltd (Sneha),Companies(Private),Noida,"Dugdha Bhavan, Near Bhopal Dairy, Dugdha Marg, Habibganj, Bhopal 462024, MP",,",ho.mpcdf@nic.in,",
Mothers Commerce Company Pvt Ltd,Companies(Private),Noida,"40, 1st Floor, Montorsier Street, Puducherry 605001, PY","+91-413-2342442, +91-413-2226726",",pvsankar01@gmail.com,",
Krishi Oils Ltd,Companies(Private),Noida,"Plot No 91-94, Sector 2, Pithampur, Dhar 454775, MP",+91-7292-253826,",sanjivmurarka@gmail.com,rohitkrishiipl@gmail.com,aspee@aspee.net,",
Kadam Exports Pvt Ltd,Companies(Private),Noida,"99, Chinubhai Tower, Opposite Handloom House, Ashram Road, Ahmedabad 380009, GJ",+91-79-26584335,",kadampsyllium@yahoo.com,mapl@gmail.com,captsandeep@uvmshipping.com,",
Jumboking Foods Pvt Ltd,Companies(Private),Noida,"A-43, Virwani Industrial Estate, 1st Floor, Near Western Express Highway, Goregaon East, Mumbai 400063, MH","+91-22-29271286, +91-22-28720269",",dheeraj@jumboking.co.in,",
Jeevika Food Machine Pvt Ltd,Companies(Private),Noida,"6/10, 1st Floor, Senthil Andavar Street, Dhanalaxmi Colony, Vadapalani, Chennai 600026, TN","+91-44-23622750, +91-44-23660742",",info@jfm.co,srinivasan@jfm.co.in,",
Intercraft Trading Pvt Ltd (Chambor),Companies(Private),Noida,"Nishuvi Building, 1st Floor, 75, Dr. Annie Besant Road, Worli, Mumbai 400018, MH",+91-22-43600600,,
Indian Broiler Group Pvt Ltd,Companies(Private),Noida,"Indamara, National Highway 6, Rajandgaon, Chattisgarh 491441, CG","+91-7744-224069, +91-7744-226099","sundip.more@icicibank.com,,",
Indian Biscuit Manufacturers Association,Companies(Private),Noida,"D-1, Sector 2, Noida 201301, UP",+91-120-2522939,",saurabh@agron-india.com,enquiry@bakemate.in,info@afmt.in,info@ibmabiscuits.in,kanchanzutshi@phdcci.in,",
Hamdard Laboratories India,Companies(Private),Noida,"2A/3, Asaf Ali Road, Hamdard Building, New Delhi 110002, DL","+91-11-23239801, +91-11-23239802",",last@hamdard.com.pk,","28.6034608,77.0316066"
Gopi Dehydrates Pvt Ltd,Companies(Private),Noida,"104, Gupta Tower, Commercial Complex, Naniwala Bagh, Azadpur, New Delhi 110033, DL",+91-11-27676080,"dg@fissh.org,,carohitbhalla@gmail.com,aanand@gopifoods.com,","28.6146609,77.3158272"
Goodrich Carbohydrates Ltd,Companies(Private),Noida,"SCO 2, 1st Floor, Sector 8, Karnal 132001, HR","+91-184-4042954, +91-184-4020200",",x3eamitgc@goodrichworld.com,info@mastersindia.co,amitgc@goodrichworld.com,","28.7072397,77.1291632"
Flora Ferticare Pvt Ltd,Companies(Private),Noida,"7-1-414/20/1, Flat No 501, 5th Floor, Kaushik Sai Rama Residency, Srinivasa Colony East, S. R. Nagar, Hyderabad 500038, TS",+91-8143867529,",floraferticare@gmail.com,","28.4921489,77.500028"
Emami Ltd (Emami),Companies(Private),Noida,"687, Anandapur, E M Bypass, Kolkata 700107, WB","+91-33-66136264, +91-33-66136278",",jane@emamigroup.com,investors@emamigroup.com,x3ejane@emamigroup.com,oxxh@emamiltd.in,anisur.rahman@emamigroup.com,janedoe@emamigroup.com,","28.6443704,77.144358"
DSK Milkotronics Pvt Ltd,Companies(Private),Noida,"Plot A, Unit No B-3, DSK Sundarban, Survey No 173/174/175, Sadesatra Nali Grampanchayat, Tupe Patil Road, Hadapsar, Pune 411028, MH",+91-8447528442,"products@dodladairy.com,,secretarial@dskdl.com,","18.5124723,73.8508826"
Dharamvir Exports Pvt Ltd,Companies(Private),Noida,"A-112, Defence Colony, New Delhi 110024, DL","+91-11-24335242, +91-11-41550787",",x22info@vineetaz.com,x3einfo@vineetaz.com,xxxx@indikagold.com,info@vineetaz.com,x3ejignesh@jaykal.com,shirtings@dharamvirgroup.com,jignesh@jaykal.com,dvexpo@gmail.com,","28.5663689,76.9041941"
Deva Singh Sham Singh,Companies(Private),Noida,"Outside Chatiwind Gate, Amritsar 143001, PB","+91-183-2482807, +91-183-2490452",",krssobti@gmail.com,noida@pcmw.com,817elephantrice@gmail.com,alifvaliyakath06@gmail.com,exports@817elephant-rice.com,","28.6568816,77.2106002"
Danone Foods & Beverages India Pvt Ltd,Companies(Private),Noida,"Phoenix Marketcity Mall, Sentrium Gate No 1, Level 4, LBS Road, Kurla West, Mumbai 400070, MH",+91-22-66696740,,"28.574377,77.3569389"
Dabur India Ltd,Companies(Private),Noida,"Kaushambi, Ghaziabad 201010, UP","+91-10-3962100, +91-120-3982000",",x3ejane.doe@dabur.com,investors@dabur.com,last@dabur.com,x3ecorpcomm@dabur.com,ankushjain@dabur.com,corpcomm@dabur.com,jane.doe@dabur.com,","28.6169621,77.0524201"
Chowdhry & Company,Companies(Private),Noida,"0/1, Industrial Area, Jalandhar 144004, PB","+91-181-5043000, +91-181-2291164",,"28.6397676,77.1317037"
Bull Agro Implements,Companies(Private),Noida,"SF 200/1B6, Kannampalayam, Ravathur Pirivu, Coimbatore 641402, TN","+91-422-2910080, +91-422-2910091",",info@mastersindia.co,rameshbabu@bullagro.com,sales@bullmachine.com,customercare@bullagro.com,prakashind.nlr@gmail.com,first@bullagro.com,marketing@bullagro.com,","28.6266532,77.3668277"
Bora Agro Foods,Companies(Private),Noida,"1st Floor, Samrat House, 39D, 2/6, Shankar Sheth Road, Pune 411037, MH","+91-20-26431801, +91-20-26431802",",d_jane@bora.in,web@bora.in,x3ealimento36@gmail.com,alimento36@gmail.com,","18.4995106,73.859996"
Bhagwati Feeds Pvt Ltd,Companies(Private),Noida,"Behind Singh Petrol Pump, Bahalgarh, G. T Karnal Road, Sonepat 131101, HR",+91-9215966676,",ramesh.khatri@yahoo.co.in,","28.9560543,77.0818214"
Bajoria Foods Pvt Ltd,Companies(Private),Noida,"Plot No 12, 103, Adarsh Nagar, Opposite Ambedkar Hall, R. T. O Bungalow, Andheri West, Mumbai 400053, MH","+91-22-26367200, +91-22-26367100",",salesjhs@gmail.com,u003einfo@bajoriafoods.com,bajoria.jhs@gmail.com,info@bajoriafoods.com,accounts@chhajedfoods.com,x3eaccounts@chhajedfoods.com,","28.5094687,77.1912024"
Bajaj ProcessPack Ltd,Companies(Private),Noida,"B-136, Sector 63, Noida 201001, UP",+91-120-4639950,",u003esales@bajajmachines.com,sales@bajajmachines.com,","28.6154314,77.3697108"
AP Incubators Pvt Ltd,Companies(Private),Noida,"301, Synergy Enclave, Beside Turvovent Company, Nizampet, Hyderabad 500090, TS",+91-40-40101909,",Manjari@itclabs.com,vishal@zybra.in,vbssprasad@gmail.com,contact@zybra.in,apincubators@gmail.com,","28.534133,77.1078629"
Anmol Biscuits Ltd,Companies(Private),Noida,"Crescent Tower, 9th Floor, 229, A. J. C. Bose Road, Kolkata 700020, WB","+91-33-22801277, +91-33-22801278",",axx@anmolindustries.com,infonoida@anmolindustries.com,cs@anmolindustries.com,anmol.cs@gmail.com,cs@anmolbiscuits.net,x3ecs@anmolbiscuits.net,","28.5430034,77.0730802"
Anchor Health & Beauty Care Pvt Ltd,Companies(Private),Noida,"2nd Floor, Innova, Lower Parel West, Mumbai 400013, MH",+91-22-39515555,",navin@anchorglobal.net,","28.6658486,77.2829792"
Agro Food Processing Emporium,Companies(Private),Noida,"11, Mehwer House, Noorani Colony, Peerbagh, Srinagar 190014, JK",+91-9906458225,",j.hemchandco@gmail.com,","28.5421764,77.1091193"
Vishal Holo Solutions Pvt Ltd,Companies(Private),Noida,"4-A, Focal Point, Patiala 147003, PB",+91-175-3250256,",sushilgoyalfca@yahoo.com,x3eevolvehrsolutions@gmail.com,x22prabal@canopi.in,x3eprabal@canopi.in,u003esushilgoyalfca@yahoo.com,prabal@canopi.in,evolvehrsolutions@gmail.com,","29.4003211,75.6693215"
Vikram Printers Pvt Ltd,Companies(Private),Noida,"34, Parvati Industrial Estate, Pune 411009, MH",+91-20-24220890,",mandar.ugar@vikramprinters.co.in,","28.3280157,77.5312741"
Universal Print Systems Ltd,Companies(Private),Noida,"9, Montieth lane, Egmore, Chennai 600008, TN",+91-44-42287300,",imperionepal@gmail.com,moreinfo@aparacorp.com,kanudia@gmail.com,universalpsrao@gmail.com,binod.mandal@manipalmedia.com,","28.620964,77.2739694"
Uchitha Graphic Printers Pvt Ltd,Companies(Private),Noida,"65, Ideal Industrial Estate, Mathuradas Mill Compound, Lower Parel, Mumbai 400013, MH",+91-22-40336400,",info@uchitha.com,account_dept@uchitha.com,info@mastersindia.co,","28.5349877,77.4048572"
TranslationPanacea,Companies(Private),Noida,"43, 43, 3, 1st Floor, United Western Society, United Western, Karve Nagar, Pune 411052, MH",+91-20-65005814,,"28.5524824,77.0880497"
Thomson Press India Ltd ( India Today ),Companies(Private),Noida,"18/35, Miles Stone, Near Ajronda Chowk, Delhi Mathura Road, Sector 15, Faridabad 121007, HR",+91-124-2285520,",last@thomsondigital.com,rkrishnan@vasantvalley.org,alok.s@aajtak.com,sales@thomsonpress.com,","28.5368924,77.408078"
The West Coast Paper Mills Ltd ( Bangur Group ) ( SKB ),Companies(Private),Noida,"10-A, 4th Floor, Kasturba Road, Chandrakiran, Bangalore 560001, KA",+91-80-22231828,",wcpm.south@westcoastpaper.com,co.sec@westcoastpaper.com,","28.6436876,77.2333392"
Taco Visions Pvt Ltd,Companies(Private),Noida,"38-A, Government Industrial Estate, Charkop, Kandivali West, Mumbai 400067, MH",+91-22-42331234,"tacovisions@vsnl.net,,accounts@tacovisions.com,","28.6020678,77.3714055"
Shroff Publishers & Distributors Pvt Ltd,Companies(Private),Noida,"103-C, TTC Industrial Area, MIDC, Pawane Navi Mumbai 400705, MH",+91-22-41584158,",spdaccounts@shroffpublishers.com,x3espdaccounts@shroffpublishers.com,","28.6425551,77.2342595"
Shishu Sahitya Samsad Pvt Ltd,Companies(Private),Noida,"32-A, Acharya Prafulla, Chandra Road, Kolkata 700009, WB",+91-33-23507669,",ss_samsad@yahoo.in,","22.5706231,88.3605764"
Shakun & Company ( Services )Pvt Ltd,Companies(Private),Noida,"12, 112-113, Gagan Deep Building, Rajendra Place, New Delhi 110008, DL",+91-11-25768945,,"28.6209432,77.2987676"
Sai Security Printers Pvt Ltd,Companies(Private),Noida,"Badarpur, Faridabad 121101, HR",+91-129-4194800,",u003eshiv@saiprinters.com,spcblr@saiprinters.com,jane@saiprinters.com,sspdel@saiprinters.com,shiv@saiprinters.com,","28.4586611,77.3006037"
Print Packing Systems,Companies(Private),Noida,"201, Triumph Industrial Estate, Near Dindoshi Signal, Pandit Motilal Nehru Road, Goregaon East, Mumbai 400063, MH",+91-22-28766351,",bhagatneeraj@rediffmail.com,info@monotech.in,","28.5714862,77.069259"
Prakash Offset Machinery Pvt Ltd,Companies(Private),Noida,"268, 269, 270, Sector 58, Faridabad 121006, HR",+91-129-4066035,",prol@vsnl.com,INFO@PRAKASHOFFSET.COM,ncjain1972@gmail.com,","18.4981559,73.8403879"
Pointer Publishers,Companies(Private),Noida,"807, Vyas Building, S.M.S. Highway, Jaipur 302003, RJ",+91-141-2578159,",contact@vehant.com,pointerpub@hotmail.com,info@pointerpublishers.com,pioneeerbook@rediffmail.com,","28.5774771,76.591498"
Parsiana Publications Pvt Ltd,Companies(Private),Noida,"39-B, Navsari Chambers, A.K. Nayak Road, Fort, Mumbai 400001, MH",+91-22-22072915,",info@parsiana.com,n@vsnl.net,","28.5884456,77.3120342"
Mehta Creations,Companies(Private),Noida,"Vardan Society, R.K Vaidya Marg, Dadar West, Mumbai 400028, MH",+91-22-24309804,",contact@smart-environmental.com,samirbhagat_27@yahoo.com,","28.6180388,77.0296642"
MD Agency,Companies(Private),Noida,"5, 1, 1st Floor, Prakasam Street, Erode 638001, TN",+91-424-2224722,",cs@yatharthhospitals.com,chairman@noidaauthorityonline.com,cfo@indiamart.com,re.ashish49@gmail.com,","14.5146934,34.9762924"
Markazi Maktaba Islami Publishers,Companies(Private),Noida,"307-D, Abul Fazl Enclave, Jamia Nagar, New Delhi 110025, DL",+91-11-26981652,"anand.tripathi@rru.ac.in,,info@mmipublishers.net,publication@iimcal.ac.in,","28.5412858,77.1814672"
Labdhi Printers,Companies(Private),Noida,"161, Titanium City Centre, 100 Feet Ring Road, Sattelite, Ahmedabad 380015, GJ",+91-9825256280,",securityprinters@airtelmail.in,","28.5885739,77.3249716"
Jaiswal Art Press Pvt Ltd,Companies(Private),Noida,"21-A, 3, Naraina Industrial Area Phase-2, New Delhi 110028, DL",+91-11-25894081,",abhijai.aggarwal@gmail.com,jaiswalartpress@rediffmail.com,","28.6413736,77.1347223"
ITC PSPD Ltd ( ITC ),Companies(Private),Noida,"106, Sardar Patel Road, Secunderabad, 500003, AP",+91-40-27846566,",clubitc.care@itc.in,marketing.itcpspd@itc.in,qmat@itc.in,Sai.Srinivas@itc.in,xxxx@itcpspd.com,isc@itc.in,","28.6128538,77.0939933"
IPP Catalog Publications Pvt Ltd,Companies(Private),Noida,"10-N, Near Metro Heart Hospital, Sector 11, Noida 201301, UP",+91-120-4326053,"subscription@ippgroup.in,,editor@ippgroup.in,","28.5984955,77.3283192"
Indian Pulp and Paper Technical Association ( IPPTA ),Companies(Private),Noida,"47, Near Himmat Nagar, Paper Mill Road, Saharanpur 247001, UP",+91-132-2714081,",nikitapapers@hotmail.com,dikshit@papiertech.com,hindon_1_shn@sancharnet.in,dikshit@aimsindia.org,","28.5218039,77.072153"
Home Revise Publications,Companies(Private),Noida,"Odyssey IT Park, Road N, Thane West, Mumbai 400601, MH",+91-22-25410303,",homerevise21@gmail.com,customercare@homerevise.co.in,","28.6269835,77.3618061"
Holostik India Ltd,Companies(Private),Noida,"117-C, Sector-2, Noida 201301, UP",+91-120-4192700,",x3esandeep.mittal@holostik.com,marcom@holostik.com,last@holostik.com,shobhit.gupta@holostik.com,sandeep.mittal@holostik.com,","28.5912613,77.3039977"
Harshal Publications ( Safari ),Companies(Private),Noida,"212, 215, Anand Mangal-3, Near Parimal Crossing, Ellisbridge, Ahmedabad 380008, GJ",+91-79-26461698,",rakesh.shejwal@aartigroup.cominfo,","23.0223395,72.4616939"
Graphtone India Pvt Ltd,Companies(Private),Noida,"1-A, 319, Shah & Nahar Industrial Estate, Lower Parel West, Mumbai 400013, MH",+91-22-66606572,"oiopfoundation@gmail.com,,hr@adani.in,vishal@zybra.in,graphtone_i@sify.com,oiopsub@fouressindia.com,contact@zybra.in,","28.5124082,77.0856616"
Goyal Publishers and Distributors Pvt Ltd,Companies(Private),Noida,"86-B, Jawahar Nagar, New Delhi 110007, DL",+91-11-23858362,",goyalpublishers@gmail.com,","28.6218707,77.3697967"
Gospel Literature Service,Companies(Private),Noida,"250-D, Udyog Bhavan, Worli, Mumbai 400025, MH",+91-22-24930116,",info@glsindia.com,xxxx@glsindia.com,nishabookdistributors@gmail.com,skhandai@amity.edu,bangerwal@gmail.com,","28.5617825,77.2044222"
G.R. Bathla Publications Pvt Ltd,Companies(Private),Noida,"Prakash Building, Opposite Nayyar Palace, Lal Kurti, Meerut 250001, UP",+91-121-2640303,",jane-doe@gmail.com,u003egrbpvt.ltd@gmail.com,pankaj.grb12345@gmail.com,info@futuremail.in,grbpvt.ltd@gmail.com,","14.5146934,34.9762924"
Dulari Digital Photo Services Pvt Ltd,Companies(Private),Noida,"678, 1133, Vishkarma Puri, Gill Road, Miller Ganj, Street No-2, Ludhiana 141003, PB",+91-161-4612670,",mail@dularidigital.in,","30.8932107,75.8466379"
Dreamland Publications,Companies(Private),Noida,"128-J, Kirti Nagar, New Delhi 110015, DL",+91-11-25455657,",dreamland@dreamlandpublications.com,ved@chawla.pw,neerajg2003@yahoo.co.in,","28.6560659,77.137781"
Digital Factors India Pvt Ltd,Companies(Private),Noida,"132-B, Opposite State Bank Of India, CBI Main Road, Ganga Nagar, Bangalore 560032, KA",+91-80-23657601,",business@binmile.com,","28.5814964,77.3112295"
Coromandel Printers Pvt Ltd,Companies(Private),Noida,"125, JJ Khan Road, Royapettah, Chennai 600014, TN",+91-44-42664966,",contact@coromandelprinters.com,Contact@coromandelprinters.com,","28.5094587,77.1086998"
Commercial Art Engravers Pvt Ltd,Companies(Private),Noida,"386, Opposite Siddhi Vinayak Temple, Vir Savarkar Marg, Prabhadevi, Mumbai 400025, MH",+91-22-43323456,",jrshahca@yahoo.in,dharmesh.bohra@gmail.com,","19.0179489,72.8197233"
Citi Grafix,Companies(Private),Noida,"2-C, 12, 4, 2nd Floor, Janakpurii, New Delhi 110058, DL",+91-9868466448,"x3eJohn.Smith@citi.com,,ashish@graphicads.in,head.customercare@citi.com,John.Smith@citigroup.com,John.Smith@citi.com,info@colorjetgroup.com,x3ehead.customercare@citi.com,John.L.Smith@citi.com,JSmith@citigroup.com,","28.5818762,77.1935621"
Byword Books Pvt Ltd,Companies(Private),Noida,"15-F, Virat Bhavan, Mukherjee Nagar, New Delhi 110009, DL","+91-11-47038040, +91-11-27653525",",bywordbooks@gmail.com,","28.6386065,76.9985891"
Bromide Color Chemicals,Companies(Private),Noida,"208-B, 1st Floor, Namada Road, Jabalpur 482001, MP",+91-761-2665578,",bromide@airtelmail.in,south-west@hannainst.in,bromidechem@gmail.com,","28.5821513,77.3164718"
ArtStreet International,Companies(Private),Noida,"Lncube Akshay Plaza, Near Chetan PU College, Shirur Park, Viday Nagar, Hubli 580021, KA",+91-7353845678,",info@mastersindia.co,support@artstreet.in,accounts@artwaley.com,helpdesk@artstreet.in,","28.4286769,77.5373448"
APL Machinery Pvt Ltd,Companies(Private),Noida,"70, Sector-59, Faridabad 121001, HR",+91-129-4189999,"ss_graphics1989@yahoo.co.in,cppaul@aplmachinery.com,,","28.4048456,77.3018462"
AOJ Media Pvt Ltd,Companies(Private),Noida,"Triple Ess House No-2818, 19th Main HAL, Airport Road, Bangalore 560008, KA",+91-80-25201687,",accounts@aojmedia.com,","28.5218039,77.072153"
Ankeet Arts,Companies(Private),Noida,"101, Bharat Industrial Estate, Tokershi jivraj Roa, Sewree West, Mumbai 400015, MH",+91-9820320727,",gsrprasad@7hillsbiz.com,mail@taxingindia.com,freshers@lntinfotech.com,consultant@miracleindia.com,splay688@gmail.com,jobs@signatrix.in,srmeenak@in.ibm.com,","14.5146934,34.9762924"
Anand Printers Pvt Ltd,Companies(Private),Noida,"43-B, Anand House, Jatindra Mohan Avenue, Kolkata 700005, WB",+91-33-25303700,",upasani@astraladvertising.com,accounts@anandgroup.in,anand.upasani@astraladvertising.com,neeti@anandandanand.com,","28.5684468,77.1852707"
Amaravathi Sri Venkatesa Paper Mills Ltd,Companies(Private),Noida,"Palani Road, Swaminathapuram, Madathukulam, Udumalpet 642113, TN",+91-4252-252286,",dikshit@aimsindia.org,m_accs@asvpm.com,dikshit@papiertech.com,","29.0753359,77.8323713"
Agio Paper & Industries Ltd,Companies(Private),Noida,"505, 41-A, Dimond Prestige, Bose Road, Kolkata 700017, WB",+91-33-40225900,,"22.0353104,82.2049267"
Afflatus Gravures Pvt Ltd,Companies(Private),Noida,"10-A, Sector-68, Noida 201301, UP",+91-120-6759600,",vidhi.sharma@afflatusgravure.com,cylmkgt@afflatusgravure.com,cylmktg@afflatusgravure.com,x3evidhi.sharma@afflatusgravure.com,","28.6047552,77.3800608"
Aegean Offset Printers,Companies(Private),Noida,"220-B, Udyog Kendra 1, Greater Noida 201306, UP",+91-8586924212,,"28.5412484,77.4472652"
Ace Data Prinexcel Pvt Ltd,Companies(Private),Noida,"16, Bharathi Colony, Main Road, Peelamedu, Coimbatore 641004, TN",+91-422-2561500,",ram.acedata@gmail.com,arc-cbe@nmandco.com,","28.5388655,77.3293214"
Abhinav Publications,Companies(Private),Noida,"Aroonoday Educational Plaza, Chikhali 443201, MH",+91-7264-242622,",aakarbooks@gmail.com,abhinav@rajshiindustries.com,","28.6268568,77.1179175"
A L Paper House,Companies(Private),Noida,"A.L. Paper House, Near Tempo Stand, Sanganer, Jaipur, 303902, RJ",+91-141-2731706,",query@alpaperhouse.com,","28.5907885,77.3238439"
Water Care Technologies,Companies(Private),Noida,"Shubhechha, Kinkhede Layout, Civil Lines, Nagpur 440001, MH",+91-712-2538546,",Office_NewDelhi@waters.com,accounts@watercaretech.in,ahuja.narender@gmail.com,watercaretech@hotmail.com,xxxx@pwswimmingpool.com,","14.5146934,34.9762924"
SunGreen Ventilation Systems Pvt Ltd,Companies(Private),Noida,"153, Sidco Industrial Estate, Ambattur, Chennai 600004, TN","+91-44-28113146, +91-44-42077838",",info@turbovents.com,","28.5859222,77.2132549"
Smaat Aqua Technologies Pvt Ltd,Companies(Private),Noida,"3-9-554/9A, Ragala Enclave, Near Sahara State, Hyderabad 500068, TS","+91-40-24020305, +91-9000365000",",manoharan@srishunmugashipping.com,cmd@smaatindia.com,","28.501438,77.4029586"
SAIL-Environmental Management Division,Companies(Private),Noida,"3rd Floor, SailL House, 50, Jawahar Lal Nehru Road, Kolkata 700071, WB",+91-33-22821353,",sailex.emd@gmail.com,director.finance@sail.in,","28.5218039,77.072153"
Kulkarni Engineering Industries,Companies(Private),Noida,"9-W, MIDC, Miraj, Sangli 416410, MH",+91-233-6452122,",pgk_mech@pvgcoet.ac.in,","18.4966091,73.792768"
Green Valley Landscapes,Companies(Private),Noida,"205, Sai Raksha Comfort, Arehalli Ittamadu, Banashankari 3rd Stage, Bangalore 560061, KA",+91-9980688668,",greenvalleyin@gmail.com,","28.4974446,76.5757575"
Green Source India,Companies(Private),Noida,"42, 2nd Cross, Devaraya Nagar, K. K. Nagar Post, Trichy 620021, TN","+91-431-3259326, +91-431-4002456","skhetawat@greensources.co,,contact@sunsource-energy.com,info@globalauto.co.in,","28.5023099,77.4016316"
Green Nerds,Companies(Private),Noida,"1056, 9th Main, Vijaya Bank Layout, Bilekahalli, Bangalore 560076, KA",+91-9880457499,"Uscontact@sociopuff.com,,saravanank@peacockconsulting.in,","28.5113794,77.1181116"
Gravita Technomech,Companies(Private),Noida,"501, A-27-B, Gravita Tower, Shanti Path, Tilak Nagar, Jaipur 302004, RJ",+91-141-4057800,"CompanySecretary@gravitaindia.com,,companysecretary@gravitaindia.com,info@gravitatechnomech.com,","28.6213175,77.37703"
Geo Miller & Co. Pvt Ltd,Companies(Private),Noida,"3-F/2, GM House, Okhla Industrial Area, Phase 1, New Delhi 110020, DL",+91-11-41292900,,"28.517631,77.2699791"
En-Vision Enviro Technologies Pvt Ltd,Companies(Private),Noida,"2nd Floor, Shri Ram Complex, Surat Dumas Road, Surat 395007, GJ","+91-261-2224004, +91-261-2252039",",kunhal@en-vision.co.in,finance@en-vision.in,","28.5960405,77.2531041"
E-Cube Infra Services Pvt Ltd,Companies(Private),Noida,"8, B. B. D Bag East, 1st Floor, Suite C, Kolkata 700001, WB","+91-33-22318646, +91-33-22318647",",contact@idcubesystems.com,works@e-cube.in,ho@e-cube.in,info@e-cube.in,","28.6008749,77.2661634"
Brijwasi Biotech Pvt Ltd,Companies(Private),Noida,"Brijwasi Bungalow, Next Sangeeta Society, Juhu Road, Santacruz West, Mumbai 400054, MH",+91-22-26605908,"info@nutrahelix.com,x3einfo@nutrahelix.com,x3eakbiotechpltd@rediffmail.com,,x3eoctanebiotech1@gmail.com,Vinaynair@Nipponcups.In,bioplastic@brijwasigroup.com,x3ecare@alnabiotech.com,octanebiotech1@gmail.com,vinaynair@nipponcups.in,karthickpolyprinters@gmail.com,care@alnabiotech.com,akbiotechpltd@rediffmail.com,x22akbiotechpltd@rediffmail.com,","28.5059633,77.4068239"
Awatech Solutions India Pvt Ltd,Companies(Private),Noida,"4-E, Ojas Apartment, Nehrunagar Cross Road, Ambawadi, Ahmedabad 380015, GJ",+91-79-27911979,",vinit_patel2000@yahoo.com,","28.5811594,77.3073489"
Alpha Industrial Engineering Projects Pvt Ltd,Companies(Private),Noida,"Gala No 3, Ruby Dying & Printing, Kothari Compound, Near National Kaanta, Kherani Road, Sakinaka, Andheri East, Mumbai 400072, MH",+91-22-28592224,",sukeerthi@adtl.co.in,alphacorp@adtl.co.in,sales@alphaengg.in,sureshhegdeandco@gmail.com,","28.5690232,77.1604927"
Alfa-Therm Ltd,Companies(Private),Noida,"6, Community Centre, Phase 1, Mayapuri Industrial Area, New Delhi 110064, DL",+91-11-28115222,",u003einfo@alfatherm.in,info@alfatherm.in,","28.486296,77.4303384"
Zostel,Companies(Private),Noida,"5, Ara Kashan Road, New Delhi 110005, DL",+91-8826290005,",sxxxi@zostel.com,info@mastersindia.co,","28.6455668,77.2071492"
WebMall India Pvt Ltd,Companies(Private),Noida,"A/06, Rony Park Aparment, Sopara Road, Virar 401303, MH",+91-9867571571,",accounts@creativewebmall.com,sana.ghoghari@gmail.com,","28.5987472,77.2675455"
Twenty 1st Century Techno Products Pvt Ltd,Companies(Private),Noida,"2/A, AB Road, Chandra Nagar, Indore 452001, MP",+91-731-3065535,",stellar@stellarfurniture.in,","28.6459534,77.1299969"
Travel On Call,Companies(Private),Noida,"71, Sector 4, Gurgaon 122001, HR","+91-124-6456166, +91-9891747566",",contact@tiinfotech.com,support@spysr.in,","28.5167427,77.0942702"
Times Internet Ltd,Companies(Private),Noida,"391, Ecstasy IT Park, Phase 3, Udyog Vihar, Gurgaon 122016, HR","+91-124-4187000, +91-124-4187001",",timesofindia@btconnect.com,contactus@ettelecom.com,last@timesinternet.in,contactus@economictimesb2b.com,x3ecs@timesinternet.in,cs@timesinternet.in,","28.5860959,77.2649716"
The IT Bazaar,Companies(Private),Noida,"SCO-826, Cabin, 11, 1st Floor, NAC, Manimajra, Chandigarh 160101, CH","+91-172-2730826, +91-172-4347235",,"28.5514263,77.3408065"
Teaxpress Pvt Ltd,Companies(Private),Noida,"120, Sevoke Road, Siliguri 734001, WB",+91-9733061444,",info@mastersindia.co,x3eshyam.mahadik@omya.com,accounts.sil@teabox.com,shyam.mahadik@omya.com,","30.709675,76.6977696"
Sunshine Teahouse Pvt Ltd,Companies(Private),Noida,"5, Near Indian Oil Petrol Pump, DLF Cyber City, Sector 25, Gurgaon 122002, HR",+91-9650063631,",info@mastersindia.co,cs@chaayos.com,letstalk@chaayos.com,x3eletstalk@chaayos.com,","28.4952768,77.1349977"
Sportz Network Pvt Ltd,Companies(Private),Noida,"301, Kalash Sundervan Complex, Andheri Link Road, Andheri West, Mumbai 400053, MH",+91-22-26322660,",xxxx@sportzlive.net,","28.5445373,76.7021904"
Span Across IT Solutions Pvt Ltd,Companies(Private),Noida,"F-5, 1202, Best Sky Tower, Netaji Subash Place, Pitampura, New Delhi 110034, DL",+91-11-42473586,",sudhir.kaushik@spanacross.com,","28.6251362,76.9585495"
Silicon Interfaces Pvt Ltd,Companies(Private),Noida,"606, Nirman Kendra, DR E Moses Road, Mahalaxmi, Mumbai 400011, MH","+91-22-24913665, +91-22-22090935",",sabbir@siliconinterfaces.com,u003cinfo@siliconinterfaces.com,x3esabbir@siliconinterfaces.com,","28.5915533,77.170315"
Ritco Travels & Tours Pvt Ltd,Companies(Private),Noida,"5th Floor, Transcorp Tower, Moti Dungri Road, Jaipur 302004, RJ","+91-141-4004999, +91-141-4004888",,"28.548846,77.2421747"
Pehlajob,Companies(Private),Noida,"A-701, Trade World Building, Kamla Mills, City Senapati Bapat Marg, Lower Parel West, Mumbai 400013, MH",+91-22-66824600,,"28.5524222,77.2775154"
Parvati Fabrics Ltd,Companies(Private),Noida,"Tower F, Parvati House, Shri Kuberji, Textile Park, Surat 395002, GJ",+91-261-3251611,",parvatifabrics@gmail.com,mansi@thefrontierslegal.com,","28.5471526,77.4431877"
Orane Healthcare India Pvt Ltd,Companies(Private),Noida,"117/A, 18th Main, 24th Cross, HSR Layout, Sector 3, Bangalore 560102, KA",+91-9943270000,"andrew@icliniq.com,,","28.6146369,77.3530035"
Online Perfumes Pvt Ltd,Companies(Private),Noida,"D-34, Infocity, Sector 33, Gurgaon 122001, HR",+91-124-3359100,",dinesh.kumar@expertserv.com,info@Perfume2Order.com,info@bmvfragrances.com,","28.5262891,76.5437705"
OKSir,Companies(Private),Noida,"501, Safal Pride, Sion Trombay Road, Chembur, Mumbai 400088, MH",+91-7304040404,,"28.5030738,77.403543"
Nvidia Graphics Pvt Ltd,Companies(Private),Noida,"C-1, Jacaranda, Wing A, Manyata Embassy Business Park, Outer Ring Road, Indira Nagar, Bangalore 560045, KA","+91-80-66948400, +91-80-66948410",",nvidiagraphics@nvidia.com,info@nvidia.com,info@mastersindia.co,x3einfo@nvidia.com,shooda@nvidia.com,","28.4515183,77.0606764"
NewSouthIndiaTour.com,Companies(Private),Noida,"23, Saransign Colony, 3rd Street, Vadapalani, Chennai 600026, TN","+91-44-43521625, +91-44-23660186",,"28.5470576,77.2064559"
Mapmygenome,Companies(Private),Noida,"12/2, Royal Demeure, HUDA Techno Enclave, Sector 1, Madhapur, Hyderabad 500081, TS",+91-40-39510650,",arun@mapmygenome.in,finance@mapmygenome.in,arun.ramamurthy@netapp.com,","28.5986759,77.0248213"
Localoye,Companies(Private),Noida,"2, 3rd Floor, Padmavathi Complex, 8th Block, 3rd Main, Ward No 67, Muncipal, 80 Feet Road, Koramangla, Bangalore 560095, KA",+91-7506647901,,"28.5218039,77.072153"
Itz Cash Card Ltd (Essel Group),Companies(Private),Noida,"14th Floor, Times Tower, Kamala City Senapati Bapat Marg, Lower Parel, Mumbai 400013, MH",-61125587,"investors@ebixcash.com,jane-doe@gmail.com,doe_jane@gmail.com,,",
Intellipaat Software Solutions,Companies(Private),Noida,"39, Patni Chamber, idyut Abhiyanta Colony, Near Shrre Maya Restaurant, Hans Marg, Malviya Nagar, Jaipur 302001, RJ",-9008311897,",chhabraoffice@gmail.com,x3esupport@intellipaat.com,support@intellipaat.com,",
Inhouz Furniture,Companies(Private),Noida,"NR/27, Neelkanth, Nathupur Road, DLF Phase 3, Sector 24, Gurgaon 122002, HR",-9599744448,,
Info Network Management Company Pvt Ltd,Companies(Private),Noida,"199, 18, North Usman Road, Chennai 600017, TN",-42071266,",contact@cogitotech.com,clicktsn@yahoo.com,",
IndyHolidays.com,Companies(Private),Noida,"1B, AC MC Lord AC City, Near High Court, Mathai Manjooran Road, Ernakulam, Kochi 682018, KL",-9849430025,,
Indian Railway Catering and Tourism Corporation Ltd,Companies(Private),Noida,"B-148, 11th Floor, Statesmen House, Barakhamba Road, New Delhi 110001, DL","+91-11-23311264, +91-11-23318273","x3eflights@irctc.co.in,,care@irctc.co.in,x3etourism@irctc.com,x3ecare@irctc.co.in,info@golakshadweep.com,etickets@irctc.co.in,info@irctc.com,flights@irctc.co.in,tourism@irctc.com,",
ICRA Online Ltd,Companies(Private),Noida,"61-107, 1st Floor, Raheja Arcade, Sector 11, CBD Belapur, Navi Mumbai 400614, MH","+91-22-67816100, +91-22-27563072",",business.enquiry@icraindia.com,",
Hopscotch.in (Godrej),Companies(Private),Noida,"88/C, 1st Floor, DGP House, Old Prabha Devi Road, Mumbai 400025, MH","+91-22-43415300, +91-9022191995",,
HigherStudy.com,Companies(Private),Noida,"D-112, Panchsheel Enclave, New Delhi 110017, DL",-41070625,,
GA Media Pvt Ltd,Companies(Private),Noida,"208/D2, Savitri Nagar, New Delhi 110017, DL",-42566920,",rohitsax@yahoo.com,rakesh.shejwal@aartigroup.cominfo,",
Exit10 Marketing Pvt Ltd,Companies(Private),Noida,"B-37/A, Kalkaji, New Delhi 110019, DL",-8287522464,",saptarshinath@gmail.com,x3emalhotrampl@gmail.com,x3eamit@nexxbase.com,alex.souter@overcart.com,x22csbharat@oasisgrp.in,amit@nexxbase.com,x3esavcal@rediffmail.com,x22amit@nexxbase.com,x3ecsbharat@oasisgrp.in,malhotrampl@gmail.com,csbharat@oasisgrp.in,savcal@rediffmail.com,x22malhotrampl@gmail.com,arungupta2211@gmail.com,",
E-Lounge,Companies(Private),Noida,"306, 3rd Floor, E Lounge, Simlim Square, DB Marg, Lamington Road, Mumbai 400007, MH",-23890018,"COMPLIANCE@ABANS.CO.IN,,marketing@somanyceramics.com,",
Convergent Technologies (Smoothmart),Companies(Private),Noida,"19, 1st Floor, HB Colony, Part 2, Jharsa Road, Sector 15, Gurgaon 122001, HR",-4063806,,
ClientCurve Infosystems Pvt Ltd,Companies(Private),Noida,"6th Floor, C Block, MJR Magnifique, Raidurg, Gachibowli, Hyderabad 500008, TS",-46586849,",contact@clientcurve.com,john@clientcurve.com,",
CheerVoucher Global Gifting Solutions,Companies(Private),Noida,"64, 3B, 3rd Floor, 4th Main, Cheer Voucher Global, Gifting Solutions, Vastra Bhavan, Malleshwaram, Bangalore 560055, KA",-65333319,,
BookMeIn ( Aadya Webservices Pvt Ltd ),Companies(Private),Noida,"115, Mittal Estate, Andheri-Kurla Road, Sanjay Nagar, Andheri East, Mumbai 400059, MH",-60606240,"siddharth@bookmein.in,,",
Bookland Noida,Companies(Private),Noida,"5, Sector 22, Noida 201301, UP",-9811208441,",booklandnoida@yahoo.com,info@booklandnoida.in,",
Boiban Business Pvt Ltd,Companies(Private),Noida,"C-7, Indrapuri, Agra 282005, UP",-6900515,",chauhan.sharda@gmail.com,",
Bizongo,Companies(Private),Noida,"E Wing, Tex Centre, Chandivali Farm Road, Andheri East, Mumbai 400072, MH",-8080004555,",marketing@bizongo.com,",
Beam-Money Pvt Ltd (Suvidha),Companies(Private),Noida,"D-128-129, Enterprise, Phase 1, Okhla Industrial Area, New Delhi 110020, DL","+91-11-43310000, +91-11-41510000",",Arun.joshi@suvidhaa.com,beam.delhi@gmail.com,delhi@gmail.com,",
Ballistic Learning Pvt Ltd,Companies(Private),Noida,"E 48/4, Top Floor, Okhla Phase 2, New Delhi 110020, DL",-40581554,"accounts@ballisticlearning.com,,enquiry@ballisticlearning.com,",
Allinelectricals.com,Companies(Private),Noida,"29, 2, Central Mkt Pubjabi Bagh, New Delhi 110026, DL",-9213964607,,
Tribhovandas Bhimji Zaveri Ltd,Companies(Private),Noida,"1106 To 1121, 212, Tulsiani Chambers, 11th Floor, West Wing, Free Press Journal Road, Nariman Point, Mumbai 400021, MH",-30734931,"info@tbzoriginal.com,,careers@tbzoriginal.com,jane_doe@tbztheoriginal.com,",
Titan Company Ltd ( TATA ),Companies(Private),Noida,"132/133, Divyashree Techno Park, Bangalore 560037, KA",-66608989,"investor@titan.co.in,,smartdesk@titan.co.in,customercare@titan.co.in,x3esmartdesk@titan.co.in,x3ecustomercare@titan.co.in,",
Suashish Diamonds Ltd,Companies(Private),Noida,"15, Mehta Mahal, 11th & 12th Floor, Mathew Road, Opera House, Mumbai 400004, MH",-40401131,",info@suashish.com,doe.jane@suashish.com,info@mastersindia.co,sharepro@shareproservices.com,secretary@suashish.com,",
Shringar House Of Mangalsutra Pvt Ltd,Companies(Private),Noida,"199/201, Solitaire Chambers, 1st Floor, Kalbadevi Road, Mumbai 400002, MH",-43111153,",office@shringar.ms,info@shringar.ms,u003eoffice@shringar.ms,",
ORRA Fine Jewellery Pvt Ltd,Companies(Private),Noida,"11, 1st & 2nd Floor, Gate No 4, Ashok Chakravarthy Road, Kandavali East, Mumbai 400101, MH",-30617708,",shripad.nene@orra.co.in,",
HVK International Pvt Ltd,Companies(Private),Noida,"FC-9020, F Tower, 9th Floor, Bharat Diamond Bourse, G Block, Bandra Kurla Complex, Bandra East, Mumbai 400051, MH",-66449930,",x22info@hvkonline.com,accounts@hvkonline.com,info@mastersindia.co,x3einfo@hvkonline.com,info@hvkonline.com,sales@hvkonline.com,",
Akshaya Jewellers,Companies(Private),Noida,"Near Police Chowki, Chowk Bazar, Bhopal 462001, MP","+91-755-2541715, +91-755-2535115","anjaleejewellers@gmail.com,,office@ganjam.com,accounts@akshayajewellers.com,x3eoffice@ganjam.com,shafeekh@malbargroup.com,",
AJ Mehta & Co,Companies(Private),Noida,"801, Panchratna, Opera House, Mumbai 400004, MH",-23633164,,
San Cargo Logistics Pvt Ltd,Companies(Private),Noida,"G-1/12, New No 6, Manikandan Illam, Arumugam Street, Chennai 600114, TN","+91-44-32216006, +91-44-32216575",",pinky@interglobemarine.co,",
Road Runner Logistic Services Pvt Ltd,Companies(Private),Noida,"202, Living Style Mall, Sarita Vihar, Jasola, New Delhi 110025, DL",-32912576,",gandhibinnani@hotmail.com,bddewal@sunriseairsea.com,hispeedmovers@yahoo.com,",
Reliable Transport Corporation,Companies(Private),Noida,"5, Vanita Co-operative Housing Society, Chincholi, Malad West, Mumbai 400066, MH",-9322523902,",nmrcnoida@gmail.con,sandhya2208@yahoo.co.in,noida@uniquecarriers.in,info@amittransport.com,",
Reliable Packaging,Companies(Private),Noida,"D-2, Sector 63, Gautam Buddha Nagar, Noida 201301, UP",-9871052573,",info@vikingplasticpkg.com,",
Printpack Engineers,Companies(Private),Noida,"5-B/50, Mittal Industrial Estate, Andheri Kurla Road, Marol Naka, Andheri East, Mumbai 400059, MH","+91-22-28509034, +91-22-28504740",",instaprintpack@gmail.com,purchase@ab-tech.in,info@printpackengineers.com,bipin.khale@acclimited.com,",
Polyspin Exports Ltd,Companies(Private),Noida,"1, Railway Feeder Road, Cholapuram South, Rajapalayam 626139, TN","+91-4563-284503, +91-4563-284504",",x3efibc@polyspin.in,csannamathew@gmail.com,Kaggarwal@Medicapinc.Com,pelpack@vsnl.net,fibc@polyspin.in,",
Palande Courier Pvt Ltd,Companies(Private),Noida,"2/3, Opposite S N D T Behind State Bank Of India, Karve Road, Erandwane, Pune 411004, MH","+91-20-25443157, +91-20-25430282",",nikamrs2012@gmail.com,info@palandecourier.com,",
Packraft Container India Pvt Ltd,Companies(Private),Noida,"184/184-A, Krishna Nagar Industrial Area, Lane No 2, Opposite Sector 25, Ballabgarh, Faridabad 121004, HR",-4274338,",sumeet@caskk.com,",
Pack Tight Packing India Pvt Ltd,Companies(Private),Noida,"22, Shivam Estate, Tungareshwar Road, Sativali, Vasai East, Thane 401208, MH","+91-9594020610, +91-9594020660","labels@packtight.com,,",
NewAge Packaging,Companies(Private),Noida,"38/A, Plot No 3, Sidhpura Co-operative Industrial Estate Limited, Gaiwadi, S V Road, Goregaon West, Mumbai 400062, MH",-28754600,",info@mastersindia.co,mandalmk@hotmail.com,",
Nav Shikha Polypack Industries Pvt Ltd,Companies(Private),Noida,"508, Somdutt Chamber 2, Bhikaji Cama Place, New Delhi 110066, DL",-26162369,",info@polypack.co.in,info@mastersindia.co,doe@citilight.co,sales@polypack.co.in,navshikha_polypack@yahoo.com,",
Moonshots Internet Pvt Ltd (Opinio),Companies(Private),Noida,"B-319, Concept Business Tech Park, 2nd Floor, 1st Block, Koramangalam, Bommanahalli, Bangalore 560068, KA",-9843507194,",mayank@opinioapp.com,",
MK PrintPack Pvt Ltd,Companies(Private),Noida,"182, Aram Nagar, Part 2, J P Road, Versova, Andheri West, Mumbai 400061, MH",-26302675,",wicmaoffice@gmail.com,info@mastersindia.co,accounts@mkprintpack.com,wicma@wicma.com,mkdaman@mkprintpack.com,mkharidwar@mkprintpack.com,",
Maruthi Plastics & Packaging Chennai Pvt Ltd,Companies(Private),Noida,"8, Anderson Street, Parrys, Chennai 600001, TN","+91-44-42164272, +91-44-42164276",,
Maharashtra Metal Works Pvt Ltd,Companies(Private),Noida,"502/503, Kshitij, Near Azad Nagar Metro Station A, Veera Desai Road, Andheri West, Mumbai 400053, MH",-61075931,",cs@centrum.co.in,",
L.G. Brothers Lorry Service (LGBLS),Companies(Private),Noida,"1, MCD Building, 1st Floor, D B Gupta Road, Paharganj, New Delhi 110055, DL","+91-11-23584201, +91-11-23584203",",sales@lgbls.com,lgblpldelhi@gmail.com,jane_doe@LGBLS.COM,",
Kumar Printers Pvt Ltd,Companies(Private),Noida,"24, Sector 5, Manesar, Gurgaon 122050, HR",-2896333,"accounts@kumarprinters.com,,u003eaccounts@kumarprinters.com,",
Innovative Tech Pack Ltd,Companies(Private),Noida,"43/1109-1110, Chiranjiv Tower, Nehru Place, New Delhi 110019, DL","+91-11-26427394, +91-11-26473490",",x3ecs@itplgroup.com,cs@itplgroup.com,inpack@del2.vsni.net.in,",
Indian Roadways Corporation Ltd,Companies(Private),Noida,"1, IRC House, Sunyat Sen Street, Kolkata 700012, WB",-22365052,",tushar@kmsindia.in,manoharan@srishunmugashipping.com,ho@ircl.in,",
Hima Industrial Corporation,Companies(Private),Noida,"84, Sector-1, Parwanoo 173220, HP",-234240,"hxxxxu@amity.edu,info@himagroup.co.in,JYOTIPATENT@GMAIL.COM,,",
Gee Gee Foods & Packaging Co. Pvt Ltd,Companies(Private),Noida,"B-188/2, Malviya Nagar, New Delhi 110017, DL","+91-11-26013003, +91-11-26011892",,
Ganpati Carrying Corporation Ltd,Companies(Private),Noida,"635/246, Disma Office Premises Co-operative Society Limited, D-Wing, 6th Floor, Kalamboli, Navi Mumbai 410218, MH","+91-22-27426431, +91-22-27426432",",transport@ganpaticc.com,manoj.sahu@ganpaticc.com,",
FR8 Integrated Logistics Pvt Ltd,Companies(Private),Noida,"28, Hartron Complex, Eletronic City, Phase IV, Gurgaon 122015, HR",-4594033,",amit.tandon@fr8.co.in,raj@mangalamgroup.com,amit.tandon@in-asgroup.com,delhi@bbcargo.com,",
EarthOne Logistics Pvt Ltd,Companies(Private),Noida,"518, 5th Floor, Vishal Tower, District Centre, Janak Puri, New Delhi 110058, DL",-41718809,",gslogistics_2006@yahoo.com,ashish.sonthalia@globalpsa.com,x3esecretarial@chettinad.com,info@expertlogisticsindia.com,x3ecompliance.hlpl@gmail.com,office@plkassociates.com,compliance.hlpl@gmail.com,secretarial@chettinad.com,x3egslogistics_2006@yahoo.com,x3eashish.sonthalia@globalpsa.com,",
DNA Packaging Systems,Companies(Private),Noida,"8540, Sector C, Pocket 8, Vasant Kunj, New Delhi 110070, DL",-41767879,,
Casby Group of Companies,Companies(Private),Noida,"198, Khetan Bhavan, 5th Floor, Jamshedji Tata Road, Churchgate, Mumbai 400020, MH",-66239931,",hr.recruitment@totalgroup.in,",
Carthero Technologies Pvt Ltd (Roadrunnr),Companies(Private),Noida,"Leela Landmark, 2nd Floor, 1st Cross Road, Ashwini Layout, Ejipura, Bangalore 560047, KA",-30196404,"x22SANJEEV08G@GMAIL.COM,cs@oxymoney.com,,sourav.daga@met-technologies.com,SANJEEV08G@GMAIL.COM,secretarial@zomato.com,x3eSANJEEV08G@GMAIL.COM,x3esourav.daga@met-technologies.com,na@cirrius.com,x3ecs@oxymoney.com,x3ena@cirrius.com,",
Bharat Corrrub Industries,Companies(Private),Noida,"749/8, GIDC, Makarpura, Vadodara 390010, GJ","+91-265-6670873, +91-265-2632278",",doejane@bharatcorrub.com,",
Bhagwati Packer Pvt Ltd,Companies(Private),Noida,"D-389, Sector 10, Noida 201301, UP",-9811406969,",bhagwatipackers@yahoo.co.in,",
Bhagabati Udyog,Companies(Private),Noida,"44, Burtolla Street, Kolkata 700007, WB",-9830058413,",goelconstruction@hotmail.com,dj@jutebagexporters.com,niyogioffset@gmail.com,",
Bang Polypack,Companies(Private),Noida,"308, Keval Industrial Estate, 3rd Floor, Senapati Bapat Marg, Lower Parel, Mumbai 400013, MH",-40436496,",bickolkata@gmail.com,n@bicindia.com,info@bicindia.com,Tracemyfoodnow@Gmail.Com,",
Auto Strap India,Companies(Private),Noida,"204/17, Professional Plaza, Punit Nagar, Old Padra Road, Vadodara 390020, GJ","+91-265-2359441, +91-265-2313470",",sales@autostrapindia.com,sales@omfarubbers.com,",
Ato India Ltd,Companies(Private),Noida,"34, Jaba Kusum House, CR Avenue, Kolkata 700012, WB",-22121229,",Smith@ato.co.in,atclean@126.com,",
Apeejay Infralogistics Pvt Ltd,Companies(Private),Noida,"15, Apeejay House, Park Street, Kolkata 700016, WB",-44035397,",joangeogy@choicegroup.in,apjaccountscal@apeejaygroup.com,ailpl@apeejaygroup.com,doej@ailpl.com,",
Alufoil Products Pvt Ltd,Companies(Private),Noida,"208, Mukti Chamber, 2nd Floor, Clive Row, Kolkata 700001, WB",-22314931,",l.mahapatra@adityabirla.com,alufoildelhi@gmail.com,",
Alpla India Pvt Ltd,Companies(Private),Noida,"8-2-293/82/J-3/304-C, Road No 78 Jubilee Hills, Hyderabad 500033, TS","+91-40-30882251, +91-40-30882252",",x3ediwakar.sharma@alpla.com,diwakar.sharma@alpla.com,",
Aavya Industries Pvt Ltd,Companies(Private),Noida,"B-71/B-72, Balanagar Industrial Estate, Hyderabad 500037, TS",-9885335131,",mail@bmgs.in,oshu.rakesh2204@gmail.com,cs@agindus.com,om_kedia@yahoo.co.in,INenquiry@avaya.com,MAIL@BMGS.IN,prashant@avya-tech.com,x3ecs@agindus.com,accounts@omkedia.com,",
Regent Granito India Ltd,Companies(Private),Noida,"Near Sadar Dairy, National Highway 8, Hajipur, Himatnagar 383120, GJ",-307181,",thulsidasstv@britindia.com,cashekharrajput@gmail.com,jotwani.shivgangaindustries@gmail.com,info@regentgranito.com,sonarajora@britindia.com,",
NTB International Pvt Ltd,Companies(Private),Noida,"622/2, Near Chakan Pune Nasik Highway, Rajgurunagar, Khed 410501, MH",-664810,",conveyor@ntbindia.com,dk.mohan@ntbindia.com,x3ek.verma@ntbindia.com,belting@ntbindia.com,superabrasives@ntbindia.com,ntbcl@ntbcl.com,k.verma@ntbindia.com,ceramics@ntbindia.com,",
Natraj Cement Prestressed Works,Companies(Private),Noida,"Near Railway Crossing, Anand-Tarapur Road, Vithal, Udyognagar, Anand 388121, GJ",-235627,,
Gem Granites,Companies(Private),Noida,"76 & 78, Cathedral Road, Chennai 600086, TN","+91-44-28115190, +91-44-28117338",",gemusa@gemgranites.com,gemindia@gemgranites.com,info@mastersindia.co,ajarshil_jp1@sancharnet.in,",
Associated Stone Industries Kotah Ltd,Companies(Private),Noida,"7th Floor, A Wing, Marathon Innova, Off Ganpatrao Kadam Marg, Lower Parel, Mumbai – 400 013 MH",-40896031,",investors@asigroup.co.in,x3ecs@asigroup.co.in,d.bhardwaj@mangalamcement.com,cs@asigroup.co.in,scgupta@asigroup.co.in,",
Zee Taj Television India Pvt Ltd (Essel Group),Companies(Private),Noida,"Marathon Futurex, 19th Floor, A Wing, N M Joshi Marg, Lower Parel East, Mumbai 400013, MH",-9999102686,"pushpal.sanghavi@zee.esselgroup.com,,opportunities.zmcl@zeemedia.esselgroup.com,shareservice@zee.com,",
Wieden + Kennedy India (P) Ltd,Companies(Private),Noida,"314, DLF South Court, Saket, New Delhi 110017, DL",-42009515,",Teamjobs.india@wk.com,jobs.india@wk.com,info@mastersindia.co,",
Viswaroopa Advertising & Marketing,Companies(Private),Noida,"9/5/651, Park Square Colony, 2nd Cross Street, Madipakkam, Chennai 600091, TN",-22580494,,
Veecon Music & Entertainment Pvt Ltd,Companies(Private),Noida,"B-58, Veecon House, Shivalik, New Delhi 110017, DL",-9873640864,,
Twohmp Communications Pvt Ltd,Companies(Private),Noida,"808, Tower C, Business Zone, Golf Course Road, Sector 50, Gurgaon 122018, HR","+91-124-4308543, +91-124-4308544",",info@twohmp.in,dheeraj@pulaxgroup.com,",
TV18 Broadcast Ltd (Network 18),Companies(Private),Noida,"15/16, Express Trade Tower, Sector 16-A, Noida 201301, UP","+91-120-4341818, +91-120-3987777",",ratnesh.rukhariyar@nw18.com,x3eratnesh.rukhariyar@nw18.com,complaint@nw18.com,",
Times Internet Ltd (Indiatimes),Companies(Private),Noida,"391, Ecstasy IT Park, Udyog Vihar, Phase III, Gurgaon 122016, HR","+91-124-4187000, +91-124-4187001",",contactus@ettelecom.com,contactus@economictimesb2b.com,x3ecs@timesinternet.in,cs@timesinternet.in,",
Times Innovative Media Ltd (Times),Companies(Private),Noida,"6, Film City, Sector 16-A, Noida 201301, UP","+91-120-6636761, +91-120-6636762","xxxx@timesoohmedia.com,,cs.timl@timesgroup.com,timesooh@timesgroup.com,",
Times Business Solutions Ltd (TimesJobs.com) (Times),Companies(Private),Noida,"6, Times Center, Film City, Sector 16-A, Noida 201301, UP","+91-120-6636000, +91-120-6636366",",timesofindia@btconnect.com,careers.tbsl@timesgroup.com.com,",
Times Business Solutions Ltd (TBSL) (Times),Companies(Private),Noida,"6, Times Center, Film City, Sector 16-A, Noida 201301, UP","+91-120-6636000, +91-120-3302768",",tss@timesgroup.com,info.tbsl@timesgroup.com,careers.tbsl@timesgroup.com.com,",
Times Business Solutions Ltd (SimplyMarry.com) (Times),Companies(Private),Noida,"6, Times Center, Film City, Sector 16-A, Noida 201301, UP",-6636133,,
The Retail Jeweller,Companies(Private),Noida,"49/2333, Shree Sai Krupa Co-operative Housing Society Limited, Opposite MIG Cricket Club, Gandhi Nagar, Bandra East, Mumbai 400051, MH","+91-22-61134999, +91-22-65206158",",rahul@groupdca.in,info@retailjewellerindia.com,",
The Printers (Mysore) Pvt Ltd (Deccan Herald),Companies(Private),Noida,"75, M G Road, Bangalore 560001, KA","+91-80-25880000, +91-80-25880179","ads@deccanherald.co.in,,x3eads@deccanherald.co.in,readerservicecell@deccanherald.co.in,",
The Indian Performing Right Society Ltd,Companies(Private),Noida,"208, Golden Chambers, New Andheri Link Road, Andheri, Mumbai 400053, MH","+91-22-26733750, +91-22-26733749",",accounts@iprsltd.com,hrdesk@iprs.org,",
Tetra Media Pvt Ltd,Companies(Private),Noida,"68, SGI Training Center, Sector 18, Gurgaon 122002, HR","+91-124-4148100, +91-124-4148101",",suraj.prakash@rupeepower.com,",
Technicolor India Pvt Ltd,Companies(Private),Noida,"Level 9/11, Navigator, ITPL, Whitefield Road, Bangalore 560066, KA",-40461223,",jeevesh.kumar@technicolor.com,x3ejeevesh.kumar@technicolor.com,sathish.kumar@mindpooltech.ne,",
Tanish Infotech Solutions India Pvt Ltd,Companies(Private),Noida,"Kundan Nagar, Kasarwadi, Dapodi, Pune 411034, MH",-65007700,",hr@tanishinfotech.com,",
Super Journals Pvt Ltd,Companies(Private),Noida,"E-29, 1st Floor, Above IDBI Bank, Main PVR Road, Saket, New Delhi 110017, DL","+91-11-41436714, +91-11-41072244",",rakesh.shejwal@aartigroup.cominfo,careers@pdilin.com,rjdave@trumacin.com,",
Suli Designs,Companies(Private),Noida,"276-A, Near Jaycess School, Ashok Nagar, Erode 638002, TN",-9600435008,",hr@sinidesigns.com,",
Suit Up Advertising Pvt Ltd,Companies(Private),Noida,"D-126, Sector 51, Noida 201303, UP","+91-9818959118, +91-120-2485326","ankita.saraswat02@gmail.com,customerservice@uniqlo.in,x3einfo.in@transsion.com,,x3ecustomerservice@uniqlo.in,ANKITA.SARASWAT02@GMAIL.COM,careers@uplers.in,info.in@transsion.com,",
Studio Foto Lite,Companies(Private),Noida,"7/40, McLeod Street, Kolkata 700017, WB","+91-33-22290705, +91-33-22291966",,
Spatial Access Pvt Ltd,Companies(Private),Noida,"19/21, Unique Industrial Estate, Twin Towers Lane, Off Veer Savarkar Marg, Prabhadevi, Mumbai 400025, MH",-66602375,,
Smart Media Group,Companies(Private),Noida,"B-1, Alsa Brentwood No 79, Old No 38, 1st Main Road, R A Puram, Chennai 600028, TN",-42303927,",einward.ris@kfintech.com,customercare@halonix.co.in,",
Six Inches Communication Pvt Ltd,Companies(Private),Noida,"601/602, Laxmi Plaza, Laxmi Industrial Estate, New Link Road, Andheri West, Mumbai 400053, MH","+91-22-40676969, +91-22-40676970",",info@sixinches.in,",
SilverPush,Companies(Private),Noida,"Times Square, 3rd Floor, B Block, Sushant Lok I, Gurgaon 122002, HR",-4076985,",txxxxxxxo@silverpush.co,jane@silverpush.co,",
Showhouse Event Management Pvt Ltd,Companies(Private),Noida,"335, Spazedge, Tower B, Sohna Road, Sector 47, Gurgaon 122002, HR","+91-124-4060947, +91-9830312308",",omerhaidar@showhouseindia.com,jane@showhouseindia.com,",
Security Planet,Companies(Private),Noida,"1/53, Amruteshwar Co-operative Housing Society, Near Shaniwar Wada, Shaniwarpeth, Pune 411030, MH",-9503852250,,
Sanson India Pvt Ltd,Companies(Private),Noida,"D-9, Flatted Factories Complex, Jhandewalan, New Delhi 110055, DL",-23675607,",ramanzzzzin@yahoo.com,info@mastersindia.co,",
Ronak Exim Pvt Ltd,Companies(Private),Noida,"Sant Kabir Road, Gendi Gate, Vadodara 390001, GJ",-2565336,"inquiry@ronakexim.com,,nspradhan2003@yahoo.com,x3enspradhan2003@yahoo.com,",
Rockstand Digital Pvt Ltd,Companies(Private),Noida,"405/16, Ansal Bhawan, K G Marg, Connaught Place, New Delhi 110001, DL",-66301921,"sxx@phonepe.com,,last@thoughtsol.in,astrosupport@rockstand.in,",
Reed SI Exhibitions Pvt Ltd,Companies(Private),Noida,"B-9, A Block, LSC, Naraina Vihar, Ring Road, New Delhi 110028, DL",-45055420,",Chandan.Kumar@rxglobal.com,info@reedsi.com,",
Real Image Media Technologies Pvt Ltd,Companies(Private),Noida,"42, Dr. Ranga Road, Mylapore, Chennai 600004, TN",-42041458,",info@realimage.com,",
Ratan Batra Pvt Ltd,Companies(Private),Noida,"Iiaco House, 4th Floor, Above Punjab National Bank, Sir Pherozeshah Mehta Road, Fort, Mumbai 400001, MH","+91-22-22663225, +91-22-22855461",",finac@ratanbatra.com,mansi@thefrontierslegal.com,",
PVR Ltd,Companies(Private),Noida,"9, Block A, 4th Floor, DLF Cyber City, Phase III, Gurgaon 122002, HR",-4708133,",sales@virtualemployee.com,reachus@vispl.co.in,",
Propack Shreiner Pvt Ltd,Companies(Private),Noida,"1482/1, 21/5, Thalgatpura Kanakpura Main Road, Bangalore 560062, KA",-28425524,"doe-j@WWW.PROPACK.CO,ramesh@propack.co.in,x3eramesh@propack.co.in,,",
Plus Business Machines Ltd,Companies(Private),Noida,"223, Udyog Bhavan, Sonawala Road, Goregaon East, Mumbai 400063, MH","+91-22-40074000, +91-22-26863151","response@plus-india.com,snavandar@plus-india.com,,info@mastersindia.co,",
PixelKraft Media Solutions Pvt Ltd,Companies(Private),Noida,"3-B, Raag Durbar, 3rd Floor, Sterling Road, Nugambakkam, Chennai 600034, TN","+91-44-28251740, +91-9840281815",",accounts@pixelkraft.in,",
Pinstorm Technologies,Companies(Private),Noida,"Swati Building, North Avenue, Santacruz West, Mumbai 400054, MH",-67393819,",last@pinstorm.com,india@pinstorm.com,",
Phulchhab,Companies(Private),Noida,"Janmabhoomi Group Of Newspapers, Phulchhab Bhavan, Phulchhab Chowk, Fort, Mumbai 400001, MH","+91-22-22870831, +91-22-22870832","vishal@zybra.in,,contact@zybra.in,",
Photonplay Technologies,Companies(Private),Noida,"C-99, Sector 65, Noida 201301, UP","+91-120-4263869, +91-9971030527",",bksingh@photonplay.com,",
Pala Marketing Co-op. Society Ltd,Companies(Private),Noida,"33, Kottayam, Palai 686575, KL","+91-4822-212416, +91-4822-213514",,
Origami Creative Concepts Pvt Ltd,Companies(Private),Noida,"115, Railway Parallel Road, Kumara Park West, Bangalore 560020, KA",-41121098,",accounts@origamicreative.com,last@origamicreative.com,",
Nrigujarati Infomedia,Companies(Private),Noida,"123, 1st Floor, Nakshatra 5, Opposite Raj Palace, University Road, Rajkot 360005, GJ","+91-281-3040101, +91-281-2577130",",sramana18@gmail.com,mahesh.murthy@gmail.com,bennyaugustine@contractadvertising.com,avsroy@hotmail.com,",
New Delhi Television Ltd (NDTV),Companies(Private),Noida,"Archana Complex, Greater Kailash, New Delhi 110020, DL",-26446586,",Corporate@ndtv.com,",
Mirror And Smoke,Companies(Private),Noida,"8, Sukun Apartment, Near Municipal School, Naranpuragam, Ahmedabad 380013, GJ",-27495254,,
Mex Exhibitions Pvt Ltd,Companies(Private),Noida,"9, Sant Nagar, East of kailash, New Delhi 110065, DL",-46464768,",Accounts@mexexhibits.com,accounts@mexexhibits.com,hr@mexexhibits.com,",
Mesmerizers Creative Communications,Companies(Private),Noida,"29/1, 3rd Floor, Next to Garuda Mall, Nagrath Road, Bangalore 560025, KA",-9845065704,"JenniferFleming4445@gmail.com,,",
Merchant Media Ltd,Companies(Private),Noida,"G-17/G-18, Commerce Centre, 7th Floor, Tardeo Road, Mumbai 400034, MH","+91-22-40021536, +91-9820149760","nityanand@dixoninfo.com,,x3enodalofficer@paytmbank.com,sachin.vangujare@dixoninfo.com,nodalofficer@paytmbank.com,mideacare@midea.co.in,nishreen@arresto.in,",
MediaJackers,Companies(Private),Noida,"278, 19th Main, 13th Cross, HSR Layout, Sector 4, Bangalore 560102, KA",-9620054702,,
Media Sphere Communications Pvt Ltd,Companies(Private),Noida,"4, 49/A/18, Swastik Apartments, Gulmohar Lane, Law College Road, Pune 411004, MH",-60709738,",contact@cogitotech.com,",
Masaledani Media & Advertising,Companies(Private),Noida,"11, Hauzirani, Malviya Nagar, New Delhi 110017, DL",-9999683683,,
Mark 1 Communication,Companies(Private),Noida,"111, Venkatasamy Road West, R S Puram, Coimbatore 641002, TN",-4201111,",cmcltdgreaternoida@gmail.com,",
Maitri Advertising Works Pvt Ltd,Companies(Private),Noida,"181, 7th Cross Road, Girinagar, Kadavanthra, Kochi 682020, KL","+91-484-2323716, +91-484-2323726",",applytomaitri@gmail.com,crs47maitri@gmail.com,",
Machwan Communication & Research Pvt Ltd,Companies(Private),Noida,"A-8, Commercial Building, C Block, Community Centre, Naraina Vihar, New Delhi 110028, DL",-48404920,,
Lodestar UM,Companies(Private),Noida,"Pheniox House, C Wing, 3rd Floor, Phenoix Mill Compound, Lower Parel West, Mumbai 400013, MH","+91-22-61777200, +91-22-67568200",",gxxxxxxxxxxxxxxxxxxxxxa@gmail.com,",
Living Media India Ltd (Oye 104.8 FM) (India Today),Companies(Private),Noida,"FC-8, Film City, Sector 16-A, Noida 201301, UP",-4807129,",x3en.radhakrishnan@intoday.com,n.radhakrishnan@intoday.com,",
Lemuriya Advertising Agency (Lemuriya Olithirai),Companies(Private),Noida,"C-40, 2nd Avenue, Anna Nagar, Chennai 600040, TN",-9840012217,,
L&K Saatchi & Saatchi,Companies(Private),Noida,"95, Urmi Estate, 15th Floor, Tower A, Ganpatrao Kadam Marg, Lower Parel, Mumbai 400013, MH",-30019375,,
Kisan Forum Pvt Ltd (KISAN.com),Companies(Private),Noida,"1170/17-B, Revenue Colony, Jangali Maharaj Road, Shivaji Nagar, Pune 411005, MH",-30251929,"team@kisan.in,,info@mastersindia.co,x3eaccounts@kisan.in,last@kisan.com,accounts@kisan.in,x22accounts@kisan.in,",
Kavithalayaa Productions Pvt Ltd,Companies(Private),Noida,"New No 73, 4th Street, Abhiramapuram, Chennai 600018, TN",-9840156669,",u003ekavithalayaa@gmail.com,doe-j@kavithalayaa.com,kavithalayaa@gmail.com,",
JV International,Companies(Private),Noida,"5, Hi-Life, 3rd Floor, Pheroze Shah Mehta Marg, Mumbai 400052, MH",-40045064,",hr_admin@bsspl.in,jainchopra.company@yahoo.com,jainchopra.company@gmail.com,",
Jasubhai Media Pvt Ltd (Jasubhai Group),Companies(Private),Noida,"26, Jasubhai Group, Maker Chamber VI, 2nd Floor, Nariman Point, Mumbai 400021, MH","+91-22-40373636, +91-22-40373737",",x3erj_vakil@jasubhai.com,princebel_m@jasubhai.com,rj_vakil@jasubhai.com,sunil_kulkarni@jasubhai.com,",
Jaihind Daily,Companies(Private),Noida,"Jai Hind Press Building, Babubhai Shah Marg, Rajkot 360001, GJ","+91-281-2440513, +91-281-2448816",,
iTEN Media Pvt Ltd,Companies(Private),Noida,"33, 4th floor, Sector 12-A, Dwarka, New Delhi 110075, DL",-43013394,",ab@itenmedia.in,",
ISR Infomedia Pvt Ltd,Companies(Private),Noida,"166-B, Merlin Links, 5th Floor, Block 5E & F, S P Mukherjee Road, Kolkata 700026, WB",-24659348,",isr.infomedia@yahoo.com,sales@jeicoremoles.com,",
InfoStore (Fanatic Media),Companies(Private),Noida,"J-100, Saurabh Vihar, Hari Nagar, New Delhi 110044, DL",-9818305467,,
Indian Magic Eye Pvt Ltd,Companies(Private),Noida,"768/1, Flat No 4, Prabhi Apartment, PYC, Deccan Gymkhana, Pune 411004, MH",-25660513,",jane@imepl.com,accounts@imepl.com,compliances.secretarial@gmail.com,",
Indian Ads Online,Companies(Private),Noida,"Krishnasaras, Advocate Easwara Iyer Road, Ernakulam 682018, KL","+91-8891234561, +91-8891234562",,
India One Brand Services Pvt Ltd,Companies(Private),Noida,"26/B, S G Barve Marg, Kamgaar Nagar, Kurla East, Mumbai 400024, MH",-9833002207,",u003eaccount@iobs.in,account@iobs.in,",
India InfoMedia Pvt Ltd,Companies(Private),Noida,"C-22, Shivalik, New Delhi 110017, DL","+91-11-26680328, +91-11-26687610",",neelam.amiable@gmail.com,",
Index Media Pvt Ltd,Companies(Private),Noida,"401, Sanskriti Park, Commercial Block 50-B , Mahakali Caves Road, Andheri East, Mumbai 400093, MH","+91-22-28302870, +91-22-28302871",",lakhan@ueindia.com,",
IBCI Pvt Ltd,Companies(Private),Noida,"18, 2nd Floor, Frazer Town, Buddha Vihar Road, Bangalore 560005, KA",-41234489,"ra.irp@ibbi.gov.in,,atulprga@gmail.com,mansfieldpowerpvtltd@gmail.com,alok@alankit.com,x3era.irp@ibbi.gov.in,",
Greycells Education Ltd,Companies(Private),Noida,"11/12, Greycells Education Limited, 1st Floor, Forum Building, Raghuvanshi Mills Compound, Senapati Bapat Marg Lower Parel West, Mumbai 400013, MH",-61479930,",x3echairman@gnida.in,ceo@gnida.in,chairman@gnida.in,x3eceo@gnida.in,",
GreyCell World,Companies(Private),Noida,"Greycell Tower, 5th & 6th Floor, Sector 35, Noida 201307, UP",-2444806,",John@greycellworld.com,kanika@vspark.co.in,",
Grapes Digital Pvt Ltd,Companies(Private),Noida,"257-A, 3rd Floor, Hauz Rani Market, Saket, New Delhi 110017, DL","+91-11-26686200, +91-9999017990",",info@grapesworldwide.com,accounts@grapesdigital.com,press@grapesworldwide.com,",
Glue Design Pvt Ltd,Companies(Private),Noida,"S-301, Lado Sarai, New Delhi 110030, DL",-41044628,",jane.doe@gluedesign.in,divakar@gluedesign.in,u003edivakar@gluedesign.in,",
Glocal Infomart Pvt Ltd,Companies(Private),Noida,"312, Twin Arcade, D Wing, Military Road, Marol, Andheri East, Mumbai 400059, MH",-29255500,",babu@bankingfrontiers.com,info@mastersindia.co,",
Global Media Network,Companies(Private),Noida,"120, GMN Building, Sector 44, Gurgaon 122003, HR",-4932053,",einward.ris@kfintech.com,",
Forecast Advertising Pvt Ltd,Companies(Private),Noida,"Amfotech Park, 3rd Floor, Opposite Old Passport Office, Wagle Estate, Thane West 400604, MH",-67675031,"sunil@forecastadvtg.com,,",
Financial Chronicle,Companies(Private),Noida,"S-7, 8, Green Park, Main Market, New Delhi 110016, DL","+91-11-26530001, +91-11-26530002",",feedback@indianexpress.com,pxxxxxh@financialexpress.com,4pdesigno@gmail.com,advt@deccanmail.com,",
Executive Events,Companies(Private),Noida,"KV-8, 5th Cross Road, Panampilly Nagar, Kochi 682036, KL",-4030930,",info@getmeup.in,",
Excel Entertainment Pvt Ltd,Companies(Private),Noida,"701, Orchid Pride Corner, Off S V Road, Mumbai 400054, MH","+91-22-26041011, +91-22-26007273",",jaswant@exlent.com,x3escript@exlent.com,script@exlent.com,d-j@excelmovies.com,",
Event Plus Management Pvt Ltd,Companies(Private),Noida,"V-1, 24, Mehra Industrial Estate, Mathuradas Vasanji Road, Safed Pul, Sakinaka, Andheri East, Mumbai 400072, MH","+91-22-28242828, +91-22-28242727",",secretarial1989@gmail.com,appl.helpdesk@mca.gov.in,",
Equisport Management Pvt Ltd,Companies(Private),Noida,"D-237, Defence Colony, New Delhi 110024, DL","+91-11-41552394, +91-11-41552395",",adhiraj@equisport.in,",
Emerald Plastics Magazines Pvt Ltd,Companies(Private),Noida,"B-7, Bhanu Park, 1st Floor, J Adukia Road, Kandivali, Mumbai 400067, MH",-28081211,",adhpolymers@gmail.com,emeraldgroupe@gmail.com,",
Eli Research India Pvt Ltd,Companies(Private),Noida,"13/6, SSR Corporate Park, 7th Floor, National Highway 2, Delhi Mathura Road, Sector 27-B, Faridabad 121002, HR",-4294738,",INGGFinCompliance@globalgrowth.com,",
Elets Technomedia Pvt Ltd,Companies(Private),Noida,"7A/7B, C-25, Stellar IT Park, Tower? 2, 5th Floor, Sector 62, Noida 201301, UP","+91-120-4812600, +91-8860651646",",finance@elets.co.in,jane@elets.in,",
EFX Corporation (Prasad Corporation Ltd),Companies(Private),Noida,"28, Arunachalam Road, Saligramam, Chennai 600093, TN","+91-44-23764434, +91-44-23760092",,
E-Bizz Entertainment India Pvt Ltd,Companies(Private),Noida,"401-C/99, Niranjan, Marine Drive, Mumbai 400002, MH",-22813102,",business@acldigital.com,spartexed@hotmail.com,deals@ksbminfotech.com,x3etax366@elentec.in,tax366@elentec.in,",
Display Creators Pvt Ltd,Companies(Private),Noida,"1159/101, Swojas House, Near Hatti Ganpati, Off Tilak Road, Sadasivpeth, Pune 411030, MH",-9822790718,",hrd@aimil.com,career@green-byte-web.com,mljawa@aimil.com,PDICREATORSHUB@GMAIL.COM,info@lynxdesigners.com,",
Diligent Media Corporation Ltd (Essel Group),Companies(Private),Noida,"Indiabulls Finance Centre, Tower 3, 11th Floor, Senapati Bapat Marg, Elphinstone Road, Mumbai 400013, MH",-39888819,",complianceofficer@dnaindia.com,x3ecomplianceofficer@dnaindia.com,complianceofficer@zeemedia.esselgroup.com,",
Diamond Media Pvt Ltd,Companies(Private),Noida,"204-B, Building No D-4, Phase 4, Ghodbunder, Thane 400607, MH",-8976585050,,
DeeCatalyst Pvt Ltd,Companies(Private),Noida,"CS-16, Ansal Plaza Mall, 2nd Floor, Near Metro Station, Vaishali, Ghaziabad 201010, UP",-8588853392,",accounts@deecatalyst.in,info@mastersindia.co,",
Dattaram Advertising Pvt Ltd,Companies(Private),Noida,"43, Ready Money Mansion, 2nd Floor, Nariman Point, Mumbai 400001, MH",-22047841,",dapl3@vsnl.com,dapladvt@gmail.com,",
Dacunha Communications Pvt Ltd,Companies(Private),Noida,"Elysium Mansion, 4th Floor, Electric House, Walton Road, Colaba, Mumbai 400001, MH",-22829942,",contact@xceedance.com,accounts@dacunha.in,",
Cybex Exim Solutions Pvt Ltd,Companies(Private),Noida,"Om Complex, 4th Floor, Opposite Nirulas, Sector 15, Noida 201301, UP",-4517829,"care@cybex.in,,jane@cybex.in,vimal@kcccas.com,",
Cyber Media India Ltd (Cyber Media),Companies(Private),Noida,"B-35, Cyber House, Sector 32, Gurgaon 122002, HR","+91-124-4822222, +91-124-2381690","anoops@cybermedia.co.in,,last_initial@cybermedia.co.in,",
CS Direkt Events & Exhibitions Pvt Ltd,Companies(Private),Noida,"894, Udyog Vihar, Phase I, Gurgaon 122016, HR",-9717592131,",csd@csdirekt.com,",
Creativeland Asia Pvt Ltd,Companies(Private),Noida,"Naman Center, 9th Floor, Bandra Kurla complex, Bandra East, Mumbai 400051, MH",-61215486,",cscreativelandasia@gmail.com,",
Counterpoint Technology Market Research,Companies(Private),Noida,"15, Dev Corporation, Near Cadbury Junction, Eastern Express Highway, Thane 400601, MH",-9930218378,",info@counterpointresearch.com,",
Channelplay Ltd,Companies(Private),Noida,"721, Udyog Vihar, Phase V, Gurgaon 122016, HR",-4720134,"axxxxxxl@channelplay.in,,",
Censer Advertising Pvt Ltd (Adhelpline),Companies(Private),Noida,"4-E/7, Jhandewalan, New Delhi 110055, DL","+91-11-41540777, +91-11-41540888",",censer@censer.in,ceo.office@ndplonline.com,ceo@sungroseeds.com,censer@adhelpline.com,d-jane@censer.in,",
Carrot Ad Works,Companies(Private),Noida,"570/7, 1st Floor, Anna Salai, Teynampet, Chennai 600018, TN","+91-44-42609192, +91-44-24355578","jdoe@carrotadworks.com,,anandbalki@carrotadworks.com,",
BSK Network & Entertainment Pvt Ltd,Companies(Private),Noida,"Lens View Building, 5th Floor, Near Prathamesh School, Veera Desai Road, Andheri West, Mumbai 400053, MH","+91-22-26731674, +91-22-26731672",,
Bharat Book Bureau,Companies(Private),Noida,"808, Real Tech Park, 8th Floor, Sector 30-A, Vashi, Navi Mumbai 400703, MH","+91-22-27578668, +91-22-27810773","cestat08@gmail.com,,bbdbooks@gmail.com,info@bharatbook.com,",
BGIL Films & Technologies Ltd,Companies(Private),Noida,"B-66, Sector 60, Noida 201301, UP",-4227821,,
Barr Media Pvt Ltd,Companies(Private),Noida,"Block 1, Shakapur, New Delhi 110092, DL",-22056909,,
Balaji Telefilms Ltd,Companies(Private),Noida,"C-13, Balaji House, Dalia Industrial Estate, Opposite Laxmi Industrial Estate, New Link Road, Andheri West, Mumbai 400053, MH","+91-22-40698000, +91-22-40698001",",j-d@balajitelefilms.com,investor@balajitelefilms.com,",
Aum Creative Factory,Companies(Private),Noida,"A-502, Shree Palace, Opposite Jain Derasar, Satya Nagar, Borivali West, Mumbai 400092, MH",-9322271694,,
ATN International Ltd,Companies(Private),Noida,"10, Princep Street, 2nd Floor, Kolkata 700072, WB","+91-33-22256851, +91-33-40022880",",atninternationallimited@gmail.com,",
Amber IT Minds,Companies(Private),Noida,"132, 15th Main, 3rd Cross, 4th Block, Koramangala, Bangalore 560034, KA",-41126609,"RELQusa@RELQ.com,,career@integramicro.com,vishal@zybra.in,contact@zybra.in,india_jobs@ambernetworks.com,cvindia@lante.com,",
Akshar Event & Entertainment,Companies(Private),Noida,"9, City Centre, 2nd Floor, Near Swastik Cross Road, C G Road, Navarangpura, Ahmedabad 380009, GJ",-26440614,,
Adsyndicate,Companies(Private),Noida,"Press Corner, Manipal 576104, KA",-2574208,",info@mastersindia.co,interadsindia@gmail.com,interadsadvert@gmail.com,connect@adsyndicate.in,",
Adimaya Animations Pvt Ltd,Companies(Private),Noida,"339, Rohit Arcade, 1st Floor, 3rd Block, Rajaji Nagar, Bangalore 560086, KA",-9880492625,,
Ad-Circle Pvt Ltd,Companies(Private),Noida,"G/42-B, Kalkaji, New Delhi 110019, DL","+91-11-26463845, +91-11-26463846",",rahul.chandra@hdfc.com,adcircle.delhi@gmail.com,info@renewpower.in,chairman@noidaauthorityonline.com,",
9X Media Pvt Ltd,Companies(Private),Noida,"Urmi Corporate Park, 5th Floor, Solaris? D, Mumbai 400072, MH",-66019930,",last@9xmedia.in,",
Vennar Soft Systems Pvt Ltd,Companies(Private),Noida,"98-A, 30, 7, Kanakapura Road, Jayanagar, Bangalore 560082, KA",,"info@companydetails.in,info@companydetails.in,asawari@whitehedge.com,",
Technext Technosoft Pvt Ltd,Companies(Private),Noida,"17, 14, Bengal Ambuja City Centre, Durgapur 713216, WB",,"naveen.k@tlisoftware.in,u003enaveen.k@tlisoftware.in,u003enaveen.k@tlisoftware.in,",
Straddle Infotech Pvt Ltd,Companies(Private),Noida,"10, 11, Manasa Buildings, Anugraha Layout, Mahadevapura, Bangalore 560048, KA",,"info@psipl.co.in,info@psipl.co.in,support@yourcompaniesname.com,",
Softage Information Technology Ltd,Companies(Private),Noida,"204, Phase 4, Udyog Vihar, Gurgaon 122002, HR",,"last@sitstech.com,Smith.John@sitstech.com,John.Smith@sitstech.com,josephcm@gmail.com,last@sitstech.com,Smith.John@sitstech.com,John.Smith@sitstech.com,",
Sansbound Solutions Pvt Ltd,Companies(Private),Noida,"40, Ganapathy Comple, Circular Road, United India Colony, Kodambakkam, Chennai 600024, TN",,"careers@pipavavshipyard.com,shreyashah@zydus.cadila.com,careers@pipavavshipyard.com,soulinc@gmail.com,ashwanikumar2069@gmail.com,",
Position2 Marketing Pvt Ltd,Companies(Private),Noida,"1, BSB Business, Centre, K R Colony, Domlur Layout, Bangalore 560071, KA",,"chirana@bangasolar.com,shweta@raasigroup.com,chirana@bangasolar.com,",
Portwaysolutions India Pvt Ltd,Companies(Private),Noida,"2-E, Sector 63, Noida 201301, UP",,"suhasini@raasigroup.com,",
Legasis Services Pvt Ltd,Companies(Private),Noida,"105-B, ICC Trade Towers, Senapati Bapat Road, Pune 411016, MH",,"office.pharmacology@gmail.com,balambal2net@yahoo.com,last@navitaslifesciences.com,Emailoffice.pharmacology@gmail.com,balambal2net@yahoo.com,last@navitaslifesciences.com,",
Kserve Bpo Pvt Ltd,Companies(Private),Noida,"1, B, 3, Ashar IT Park, 16Z Road, Wagle Estate, Thane, Mumbai 400604, MH",,"rakuthota@eigertech.in,rakuthota@eigertech.in,",
Integrated Language Solutions Pvt Ltd,Companies(Private),Noida,"70-C, Raj Nagar, Pitampura, New 110034, DL",,"info@asninformatics.com,it@jayatma.com,vimal.shah@jayatma.com,info@asninformatics.com,it@jayatma.com,janed@jayatma.com,",
Innovarip,Companies(Private),Noida,"8, 28-B, Bhukhanvala Chambers, Veera Industrial Estate, Andheri, Mumbai 400053, MH",,"kkfcs1@gmail.com,info@itian.in,kkfcs1@gmail.com,sv@seasky.in,",
Drishti Soft Solutions Pvt Ltd,Companies(Private),Noida,"2-B, 450, Spaze iTech Park, Sector 49, Sohna Road, Gurgaon 122001, HR",,"records@enoahisolution.com,last@enoahisolution.com,jane-doe@exeniahms.com,rsriram@enoahisolution.com,last@enoahisolution.com,jane-doe@exeniahms.com,rsriram@enoahisolution.com,x3erecords@enoahisolution.com,",
Digitex Web It Solutions Pvt Ltd,Companies(Private),Noida,"60-AJ, Saltlake City, Kolkata 700091, WB",,"mail.us@easiprocess.com,",
Cygnet Infotech Pvt Ltd,Companies(Private),Noida,"16, Swastik Society, Near AMCO Bank, Stadium Circle, Navrangpura, Ahmedabad 380009, Gujarat, India,",,"dinoskr@gmail.com,dinoskr@gmail.com,dinoskr@gmail.com,dinoskr@gmail.com,dinoskr@gmail.com,dinoskr@gmail.com,",
Creative Global Services Pvt Ltd,Companies(Private),Noida,"103, 1, Cama Industrial Estate Sun Mill Compound, Lower Parel, Mumbai 400013, MH",,"ca@dbsmintek.com,ca@dbsmintek.com,ca@dbsmintek.com,ca@dbsmintek.com,ca@dbsmintek.com,doe-j@dbsmintek.com,ca@dbsmintek.com,ca@dbsmintek.com,doe-j@dbsmintek.com,x22ca@dbsmintek.com,x3eca@dbsmintek.com,x3eca@dbsmintek.com,",
Computer Age Management Services Pvt Ltd (Cams),Companies(Private),Noida,"158, Royala Towers, Anna Salai, Mount Road, Chennai 600002, TN",,"nichotechol@nichetochpl.comwith,nichotechol@nichetochpl.comwith,",
Bcube It Services Pvt Ltd,Companies(Private),Noida,"264, Udyog Vihar Phase 1, Gurgaon 122016, HR",-6470443,"last@britishorient.com,janedoe@britishorient.com,Amit.Gupta@clanwilliamgroup.com,last@britishorient.com,janedoe@britishorient.com,Amit.Gupta@clanwilliamgroup.com,",
Acn Infotech India Pvt Ltd,Companies(Private),Noida,"3-A, E, Mangalagiri Chambers, Siripuram, Visakhapatnam 530003, AP","+91-891-2541522, +91-891-3253095","rchj9@allstate.com,rchj9@allstate.com,rchj9@allstate.com,JohnSmith@allstate.com,info@allstate.in,info@allstate.in,aspl@allstate.com,x22rchj9@allstate.com,x3erchj9@allstate.com,x3erchj9@allstate.com,JohnSmith@allstate.com,",
Vin Industries Pvt Ltd,Companies(Private),Noida,"205- 207, CB 385 B, Indira Market, Ring Road, Naraina, New Delhi 110028, DL",-25778808,,
Vedant Dyestuffs Intermediates Pvt Ltd,Companies(Private),Noida,"301-306, Neelkanth Commence Center, Sahar Road, Andheri East, Mumbai 400099, MH","+91-22-28248614, +91-22-28354415","mitesh.manek@vidhifoodcolour.com,",
Unisource Chemicals Pvt Ltd,Companies(Private),Noida,"69, 6th Floor, Devchhaya, Haji Ali, Tardeo, Mumbai 400034, MH","+91-22-22052250, +91-22-22050713","rajendra@universalbiofuelsltd.com,rajendra@universalbiofuelsltd.com,",
Superfil Products Ltd,Companies(Private),Noida,"672, 10th Floor, Temple Tower, Annasalai, Nandanam, Chennai 600035, TN","+91-44-42969313, +91-44-42969329",,
Sukhson Plastics Group,Companies(Private),Noida,"6-C, Charkop Industrial Estate, Kandivali West, Mumbai 400067, MH",-28682879,"arun@sunreclaims.in,sonu@sonuexim.net,mbworldexim@gmail.com,mbworldexim@gmail.com,mbworldexim@gmail.com,sales@sunglobalexim.com,arun@sunreclaims.in,x3esonu@sonuexim.net,x22mbworldexim@gmail.com,x3embworldexim@gmail.com,x3embworldexim@gmail.com,",
Sriram Foams Pvt Ltd,Companies(Private),Noida,"72, 1st Floor, Mehta Villa, Kuppam Road, Balaji Nagar, Annanagar West, Chennai 600040, TN",-42666571,,
Shiv Shakti Acid & Chemicals,Companies(Private),Noida,"215, Opposite Novelty Bakery, GIDC, Vapi 396195, GJ","+91-260-2430249, +91-260-2430711","atozfoodtrader@gmail.com,",
Sabari Chemicals Pvt Ltd,Companies(Private),Noida,"A2/236, GIDC, Nandesari Industrial Estate, Vadodara 391340, GJ","+91-265-2840429, +91-265-2840885","shreesaibabaconstpvtltd@rediffmail.com,saibabainfra2008@gmail.com,shreesaibabaconstpvtltd@rediffmail.com,",
Saba Plastic Corporation,Companies(Private),Noida,"G-30, Sector 9, Noida 201301, UP","+91-120-2553006, +91-120-4237818",,
RDB Rasayans Ltd,Companies(Private),Noida,"8/1, 3rd Floor, Room No 9, Bikaner Building, Lal Bazar Street, Kolkata 700001, WB","+91-33-22305666, +91-33-44500500","info@reputepolymers.com,nitin.agarwal.spl@gmail.com,accounts@dirco.in,info@dhingrapolymers.com,vijay@dhariyal.com,dhariyalp@gmail.com,info@reputepolymers.com,x3enitin.agarwal.spl@gmail.com,x3eaccounts@dirco.in,x3einfo@dhingrapolymers.com,x3evijay@dhariyal.com,x3edhariyalp@gmail.com,",
Prime Gold International Pvt Ltd,Companies(Private),Noida,"701, New Delhi House, 27, Barakhamba Road, Connaught Place, New Delhi 110001, DL",-47609920,"dhulap@cppiping.com,dhulap@cppiping.com,",
Painttex,Companies(Private),Noida,"Flat No 14, Sumanga Building No 18, Vanrai Colony, Opposite Hub Mail, MHADA, Goregaon East, Mumbai 400065, MH",-9821572117,"vijay@foampe.com,vijay@foampe.com,vijay@foampe.com,vijay@foampe.com,",
Orchev Pharma Pvt Ltd,Companies(Private),Noida,"Rangoli, Gondal Road, Rajkot 360002, GJ","+91-281-2365731, +91-281-2365732","atul.sorte@atlascopco.com,dewan@rkdewanmail.com,rajrattan99@gmail.com,info@orionchem.com,atul.sorte@atlascopco.com,dewan@rkdewanmail.com,",
Omkar Agrotech Pvt Ltd,Companies(Private),Noida,"Sawargaon Road, Mogra, Nagpur, Narkhed 441304, MH",-286133,"pravir.shetty@organicgroup.co.in,adish@organicgroup.co.in,opplblr@organicgroup.co.in,pravir.shetty@organicgroup.co.in,adish@organicgroup.co.in,opplblr@organicgroup.co.in,info@organicgroup.co.in,investors@fineorganics.com,aniket.hirpara@laxmi.com,vishalarora123@sify.com,info@organicgroup.co.in,care@organicindia.com,export@organicindia.com,pravir.shetty@organicgroup.co.in,adish@organicgroup.co.in,opplblr@organicgroup.co.in,info@organicgroup.co.in,care@organicindia.com,export@organicindia.com,aareyorganic1992@gmail.com,x3einfo@organicgroup.co.in,x3einvestors@fineorganics.com,x3eaniket.hirpara@laxmi.com,x3evishalarora123@sify.com,",
Nova International,Companies(Private),Noida,"305, Milestone, Thaltej, Ahmedabad 380054, GJ",-40054028,"info@oceanicpharmachem.com,info@oceanicpharmachem.com,info@oceanicpharmachem.com,info@oceanicpharmachem.com,info@oceanicpharmachem.com,cs@sapharmachem.com,info@oceanicpharmachem.com,info@oceanicpharmachem.com,info@oceanicpharmachem.com,x3ecs@sapharmachem.com,",
Newreka Green Synth Technologies Pvt Ltd,Companies(Private),Noida,"405, Mastermind 4, Royal Palms Aarey Colony, Goregaon East, Mumbai 400065, MH","+91-22-28791835, +91-22-28791275",,
National Oxygen Ltd,Companies(Private),Noida,"80, Old No 141, Greams Road, Chennai 600032, TN","+91-44-28290707, +91-44-28290708","navrangksg@gmail.com,",
Maxroth Chemicals (Semitrone),Companies(Private),Noida,"2nd Floor, Nilmani Chambers, Behind Sales India Income Tax, Ashram Road, Ahmedabad 380009, GJ","+91-79-30029753, +91-79-26584197",,
Marvel Vinyls Ltd (The Marvel Group),Companies(Private),Noida,"G-73, Connaught Circus, New Delhi 110001, DL",-45306586,"info@mc-bauchemie.com,siddhesh.rangnekar@mc-bauchemie.in,",
Krishna Pectins Pvt Ltd,Companies(Private),Noida,"D-47, MIDC Area, Jalgaon 425003, MH",-2210676,,
Kerafibertex International Pvt Ltd,Companies(Private),Noida,"53-57, Kinfra, Info Park, Kakkanadu, Kochi 682042, KL",-2415563,,
Karnataka Industrial Rubber Products,Companies(Private),Noida,"Kirp Building, Opposite Keonics Bhavan, 100 Feet KIADB Road, Bengaluru 560057, KA",-28395932,"compliance@keltechenergies.com,compliance@keltechenergies.com,info@keltechenergies.com,x3ecompliance@keltechenergies.com,",
Intech Orchem Pvt Ltd,Companies(Private),Noida,"116/118, Maniar Building, Mumbai 400026, MH",-32504546,,
Industrial Moulders,Companies(Private),Noida,"1113, Ranoli Industrial Estate, Ranoli, Vadodara 391350, GJ","+91-265-2240254, +91-265-2242061","cs@shakunpolymers.com,info@nomismahealthcare.com,vadodara@linkintime.co.in,info@nomismahealthcare.com,x3ecs@shakunpolymers.com,",
Indras Agencies Pvt Ltd,Companies(Private),Noida,"285, Old 128, Wall Tax Road, Chennai 600003, TN","+91-44-25356643, +91-44-25352648","adnan@intechorchem.net,adnan@intechorchem.net,hatimco1@hotmail.com,sales@avinternational.co.in,adnan@intechorchem.net,adnan@intechorchem.net,hatimco1@hotmail.com,sales@avinternational.co.in,",
INDIGO Paints Pvt Ltd,Companies(Private),Noida,"103, Montreal Tower, Behind Mauli Petrol Pump, Baner Road, Baner, Pune 411045, MH",-66814229,"info@infoplast.co.in,gaurav.pwn@gmail.com,info@infoplast.co.in,gaurav.pwn@gmail.com,",
Indian Barytes & Chemicals Ltd,Companies(Private),Noida,"148, Vanguard House, 2nd Line Beach Road, Parrys, Chennai 600001, TN","+91-44-24998203, +91-44-24998204",,
India Synthetic Rubber Ltd,Companies(Private),Noida,"Plot No 2B, Building India Glycols, Tower 3, Sector 126, Noida 201303, UP",-4871029,"accounts@indianroller.com,accounts@indianroller.com,accounts@indianroller.com,roc.chennai@mca.gov.in,accounts@indianroller.com,accounts@indianroller.com,accounts@indianroller.com,roc.chennai@mca.gov.in,",
India Dye Chem,Companies(Private),Noida,"D-9, 2nd Floor, Durga House, Ranapratap Bagh, GT Raod, New Delhi 110007, DL",-47571920,"office@ipfindia.org,marketing@indplas.in,office@ipfindia.org,office@ipfindia.org,EMAILoffice@ipfindia.org,EMAILmarketing@indplas.in,office@ipfindia.org,office@ipfindia.org,",
HP Plastic Machinery,Companies(Private),Noida,"24, Trimurti Compound, Near Hindustan Naka, M G Road, Kandivali West, Mumbai 400067, MH",-9819766271,"info@needhifrpindia.com,info@needhifrpindia.com,",
Hartex Rubber Pvt Ltd,Companies(Private),Noida,"Plot No 106, Sri Venkateswara, Co-Operative Industrial Estate, Bollaram-Post, Narsapur, Medak, Hyderabad 502325, TS",-31924399,"investor@insecticidesindia.com,info@insecticidesindia.com,sales@heranba.com,enquire.india@uniphos.com,corporate@biostadt.com,samadhankatole@gmail.com,x3einvestor@insecticidesindia.com,",
GuruKrupa Polymers,Companies(Private),Noida,"Noval Estate, Opposite Asain Paints, Pratapnagar, Vadodara 390004, GJ",-2581063,"r.srilakshmi@hartex.in,jane.doe@hartex.in,janed@hartex.in,info@mastersindia.co,hrpl.exp@hartex.in,jane.doe@hartex.in,janed@hartex.in,info@mastersindia.co,hrpl.exp@hartex.in,x3er.srilakshmi@hartex.in,",
Gujarat Guardian Ltd,Companies(Private),Noida,"Valia Road, Ankleshwar, Valia 393002, GJ","+91-2643-275115, +91-2643-275106","gscldelhi@gulshanindia.com,cfo@gulshanindia.com,cs@gulshanindia.com,janedoe@gulshanindia.com,gscldelhi@gulshanindia.com,janedoe@gulshanindia.com,gscldelhi@gulshanindia.com,x3egscldelhi@gulshanindia.com,x3ecfo@gulshanindia.com,x3ecs@gulshanindia.com,",
Gokul Coolant Industries,Companies(Private),Noida,"310, India Coolant, Panorama Complex, Gondal Road, Rajkot 360002, GJ",-2233940,"info@icraindia.com,info@icraindia.com,",
Ghiya Extrusions Pvt Ltd,Companies(Private),Noida,"18/A, Kamaldeep Industrial Estate, Opposite Arvind Polycot, Khatraj, Gandhinagar, Kalol 382721, GJ","+91-2764-281030, +91-2764-281548","purchase@glossypaints.com,hr@glossypaints.com,purchase@glossypaints.com,hr@glossypaints.com,",
Galaxy Industrial Corporation,Companies(Private),Noida,"92, Co-Operation Industrial Estate, MV Road, Marol, Andheri East, Mumbai 400059, MH","+91-22-28526635, +91-22-28501235","michael@gharda.com,gcsales@garudachem.com,sramanathan@gharda.com,gcsales@garudachem.com,garudachemicals@drdcs.net,gcsales@garudachem.com,gcsales@garudachem.com,last@gharda.com,yash@garuda-group.com,khrao@garuda-group.com,x3emichael@gharda.com,",
Crestchem Ltd,Companies(Private),Noida,"550/1, Plot No 12, Indrad, Mehsana, Chhatral 382721, GJ","+91-2764-278247, +91-9409119484","accounts@drinternational.com,u003eaccounts@drinternational.com,info@drinternational.com,dr@drinternational.com,info@drinternational.com,accounts@drinternational.com,contactus@letstranzact.com,u003eaccounts@drinternational.com,info@drinternational.com,dr@drinternational.com,info@drinternational.com,accounts@drinternational.com,contactus@letstranzact.com,",
Ceraflux India Pvt Ltd,Companies(Private),Noida,"F-59 & 60, MIDC, Gokul, Shirgaon, Kolhapur 416234, MH","+91-231-2671008, +91-231-2672175","alkeshvyas@gmail.com,accounts@ciupl.com,alkeshvyas@gmail.com,accounts@ciupl.com,customer@chemimpex.com,",
Bonnafide Chemicals,Companies(Private),Noida,"E-339, KDA Colony, Daheli, Sujanpur, Kanpur 208013, UP",+91-512-2600463,"kailash_forallever@rediffmail.com,kailash_forallever@rediffmail.com,",
Avadh Polytubes Pvt Ltd,Companies(Private),Noida,"58/5, Sheo Sadan, Birhana Road, Kanpur 208001, UP","+91-512-2370166, +91-9415052940","info@fundvisercapital.in,bagadiacolourchem@rediffmail.com,info@fundvisercapital.in,",
Aurochem Laboratories India Pvt Ltd,Companies(Private),Noida,"333, Gundecha Industrail Complex, Akurli Road, Kandivali East, Mumbai 400101, MH",+91-22-28858503,"works@aviadditives.com,",
Atlas Dye Chem India Pvt Ltd,Companies(Private),Noida,"2nd Floor, Shiromani Complex, Satellite Road, Ahmedabad 380015, GJ","+91-79-26769723, +91-79-2676971","ava.accounts@gmail.com,sales@avachemicals.com,ava.accounts@gmail.com,sales@avachemicals.com,avachem1@gmail.com,ava.accounts@gmail.com,x3eava.accounts@gmail.com,",
Amee Enterprise,Companies(Private),Noida,"233, Siddhi Apartment, Near Pragati Nagar Bus Stand, Naranpura, Ahmedabad 380013, GJ",+91-79-27472733,"anshul@mtnl.net.in,anshul@mtnl.net.in,anshul@mtnl.net.in,jane@anshulchemicals.com,anshul@mtnl.net.in,jane@anshulchemicals.com,amish@anshulchemicals.com,amish@anshulchemicals.com,anshul@mtnl.net.in,amish@anshulchemicals.com,x3eanshul@mtnl.net.in,",
AGA Group International,Companies(Private),Noida,"173, AGA House, VPO Dhulkot, Ambala 134007, HR",+91-171-3291860,"info@congratsagro.com,u003einfo@congratsagro.com,info@congratsagro.com,tfctaneja@yahoo.co.in,u003einfo@congratsagro.com,info@congratsagro.com,bbgagropack@gmail.com,tfctaneja@yahoo.co.in,sanjeev.nirvan@gmail.com,sanjeev.nirvan@gmail.com,bbgagropack@gmail.com,",
Advaitya Dye Chem,Companies(Private),Noida,"206, Parth Empire, Opposite Rambaug Police Station, Maninagar, Ahmedabad 380008, GJ","+91-79-25463580, +91-79-25464195","accounts@aeromec.in,u003eaccounts@aeromec.in,u003eaccounts@aeromec.in,sales@aeromec.in,mail@aeromec.in,",
Abhishek Enterprises,Companies(Private),Noida,"2-G, Chetan Apartment, Opposite Anjoy Restaurant, Jetalpur Road, Alkapuri, Vadodara 390007, GJ",+91-265-2355937,"actagrochemoffice@gmail.com,anmol@mubychem.com,actagrochem@gmail.com,export.actagro@gmail.com,actagrochemoffice@gmail.com,actagrochemoffice@gmail.com,actagrochem@gmail.com,anmol@mubychem.com,",
Zeeboombaa Manpower,Companies(Private),Noida,"39, 74, Gangadeeshwarar Koil, Purasawalkam, Chennai 600084, TN","+91-9840531349, +91-9940613437",,
X-Pert Consultancy,Companies(Private),Noida,"10-1-1172-A, Near Mahavir Hospital, AC Guard Main Road, Khairtabad, Hyderabad 500004, TS","+91-40-64575600, +91-9246598733",,
Visbin Management Associates Pvt Ltd,Companies(Private),Noida,"2, 1, Trikuta, 8th A Main Road, S R Nagar, Bangalore 560027, KA","+91-80-22120973, +91-80-22120974","info@orris.in,purchase@ab-tech.in,bipin.khale@acclimited.com,info@orris.in,purchase@ab-tech.in,bipin.khale@acclimited.com,",
Varsha Consultancy Services Pvt Ltd,Companies(Private),Noida,"102, 103, 1st Floor, Sai Prasad Commercial Complex, 4th Road, Khar West, Mumbai 400052, MH","+91-22-26460410, +91-22-26002121","sales@verifacts.co.in,last@verifacts.co.in,",
Vardhnam Consulting,Companies(Private),Noida,"308-B, Parsvanath Prestige, Sector 93?-A, Noida 201304, UP","+91-120-4241067, +91-9958111707","pune@venturecorpindia.in,sgsapre@venturecorpindia.in,pune@venturecorpindia.in,sgsapre@venturecorpindia.in,",
Vanuston Intelligence Pvt Ltd,Companies(Private),Noida,"22, 2, Saidapet, Bazaar Road, Chennai 600015, TN",+91-44-42119714,"roc.chennai@mca.gov.in,info@ventureoffshore.net,roc.chennai@mca.gov.in,",
Training inCorporate,Companies(Private),Noida,"505, Savoy Chambers, Linking Road, Santacruz West, Mumbai 400054, MH","+91-22-67254061, +91-22-67254062","sales@aquaengineers.in,mail@tce.co.in,mail@tce.co.in,mail@tce.co.in,hello@pdcegroup.com,bd@pdcegroup.com,bd2@pdcegroup.com,velpandian1966@gmail.com,velpandian1966@gmail.com,gprpower@vsnl.net,gprpower@gmail.com,GSINGH@MPSINFOTEC.COM,info@mpsinfotec.com,sales@trentengg.com,sales@aquaengineers.in,velpandian1966@gmail.com,velpandian1966@gmail.com,gprpower@vsnl.net,gprpower@gmail.com,GSINGH@MPSINFOTEC.COM,info@mpsinfotec.com,x22mail@tce.co.in,x3email@tce.co.in,x3email@tce.co.in,x3ehello@pdcegroup.com,bd@pdcegroup.com,bd2@pdcegroup.com,",
TMF Services India Pvt Ltd,Companies(Private),Noida,"1302, Tower 3, Indiabulls Finance Centre, Senapati Bapat Marg, Elphinstone Road West, Mumbai 400013, MH",+91-22-49217300,"uday@tqmi.com,u003euday@tqmi.com,John@tqmi.com,uday@tqmi.com,uday@tqmi.com,u003euday@tqmi.com,John@tqmi.com,uday@tqmi.com,uday@tqmi.com,",
The Tinsley Group Ltd,Companies(Private),Noida,"303, 6, Chetan Complex, Shreshtha Vihar, New Delhi 110092, DL","+91-11-22152150, +91-9810134932",,
The Smart Cube India Pvt Ltd,Companies(Private),Noida,"1-A, 5, Tower B, Windsor IT Park, Sector-125, Noida 201301, UP",+91-120-4508000,,
Talentpro India HR Pvt Ltd,Companies(Private),Noida,"30, Etharaj Salai, Egmore, Chennai 600008, TN",+91-44-42123500,"info@tauruscontractors.com,jobs@tauruscontractors.com,u003einfo@tauruscontractors.com,dxxxxxo@tauruscontractors.com,enquiry@tauruscontractors.com,",
Sutra Services Pvt Ltd,Companies(Private),Noida,"601-B, Annapurna, Opposite Oshiwara Park, Adarsh Nagar, Andheri West, Mumbai 400053, MH","+91-22-42669487, +91-9222213196","manoharan@srishunmugashipping.com,darpan@kewaunee.in,admissions@sibm.edu.in,",
Sun Agrifresh Industries Pvt Ltd,Companies(Private),Noida,"4, Community Center, Janakpuri, New Delhi 110058, DL","+91-11-45264514, +91-9582412266","consulting.t3@gmail.com,g@skspl.com,supriya.g@skspl.com,",
Spongytech Consulting Engineers Pvt Ltd,Companies(Private),Noida,"9-A, CGHB Kota Colony, Raipur 492010, CG",+91-771-2575310,"ncnarayanan@sixsigmaalchemy.com,finance@ssa-solutions.com,u003efinance@ssa-solutions.com,",
Sky Services (Subsidy Consutancy),Companies(Private),Noida,"106, Skylark Shopping, Surat 395006, GJ",+91-9377788252,"jane@smartsteps.in,naresh_k31@yahoo.co.in,",
skillVentory,Companies(Private),Noida,"86, 47, 3-G, Satya Tower, Sapna Sangeeta Road, Indore 452001, MP","+91-731-4203410, +91-9303163811",,
Skills Bureau Edulink Pvt Ltd,Companies(Private),Noida,"5th Floor, Tower C, Green Boulevard, Sector-62, Noida 201301, UP",+91-8881666636,"md@smartlion.co.in,qamar.travels@yahoo.com,",
Skillease,Companies(Private),Noida,"8-C, 8-D, 91, 8th Floor, Dr.Radhakrishnan Salai, Mylapore, Chennai 600004, TN","+91-44-49021347, +91-44-45966100",,
Sinclus Marketing Services Pvt Ltd,Companies(Private),Noida,"48, Navketan Industrial Estate, Mahakali Caves Road, Mumbai 400093, MH",+91-22-26874709,"NDGPT@YAHOO.COM,shashi@espireeducation.com,info@amaxgrace.com,",
Seven Bells Consulting,Companies(Private),Noida,"5-C, Bondel Road, Ballygunge, Kolkata 700019, WB",+91-9874889988,,
SCILLZ Management Consulting Pvt Ltd,Companies(Private),Noida,"1313, 4th Floor, 25th Main Road, Jaya Nagar, Bangalore 560069, KA",+91-9880333777,"u003einfo@seftech.in,pradeep.kumar@careratings.com,chennai@seatechindia.com,info@seftech.in,",
SanGun Training & Consulting Pvt Ltd,Companies(Private),Noida,"107-E, Jaya Nagar, Bangalore 560082, KA",+91-9845239018,"manoharan@srishunmugashipping.com,goksin2000@hotmail.com,",
Rodic Consultants Pvt Ltd (RCPL),Companies(Private),Noida,"4th Floor, Tower A, Cyber Green, Gurgaon 122002, HR",+91-124-4539030,"skc@ru4sconsulting.in,roshnicropsciences@gmail.com,",
Right Advisors Pvt Ltd,Companies(Private),Noida,"506-507, 5th Floor, Building No 95, Vishal Bhawan, Nehru Place, New Delhi 110019, DL",+91-11-41130000,"info@rites.com,janedoe@rites.com,pu.mum@rites.com,sbu.winsp@rites.com,sbu.fc@rites.com,cs@rites.com,",
Quorizon Global Services Pvt Ltd,Companies(Private),Noida,"1-8-271, 273, 306, 3rd Floor, Ashoka Bhoopal Chambers, Sardar Patel Road, Secunderabad 500003, AP",+91-40-66886620,"radiantent12@gmail.com,x3esanjay@sanjaypoddar.com,sanjay@sanjaypoddar.com,400063_radiantent12@gmail.com,x22sanjay@sanjaypoddar.com,hr@radiantenterprises.in,",
Q Factor Consulting Pvt Ltd,Companies(Private),Noida,"36, Gautam Complex, Sector-11, CBD Belapur, Mumbai 400614, MH",+91-22-40125057,"ravikumar@questxl.co,",
PRTM,Companies(Private),Noida,"82, 3rd Floor, Lavelle Road, Brigade Hulkul Centre, Bangalore 560001, KA",+91-80-40100900,,
Prompt Personnel Consultancy Services Pvt Ltd,Companies(Private),Noida,"612, 613, Palm Spring Centre, Mind Space, New Link Road, Mallad West, Mumbai 400064, MH",+91-22-40549797,"sunrayjt@gmail.com,vkmsassociates@gmail.com,kapil.kaaiser@gmail.com,",
Procon India Pvt Ltd,Companies(Private),Noida,"17-A, 44, Gurudwara Road, Karol Bagh, New Delhi 110005, DL","+91-11-49391212, +91-11-45085803","info@mastersindia.co,first@promptpersonnel.com,",
Perfect Manpower Consultancy,Companies(Private),Noida,"8, 9, Near DLF, TV Nagar, Ramapuram, Chennai 600089, TN","+91-44-22522659, +91-44-22520073",,
Pankaj Billa & Co,Companies(Private),Noida,"6-B, 102, Kailash Colony, New Delhi 110048, DL",+91-11-46702254,"jobs@PathProviderz.com,vishal@pathproviderz.com,",
Nanu Hormasjee & Co,Companies(Private),Noida,"1st Floor, Fort Chambers, A-Wing, Hamam Street, Fort, Mumbai 400023, MH",+91-22-66310637,"info@neerajbhagat.com,",
Mpower Business Facilitators Ltd,Companies(Private),Noida,"204-B, Pratik Industrial Estate, Near Fortis Hospital, Mulund-Goregoan Link Road, Mumbai 400078, MH","+91-22-25916856, +91-22-65352310","info@mwhindia.co.in,x3evinod.kumar@nvtpower.com,vinod.kumar@nvtpower.com,Mukesh.Joshi@stantec.com,",
Mohan & Mohan Associates,Companies(Private),Noida,"Karunalayam Wynad Road, Kozhikode 673001, KL",+91-495-2765955,"nindia@mu-sigma.com,Janardhana.Rao@mu-sigma.com,",
MITCON Consultancy & Engineering Services Ltd,Companies(Private),Noida,"1st Floor, Kubera Chambers, Shivaji Nagar, Pune 411005, MH",+91-20-25534322,"vidit@morelifelondon.net,",
Mavraac,Companies(Private),Noida,"Greater Kailash-2, New Delhi 110048, DL",+91-11-40537728,"harbansmahajan@gmail.com,casaurabhagrawal@yahoo.com,cabpschauhan@gmail.com,",
Maven Silicon Softech Pvt Ltd,Companies(Private),Noida,"37, 1st Floor, G K Govinda Reddy Layout, Bannerghatta Road, Bangalore 560076, KA",+91-80-41305692,"info@meenakshiassociates.com,ravinderravi4u@yahoo.co.in,",
Mascon Global Consultants,Companies(Private),Noida,"2nd Floor, Shri Krishna Building, Dadasaheb Phalke Road, Dadar East, Mumbai 400014, MH",+91-22-40053503,"exim@planetexim.net,",
MarketGate Consulting,Companies(Private),Noida,"507-A, 5th Floor, Kakad Chambers, Dr. Annie Besant, Worli, Mumbai 400018, MH","+91-22-24926635, +91-22-24926636","gxxxxxxxxxxxxxxxxxxxxm@gmail.com,info@matrixbay.com,matrix@matrixpmc.com,",
Market Pulse,Companies(Private),Noida,"11-C, Sector-6, Noida 201301, UP",+91-120-4078500,"mathur@mathurhospitality.com,mathurhotels@gmail.com,",
M K Enterprises India,Companies(Private),Noida,"39, 1822, Rajdanga Main Road, Kolkata 700107, WB",+91-33-40630015,"contact@maeflower.com,ALEXPEACOCK@AOL.COM,csannamathew@gmail.com,cs@indialand.co,sai@saiservice.com,",
LK Consultants,Companies(Private),Noida,"301, Shiv Sai Darshan CHS, Behind PNB Bank, Near Bharat School, Kopari, Thane East, Mumbai 400603, MH",+91-22-25321810,"info@lai-i.com,rktantry25@yahoo.co.in,",
Law Linkers & Co,Companies(Private),Noida,"29-D, jangpura, New Delhi 110003, DL","+91-11-24319099, +91-11-24319098","kxxxxa@legacylawoffices.com,shalini@legacylawoffices.com,anand@legacylawoffices.com,rvalmarana@legalmediagroup.com,sadiqua.fatma@legacylawoffices.com,legacylawoffices.com_sadiqua.fatma@legacylawoffices.com,raman.anand@legacylawoffices.com,",
KVM Advisory Services Pvt Ltd,Companies(Private),Noida,"2nd Street, 2nd Main Road, Nehru Nagar, Adyar, Chennai 600020, TN",+91-44-45572620,,
Krishna Shail Consultancy Pvt Ltd (KSC),Companies(Private),Noida,"308, RBR Complex, Miyapur, Hyderabad 500049, TS",+91-40-42625972,"kartheek.n@ansr.com,kartheek.n@affiliate.ansr.com,",
Knowy Corporate Solutions,Companies(Private),Noida,"436-A, 4th Floor, Tower 3-B, Spaze I Tech Park, Sectoe-49, Sohna Road, Gurgaon 122001, HR","+91-124-4077500, +91-9990390500",,
Kanga & Co,Companies(Private),Noida,"Readymoney Mansion 43, Veer Nariman Road, Mumbai 400001, MH","+91-22-66230000, +91-22-66332288","poshawards@kelphr.com,",
Jobpedia,Companies(Private),Noida,"3rd Floor, Raghu Durg Building, Near Sharda Centre, Opposite Varun Raj Restaurant, Pune 411041, MH",+91-8888466888,"cs@jcmangroup.com,",
JBK Associates,Companies(Private),Noida,"45, Dehradun Road, Near G.G.I.C, Dehradun 249201, UK",+91-135-2433166,,
Infopace Management Pvt Ltd,Companies(Private),Noida,"81, 6-B, 3rd Main KHB Colony, New Town Yelahanka, Bangalore 560064, KA","+91-80-41685705, +91-80-28096111","info@fiinovation.co.in,",
IndoGenius Talents Pvt Ltd,Companies(Private),Noida,"4-C, 2nd Floor, Kailash Colony, New Delhi 110048, DL",+91-11-46548108,"kishorj@infopaceindia.com,support@ipreneur.in,doe.jane@infopaceindia.com,",
Iacharya Silicon Ltd,Companies(Private),Noida,"120-B, 2nd Floor, Arcot Road, Kodambakkam, Chennai 600024, TN",+91-44-43565238,"info@icrestindia.com,",
HTP Global Technologies Pvt Ltd,Companies(Private),Noida,"901, Techniplex- 2, S. V. Road, Goregaon West, Mumbai 400062, MH",+91-22-61960900,,
GSPM Consultancy,Companies(Private),Noida,"4-H, 5-G, Vardhaman Plaza, Netaji Subhash Place, Pitampura, New Delhi 110034, DL",+91-11-47050223,"bdm.hjl@habmail.com,info.hjl@habmail.com,med.habsons@gmail.com,jobs.hjl@habmail.com,habibmasif@gmail.com,",
Globe Infosystems,Companies(Private),Noida,"210, Jaya Nagar, Bangalore 560017, KA","+91-80-26562126, +91-9611117800","contact@golden-enterprises.co.in,",
Global Management Consultancy Services,Companies(Private),Noida,"178, State Bank Nagar, Paschim Vihar, New Delhi 110063, DL",+91-11-25273103,"secretarial.legal@gmail.com,",
Gilbert Tweed Associates Pvt Ltd,Companies(Private),Noida,"55, Community Center, Mezzanine Floor, East of Kailash, New Delhi 110065, DL",+91-11-41624279,,
Genie Consultants Pvt Ltd,Companies(Private),Noida,"1, 18, 2nd Floor, Balaji Building, Pinjajla Subramaniam Street, T.Nagar, Chennai 600017, TN",+91-44-42070269,,
Galaxy Employment Services,Companies(Private),Noida,"526, 2nd Floor, Town Bus-Stand, Opposite Prasanna Bakery Upstair, Gandhipuram, Coimbatore 641018, TN",+91-422-4379558,"anshuraj21@gmail.com,RRAVINDRAYADAV@gmail.com,",
FQC Certification Pvt Ltd,Companies(Private),Noida,"394, Sector-20, Panchkula, Haryana 134116","+91-172-6535975, +91-172-6535976","evolvehrsolutions@gmail.com,it@truemeds.in,x3eit@truemeds.in,x3eevolvehrsolutions@gmail.com,alam@futurgenz.com,",
FIFO Services,Companies(Private),Noida,"404, Sahithi?s Kadamanchi Complex, Opposite Chaitanyapuri Petrol Station, Dilsukh Nagar, Hyderabad 500060, TS",+91-40-64575333,"jk@flexiventures.in,doe_jane@flexiventures.in,careers@flexituff.com,social@theflexiport.com,support@flexiventures.in,roc.chennai@mca.gov.in,",
Falcon Services,Companies(Private),Noida,"10, Valmiki, CST Road, Kalina, Santacruz East, Mumbai 400098, MH",+91-22-26670852,"E.ci.support@spglobal.com,wecare@in.nestle.com,investor@in.nestle.com,hukam.batra@tribeww.in,n@in.nestle,",
Faithfully Yours Management Consultants Pvt Ltd,Companies(Private),Noida,"9, 6th Cross Street, Shenoy Nagar, Chennai 600030, TN","+91-44-26265468, +91-44-26265472",,
Ethics Investment Consultants Pvt Ltd,Companies(Private),Noida,"815, Pearls Omaxe, Netaji Subhash Place, Pitampura, New Delhi 110034, DL",+91-11-45131682,,
ESP Consultant India Pvt Ltd,Companies(Private),Noida,"9, Happy Home Society, Rokadia Lane Extension, J.S.Marg, Borivali West, Mumbai 400068, MH","+91-22-28932805, +91-22-28928258","dvora@europ-assistance.in,contact@europ-assistance.in,John_Smith@europ-assistance.fr,John@europ-assistance.com,info@companydetails.in,u003econtact@europ-assistance.in,x3eJohn_Smith@europ-assistance.fr,",
Equinox Consultancy,Companies(Private),Noida,"29, 8, Ashok Nagar, New Delhi 110018, DL",+91-11-25149965,"slcpl.consultants@gmail.com,united.technical123@gmail.com,tcpldel@tcplindia.co.in,csg-unit@tcplindia.co,delhi@unitesindia.com,",
eNFLUENCE IT Services Pvt Ltd,Companies(Private),Noida,"2nd Floor, SNR Towers, Nagarjuna Hills, Panjagutta, Hyderabad 500082, TS",+91-40-66344469,,
Energy Infratech Pvt Ltd,Companies(Private),Noida,"39-A, Sector-64, Gautam Budh Nagar, Noida 201301, UP",+91-120-4672350,"rahul.shankar@epeoplebc.com,accounts@epeoplebc.com,",
Elite Consultants,Companies(Private),Noida,"135, Satyam Mall, Near Satellite Cross Road, Satellite, Ahmedabad, 380015, GJ","+91-79-40036091, +91-9725052021","j-d@encon.co.in,ramkrushna@encongroup.in,sales@encon.co.in,works@encon.co.in,",
Edge Executive Search Pvt Ltd,Companies(Private),Noida,"192-C, Sarvodya Enclave, New Delhi 110017, DL","+91-11-26868773, +91-11-26517773","nvyas@elancegroup.com,habeebacca@gmail.com,ranjitsangitrao@gmail.com,",
Datum Recruitment Services,Companies(Private),Noida,"18, 2nd Floor, Sultania House, Subhash Road, Vile Parle East, Mumbai 400057, MH",+91-22-42489698,"naisargi@delfengineersindia.com,x3eaccounts@cegindia.com,info@delf.co.za,",
D Subhas and Associates,Companies(Private),Noida,"20-D, 5, 1st Floor, Karunamoyee, Sector-2, Kolkata 700091, WB","+91-33-40088166, +91-9831445981","info@prakashinfotech.com,info@dartconsulting.co.in,",
CS Management Consultants,Companies(Private),Noida,"4-B, 2-G, 3-G, 1701, Opposite Gulmohar Park, Prajapati Nagar, New Delhi 110049, DL","+91-11-41841323, +91-11-41841573","career@dhlawassociates.com,info@aegisjurist.com,dua.hr@duaassociates.com,duahyd@duaassociates.com,",
Core Excellence Training & Consulting,Companies(Private),Noida,"1-B, 57, 3rd Floor, Malviya Nagar, New Delhi 110017, DL","+91-11-26681562, +91-11-65426680","u003einfo@indiacp.com,John@indiacp.com,info@indiacp.com,",
Chaitanya Projects Consultancy Pvt Ltd,Companies(Private),Noida,"21-22, 5-C, 2nd Floor, R.K. Tower, Sector-4, Vaishali, Ghaziabad 201012, UP","+91-120-4110472, +91-120-3223419","cosect@chimesgroup.in,last@chimesgroup.in,admissions@caa.edu.in,info@chimesgroup.in,u003ecosect@chimesgroup.in,",
Centre For Growth Alternatives,Companies(Private),Noida,"17-A, 1, 1st Floor, Phase I, Gurgaon 122001, HR","+91-124-3212444, +91-124-4051458","roc.chennai@mca.gov.in,vishal@zybra.in,contact@zybra.in,",
Careercruise HR Pvt Ltd,Companies(Private),Noida,"Amsoft Complex, Unitech Trade Center, Sector-43, Gurgaon 122003, HR",+91-124-6464436,"seiaams2021@gmail.com,info@oceaoenviro.com,",
Career Catalysts HRC Pvt Ltd,Companies(Private),Noida,"304, B-Wings, Leo Building 24th Road, Off Linking Road, Khar West, Mumbai 400052, MH",+91-22-64515256,"nitish@careervisions.org,",
Brainsoft Consultants,Companies(Private),Noida,"92-F, 1, 5th Floor, Shanti Swaroop Complex, Hanuman Market, Munirka, New Delhi 110067, DL","+91-11-46025202, +91-11-46025203","info@brooksconsultancy.com,pxx@t-systems.com,piyush@brooksconsultancy.com,",
Blue Sea HR Management Services,Companies(Private),Noida,"74, Africawala House, Near MHADA, S.M. Road, Chunabhatti, Mumbai 400022, MH",+91-22-24051089,,
Berry Interoceanic Co Pvt Ltd,Companies(Private),Noida,"609, Sikenderpur, Gurgaon 122002, HR","+91-124-4219526, +91-124-4219528",,
Aventus Partners,Companies(Private),Noida,"40-48, CR Park, Pocket 40, EPDP Road, New Delhi 110019, DL","+91-11-40561242, +91-11-40561243","u003esateesh@axisisl-exim.com,sateesh@axisisl-exim.com,roc.chennai@mca.gov.in,",
Australian Visa.com.au,Companies(Private),Noida,"305, Sidcup Tower, Opposite S.T.Divisional Office, Race Course, Vadodara 390007, GJ","+91-265-2338404, +91-265-2313780","careers@aviohelitronics.com,info@aviohelitronics.com,",
ASC Consulting Pvt Ltd,Companies(Private),Noida,"73, National Park, Lajpat Nagar, New Delhi 110024, DL","+91-11-41729056, +91-11-41729057","rbhase@askinvestmentadvisors.com,sxxxxxxa@askexim.com,ashok@askexim.in,",
APS Maritime Services Pvt Ltd,Companies(Private),Noida,"75-C, Kamdhenu, Lokhandwala Complex, Andheri West, Mumbai 400053, MH",+91-9820283736,"info@arctern.com,satish.mittal@eborn.co.in,x3esecretarial@arctern.com,secretarial.compliance@innovasolutions.com,secretarial@arctern.com,x3esatish.mittal@eborn.co.in,",
Anand Consultants,Companies(Private),Noida,"16, Everest Tower, Near Shastrinagar BRTS Bus-Stop, 132 Ft Ring Road, Naranpura, Ahmedabad 380013, GJ",+91-79-27484871,"emoore@antal.com,info@antal.com,",
Amit Kumar & Co,Companies(Private),Noida,"73-B, Sainik Nagar, Nawada, New Delhi 110059, DL",+91-9999803612,,
AFP Ideas And Execution Pvt Ltd,Companies(Private),Noida,"504-B, 5th Floor, Cello Triumph, IB. Patel Road, Goregaon East, Mumbai 400063, MH","+91-22-26860328, +91-9892306055",,
Adonai Consulting and Technology Solutions Pvt Ltd,Companies(Private),Noida,"2-M, 5-E, 16, Opposite Devika Petrol Pump, Arera Colony, Bhopal 462016, MP","+91-755-4075863, +91-755-2426305","enquiry@ag-enterprises.com,",
Actiknow Business Consulting Pvt Ltd,Companies(Private),Noida,"707, Siddhartha Building 96, Nehru Place, New Delhi 110019, DL",+91-7042863111,"x3elegal.india@adecco.com,",
ACRO HR Solutions India Pvt Ltd,Companies(Private),Noida,"18-A, Sector-6, Noida 201301, UP",+91-120-4793800,"info@bloomsolutions.com,info@avci-lean.com,",
Acreaty Management Consultant Pvt Ltd,Companies(Private),Noida,"22-C, 9, Sector-57, Noida 201301, UP","+91-120-4288818, +91-120-4163333","rsagarwalaco@gmail.com,rohitsaraf@yahoo.com,accounts@kushalgroup.com,x3ehr@adarshsolutions.com,rksharma@bhardwajservices.com,hr@adarshsolutions.com,x3erksharma@bhardwajservices.com,",
AceNgage InfoServices Pvt Ltd,Companies(Private),Noida,"R K Complex, Jai Mahal Main Road, Bangalore 560046, KA",+91-80-42834333,"helloacro@acrohrindia.com,pawant@acrohrindia.com,x3ehelloacro@acrohrindia.com,",
Ace Recruitment & Placement Consultants Pvt Ltd,Companies(Private),Noida,"902, Surmount Byzantine, Opposite Iscon Mega Mall, S.G. Road, Satellite, Ahmedabad 380052, GJ","+91-79-64501205, +91-79-64501204","acme.kol@yahoo.com,",
Accord Infosystems,Companies(Private),Noida,"22-B, 2nd Floor, Opposite Madrasi Ram Mandir, Subhash Road, Vileparle East, Mumbai 400057, MH",+91-9320055355,,
Accentuate e Services Pvt Ltd,Companies(Private),Noida,"Near 9-No Petrol Pump, Nasirabad Road, Nagra, Ajmer 305001, RJ","+91-9828465663, +91-145-2660424","hr@nanfung.com,",
Aarch Solutions,Companies(Private),Noida,"3/23, Aanda Complex, 2nd Floor, Malagala Last Bus Stop, Outer Ring Road, Nagarabhavi, Bengaluru 560072, KA",+91-9241508818,"adarsh@gyanapp.in,ZFayaz@STC.in,x3ebhuvan@lendbox.in,x3ecs@oxymoney.com,x3eadarsh@gyanapp.in,arulprags@gmail.com,cs@oxymoney.com,ITR@SDVSANDCO.IN,bhuvan@lendbox.in,x22bhuvan@lendbox.in,k24.manoj@gmail.com,x3earulprags@gmail.com,x22arulprags@gmail.com,",
A T Kearney Ltd,Companies(Private),Noida,"603, 604, 6th Floor, Piramal Tower, Peninsula Corporate Park, Lower Parel West, Mumbai 400013, MH",+91-22-40970700,"aakashjde@gmail.com,axxxxxv@niq.com,",
A N Prakash Construction Project Management Consultants Pvt Ltd,Companies(Private),Noida,"491, Jaya Nagar, Bangalore 560069, KA",+91-80-26639780,,
Xander Advisors India Pvt Ltd,Companies(Private),Noida,"111, The Taj Palace, Sardar Patel Marg, New Delhi 110021, DL",+91-11-66118000,"x22help@zestmoney.in,mxx@zestmoney.in,help@zestmoney.in,x3ehelp@zestmoney.in,",
Wells Fargo India Solutions Pvt Ltd,Companies(Private),Noida,"66, 1, Wellsfargo Centre, Divyashree NSL Infrastructure Ltd, FEV Incubation Phase, Hyderabad 500031, TS",,"last@xceedance.com,compliance@xceedance.com,contact@xceedance.com,",
VPS Share Co Pvt Ltd,Companies(Private),Noida,"241, Shanker Kuteer, Asora House, WK Road, Meerut 250001, UP","+91-121-4006702, +91-121-4006701","Info@wellindia.com,info@wellindia.com,",
TurniT Capital Advisors India Pvt Ltd,Companies(Private),Noida,"14, KD Block, DDA Complex Main Road, Pitampura, New Delhi 110065, DL",+91-9811043302,"leon@unificap.com,varthaman@unificap.com,jane@unificap.com,info@unificap.com,harsh@unificap.com,",
Trustone Wegmans Developers Pvt Ltd,Companies(Private),Noida,"F-7, East of Kailash, New Delhi 110065, DL",+91-11-46601120,"enquiries@uib.co.uk,pranav.kapadia@globalinsurance.co.in,x3epranav.kapadia@globalinsurance.co.in,",
Trio Mercantile & Trading Ltd,Companies(Private),Noida,"613/B, Mangal Aarambh, Near M C Donalds, Kora Kendra, SV Road, Borivali West, Mumbai 400092, MH",+91-22-28335999,"secretarial@tvscapital.in,last@tvscapital.in,",
Societe Generale,Companies(Private),Noida,"Peninsula Business Park, 19th Floor, Tower A, Ganpatrao Kadam Marg, Lower Parel, Mumbai 400013, MH",+91-22-66309500,"speedagecomplaints@gmail.com,speedagecommercial@gmail.com,tallury.chaitanya@gmail.com,propzone@yahoo.co,",
SAIF Partners,Companies(Private),Noida,"Unit 1002 b, 10th Floor, Time Tower, MG Road, Gurgaon 122002, HR",+91-124-4965500,"anant.shah@nrinexus.com,info@sankalpcares.com,investors@sankalpcares.com,sankalpshare@rediffmail.com,sankalp.dp@sankalpcares.com,",
Religare Invesco Asset Management Company Pvt Ltd (Religare),Companies(Private),Noida,"3rd Floor, GYS Infinity, Paranjpe ""B"" Scheme, Subhash Road, Vile Parle East, Mumbai 400057, MH",+91-22-67310000,,
Religare Health Insurance Company Ltd (Reliance),Companies(Private),Noida,"GYS Global, Plot A3, A4, A5 Sector 125, Noida 201301, UP","+91-120-6172065, +91-120-3391000","x3ecustomerfirst@careinsurance.com,customerfirst@careinsurance.com,wecare@religareonline.com,x3ewecare@religareonline.com,",
Motilal Oswal Financial Services,Companies(Private),Noida,"Motilal Oswal Tower, Gokhale & Sayani Road, Parel, ST Depot, Prabhadevi, Mumbai 400024, MH","+91-22-39825500, +91-22-39804200","am@motilaloswal.com,servicehead@motilaloswal.com,x3ena@motilaloswal.com,x3eam@motilaloswal.com,x3eservicehead@motilaloswal.com,query@motilaloswal.com,na@motilaloswal.com,last@motilaloswal.com,x3equery@motilaloswal.com,",
Metropolitan Stock Exchange of India Ltd,Companies(Private),Noida,"Vibgyor Towers, 4th Floor, Plot C 62, G Block, Opposite Trident Hotel, Bandra Kurla Complex, Bandra East, Mumbai 400098, MH",+91-22-61129000,,
JL Shah Securities Pvt Ltd,Companies(Private),Noida,"Unit 510, Hubtown Solaris, Near East West Flyover, NS Phadke Marg, Andheri East, Mumbai 400069, MH","+91-22-66807570, +91-22-66807575","info@jlshah.co.in,jls_336@jlshah.co.in,query@jlshah.co.in,",
Investeurs Consulting Pvt Ltd,Companies(Private),Noida,"S-26, 27, 28, 3rd Floor, Veera Tower, Green Park Extension, New Delhi 110016, DL","+91-11-26522441, +91-11-26522442","u003einfo@investeurs.com,info@investeurs.com,sxxxxxxxa@investeurs.com,",
InvestCare Pvt Ltd,Companies(Private),Noida,"B-10, Sector 1, Noida 201301, UP",+91-120-4774600,"consolidatedcapitalinvestcare@gmail.com,jitenderrdeo@gmail.com,companyccil@gmail.com,Info@ccilindia.in,",
Gruh Finance Ltd,Companies(Private),Noida,"Gruh, Nataji Marg, Near Mithakhali Six Roads, Ellisbridge, Ahmedabad 380006, GJ","+91-79-26421673, +91-79-26421672","ahmedabad@linkintime.co.in,",
Genuine Stock Brokers Pvt Ltd,Companies(Private),Noida,"B-601, Gopal Palace, Near Shiromani Tower, Nehru Nagar, Ahmedabad 380015, GJ",+91-79-26769701,,
FRR Shares & Securities Ltd,Companies(Private),Noida,"205, Embassy Centre, Nariman Point, Mumbai 400021, MH","+91-22-22835122, +91-22-22833825",,
Frontline Securities Ltd,Companies(Private),Noida,"B 22, Sector 4, Noida 201301, UP","+91-120-2534067, +91-120-2534066",,
Citizen Credit Co-Operative Bank Ltd,Companies(Private),Noida,"Helena Apartments, Mount Carmel Road, Bandra West, Mumbai 400050, MH","+91-22-26442830, +91-22-26442831","ho@ccblonline.com,",
Chhattisgarh Rajya Gramin Bank,Companies(Private),Noida,"Mahadev Ghat Road, Sunder Nagar, Raipur 492013, CG","+91-771-4265502, +91-771-4265503","care@cgbank.in,gb.ho@cgbank.in,npa.ho@cgbank.in,",
Capri Global Capital Ltd,Companies(Private),Noida,"4th Floor, Merchant Chambers, 41, Sir Vithaldas Thackersey Marg, New Marine Lines, Mumbai 400020, MH","+91-22-40888100, +91-22-66518011","gxxxxxxr@capriloans.in,group.cos@cgcl.co.in,x3egroup.cos@cgcl.co.in,",
BSE Ltd,Companies(Private),Noida,"Phiroze Jeejeebhoy Towers, Dalal Street, Mumbai 400001, MH","+91-22-22721233, +91-22-22721234","bsehelp@bseindia.com,csdeepakbansal@gmail.com,saralitpl@gmail.com,x3ebsehelp@bseindia.com,sachinag1981@gmail.com,investors@coforge.com,bse.shareholders@bseindia.com,x3ebse.shareholders@bseindia.com,x22bsehelp@bseindia.com,",
BimaGenie Insurance Broking Pvt Ltd,Companies(Private),Noida,"35/1870A, South Janatha Road, Palarivattom, Kochi 682025, KL","+91-484-4117741, +91-484-4117742","sridharbroker@yahoo.co.in,x3esridharbroker@yahoo.co.in,x22sridharbroker@yahoo.co.in,pranav.kapadia@globalinsurance.co.in,x3epranav.kapadia@globalinsurance.co.in,ravikanth@pragmaticinsurance.com,",
Asia Bulls,Companies(Private),Noida,"B-2/60, Safdarjung Enclave, New Delhi 110029, DL",+91-11-26106565,"pehealth39@gmail.com,",
Apax Partners India Advisers Pvt Ltd,Companies(Private),Noida,"2nd Floor, Devchand House, Shivsagar Estate, Dr Annie Besant Road, Worli, Mumbai 400018, MH",+91-22-40508400,"x3ejane.doe@apax.fr,apax@greenbrookpr.com,jane.doe@apax.fr,virendra.jain@bdo.in,",
Accident Relief Care India Pvt Ltd,Companies(Private),Noida,"48, Vaishnavi Badri, 5th Main Road, Jayamahal Extension, Bangaluru 560046, KA","+91-80-40993666, +91-80-40993777, +91-80-40993888","claims@accidentreliefcare.com,n@cioins.co.in,accounts@accidentreliefcare.com,info@accidentreliefcare.com,",
A C Agarwal Share Brokers Pvt Ltd,Companies(Private),Noida,"406, Payal Complex, Near Stock Exchange Building, Sayajigunj, Vadodara 390005, GJ","+91-265-2361672, +91-265-2361059","acashare@gmail.com,",
Accord HR Services,Companies(Private),Noida,,,"hrd.zensoft@pacific.net.sg,asiapacific@accord-soft.com,aserv99@gmail.com,engserv@inf.com,info@accordmanpower.com,careers@noida.hclt.com,x3esajjan.agrawal@abcconsultants.in,",
Infibeam.com,Companies(Private),Noida,,,"x3eir@ia.ooo,",
Gizmo E Bazaar Pvt Ltd,Companies(Private),Noida,,,"gizmobazaar@gmail.com,",
Beacon Insurance Brokers Pvt Ltd,Companies(Private),Noida,"903, 904, Iscon, Atria Tower 2, Opposite GEB Training Centre, Gotri Road, Vadodara 390021, GJ","+91-265-6601201, +91-265-6601200","x3egrievance.india@marsh.com,grievance.india@marsh.com,pranav.kapadia@globalinsurance.co.in,x3epranav.kapadia@globalinsurance.co.in,info@mastersindia.co,mxxxxxn@beacon.co.in,ahmedabad@beacon.co.in,am@beacon.co.in,",
YI International Pvt Ltd,Companies(Private),Noida,"D-62, Industrial Area Phase 1, Okhla, New Delhi 110020, DL","+91-11-26812060, +91-11-26812061","yiint@yiinternational.com,shashi@espireeducation.com,u003eyiint@yiinternational.com,yiint@airtelmail.in,janedoe@yiinternational.com,info@yiinternational.com,",
Centum Electronics Ltd,Companies(Private),Noida,"44, KHB Industrial Area, Yelahanka, New Township, Bangalore 560064, KA",+91-80-41436000,"investors@centumelectronics.com,x3einvestors@centumelectronics.com,info@mastersindia.co,",
TDM Company India Pvt Ltd,Companies(Private),Noida,,,"marketing.india@bmj.com,",
RVC Commercial and Electronic Services Pvt Ltd,Companies(Private),Noida,,,"ashish.pandey9924@gmail.com,chavandinesh1976@gmail.com,",
Bloom Energy India Pvt Ltd,Companies(Private),Noida,"3, North East Block, Itbt Park 5th Blk, indl Estate, Rajajinagar 560010, KA",+91-80-40434200,"last@bloomenergy.com,info@mastersindia.co,Mohan.Sharma@bloomenergy.com,x3ejane.doe@bloomenergy.com,x3eMohan.Ramanujam@bloomenergy.com,jane.doe@bloomenergy.com,Mohan.Ramanujam@bloomenergy.com,",
Adore Infotech Pvt Ltd,Companies(Private),Noida,,,"jane_d@adoreinfotech.com,sales@adoreinfotech.com,dillip@adoreinfotech.com,",
TSR Darashaw Ltd,Companies(Private),Noida,"6, 10, 20, Haji Moosa Patrawala Ind. Estate, Dr E Moses Road, Mahalaxmi, Mumbai 400001, MH",,"fdinquiry@tcplindia.co.in,csg-unit@tsrdarashaw.com,CONSUMERHELP@DARASHAW.COM,x3eaccounts@tsrdarashaw.com,accounts@tsrdarashaw.com,x3eCONSUMERHELP@DARASHAW.COM,cs@prakashsteelage.com,srao@tcplindia.co.in,nichetechpl@nichetechpl.com,",
Relcom Engineering Pvt Ltd,Companies(Private),Noida,"76-D, Sri Sai Kuteer, Manglapuri, Palam, New Delhi 110045, DL",+91-9810037100,"rd.vaz@rd-engineering.com,x3edgmf@vinirforge.com,accounts@relcomgroup.com,x3eaberi1963@gmail.com,dgmf@vinirforge.com,x3erd.vaz@rd-engineering.com,relcom@satyam.net.in,aberi1963@gmail.com,x22dgmf@vinirforge.com,",
Cogent Engineers Pvt Ltd,Companies(Private),Noida,"Hermes Minor, 2nd Floor, Ramwadi, Pune Nagar Road, Pune 411014, MH",+91-9881067261,"gaurav.agarwal@cogenteservices.com,kxx@cogenteservices.com,email@cogenteservices.com,cogentaccount@gmail.com,",
Shop India Impex Pvt Ltd,Companies(Private),Noida,,,"chaudharyneeraj25@gmail.com,everonalance@gmail.com,meena@klifecare.com,naveen.jain@hotmail.com,support@navpad.in,x3esupport@navpad.in,x3emeena@klifecare.com,9015664489nc@gmail.com,x22ram@alphaogm.com,x3eram@alphaogm.com,rssaini2004@yahoo.com,x22support@navpad.in,ram@alphaogm.com,x3enaveen.jain@hotmail.com,",
Imarque Solutions Pvt Ltd,Companies(Private),Noida,"9, 10, Theyagaraja Road, T Nagar, Chennai 600017, TN",,"info@mastersindia.co,jane@imarque.co.in,",
Galderma India Pvt Ltd,Companies(Private),Noida,"D-8, CTS No 185-A, 801-802, Lotus Corporate Park, 8th Floor, Goregaon East, Mumbai 400063, MH",,"x3enimit.sanghvi@galderma.com,x3econtactus@galdermasupport.com,",
Spectraforce Technologies India Pvt Ltd,Companies(Private),Noida,"31-32, 1st Floor, Tower-A, Selenium, Cyberabad, Hyderabad 500032, TS",+91-40-30126000,"last@spectraforce.com,x3ejane.doe@spectraforce.com,jane.doe@spectraforce.com,shree.jhunjhunwala@spectraforce.com,",
CDAC,Companies(Private),Noida,,,"JohnSmith@cdacnoida.in,headmmg-noida@cdac.in,pvrishi@cdac.in,x3eacts@cdac.in,techsupport@cdac.in,actssupport@cdac.in,",
Yatra Online Pvt Ltd,Companies(Private),Noida,"11th Floor, Tower B, Unitech Cyber Park, Sector 3, Gurgaon 122001, HR",+91-124-3040500,"investors@yatra.com,hotelservices@yatra.com,",
Cyfuture India Pvt Ltd,Companies(Private),Noida,,,"uk@cyfuture.com,last@cyfuture.com,bxxxxxxxxa@cyfuture.com,",
Heartland Bangalore Transcription Services Pvt Ltd ,Companies(Private),Noida,,,"msingh@heartlandis.com,",
Emco India Ltd ,Companies(Private),Noida,,,"agupta04@beckman.com,connect@manojmonga.co,rakesh.shejwal@aartigroup.cominfo,orionemo@gmail.com,",
