Name,Sector,City,Address,Phone,Email,Lat-Long
FitnessKinds - Chhatarpur - Delhi,Gym,Delhi,,,"contact@dronacharyathegym.com,,","28.5564756,77.1568884"
Component Fitness - Malviya Nagar - Delhi,Gym,Delhi,"D-80, First Floor, Malviya Nagar Rd, above Punjab National Bank, Main Market, New Delhi, Delhi 110017",088001 17699,"info@componentfitness.co.in,componentfitnessindia@gmail.com,,","28.5348263,77.2076452"
The Sweat Yard - Delhi,Gym,Delhi,"The Sweat Yard, Near meerut sweets, 701, Banda Bahadur Marg, opposite to Satija Building, Mukherjee Nagar, New Delhi, Delhi 110009",084482 25254,,"28.7109318,77.211962"
Superb Gym And Spa - Delhi,Gym,Delhi,,,",vikranttyagi.superbgym@gmail.com,",
Anytime Fitness - Rohini - Delhi,Gym,Delhi,,,",memberexperience@anytimefitness.in,",
Eden Gym N Spa - Burari - Delhi,Gym,Delhi,,,",bajajssky@gmail.com,",
Evolution Fitness - Punjabi Bagh - Delhi,Gym,Delhi,,,",response.evopb@gmail.com,contact@ufcgym.in,",
Ampower Fitness - Delhi,Gym,Delhi,,,",youremail@yourdomain.com,conact@ampowerfitness.in,",
Zeus Gym & Spa - Gujranwala Town - Delhi,Gym,Delhi,"A-199, Opposite Saya Automobiles, Gujranwala Town, Delhi 110009, DL","+91-9810553044, +91-8860906090, +91-11-27463000",,
Yogalife - Jungpura Extension - Delhi,Gym,Delhi,"H-33, Basement, Jungpura Extension, Delhi 110014, DL",+91-9999365557,",delhi@yogaindailylife.org,smitayoga@ymail.com,",
Yoga Vidya Foundation - Katwaria Sarai - Delhi,Gym,Delhi,"F-94, 1st Floor, Katwaria Sarai, Delhi 110016, DL",+91-11-66538619,",delhiretreat2024@gmail.com,karnataka@pranichealing.co.in,",
Yoga Studio - Surajmal Vihar-Anand Vihar - Delhi,Gym,Delhi,"A-264, Opposite Shiksha Sadan, Main Road, Anand Vihar, Delhi 110092, DL",+91-9873509916,",yscdda@yahoo.com,",
Yoga Shodhan - Raj Nagar - Delhi,Gym,Delhi,"102, H Block, Street 5, Palam Colony, Part 2, Raj Nagar, Delhi 110045, DL","+91-8595131418, +91-8010471890",",dhyan@dhyanfoundation.com,hello@cultfit.com,",
Yoga Naturopathy Study & Health Care Centre - Karol Bagh - Delhi,Gym,Delhi,"8, Joshi Road, Karol Bagh, Delhi 110005, DL",+91-9899895997,,
Yoga Naturopathy Education Sanstha - Sidharth Nagar - Delhi,Gym,Delhi,"D-16, Sidharth Nagar, Ashram Road, Delhi 110014, DL",+91-9868241610,",vijaynishi77@yahoo.co.in,hello@cultfit.com,chairmanbnysd@gmail.com,registrarbnysd@gmail.com,",
Yoga Meditation Delhi - Defence Colony - Delhi,Gym,Delhi,"C-162, Defence Colony, Delhi 110024, DL",+91-9811998983,,
Yoga Meditation & Ayurveda Centre - South Extension Part I - Delhi,Gym,Delhi,"D-41, Near Dana Bank, South Extension Part 1, Delhi 110049, DL","+91-11-24643344, +91-9818927367, +91-9310603911",,
Yoga An Art Of Living - Dwarka - Delhi,Gym,Delhi,"21, A/105, Himachal Apartment, Sector 5, Dwarka, Delhi 110075, DL","+91-9810210802, +91-8800605465","support@us.artofliving.org,,",
Yoga & Natural Health Care Centre - RK Puram - Delhi,Gym,Delhi,"357, Sector 6, RK Puram, Delhi 110022, DL","+91-9873557557, +91-11-26192687",,
Yog Power Studio - New Rajinder Nagar - Delhi,Gym,Delhi,"H-333, Basement, New Rajinder Nagar, Delhi 110008, DL","+91-11-45545102, +91-9650795103",,
Yog Power Studio - Janakpura - Delhi,Gym,Delhi,"A-2/140, Main Pankha Road, Janakpuri, Delhi 110058, DL","+91-11-43755101, +91-11-65364541, +91-9650795101",,
VLCC - Vasant Vihar - Delhi,Gym,Delhi,"22, Community Centre, Basant Lok, Priya Complex, Vasant Vihar, Delhi 110057, DL","+91-11-26155561, +91-11-26155562, +91-11-26155563, +91-11-26155564",",southex.dl@vlccwellness.com,",
VLCC - South Extension Part 1/I - Delhi,Gym,Delhi,"D-14, 2nd Floor, South Extension Part 1, Delhi 110049, DL","+91-11-26262075, +91-11-26262076, +91-11-26262077",",southex.dl@vlccwellness.com,info@vlccinstitute.com,",
VLCC - Safdarjung Enclave - Delhi,Gym,Delhi,"B-4/52, Safdarjung Enclave, Delhi 110029, DL","+91-11-26197158, +91-11-26197159, +91-11-26170065",",gk.dl@vlccwellness.com,support@woohoo.in,",
VLCC - Pusa Road - Delhi,Gym,Delhi,"11/1-B, Pusa Road, Delhi 110005, DL","+91-11-25824200, +91-11-25824201","pusard.dl@vlccwellness.com,,gk.dl@vlccwellness.com,",
VLCC - Punjabi Bagh - Delhi,Gym,Delhi,"35, 1St, 2Nd & 3rd Floor, Central Market, Punjabi Bagh, Delhi 110026, DL","+91-11-25228003, 25224514, +91-11-45087277, +91-9810381191",",punjabibagh.dl@vlccwellness.com,gk.dl@vlccwellness.com,",
VLCC - Preet Vihar - Delhi,Gym,Delhi,"G-85, Main Vikas Marg, Preet Vihar, Delhi 110092, DL","+91-11-42421001, +91-11-42421002, +91-11-42421003",",gk.dl@vlccwellness.com,info@vlccinstitute.com,preetvihar.dl@vlccwellness.com,",
VLCC - Model Town 2 - Delhi,Gym,Delhi,"F-14/30, Model Town 2, Delhi 110009, DL","+91-11-27417371, +91-11-27417372, +91-11-42821208, +91-995301749",",gk.dl@vlccwellness.com,",
VLCC - Janak Puri - Delhi,Gym,Delhi,"A-1/163/A, Main Najafgarh Road, Janak Puri, Delhi 110058, DL","+91-11-41573052, +91-11-25511051","janakpuri.dl@vlccwellness.com,,janakpuri.dl@vlccwellness.co,",
Vikram Bhandari Yoga - SNP - Delhi,Gym,Delhi,"O-30, 2nd Floor, SNP, Delhi 110065, DL","+91-9811244017, +91-9811244192",",yogivikram1@yahoo.in,",
Vibes - Meera Bagh - Delhi,Gym,Delhi,"B-377, 1st Floor, B Block, Meera Bagh, Delhi 110087, DL",+91-9650295387,",varunkumar1586@gmail.com,Inquiry@wellnessclub.co.in,",
Vibes - Pitampura - Delhi,Gym,Delhi,"GD-23, 1st Floor, Near Metro Station, Pitampura, Delhi 110034, DL","+91-11-47511644, +91-11-47511655, +91-11-65101993, +91-8800902477",",corporate@vibes.co.in,",
Vibes - Green Park Extension - Delhi,Gym,Delhi,"C-1, Opposite IOC Building, Main Road, Green Park Extension, Delhi 110016, DL","+91-11-46082299, +91-11-46072722, +91-11-26855477, +91-11-26865477",",anjnay.saini@ducati.com,",
Vibes - Delhi,Gym,Delhi,,,",corporate@vibes.co.in,rkfitnessdwarka@gmail.com,",
Vedic Power Yoga - Greater Kailash - Delhi,Gym,Delhi,"Pacific Sports Complex, Near LSR College, Greater Kailash 1, Delhi 110048, DL","+91-9716234616, +91-9911849575",,
Varadhasta Yoga & Meditation - Karol Bagh - Delhi,Gym,Delhi,"WEA, Near Karol Bagh Metro Station, Channa Market, Karol Bagh, Delhi 110005, DL",+91-9990319750,,
"Urban Yoga Studio, Delhi - Connaught Place - Delhi",Gym,Delhi,"ST-14, Flat 24, Cabin 2, Shankar Market, Block 4, Connaught Place, Delhi 110001, DL","+91-9810210802, +91-7838610068",,
Uranium Gym & Spa - Greater Kailash 1 - Delhi,Gym,Delhi,"Basement, Central Park, Part 1, Greater Kailash 1, Delhi 110048, DL",+91-11-29231276,,
Universal Gym & Fitness Centre - Uttam Road - Delhi,Gym,Delhi,"WZ-10, Opposite Happy Child School, Dayal SAR Road, Uttam Nagar, Delhi 110059, DL","+91-9212428836, +91-9213753853",,
Universal Gym - Chawri Bazar - Delhi,Gym,Delhi,"Delhi Police Bhavan, Shanker Gali, Chawri Bazar, Delhi 110006, DL",+91-9268402534,",dr.shahidrayeen@gmail.com,",
Unique Gym - Malviya Nagar - Delhi,Gym,Delhi,"J-2/9, Khirki Extension, Malviya Nagar, Delhi 110017, DL","+91-9999929927, +91-9654278644, +91-7838918244",",malvianagar@thegym.in,",
Torque Gymnasia - Vasant Kunj - Delhi,Gym,Delhi,"D-47, Shanti Kunj, Vasant Kunj, Delhi 110070, DL","+91-9711918003, +91-9136422866, +91-9811217476",,
Tornado Gym - Vikaspuri - Delhi,Gym,Delhi,"C-2, 42, Vikaspuri, Delhi 110018, DL","+91-9810596484, +91-9810383872",",navpreet23@gmail.com,",
The World Gym - Mausam Vihar - Delhi,Gym,Delhi,"D-5, South Anarkali Steet 1, Jagat Puri, Mausam Vihar, Delhi 110051, DL","+91-9891219193, +91-9990509457","contact@dronacharyathegym.com,,it@ndmc.gov.in,",
The Rock Gym - Uttam Nagar - Delhi,Gym,Delhi,"G-12, Near Metro Piller 722, Nvada, Kiran Garden, Steet 22, Som Bazar Road, Uttam Nagar, Delhi 110059, DL",+91-9899971196,,
The Perfect Yoga - Mehrauli - Delhi,Gym,Delhi,"C-173, Ward 3, Mehrauli, Delhi 110030, DL",+91-11-66361070,,
The Gym - Rohini - Delhi,Gym,Delhi,"11, 1st Floor, Harsha Arcade, DC Chowk, Sector 9, Rohini, Delhi 110085, DL","+91-9811628578, +91-9871188882",",rohini.delhi@goldsgymindia.com,manmeet@thegym.in,Inquiry@wellnessclub.co.in,membership@thegymgroup.com,",
The Gym - Dayanand Vihar - Delhi,Gym,Delhi,"11, East Delhi Dayanand Vihar, Delhi 110092, DL","+91-11-42801313, +91-7838888769",",dayanand.delhi@goldsgymindia.com,dayanand.delhi@goldsgym.in,",
The Gym - Punjabi Bagh - Delhi,Gym,Delhi,"NWA Basement, Club Road, Punjabi Bagh, Delhi 110026, DL","+91-11-43465888, +91-9811111128, +91-9911111128",",support@gymcompany.co.za,hello@cultfit.com,",
The Gym - Malvia Nagar - Delhi,Gym,Delhi,"17 & 18, Corner Market, Malvia Nagar, Delhi 110014, DL",+91-9999998122,",fitnessprimegym@gmail.com,hello@cultfit.com,malvianagar@thegym.in,info@componentfitness.co.in,",
The Gym - Vikas Puri - Delhi,Gym,Delhi,"H-22/6, Opposite Anupam Banquet, Vikas Puri, Delhi 110058, DL","+91-8447111111, +91-9871414511",",contact@fitarrow.com,membership@thegymgroup.com,shiv@thegym.in,",
The Gym - Model Town - Delhi,Gym,Delhi,"H-4/6, 2nd Floor, Near McDonalds, Model Town, Delhi 110009, DL","+91-9999978349, +91-9555055527","musclejunkie0@gmail.com,nitin@thegym.in,membership@thegymgroup.com,,",
The Gym - Janak Puri - Delhi,Gym,Delhi,"B-3/184, Janak Puri, Delhi 110058, DL","+91-11-47078707, +91-9811132031, +91-9999099212",",info@goldentigerresort.com,membership@thegymgroup.com,janakpuri.delhi@goldsgym.in,",
The Gym - Rajouri Garden - Delhi,Gym,Delhi,"J-13/66, Next To Kotak Mahindra Bank, Rajouri Garden, Delhi 110027, DL","+91-11-45118882, +91-9811111128, +91-9911111128",",info@thegym.in,delhi.rajourigarden@goldsgym.in,",
The Gym - East Patel Nagar - Delhi,Gym,Delhi,"6/15, East Patel Nagar, Delhi 110008, DL","+91-11-45660172, +91-9999099212, +91-9811132031",",hello@cultfit.com,maneet@thegym.in,membership@thegymgroup.com,",
The Gym - Pitampura - Delhi,Gym,Delhi,"HD-3, 1st Floor, Opposite Metro Pillar 361, Pitampura, Delhi 110034, DL","+91-11-45282222, +91-9599202222",",contact@dronacharyathegym.com,hello@cultfit.com,contact@fitarrow.com,shiv@thegym.in,membership@thegymgroup.com,",
The Gym - Shahdara - Delhi,Gym,Delhi,"12-13, GT Road, Shri Ram Nagar, Shahdara, Delhi 110032, DL",,"info@sparkusfitness.com,support@gymcompany.co.za,,contact@dronacharyathegym.com,admin@sparkusfitness.com,",
The Gym - Narela - Delhi,Gym,Delhi,"Main Arya Samaj Road, Narela, Delhi 110040, DL",,",info@bodygymindia.com,sales@bodygymindia.com,",
The Gym - Hudson Lane - Delhi,Gym,Delhi,"2575, Kings Way Camp, Hudson Lane, Delhi 110001, DL",,",shiv@thegym.in,",
The Gym - Paschim Vihar - Delhi,Gym,Delhi,"B-2/6, Opposite Kotak Mahindra Bank, Paschim Vihar, Delhi 110063, DL",+91-9910564445,",membership@thegymgroup.com,shiv@thegym.in,",
The Gold Gym - Satya Niketan - Delhi,Gym,Delhi,"4 & 5, Opposite Venketeshwar College, Satya Niketan, Delhi 110021, DL",+91-11-66433185,"WeCare@GoldsGym.in,,Wecare@goldsgym.in,goldsgymsainikfarms@gmail.com,",
The Fitness Active - Mansarover Garden - Delhi,Gym,Delhi,"D-20, Near Shemrock School, Mansarover Garden, Delhi 110015, DL",+91-9711270494,",theultimatefitnesstuf@gmail.com,",
The Cultivator Gym & Spa - Chhattarpur - Delhi,Gym,Delhi,"D-91, Chhattarpur Enclave, 100 Feet Road, Chattarpur, Delhi 110074, DL","+91-9910206670, +91-9899005919, +91-11-32712646",,
Tanya Dance Aerobic - Vikaspuri - Delhi,Gym,Delhi,"1, Vikaspuri, Delhi 110018, DL",+91-9990099165,",krprao@gmail.com,tanyasaxena.dance@gmail.com,",
Talwalkars Gym - Vasant Vihar - Delhi,Gym,Delhi,"12, Basant Lok, Near Priya Cinema Marke, Vasant Vihar, Delhi 110057, DL","+91-11-26141451, +91-11-26141450",,
Talwalkars Gym - Delhi,Gym,Delhi,,,",jayantac@icraindia.com,sajan.goyal@careratings.com,delhitalwalkars@gmail.com,avantis@talwalkars.net,Delhitalwalkars@gmail.com,",
Strength The Gym & Spa - Janakpuri - Delhi,Gym,Delhi,"C-3, Jeevan Park, Pankha Road, Janakpuri, Delhi 110058, DL","+91-11-65166673, +91-9312266246",,
Stay Fit Gym - Karol Bagh - Delhi,Gym,Delhi,"59/39, New Rohtak Road, Karol Bagh, Delhi 110005, DL","+91-11-43709331, +91-11-43709332, +91-9999895517, +91-9999054767",",thegymkarolbagh@gmail.com,",
Star Fitness - Bijwasan - Delhi,Gym,Delhi,"Shahbad, Mohammadpur, Bijwasan, Delhi 110061, DL","+91-9911515166, +91-9268290010","contact@dronacharyathegym.com,,",
Spa Hibiscus - Mayur Vihar - Delhi,Gym,Delhi,"58, 10Th Street, Mayur Vihar 1, Pratap Nagar, Delhi 110091, DL","+91-11-22759081, +91-9999367000",",mv@spahibiscusindia.com,info@spahibiscusindia.com,",
Spa Hibiscus - Vasant Kunj - Delhi,Gym,Delhi,"C-32, Nathu Singh Market, Vasant Kunj, Delhi 110070, DL","+91-11-64646161, +91-9999600977",",mv@spahibiscusindia.com,",
Smart Brands Products - NDSE - Delhi,Gym,Delhi,"A-27, South Extension, Part 2, NDSE, Delhi 110049, DL",+91-11-41640264,",customercare@seniority.in,marketing@seniority.in,",
Slim Fit Aerobic Classes - Dwarka - Delhi,Gym,Delhi,"45, Near Mother Dairy Outlet, Sector 12/A, Dwarka, Delhi 110075, DL",+91-11-66437765,",rkfitnessdwarka@gmail.com,",
Siva Yoga Studio - Vasant Kunj - Delhi,Gym,Delhi,"DDA Sports Club, Vasant Kunj, Delhi 110070, DL",+91-9810397345,,
Siddartha Yoga & Meditation - East Patel Nagar - Delhi,Gym,Delhi,"43/3, 4th Floor, Near Baby Clinic, East Patel Nagar, Delhi 110008, DL",+91-11-66355522,,
Shiv Darshan Yoga Class - Vasant Kunj - Delhi,Gym,Delhi,"B-602/4, Ward 3, Near Gausala Road, Vasant Kunj, Delhi 110070, DL",+91-11-66359062,",yoga.nandu.ls@gmail.com,",
Shape up zone - Uttam Road - Delhi,Gym,Delhi,"WZ-10B, West Uttam Nagar Metro Station, Dayal Sar Road, Uttam Nagar, Delhi 110059, DL","+91-11-25333218, +91-9911380488",,
Shankar Power Yoga - Dwarka Sector 1 - Delhi,Gym,Delhi,"D-30, DDA Flats, Pocket 1, Sector 10, Dwarka, Delhi 110075, DL","+91-9968507610, +91-9013247640",",rkfitnessdwarka@gmail.com,",
Seema Sondhi - Hauz Khas - Delhi,Gym,Delhi,"E Block, Market, Hauz Khas, Delhi 110016, DL",+91-9811131368,,
Saral Fitness Club - Shahdara - Delhi,Gym,Delhi,"1/3748, Main Loni 1 Road, Ram Nagar, Shahdara, Delhi 110032, DL","+91-9213525622, +91-9716074055","saralfitnessclub@gmail.com,,",
Sanjeev Yoga - Kalkaji - Delhi,Gym,Delhi,"TA-177 B/2, DDA Flats, Kalkaji, Delhi 110019, DL",+91-11-66431850,,
Samsaraa Fitness Figure - Rohini - Delhi,Gym,Delhi,"142, Pocket 3, Near DPS School, Sector 24, Rohini, Delhi 110085, DL",+91-11-66725368,",samsaraafitness@gmail.com,",
Sahaja Yoga - Dwarka - Delhi,Gym,Delhi,"Inderprastha International School, Sector 10, Dwarka, Delhi 110075, DL","+91-11-25096149, +91-9811503810",",delhinirmaldham@gmail.com,",
Sahaja Yoga - Najafgarh - Delhi,Gym,Delhi,"RK Model Public School, Kotlavihar Phase 2, Nangloi Road, Najafgarh, Delhi 110043, DL","+91-9212932982, +91-981131519",,
Sahaja Yoga - Vikas Puri - Delhi,Gym,Delhi,"83/A, F-Block, Columbia Juniior School, Next To Sanatan Dharm Mandir, Vikas Puri, Delhi 110018, DL","+91-9310990121, +91-9582100781",,
Sahaja Yoga - Rani Bagh - Delhi,Gym,Delhi,"2nd Floor, Krishna Mandir, Satsang Bhawan, Near Rani Bagh Chowk, Main Market, Rani Bagh, Delhi 110034, DL","+91-9868231923, +91-9811774959, +91-9818006606",,
Sahaja Yoga - Najafgarh - Delhi,Gym,Delhi,"Yadav Bhawan, Khaira Road, Najafgarh, Delhi 110043, DL","+91-9212932982, +91-9811315197",,
Sahaja Yoga - Uttam Nagar - Delhi,Gym,Delhi,"Goldfield Public School, Rama Park Road, Uttam Nagar, Delhi 110059, DL","+91-9312229540, +91-9582295400, +91-9999243839",",ska.cfc@gmail.com,jaishreemataji@gmail.com,chamanarora@gmail.com,",
Sahaja Yoga - East Punjabi Bagh - Delhi,Gym,Delhi,"7, Road 13, East Punjabi Bagh, Delhi 110026, DL","+91-11-28315657, +91-9910017575",,
Sahaja Yoga - Bangali Colony - Delhi,Gym,Delhi,"H-3/21, Near Sulabh Public School, Mahavir Enclave, Bangali Colony, Delhi 110084, DL","+91-9582100781, +91-9868038648",,
Sahaja Yoga - Defence Colony - Delhi,Gym,Delhi,"South Delhi Public School, Opposite Nirulas, D Block, Defence Colony, Delhi 110024, DL","+91-9716863535, +91-9971129955",",response@sahajayoga-blr.org,",
Sahaja Yoga - Kamla Nagar - Delhi,Gym,Delhi,"D-64, Near Radha Krishan Mandir, Kamla Nagar, Delhi 110007, DL","+91-9211040404, +91-9953192021, +91-8447192727",",response@sahajayoga-blr.org,",
Sahaja Yoga - Rohini - Delhi,Gym,Delhi,"B-1, Bansal Bhawan, Sector 16, Rohini, Delhi 110085, DL","+91-9999005253, +91-9968198040",",Sahajayogatilaknagar@gmail.com,delhinirmaldham@gmail.com,",
Sahaja Yoga - Sahibabad - Delhi,Gym,Delhi,"178, Planet Kids School, Shalimar Garden, Extension 1, Sahibabad, Delhi 110001, DL","+91-9891595242, +91-7838745035",",Sahajayogatilaknagar@gmail.com,",
Sahaja Yoga - Karawal Nagar - Delhi,Gym,Delhi,"Mayur Modern Public School, Gali 4/6, Rama Garden, Karawal Nagar, Delhi 110094, DL","+91-8010002374, +91-9013244789, +91-9868839027",,
Sahaja Yoga - Modern Shahdara - Delhi,Gym,Delhi,"Near Shashi Public School, New Modern Shahdara, Mandoli Road, Delhi 110032, DL",+91-9717146080 +91-9210914676,,
Sahaja Yoga - West Vinod Nagar - Delhi,Gym,Delhi,"Great Mission Play School, Opposite Press Apartment, IP Extension, Gali 1, West Vinod Nagar, Delhi 110092, DL","+91-9818431190, +91-9540822344",,
Sahaja Yoga - Yojana Vihar - Delhi,Gym,Delhi,"A-100, 2nd Floor, Lovely Public English School, Opposite Gate 2 Of Yamuna Sports Complex, Yojana Vihar, Delhi 110092, DL","+91-9911104252, +91-9312837300",,
Sahaja Yoga - Bhajanpura - Delhi,Gym,Delhi,"D-157, Near Happy Time Public School, Bhajanpura, Delhi 110053, DL",+91-11-22170881 +91-9717421925,",delhinirmaldham@gmail.com,",
Sahaja Yoga - Shakarpur - Delhi,Gym,Delhi,"Opposite Modern Happy School, Panchayat Ghar, Shakarpur Gaon, Shakarpur, Delhi 110092, DL","+91-9990408559, +91-9278422807",",delhinirmaldham@gmail.com,",
Sahaja Yoga - Sonia Vihar - Delhi,Gym,Delhi,"Ramnath Model School, Dusra Pusta, Main Road, Sonia Vihar, Delhi 110094, DL","+91-8800355680, +91-9818041843",,
Sahaja Yoga - GTB Enclave - Delhi,Gym,Delhi,"Rosemary Public School, Behind Jeevan Jyoti Hospital, GTB Enclave, Delhi 110093, DL",,",firstorganicsinnovations@gmail.com,adityagupta367@gmail.com,",
Sahaja Yoga - Najafgarh Road - Delhi,Gym,Delhi,"Behind BSF Camp, Chhawla Village, Najafgarh Road, Delhi 110071, DL",+91-11-25316826,,
Sahaja Yoga - Pahar Ganj - Delhi,Gym,Delhi,"Saraswati Shishu Mandir, Near BSES Office, Aram Bagh, Pahar Ganj, Delhi 110055, DL",+91- 9873772237,",delhinirmaldham@gmail.com,",
Royal Gym - Karawal Nagar - Delhi,Gym,Delhi,"F-18, Dayalpur, Main Road, Karawal Nagar, Delhi 110094, DL","+91-9266222651, +91-9810833159, +91-11-22960110",,
Royal Fitness club - Neb Sarai - Delhi,Gym,Delhi,"A-1/13, Near Karnataka Restaurant, Freedom Fighter Colony, Neb Sarai, Delhi 110068, DL",+91-9811220987,,
ROY Therapy - Mayur Vihar Phase 2 - Delhi,Gym,Delhi,"D-184, Pocket B, Mayur Vihar Phase 2, Delhi 110091, DL",+91-11-66362047,",roytherapy.78@gmail.com,",
Revital Gym & Spa - Mansarover Garden - Delhi,Gym,Delhi,"F-15, Mansarover Garden, Delhi 110015, DL","+91-11-25439999, +91-11-25457015",,
Revital Gym & Spa - Punjabi Bagh - Delhi,Gym,Delhi,"50, North West Avenue, Club Road, Punjabi Bagh, Delhi 110026, DL","+91-11-25227566, +91-11-25226165, +91-11-47563932",,
Retham Fitness Centre - Rohini - Delhi,Gym,Delhi,"20/21, 1st Floor, Pocket 16, Sector 24, Rohini, Delhi 110085, DL","+91-9213293722, +91-11-27057684",,
RDX Gym & Spa - Rohini - Delhi,Gym,Delhi,"1st Floor, Amba Tower, Near DC Chowk, Sector 9, Rohini, Delhi 110085, DL","+91-11-47045242, +91-11-47045243",,
RDX Gym & Spa - Dwarka - Delhi,Gym,Delhi,"B-223, 2nd Floor, Opposite IGNOU Center, Sector 7, Dwarka, Delhi 110075, DL","+91-11-45542222, +91-11-42263468",,
Ratan Body Power Gym - Nangloi - Delhi,Gym,Delhi,"RZ-14 & 15, Pratap Vihar 1, Kirari, Nithari Road, Nangloi, Delhi 110041, DL","+91-9213682048, +91-9212707157, +91-9868886650",,
Raj Yoga Centre - Khanpur - Delhi,Gym,Delhi,"285, RPS Colony, Opposite Khanpur Bus Depot, Alipur, Khanpur, Delhi 110036, DL","+91-11-29053080, +91-9990000285",",khanpur.del@bkivv.org,",
Raj Yoga Centre - Kalkaji - Delhi,Gym,Delhi,"Bapu Bhawan N, Block, Govindpuri Vistar, Kalkaji, Delhi 110019, DL",+91-9871746833,,
Push UP Gym & Spa - Dwarka - Delhi,Gym,Delhi,"984/985, Opposite ICICI Bank, Ram FAL Chowk, Sector 7, Dwarka, Delhi 110075, DL","+91-11-65650077, +91-11-25073239, +91-9818478030",,
Pumping Iron Gym - Uttam road - Delhi,Gym,Delhi,"10/15, Basement, Near Metro Pillar 798, Vipin Garden, Uttam Nagar, Delhi 110059, DL",+91-9716402929,,
Pumping Iron - Dwarka - Delhi,Gym,Delhi,"4, 2nd Floor, Aditya Plaza, Opposite DDA Sport Complex, Phase 10, Sector 10, Dwarka, Delhi 110075, DL",+91-9811656366,",generationgym@gmail.com,dwarka.delhi@goldsgymindia.com,",
Pulse Gym & Spa - Najafgarh - Delhi,Gym,Delhi,"Main Furniture Market, Najafgarh, Delhi 110043, DL","+91-9958041650, +91-11-25321556",,
Priyanshi Yoga Centre - Dwarka - Delhi,Gym,Delhi,"Sector 2, Dwarka, Delhi 110075, DL",+91-11-66358801,",dwarka@sivananda.org.in,",
Power World - Malviya Nagar - Delhi,Gym,Delhi,"JE-12, Basement Khirki Extension, Opposite Tikona Park, Main Road, Malviya Nagar, Delhi 110017, DL","+91-11-46709058, +91-9873930076, +91-9810150076",",info@powermaxfitness.net,sales@brbiomedical.com,ftnsworld@gmail.com,GetFit@WorldGym.com,",
Platinum Gym & Spa - Shalimar Bagh - Delhi,Gym,Delhi,"BN-57, Below Fedreral Bank, Shalimar Bagh, Delhi 110088, DL","+91-9212033356, +91-11-27492172, +91-11-69920026",,
Planet Xercise - Dilshad Garden - Delhi,Gym,Delhi,"F-1 & F-2, Near Seema Puri Goal Chakkar, Mrignaine Chowk, Dilshad Garden, Delhi 110095, DL","+91-9971466600, +91-8527027799",,
Phy Action Gym Fitness & Physiotherapy Centre - Rajouri Garden - Delhi,Gym,Delhi,"A-8, Vishal Enclave, Rajouri Garden, Delhi 110027, DL","+91-11-25454141, +91-11-65759696, +91-9810218707",,
Personal Trainer Home Service - Vasant Vihar - Delhi,Gym,Delhi,"FC-1, PWD Colony, Vasant Vihar, Delhi 110057, DL",+91-9313374410,,
Personal Point - Rohini - Delhi,Gym,Delhi,"C-8/5, Main Road, Sector 7, Rohini, Delhi 110085, DL","+91-11-47032475, +91-11-29213806",",info@personalpoint.co,",
Pegassus Gym - Paschim Vihar - Delhi,Gym,Delhi,"431, Bhera Enclave, Paschim Vihar, Delhi 110087, DL",+91-9818188122,",contact@fitarrow.com,",
Peak Fitness Gym & Health Club - Humayon pur - Delhi,Gym,Delhi,"B-70, Safdarjung Enclave, Humayon Pur, Delhi 110029, DL",+91-9999333420,,
Pacific Sports Complex - Andrews Ganj - Delhi,Gym,Delhi,"Andrews Ganj, Near Central School, Greater Kailash 1, Delhi 110048, DL","+91-11-26452748, +91-11-26452747",",info@khelomore.com,pacificsportsenquiry@yahoo.com,",
One On One Gym - New Ashok Nagar - Delhi,Gym,Delhi,"A-431, Sarpanch Complex, Main Road, New Ashok Nagar, Delhi 110096, DL","+91-9871828686, +91-9868817721, +91-11-22710149",",sweetaadi.singh22@gmail.com,",
New Life Yoga - Dwarka - Delhi,Gym,Delhi,"Dwarka, Delhi 110078, DL",+91-9873968016,",dsc_dwarka_dda@yahoo.co.in,",
Namo Yoga Studio - Naraina Vihar - Delhi,Gym,Delhi,"A-2, Naraina Vihar, Ring Road, Delhi 110028, DL","+91-11-41414696, +91-9811650458",,
Muscle & Fitness - Janakpuri - Delhi,Gym,Delhi,"A-2/140, Basement, Main Pankha Road, Janakpuri, Delhi 110058, DL",+91-9810690008,,
Moksh Marg Gym & Spa - Uttam Nagar - Delhi,Gym,Delhi,"44, Bhagwati Garden, Near Dwarka Mor Metro Station, Polo Garden Road, Uttam Nagar, Delhi 110059, DL",+91-11-66357130,,
Mind 2 Soul Gym - Kamala Nagar - Delhi,Gym,Delhi,"27, Bunglow Road, Kamala Nagar, Delhi 110007, DL","+91-11-45603565, +91-09212228565",,
Manaswi Yoga - Shahdara - Delhi,Gym,Delhi,"2188, Opposite Sewage Pumping Station, East Ram Nagar, Shahdara, Delhi 110032, DL","+91-9818691949, +91-9810965345","rajkamal.yoga@gmail.com,,isha.delhicenter@ishafoundation.org,",
Manas Yog Sansthan - Ashram - Delhi,Gym,Delhi,"D-6, Pocket C, Siddharth Enclave, Delhi 110014, DL","+91-11-66725206, +91-9811035562",,
Life Style Fitness Gym - Geeta Colony - Delhi,Gym,Delhi,"7/18, Geeta Colony, Delhi 110031, DL",+91-9810117286,,
Life N Style - Sector 26 - Delhi,Gym,Delhi,"19, Jaipuria Plaza, Opposite Delhi Public School, Basement, Sector 26, Delhi, 110085, DL","+91-9999097797, +91-9810666607",",sveltehealthspa@gmail.com,",
Life Line Health Club - Lajpat Nagar 2 - Delhi,Gym,Delhi,"K-28, Lajpat Nagar 2, Delhi 110024, DL","+91-11-29831500, +91-11-29831400, +91-11-29848300, +91-9810265100",",lifelinesingh@yahoo.co,",
Life Fitness Centre - Sagarpur - Delhi,Gym,Delhi,"RZ-I-79/A, Near Shakuntla Nursing Home, Sagarpur, Delhi 110046, DL","+91-9212052054, +91-9871631700, +91-9958548885",,
Leo Gradin Wild Fitness - South Extension - Delhi,Gym,Delhi,"D-26, Near State Bank Of India, South Extension, Delhi 110049, DL",+91-11-66360534,,
La Sona Gym - Kingsway Camp - Delhi,Gym,Delhi,"122, Mall Road, Kingsway Camp, Delhi 110009, DL",+91-11-66356898,,
Kosmic Fitness - Mukherjee Nagar - Delhi,Gym,Delhi,"A-19, Priyanka Tower, Commercial Complex, Behind Batra Cinema, Mukherjee Nagar, Delhi 110009, DL",+91-11-65160116,,
Kosmic Fitness - Model town - Delhi,Gym,Delhi,"N, Round About, Tagore Park, Model Town 1, Delhi 110009, DL",+91-11-64690409,,
Kashi Kriya Yoga - Tughlakabad Extension - Delhi,Gym,Delhi,"KZ-9/21, 2nd Floor, Gali 11, Tughlakabad Extension, Delhi 110019, DL",+91-9873739800,,
Iron Lord Gym - Nangal Raya - Delhi,Gym,Delhi,"Near MCD School & DDA Complex, Nangal Raya, Delhi 110046, DL",+91-9560382296,,
Hype The Gym - Palam Vihar - Delhi,Gym,Delhi,"A-2, In Between Mcdonalds & Spenish Court, Sector 23/A, Palam Vihar, Delhi 110075, DL","+91-9999501352, +91-11-4006003, +91-11-4056003",,
Huge - Shakurbasti - Delhi,Gym,Delhi,"Samrat Enclave, Guru Harkishan Marg, Shakurbasti, Delhi 110034, DL",+91-9891414858,"WeCare@GoldsGym.in,,",
Her Fitness - Paschim Vihar - Delhi,Gym,Delhi,"418, Basement, Bhera Enclave, Paschim Vihar, Delhi 110063, DL",+91-9990001461,"u003ejoinherfitness@gmail.com,,joinherfitness@gmail.com,info@herfitness.in,",
Health Sanctuary - Rajouri Garden - Delhi,Gym,Delhi,"J-12/13-A, Rajouri Garden, Delhi 110027, DL","+91-11-45130545, +91-11-45130546",,
Health India Gym - Chirag Delhi - Delhi,Gym,Delhi,"A-318, Near Bhagat Singh Collage, Chirag Delhi Delhi 110017, DL","+91-9810500837, +91-9971979955",,
Gym Plex - Vikaspuri - Delhi,Gym,Delhi,"H-1/138, Vikaspuri, Delhi 110018, DL",+91-11-45679574,,
Gym N Trim - Paschim Vihar - Delhi,Gym,Delhi,"12/399, Outer Ring Road, Paschim Vihar, Delhi 110063, DL","+91-11-25266290, +91-9810124160",,
Gym Health Planet - Vikaspuri - Delhi,Gym,Delhi,"H-2/6, Opposite Anubhav Banquet, Vikaspuri, Delhi 110018, DL",+91-9871414511,",contact@fitarrow.com,",
Grih Kalyan Kendra - Lodhi Road - Delhi,Gym,Delhi,"Smaj Sadan Building, Ministry Of Personnel, Public Grievances & Pension, Lodhi Road Complex, Lodhi Road, Delhi 110003, DL",+91-11-26116218,,
Gold's Gym - Pusa Road - Delhi,Gym,Delhi,"35-B, 1st Floor, Pusa Road, Delhi 110008, DL","+91-11-46102400, +91-11-46102500","WeCare@GoldsGym.in,,pusaroad.delhi@goldsgymindia.com,",
Gold's Gym - East Of Kailash - Delhi,Gym,Delhi,"E-15, East Of Kailash, Delhi 110065, DL","+91-11-46610101, +91-9650820101, +91-9650830101",",WeCare@GoldsGym.in,Wecare@goldsgym.in,gk.delhi@goldsgym.in,gk.delhi@goldgymindia.com,",
Gold's Gym - Dayanand Vihar - Delhi,Gym,Delhi,"9, Above Platinum Diagnostics, Dayanand Vihar, Delhi 110091, DL","+91-8826695810, +91-8826695811, +91-8826695812, +91-8826695813","WeCare@GoldsGym.in,,Wecare@goldsgym.in,dayanand.delhi@goldsgymindia.com,",
Gold's Gym - Rohini - Delhi,Gym,Delhi,"Mangalam Paradise Mall, Sector 3, Rohini, Delhi 110085, DL","+91-11-27942655, +91-11-27942656, +91-11-27942657",",rohini.delhi@goldsgymindia.com,rohini.delhi@goldsgym.in,WeCare@GoldsGym.in,Wecare@goldsgym.in,",
Gold's Gym - Janakpuri - Delhi,Gym,Delhi,"A1/289, Pankharoad, Janakpuri, Delhi 110058, DL","+91-11-45066530, +91-11-45066531, +91-11-45066532",",info@goldentigerresort.com,WeCare@GoldsGym.in,Wecare@goldsgym.in,janakpuri.delhi@goldsgymindia.com,",
Gold's Gym - Dwarka - Delhi,Gym,Delhi,"A-67/70, Palam Extension, Sector 7, Dwarka, Delhi 110014, DL","+91-11-45137070, +91-8826249292, +91-8826239292","WeCare@GoldsGym.in,dwarka.delhi@goldsgym.in,Wecare@goldsgym.in,,",
Ganga The Fitness Force - West Sagar Pur - Delhi,Gym,Delhi,"RZ-80, Opposite Janak Cinema, Mohan Block, West Sagar Pur, Delhi 110046, DL",+91-9891562812,,
Fuel Evolution - Sainik Faram - Delhi,Gym,Delhi,"4, Anupam Garden, Club Road, Sainik Faram, Delhi 110068, DL",+91-11-32225797,",fuelevolution2012@gmail.com,goldsgymsainikfarms@gmail.com,",
Fluid Fitness - Rajender Nagar - Delhi,Gym,Delhi,"13-B, Bazar Marg, Rajender Nagar, Delhi 110060, DL",+91-11-45900001,,
Fitness Zone - Katwaria Sarai - Delhi,Gym,Delhi,"Katwaria Sarai Village, Opposite Well 1, Katwaria Sarai, Delhi 110016, DL",+91-9999890702,,
Fitness Studio - Jhandewalan - Delhi,Gym,Delhi,"24-A & B, Cycle Market, Jhandewalan, Delhi 110055, DL","+91-11-23514377, +91-11-23520411, +91-9811127764","care@fitpass.co.in,,",
Fitness Station - Vikaspuri - Delhi,Gym,Delhi,"F Block, Glaxi Market, Vikaspuri, Delhi 110092, DL","+91-8800207332, +91-9268611840",",contact@fitarrow.com,mepackfitness@gmail.com,shiv@thegym.in,",
Fitness Starts - Uttam Nagar - Delhi,Gym,Delhi,"V-50, Uttam Nagar, Delhi 110059, DL",+91-8802959961,",24carefitnesscenter@gmail.com,",
Fitness Mantra - Badarpur - Delhi,Gym,Delhi,"19, 2, Staff Colony, NTPC, Badarpur, Delhi 110044, DL","+91-9818456612, +91-11-65815073",,
Fitness Future Gym - Paschim Vihar - Delhi,Gym,Delhi,"A-6/5, Near Sagar Ratna Restaurant, Paschim Vihar, Delhi 110063, DL","+91-9213590644, +91-11-45018551",",varunjuneja84@gmail.com,",
Fitness Force Health Gym - Aya Nagar - Delhi,Gym,Delhi,"89, Aya Nagar, Delhi 110047, DL",+91-9210007439,,
Fitness First - Citywalk - Delhi,Gym,Delhi,"A-3, P/1B, 5Th & 6Th Floor, District Center, The New Delhi Dome, Saket, Delhi 110017, DL","+91-11-46325125, +91-11-49497000",",x3emembership.services@fitnessfirst.co.uk,ff.selectcity@fitnessfirst.net.in,membership.services@fitnessfirst.co.uk,",
Fitness First - Connaught Circus - Delhi,Gym,Delhi,"1st & 2nd Floor, N 57 To N 62, Opposite Scindia House, Munshi Lal Buidling Outer Circle, Connaught Circus, Delhi 110001, DL","+91-11-46325125, +91-11-49568700",",uma.kushwaha@gmail.com,in.supportdesk@fitnessfirst.net.in,",
Fitness Finesse - CR Park - Delhi,Gym,Delhi,"D-610, EPDP Road, Chittaranjan Park, Delhi 110019, DL","+91-9810304065, +91-9910536575, +91-11-41053636",",fitnessfinesse@gmail.com,",
Fitlook Fitness Center - Paschim Vihar - Delhi,Gym,Delhi,"M-493, Guru Harikishan Nagar, Paschim Vihar, Delhi 110063, DL","+91-9650139391, +91-9313950202, +91-9818402989, +91-9711332440",,
Fitlook Fitness Center - Pitampura - Delhi,Gym,Delhi,"D-17, Near Bal Bharti School, Pushpanjali Enclave, Pitampura, Delhi 110034, DL","+91-9015043334, +91-9015044434",",shiv@thegym.in,",
Fit Zone - Malviya Nagar - Delhi,Gym,Delhi,"A-11/A, Main Road, Malviya Nagar, Delhi 110017, DL","+91-9717737774, +91-11-26017775","info@componentfitness.co.in,fitnessprimegym@gmail.com,hello@cultfit.com,,",
Fit N Fit Gym - Jamia Nagar - Delhi,Gym,Delhi,"L-6, Batla House, Sailing Club Lane, Jamia Nagar, Delhi 110025, DL","+91-9540488433, +91-7428763634",",www.okhla@gmail.com,rkfitnessdwarka@gmail.com,",
Fit & Fun Gym & Pool Club - Mahipalpur - Delhi,Gym,Delhi,"390, Near Labour Chowk, K Block, Old Rangpuri Road, Mahipalpur, Delhi 110037, DL","+91-9810953920, +91-9810353061",,
Figure Fit Guys N Gals - Moti Nagar - Delhi,Gym,Delhi,"8/30, Opposite Community Centre, Sanatan Dharam Mandir, Moti Nagar, Delhi 110015, DL","+91-9971659399, +91-9213454073, +91-9212071884",,
Entity Studio - Rajouri Garden - Delhi,Gym,Delhi,"T-18, Basement, Near Janta Market, Rajouri Garden, Delhi 110027, DL","+91-9818682844, +91-9213787004",",joinherfitness@gmail.com,",
Enormous Gym & Spa - Fateh Nagar - Delhi,Gym,Delhi,"D-1, Near Tilak Nagar Metro Station, Jail Road, Fateh Nagar, Delhi 110018, DL",+91-11-66262074,,
Energie Fitness - Vikas Marg - Delhi,Gym,Delhi,"C-57, Preet Vihar, Vikas Marg, Delhi 110092, DL","+91-11-22523187, +91-9266629005","info@energieindia.com,,",
Energie Fitness - Hargobind Enclave - Delhi,Gym,Delhi,"115, Opposite Karkarduma Community Center, Hargobind Enclave, Delhi 110092, DL","+91-11-22378120, +91-11-22378119","info@energieindia.com,,",
Energie Fitness - Krishna Nagar - Delhi,Gym,Delhi,"663-C, D, 1st Floor, Opposite Geeta Colony Police Station, Krishna Nagar, Delhi 110051, DL","+91-11-22422345, +91-11-22412345",,
Energie Fitness - Mayur Vihar - Delhi,Gym,Delhi,"C-35, 36, 1st Floor, Acharya Niketan, Phase 1, Mayur Vihar, Delhi 110091, DL","+91-11-22752345, +91-11-22792345","info@energieindia.com,,",
Eden Gym - Model Town 2 - Delhi,Gym,Delhi,"D-13A/30, Adjoining Aggarwal Dharamshala, Model Town 2, Delhi 110009, DL","+91-9818459525, +91-11-27450707, +91-11-47214413",,
Dronacharyas The Gym - Hudson Lane - Delhi,Gym,Delhi,"2531, Hudson Lane, Kingsway Camp, Delhi 110009, DL",+91-9891053070,",info@thegymindia.com,",
Dronachary's The Gym - Karkardooma - Delhi,Gym,Delhi,"B-1, Basement, Nipun Tower Community Center, Karkardooma, Delhi 110092, DL",,"contact@dronacharyathegym.com,,",
Dronachary's The Gym - Autumn Lane - Delhi,Gym,Delhi,"1498/1, Opposite BGM Bus Depot, Kingsway Camp, Autumn Lane, Delhi 110009, DL",,"contact@dronacharyathegym.com,,",
Dronachary's The Gym - Krishna Park - Delhi,Gym,Delhi,"C-22, New Krishna Park, Vikas Puri, Delhi 110018, DL","+91-9212592421, +91-8010091303","contact@dronacharyathegym.com,,",
Dronachary's The Gym - Saket - Delhi,Gym,Delhi,"B-89, Paryavaran Complex, Saket, Delhi 110017, DL",+91-9811121382,"contact@dronacharyathegym.com,,bhupenderdhawanthegym@gmail.com,",
Dronachary's The Gym - Vikas Puri - Delhi,Gym,Delhi,"J-8, Vikas Puri, Delhi 110018, DL","+91-9212592421, +91-8010091303","contact@dronacharyathegym.com,,",
DezireGym & Fitness Centre - Karol Bagh - Delhi,Gym,Delhi,"59/13, Near Liberty Cinema, New Rohtak Road, Karol Bagh, Delhi 110005, DL","+91-11-28715969, +91-9899892452, +91-9312212452",,
D Touch - Karkardooma - Delhi,Gym,Delhi,"1, Manak Vihar, Opposite To Yamuna Sports Complex, Karkardooma, Delhi 110092, DL",+91-11-66225832,"WeCare@GoldsGym.in,,contact@dronacharyathegym.com,",
Club Rush Gym - Punjabi Bagh - Delhi,Gym,Delhi,"41, North West Avenue, Club Road, Punjabi Bagh, Delhi 110026, DL","+91-11-64647874, +91-9810064877",",rishikeshojha86@yahoo.in,nrishikeshojha86@yahoo.in,",
Club Fitline - Mathura Road - Delhi,Gym,Delhi,"New Friends Colony, Mathura Road, Delhi 110065, DL",+91-11-46714000,,
Club Fitline - Gujranwala Town - Delhi,Gym,Delhi,"A-22, 1st Floor, GT Karnal, Gujranwala Town, Delhi 110009, DL",+91-11-45604000,,
Club 4 Gym - West Joyti Nagar - Delhi,Gym,Delhi,"B-6, Opposite Jyoti Nursing Home, Loni Road, West Joyti Nagar, Delhi 110093, DL","+91-9717669922, +91-9911458669, +91-11-65727112",",numero.naresh@gmail.com,",
City Gym - Shahdara - Delhi,Gym,Delhi,"E-16, Near Nagar Nigam School, Panchsheel Garden, Sarovar Marg, Shahdara, Delhi 110032, DL","+91-9811013385, +91-11-22821315",,
Chander Fitness Centre - Lajpat Nagar 4 - Delhi,Gym,Delhi,"D-5&7, Amar Colony, Lajpat Nagar 4, Delhi 110024, DL","+91-9873777527, +91-9899811802, +91-11-26226685",,
Celebrity Fitness India - Rajouri Garden - Delhi,Gym,Delhi,"Upper Basement, Gate Mall, Rajouri Garden, Delhi 110027, DL",+91-11-66361497,",rajinderpanjrath@gmail.com,",
Carbon The Gym - Palam Dabri Road - Delhi,Gym,Delhi,"Harfool Singh Market, Mahavir Enclave, Palam Dabri Road, Delhi 110045, DL",+91-9811924824,",shiv@thegym.in,",
Brothers Gym - Rohini - Delhi,Gym,Delhi,"I5/87, Sector 16, Rohini, Delhi 110085, DL",+91-9868554395,",Inquiry@wellnessclub.co.in,",
Brix Gym - Tilak Nagar - Delhi,Gym,Delhi,"5A/9, Behind Mailk Jewellers, Tilak Nagar, Delhi 110018, DL",+91-11-42351006,,
Brahma Kumaris Raja yoga Centre - Kranti Marg - Delhi,Gym,Delhi,"5/6, Siri Fort Institutional Area, August, Kranti Marg, Delhi 110049, DL","+91-11-26490450, +91-11-26490417",,
Brahma Kumaris Raja yoga Centre - Karol Bagh - Delhi,Gym,Delhi,"Pandav Bhawan, 25, New Rohtak Road, Karol Bagh, Delhi 110005, DL","+91-11-23670463, +91-11-23680496, +91-11-23525128","bayonne@wanadoo.fr,info@brahmakumarisdelhi.org,karolbagh.del@bkivv.org,,",
Brahma Kumaris Raja yoga Centre - Derawal Nagar - Delhi,Gym,Delhi,"1 & 2, Gyan Vigyan Bhawan, Brahma Kumaris Marg, Derawal Nagar, Delhi 110009, DL","+91-11-27445772, +91-11-27220594, +91-11-27442722, +91-9811722264","karolbagh.del@bkivv.org,,",
Booster Gym & Spa - Rajouri Garden - Delhi,Gym,Delhi,"A-13/57, Rajouri Garden, Delhi 110027, DL",+91-11-45058955,,
Body Fitness Center - East Patel Nagar - Delhi,Gym,Delhi,"7-8, Near East Patel Nagar Metro Station, Balraj Khanna Marg, East Patel Nagar, Delhi 110008, DL","+91-11-45051422, +91-9350916649, +91-9899883876",,
Body Care - Rajouri Garden - Delhi,Gym,Delhi,A-15 Vishal Enclave Rajori Garden,"+91-11-25100665, +91-11-25933967, +91-11-25933885",,
Big Biceps Gym - Pankha Road - Delhi,Gym,Delhi,"8, Durga Park, Pankha, Delhi 110045, DL","+91-9212368770, +91-9971682429",",janakpuri.delhi@goldsgym.in,",
Bhartiya Yog Sansthan - Rohini - Delhi,Gym,Delhi,"Manglam Place, Sector 3, Rohini, Delhi 110085, DL","+91-11-27943421, +91-11-27943422, +91-11-27943423","jag41@tpg.com.au,,",
Asthang Power Yoga - Chattarpur - Delhi,Gym,Delhi,"309, Near Goraknath Mandir, Rajpur, Chattarpur, Delhi 110030, DL",+91-9582627639,"theashtangainstitute@gmail.com,,",
Asian Roots - Safdarjung Enclave - Delhi,Gym,Delhi,"B-5/15, Safdarjung Enclave, Delhi 110029, DL","+91-11-46103000, +91-11-46103036",,
Artistic Yoga - Dwarka - Delhi,Gym,Delhi,"53, Near Bal Bhavan School, Basement Of Allahabad Bank, Sector 12/B, Dwarka, Delhi 110075, DL","+91-8800834910, +91-8527879310",",dsc17@dda.org.in,rkfitnessdwarka@gmail.com,",
Aptitude Fitness Studio - Saraswati Vihar - Delhi,Gym,Delhi,"B-288, Saraswati Vihar, Delhi 110034, DL",+91-8130871144,,
Aerobics Dance Fitness - Dwarka - Delhi,Gym,Delhi,"2, Sector 7, Dwarka, Delhi 110075, DL","+91-9810370774, +91-9810761313, +91-9718166284",,
Adhyatma Sadhana Kendra - Chhatarpur - Delhi,Gym,Delhi,"Gadaipur Mandi Road, Chhatarpur, Delhi 110030, DL",+91-11-26802679,",kcjain.irs@gmail.com,askdelhi201@gmail.com,",
Addiction Gym Spa - Janakpuri - Delhi,Gym,Delhi,"C-3/11, Opposite C4E Market, Janakpuri, Delhi 110058, DL",+91-11-41014400,,
Addiction Gym & Spa - East Patel Nagar - Delhi,Gym,Delhi,"9/14, Opposite Amarpali Hotel, East Patel Nagar, Delhi 110008, DL","+91-11-45036060, +91-9310004150, +91-9958806536, +91-9958806529",,
Addiction Gym & Spa - Vikaspuri - Delhi,Gym,Delhi,"2nd Floor, PVR Sonia Complex, Vikaspuri, Delhi 110018, DL","+91-11-66227482, +91-9212364456",,
Aarogyaa - Rohini - Delhi,Gym,Delhi,"32, M/59, 1st Floor, GS Apartments, Sector 13, Rohini, Delhi 110085, DL",+91-9818216536,",rohini.delhi@goldsgymindia.com,newquery@delhi-ivf.com,",
Wellness Mantra - Rohini - Delhi,Gym,Delhi,,,",fitness_mantra@yahoo.com,",
Looks Unisex Salon - Delhi,Gym,Delhi,"286, AGCR Enclave, Near Karkardooma Court, Anand Vihar, Delhi 110092, DL",+91-11-40105540,,
Fitness First India - Connaught Place - Delhi,Gym,Delhi,,,",uma.kushwaha@gmail.com,x3emembership.services@fitnessfirst.co.uk,membership.services@fitnessfirst.co.uk,last@fitnessfirst.net.in,in.supportdesk@fitnessfirst.net.in,info@k2india.com,",
Yamuna Sports Complex - Delhi,Gym,Delhi,"Near Vivekanand Mahila College, Surajmal Vihar, Delhi 110092, DL",+91-11-22166499,",u003eyscdda@yahoo.com,cscdda@gmail.com,yscdda@yahoo.com,",
Xpressions - Delhi,Gym,Delhi,"A-166, Phase 1, Ashok Vihar, Delhi 110052, DL",+91-11-27139943,",principal@ramjas.du.ac.in,",
Workout Wonders - Delhi,Gym,Delhi,"C-330, Balaji Mandir, Vivek Vihar, Delhi 110095, DL",+91-11-66363416,,
Universal Fitness - Delhi,Gym,Delhi,"S-51, Near Janta Market, Rajouri Garden, Delhi 110027, DL",+91-9312217418,"ufequipments@gmail.com,,support@universalfitness.in,ufequipment@gmail.com,",
Tomar Sigma Gym - Delhi,Gym,Delhi,"8, Safdarjung Enclave, Near DDA Market, Arjun Nagar, Jangpura, Delhi 110014, DL",+91-9999967088,",sigmagym@gmail.com,",
The Gym Health Care - Delhi,Gym,Delhi,"A6/5, Near Sagar Ratna Restaurant, Petrol Pump Road, Paschim Vihar, Delhi 110063, DL",+91-11-43071440,",info@kfsfitness.com,contact@dronacharyathegym.com,hello@cultfit.com,theimperialspa@theimperialindia.com,generalenquiry@ddca.co,membership@thegymgroup.com,",
The Gold Gym - Delhi,Gym,Delhi,"4 & 5, Satya Niketan, Opposite Venketeshwar College, Delhi 110021, DL",+91-11-66433185,",rohini.delhi@goldsgymindia.com,WeCare@GoldsGym.in,dwarka.delhi@goldsgym.in,dayanand.delhi@goldsgym.in,janakpuri.delhi@goldsgym.in,goldsgymsainikfarms@gmail.com,Wecare@goldsgym.in,gk.delhi@goldgymindia.com,",
Sykz Gym - Delhi,Gym,Delhi,"1, Central Avenue, Community Centre, Maharani Bagh, Delhi 110065, DL",+91-11-65424242,,
Sycorian Health Club And Spa - Delhi,Gym,Delhi,"AB-1, Kamal Cinema Complex, Safdarjung Enclave, Delhi 110029, DL",+91-11-26171911,",info@ozoneclubs.com,secydgc@gmail.com,sycorianhealthclub%26spa@gmail.com,exmgr@delhigymkhana.org.in,sycorianspa@gmail.com,secretary@delhigymkhana.org.in,",
Sycorian Health Club - Delhi,Gym,Delhi,,,",sycorianhealthclub%26spa@gmail.com,sycorianspa@gmail.com,generalenquiry@ddca.co,",
Strength The Gym And Spa - Delhi,Gym,Delhi,"A-151, Near Central Hospital, Tilak Nagar, Delhi 110018, DL",+91-11-66355630,",support@gymcompany.co.za,ankur@strengththegym.com,Fitnessfuelgym090@gmail.com,",
Spa Hibiscus - Delhi,Gym,Delhi,"58, 10th Street, Behind Mayur Vihar Bus Terminal, Phase 1, Mayur Vihar, Delhi 110091, DL",+91-11-66444325,",info@spahibiscusindia.com,spa@pkshahdara.com,mv@spahibiscusindia.com,club.florence@spahibiscusindia.com,",
Som Sports Complex - Delhi,Gym,Delhi,"Opposite Sector 3 Police Station, Sector 3, Rohini, Delhi 110085, DL",+91-11-27518777,",purchasesector10@gmail.com,",
Shape Up Gym - Delhi,Gym,Delhi,"B-1/4-A, Yamuna Vihar, Delhi 110053, DL",+91-9999980276,",jatingym@rediffmail.com,dancemysoul@gmail.com,sshapeupp@gmail.com,",
Sarvapriya Club - Delhi,Gym,Delhi,"Sarvodya Enclave, Near IIT Flyover, Sarvapriya Vihar, Delhi 110016, DL",+91-11-49350000,",gm@sarvapriyaclub.org,",
Rdx Gym N Spa - Delhi,Gym,Delhi,"B-223/224/225, 2nd Floor, Opposite Honda Showroom, Ramphal Chowk, Sector 7, Dwarka, Delhi 110077, DL",+91-11-66450367,",iswatiin@gmail.com,contact@fitarrow.com,corporate@rdxgymandspa.com,rdxrohini@gmail.com,",
Push Up Gym And Spa - Delhi,Gym,Delhi,"984/985, Opposite ICICI Bank, Ramphal Chowk, Sector 7, Dwarka, Delhi 110075, DL",+91-11-65650077,,
Power Gym - Delhi,Gym,Delhi,"C-17, Pandav Nagar Complex, Near Mother Dairy, Ganesh Nagar, Delhi 110092, DL",+91-8447486780,",support@gymcompany.co.za,sam.gulia9@gmail.com,",
Poorvi Delhi Khel Parisar - Delhi,Gym,Delhi,"DDA Sport Complex, Opposite Gtb Hospital, Tahirpur, Delhi 110095, DL",+91-11-22571088,",info@khelomore.com,u003eddapdkp@gmail.com,ddapdkp@gmail.com,",
Platinum Gym - Delhi,Gym,Delhi,"BN-57, Near Ever Bake Resturant, Shalimar Bagh, Delhi 110088, DL",+91-11-69920026,"platinumgym_hansrajyadav@ymail.com,,parveshsinghal03@gmail.com,",
Planet X Health Club Vigyan Vihar - Delhi,Gym,Delhi,"167, Anand Vihar, Vigyan Vihar, Delhi 110092, DL",+91-9212449056,,
Pitam Pura Club - Delhi,Gym,Delhi,"H-4/5, Pitampura, Delhi 110088, DL",+91-11-27017284,",Inquiry@wellnessclub.co.in,",
Netaji Subhash Sports Complex - Delhi,Gym,Delhi,"District Park, Jasola Vihar, Delhi 110025, DL",+91-11-26971301,",bhumikag95@gmail.com,nssc.jasola.dda@gmail.com,kshitiz.agarwal95@gmail.com,u003enssc_jasola_dda@yahoo.com,ddapdkp@gmail.com,nssc_jasola_dda@yahoo.com,",
Ment E Soul Gym - Delhi,Gym,Delhi,"B-2/22, Near Deep Market Building, Ashok Vihar 2, Delhi 110052, DL",+91-11-47532000,",gaurav.mentesoul@gmail.com,",
La Fitnesse - Delhi,Gym,Delhi,"Shipra Mall, 3rd Floor, Level 4, Indirapuram, Ghaziabad 201014, UP",+91-11-66356724,",lakeforestgm@ufcgym.com,",
Khazan Singh Swimming Academy - Delhi,Gym,Delhi,"Jnu Campus, Near Kendriya Vidyalya, Baba Gangnath, Delhi 110067, DL",+91-11-32933828,,
Jawaharlal Nehru Stadium - Delhi,Gym,Delhi,"Lodhi Road, Delhi 110003, DL",+91-11-24362701,",spmspc-sai@gov.in,gov.in_igsc-sai@gov.in,u003ejns-sai@gov.in,kssr-sai@gov.in,igsc-sai@gov.in,vfi2005@gmail.com,itdivisionhq-sai@gov.in,jns-sai@gov.in,saiadmnjns1982@gmail.com,",
Health Waye Gym Swim - Delhi,Gym,Delhi,"Central School, Opposite B-2 Block, Keshavpuram, Delhi 110035, DL",+91-11-65848382,,
Health Quest - Delhi,Gym,Delhi,"253, Deepali Enclave, OP Ring Road, Rohini, Delhi 110085, DL",+91-9716766705,",membership@hqfit.com,life@oncquestlabs.com,",
Gym Malviya Nagar - Delhi,Gym,Delhi,"17 & 18, Corner Market, Malviya Nagar, Delhi 110017, DL",+91-9999998122,",support@gymcompany.co.za,me@nehaagarwal.in,fitnessprimegym@gmail.com,hello@cultfit.com,malvianagar@thegym.in,",
Gym Health Planet - Delhi,Gym,Delhi,"6/15, East Patel Nagar, Delhi 110008, DL",+91-11-45660172,",contact@fitarrow.com,shiv@thegym.in,info@thegym.in,rahul@thegym.in,",
Grand Slam - Delhi,Gym,Delhi,"E-540, Greater Kailash 2, Delhi 110048, DL",+91-11-32995115,",sanjaykapoor.ca@gmail.com,info@grandslamfitness.co.in,noida@grandslamfitness.co.in,u003eaccounts@grandslamfitness.co.in,accounts@grandslamfitness.co.in,",
Golds Gym - Delhi,Gym,Delhi,"4-5, Gaur Gravity, Near Kala Pathar Marg, Vaibhav Khand, Indirapuram, Ghaziabad 201014, UP",+91-11-66532962,",WeCare@GoldsGym.in,dwarka.delhi@goldsgym.in,janakpuri.delhi@goldsgym.in,dayanand.delhi@goldsgym.in,goldsgymsainikfarms@gmail.com,Wecare@goldsgym.in,gk.delhi@goldgymindia.com,",
Gold Gym - Delhi,Gym,Delhi,"R-35, Main Market, Inderpuri, Delhi 110012, DL",+91-11-45627881,",rohini.delhi@goldsgymindia.com,WeCare@GoldsGym.in,dwarka.delhi@goldsgym.in,dayanand.delhi@goldsgym.in,janakpuri.delhi@goldsgym.in,goldsgymsainikfarms@gmail.com,Wecare@goldsgym.in,",
Fuel Evalutions - Delhi,Gym,Delhi,"104, Anupam Garden, Sainik Farms, Delhi 110062, DL",+91-11-32225797,",sojc-cbec@nic.in,js.review-cbec@nic.in,",
Fluid Fitness - Delhi,Gym,Delhi,"104-105, Vinobapuri, Lajpat Nagar 2, Delhi 110024, DL",+91-11-41028585,",contact@fitarrow.com,",
Fitness World - Delhi,Gym,Delhi,"3/6008, Basement, Near Desu Off, Arya Samaj Road, Dev Nagar, Karol Bagh, Delhi 110005, DL",+91-9810991641,"manish.singh@fitness-world.in,,info@fitness-world.in,u003einfo@fitness-world.in,",
Fitness First - Gurgaon - Delhi,Gym,Delhi,"Ambiance Mall, 5th Floor, Gurgaon 122001, UP",+91-124-4325900,"last@fitnessfirst.net.in,,x3emembership.services@fitnessfirst.co.uk,membership.services@fitnessfirst.co.uk,",
Energie Gym And Spa - Krishna Nagar - Delhi,Gym,Delhi,"663-C/D, 1st Floor, Opposite Geeta Colony Police Station, Krishna Nagar, Delhi 110051, DL",+91-11-22412345,,
Dronacharyas The Gym - Kalkaji - Delhi,Gym,Delhi,"L-44, HDFC Bank, Kalkaji, Delhi 110019, DL",+91-9873311369,"contact@dronacharyathegym.com,,",
Dronacharyas The Gym - Rohini - Delhi,Gym,Delhi,"H-19/170, 2nd Floor, Near Rohini West Metro Station, Rohini, Delhi 110085, DL",+91-9811066361,"contact@dronacharyathegym.com,,sujitkhatri2010@yahoo.com,",
Diva Fitness - Delhi,Gym,Delhi,"3/17, Near Patel Nagar, Metro Station, East Patel Nagar, Delhi 110008, DL",+91-9999976941,",puneet.lalwani11@gmail.com,",
Dda Sports Complex - Delhi,Gym,Delhi,"A-6, Paschim Vihar, Delhi 110063, DL",+91-11-25261165,",sfscdda@yahoo.co,yscdda@yahoo.com,",
Club One Gym - Delhi,Gym,Delhi,"20/36-C, Near 29 No Bus Stand, West Patel Nagar, Delhi 110008, DL",+91-9871030395,",info@ozoneclubs.com,secydgc@gmail.com,exmgr@delhigymkhana.org.in,Hello@curefit.com,secretary@delhigymkhana.org.in,rkfitnessdwarka@gmail.com,",
Club Hundred Fitness Centre - Delhi,Gym,Delhi,"D-3/16, Opposite Cpark LAL Quaters, Krishna Nagar, Delhi 110051, DL",+91-9868531212,",support@icfitnessclub.com,rkfitnessdwarka@gmail.com,",
Breathe Gym - Delhi,Gym,Delhi,"E-22, Part 2, NDSE, Delhi 110049, DL",+91-11-42559907,",info@breathewellbeing.in,breathelifestyle@gmail.com,pradeep.novaphotos@icloud.com,",
Body Station Health Club - Delhi,Gym,Delhi,"2, Near Nanak Piou Gurudwara, State Bank Colony, GT Karnal Road, Delhi 110033, DL",+91-11-47075727,",amitbodystation@gmail.com,",
Body Crunch - Delhi,Gym,Delhi,"A-1/4, Near Kali Mata Mandir, Main Road, Shakti Nagar Extension, Ashok Vihar, Delhi 110052, DL",+91-9911309987,,
Blue Gym - Delhi,Gym,Delhi,"174, Sarai Jhulena, Next To Lotus Pond Restaurant, Lotus Pond Road, New Friends Colony, Delhi 110065, DL",+91-11-26920590,",extongm@ufcgym.com,Inquiry@wellnessclub.co.in,",
Adonis Gym - Delhi,Gym,Delhi,"C-1/117, Basement, Near ST Marks School, janakpuri, Delhi 110058, DL",+91-11-46022333,",amitarora2219@yahoo.co.in,",
Addiction - Delhi,Gym,Delhi,"Wembley Estate, Gurgaon 122001, HR",+91-124-6462990,,
10 Pebbles Recreation And Sports - Delhi,Gym,Delhi,"Pacific Sports Complex, LSR Road, Andrews Ganj, Delhi 110024, DL","+91-11-26465995, +91-9899991333","it@ndmc.gov.in,,pacificsportsenquiry@gmail.com,",
Vibes Health Care - Delhi,Gym,Delhi,,,",corporate@vibes.co.in,",
The Gym Health Planet - Delhi,Gym,Delhi,"HD-3, 1st & 2nd Floor, Opposite Merto Pillar No 361, Vaishali, Pitampura, Delhi 110034, DL",+91-11-45282222,",contact@fitarrow.com,shiv@thegym.in,malvianagar@thegym.in,rahul@thegym.in,",
Bmw Gym and Swimming Pool - Delhi,Gym,Delhi,,,",adarsh@bmwpools.co.in,pinkysharma977@gmail.com,",
Loreal Looks Salon - Delhi,Gym,Delhi,"No 17A / 22, Ajmal Khan Road, Karol Bagh, New Delhi 110005, DL","+91-11-28751040, +91-11-28751520",",customercare@lookssalon.in,",
World Health Organisation - Delhi,Gym,Delhi,,,"mediainquiries@who.int,info@whpindia.org,x3emediainquiries@who.int,,",
Vlcc Institute Of Beauty Health - Delhi,Gym,Delhi,,,",x3eregd.office@vlccwellness.com,vlccinstitute.rudrapur@gmail.com,regd.office@vlccwellness.com,sghc@vlccwellness.com,",
VLCC Institute - Delhi,Gym,Delhi,,,",x3eregd.office@vlccwellness.com,regd.office@vlccwellness.com,gk.dl@vlccwellness.com,vlccbarnala18@gmail.com,info@vlccinstitute.com,",
Fit Line - Delhi,Gym,Delhi,,,",info@fitlineindia.com,xxxx@fitlineindia.com,",
Champion Fitness Technology - Delhi,Gym,Delhi,"840, Narela Road, Alipur, Delhi 110036, DL",+91-11-27206725,",championngym@gmail.com,",
YMCA Fitness Centre - Delhi,Gym,Delhi,,,"info@newdelhiymca.in,,",
Aura - The Park - Delhi,Gym,Delhi,,,",info@auradayspa.in,aura.del@theparkhotels.com,",
Club Fitness Pro - Delhi,Gym,Delhi,"12/8, West Patel Nagar, Delhi 110008, DL",+91-11-25880126,",memberexperience@anytimefitness.in,",
Amatrra - Delhi,Gym,Delhi,"50-B, Chanakyapuri, New Delhi 110021, DL",+91-9873470100,",enquiry@tour2india4health.com,inquiry@indianholiday.com,",
Olympia Gym - Delhi,Gym,Delhi,"S-569, Greater Kailash 2, New Delhi 110048, DL",+91-11-29217580,",olympiarahul@gmail.com,olympiagym@ymail.com,u003eolympia_fitness@yahoo.co.in,olympia_fitness@yahoo.co.in,",
Health Sanctuary - Delhi,Gym,Delhi,"C-26, W Block, Greater Kailash 1, Delhi 110048, DL",+91-11-46588593,",info@hs-inc.com,healthc976@gmail.com,mail@healthsanctuary.in,",
Total Fitness Centre - Delhi,Gym,Delhi,"Sector 6, R K Puram, Delhi 110014, DL",+91-11-26192687,"defcol@ozoneclubs.com,,rkfitnessdwarka@gmail.com,",
Curls & Curves - Delhi,Gym,Delhi,,,",treluxe360bundlehaircarecurls_1_x620@2x.jpg,",
Club Athena - Delhi,Gym,Delhi,"Basant Lok, Vasant Vihar, New Delhi 110057, DL",+91-11-26148800,",rahul.kharbanda17@gmail.com,subba.roshni@gmail.com,",
