Name,Sector,City,Address,Phone,Email,Lat-Long
Suraj wanjari personal trainer and Unisex Gym - Best Gym in Nagpur,Gym,Nagpur,"3+ years in business Â· Plot No: 362, Floor No: 3, Wanjari Complex Doctor Ambedkar Road Kamal chowk",Open â‹… Closes 11â€¯pm Â· 084462 30863,,"21.1692205,79.0993817"
Fhive fitness,Gym,Nagpur,"5+ years in business Â· Plot no.04, 2nd floor, shree radhe govind, Ring Rd",Open â‹… Closes 10â€¯pm Â· 091457 33453,",Email-fhivefitness78@gmail.com,","21.1155697,79.0357962"
A-light Fitness,Gym,Nagpur,"3+ years in business Â· 2nd floor,Mohta apartments, Katol Rd, above sbi bank chhaoni",Open â‹… Closes 10â€¯pm Â· 085302 28896,,"21.168656,79.0756406"
BIG FIT,Gym,Nagpur,"3+ years in business Â· 3rd floor, 1, RPTS Rd, above Domino's",Open â‹… Closes 10â€¯pm Â· 090111 01654,,"21.1221966,79.0540167"
Core Fitness,Gym,Nagpur,3+ years in business Â· near Shahu Samaj Building,Open â‹… Closes 11â€¯pm Â· 090223 95046,",magnus.fitness@yahoo.com,info@magnusfitnessworld.com,","21.1507233,79.0811384"
SPL Fitness Hub,Gym,Nagpur,"7+ years in business Â· Pioneer Green Vally, Opp. Afzal Bakery, behind Vayusena Nagar",Open â‹… Closes 10â€¯pm Â· 097666 98739,",info@splfitnesshub.com,","21.1719152,79.0362423"
ULTRAFIT GYM,Gym,Nagpur,"5+ years in business Â· 17, S Ambazari Rd, Madhav Nagar, Nagpur, Maharashtra 440010",Open â‹… Closes 9â€¯pm Â· 077448 03819,,"21.1362509,79.0477181"
Platinum Gym,Gym,Nagpur,"7+ years in business Â· 169, 170, 1st floor, Mokha Tower, Umrer Rd",Open â‹… Closes 11â€¯pm Â· 077095 08005,",niranjanplatinumgym@gmail.com,","21.1160125,79.0347128"
The Fitness Aura,Gym,Nagpur,"5+ years in business Â· 1st Floor, 12, Jawahar society, Above wardhaman Ele, near Bharat Petrol Pump",Open â‹… Closes 10:30â€¯pm,,"21.129286,79.1191861"
oxygen gym,Gym,Nagpur,"5+ years in business Â· Borgoun, 1, Chowk",Open â‹… Closes 10â€¯pm Â· 082081 61085,,"21.1607255,79.041621"
FITNESS CLUB GYM,Gym,Nagpur,"5+ years in business Â· 1-4, Beltarodi Rd",Open â‹… Closes 10â€¯pm Â· 074474 48030,",info@jdcoem.ac.in,fitnessclubgym100@gmail.com,","21.1417719,78.9893412"
Oxygen Fitness Studio,Gym,Nagpur,"6th Floor, Natraj Tower, Zenda Square",Open â‹… Closes 11:30â€¯pm,,"21.141784,79.1088003"
Fitness King Gym,Gym,Nagpur,3+ years in business Â· 125/A,Open â‹… Closes 11â€¯pm Â· 097676 11113,,"21.156622,79.0817748"
Marvel Fitness,Gym,Nagpur,5+ years in business Â· MARVEL FITNESS GYM Laxmi Nagar near water tank plot No100 Opp Pitale Shashtri School,Open â‹… Closes 10â€¯pm Â· 098340 07388,",marvelfitnessln@gmail.com,","21.1101292,78.9904561"
"FITLIFE Gym | Wardha Rd, Nagpur",Gym,Nagpur,3+ years in business Â· Wardha Rd,Open â‹… Closes 10â€¯pm Â· 085520 04100,,"21.1160861,79.0693067"
Aspire The Fitness Hub,Gym,Nagpur,"3+ years in business Â· Sharda squre, 19, near Ayodhya Nagar, opposite smriti hall",Open â‹… Closes 10â€¯pm Â· 091757 64732,",info@splfitnesshub.com,","21.1176632,79.1053932"
Trans Fitness,Gym,Nagpur,"10+ years in business Â· Alankar-Kachipura Sq. road, Below Kutz Salon Near Federal Bank, Opp Firstcry Ramdaspeth Connects Laxminagar Bajaj Nagar Connects",Open â‹… Closes 10:30â€¯pm Â· 098603 44777,",ninfo@transfitness.in,info@transfitness.in,","21.1358438,79.0660791"
Armor Fitness,Gym,Nagpur,"5+ years in business Â· Plot no 183, Ring Rd",Open â‹… Closes 10â€¯pm Â· 089834 98082,",strongfitness39@gmail.com,","21.1076757,79.1140972"
Oneabove Fitness Ramdaspeth,Gym,Nagpur,"7+ years in business Â· 401/404 Near Sqaure, Milestone, 12, Wardha Rd",Open â‹… Closes 10â€¯pm Â· 090215 98563,,"21.1368503,79.0755653"
Bluerock Fitness,Gym,Nagpur,"3+ years in business Â· Plot No.183, Super Pride Building, Ring Rd",Open â‹… Closes 10â€¯pm Â· 082081 81564,",sarkaart@yahoo.com,","21.1886208,79.0908926"
Talwalkar's Nagpur (Now FITLIFE),Gym,Nagpur,"3+ years in business Â· Hindustan Colony, Aditya building, Wardha Rd, near Ajni square",Open â‹… Closes 10â€¯pm Â· 085520 04100,,"21.1162877,79.0695853"
Arnold's Gold Gym,Gym,Nagpur,7+ years in business Â· Kothi Rd,Open â‹… Closes 11â€¯pm Â· 097307 58977,"WeCare@GoldsGym.in,,","21.1577531,79.0878421"
Sai Fitness,Gym,Nagpur,"3+ years in business Â· R. K. Tower, above Capello Salon",Open â‹… Closes 10â€¯pm Â· 077989 33657,",sales@jeraifitness.com,","21.0956136,79.0759955"
ULTRAFIT GYM (Ravi Nagar),Gym,Nagpur,"5+ years in business Â· University Campus, near University Ground, opposite Panio Cafe",Open â‹… Closes 9â€¯pm Â· 090224 11860,",info@ultrafitgym.in,","21.1492355,79.0568108"
Surefit Wellness Center,Gym,Nagpur,"5+ years in business Â· Santaji Society Balpande Layout, Plot No 16, near Rachanavatika",Open â‹… Closes 9â€¯pm Â· 097661 53636,",surefit85@gmail.com,","21.1010779,79.0761162"
Fitness United,Gym,Nagpur,"3+ years in business Â· 1st Floor, Govindam Commercial",Open â‹… Closes 11â€¯pm Â· 077118 81139,",fitnessunitedgym@gmail.com,","21.1674732,79.0875191"
"New Olympia fitness planet, Nagpur",Gym,Nagpur,"3+ years in business Â· second floor, Indu Yash Complex, Cement Rd",Open â‹… Closes 11â€¯pm,",rahul.olympia@gmail.com,","21.1401758,79.0533123"
Mr. Deepak Ramteke Muscle And Fitness Gym,Gym,Nagpur,"7+ years in business Â· Guru Nanak School, Road",Open â‹… Closes 10:30â€¯pm Â· 094236 84495,,"21.171415,79.0905591"
People's Gym,Gym,Nagpur,"10+ years in business Â· 96, VIP Rd",Open â‹… Closes 10:30â€¯pm Â· 0712 663 9428,",info@peoplesgym.com,","21.1354529,79.0664551"
Oneplus Fitness,Gym,Nagpur,"3+ years in business Â· Suhyog 3rd floor above yes bank Telephone exchange square, Central Ave",Open â‹… Closes 11â€¯pm Â· 084110 93978,"md.imranfw@gmail.com,,","21.1485231,79.1167888"
The Rock Gym,Gym,Nagpur,"5+ years in business Â· Block no.102A, Shanti Park Apartment, Beltarodi Rd, above SBI",Open â‹… Closes 10â€¯pm Â· 090218 19018,,"21.088119,79.0785593"
Doc's Fitness,Gym,Nagpur,"Keshav Dwar, Reshimbag Square",Open â‹… Closes 10â€¯pm Â· 079722 40709,,"21.1339572,79.106126"
High Volume Fitness,Gym,Nagpur,"Shop No. 1, Himalaya Enclave, LAD Square",Open â‹… Closes 10â€¯pm Â· 099600 33368,",ankitbagde236@gmail.com,","21.1338783,79.0531472"
Barbarian Power Gym,Gym,Nagpur,"Jagat towers, Amravati Rd, near law college square",Open â‹… Closes 10â€¯pm,",kelkarsuresh82@gmail.com,","21.1434739,79.0482934"
Outraw Training Gym - Fitness Center,Gym,Nagpur,"5+ years in business Â· West High Court road, dharampeth",Open â‹… Closes 10â€¯pm Â· 089835 36321,",outrawgym2@gmail.com,","21.138745,79.0576001"
Fitness Factory gym,Gym,Nagpur,"10+ years in business Â· Plot no. 319, 1st floor, Gandhi grain, Chhapru Nagar chowk, Central Ave, near indusland bank",Open â‹… Closes 10â€¯pm,",aoxindecathy@163.com,","21.1483174,79.1212988"
Solid Body Fitness Gym,Gym,Nagpur,"7+ years in business Â· 3rd Floor, Jagdamaba Appt, Shyam Talkies Chowk",Open â‹… Closes 11â€¯pm Â· 098901 96031,"md.imranfw@gmail.com,,","21.1477611,79.1013919"
MultiFit Nagpur,Gym,Nagpur,"3+ years in business Â· 3rd Floor, Imperial Court, Rangole Marg, near Traffic Park",Open â‹… Closes 10â€¯pm Â· 077987 00050,",contact@multifit.co.in,","21.1389213,79.0627399"
Fitness Freaks Gym,Gym,Nagpur,"5+ years in business Â· Plot No. 182, Beside Vishal Mega Mart Aadarsh Abhyasika, Bhande Plot Square Nandanwan Road",Open â‹… Closes 10â€¯pm Â· 087796 82234,",fitnessfreaks40@gmail.com,","21.1238599,79.1152544"
Prime Fitness Gym - Best Gym In Friends Colony,Gym,Nagpur,"10+ years in business Â· Sai Plaza, H.No 551/3, Katol Rd, near Apna Bhandar",Open â‹… Closes 10:30â€¯pm,",yogeshdhanorkar@yahoo.in,","21.1776775,79.0443648"
A S-FITNESS,Gym,Nagpur,3+ years in business Â· Plot no u-24 Duchakke mention,Open â‹… Closes 10â€¯pm Â· 088889 03545,",memberexperience@anytimefitness.in,","21.1085113,79.0751562"
Physique Today Gym,Gym,Nagpur,"30+ years in business Â· Mount Road, Rizvi Galli, behind Lemanna Garage",Open â‹… Closes 10â€¯pm Â· 090211 92596,,"21.1607568,79.0748004"
The Ab's Gym,Gym,Nagpur,"7+ years in business Â· Plot No 4, 33QJ+W54, Manohar Arcade, Somalwada Rd",Open â‹… Closes 10â€¯pm Â· 090759 35192,",nileshdhote2007@rediffmail.com,","21.0903277,79.0781777"
Gaikwad Fitness Club,Gym,Nagpur,"Plot no.1060, Ambedkar Marg Cement road, opposite IDBI BANK ATM",Open â‹… Closes 11â€¯pm Â· 082082 21618,",contact@gpis-edu.org,ncontact@gpis-edu.org,info@jdcoem.ac.in,","21.1693429,79.1126716"
R K Fitness Factory,Gym,Nagpur,"47, Saw Mills Area Bhoslewadi, Lashkari Bagh Rd",Open â‹… Closes 11â€¯pm,",rkfitnessdwarka@gmail.com,u003erkfitnessdwarka@gmail.com,","21.165293,79.0941374"
Fitness life gym (Unisex),Gym,Nagpur,"plot no.140, near panchpaoli police station",Open â‹… Closes 10â€¯pm,,"21.1648561,79.1054645"
WESTERN FITNESS GYM,Gym,Nagpur,"2nd floor, Bajaj Nagar Rd, above Waman Hari Pethe Jewellers",Open â‹… Closes 9:30â€¯pm,",sales@jeraifitness.com,","21.1294056,79.0601434"
Reshape Fitness Studio,Gym,Nagpur,House No.18 Golibar Square,Open â‹… Closes 10â€¯pm,",thefitnessdoctor16@gmail.com,","21.1560251,79.1018318"
JAGUARs FITNESS & Nutritionist,Gym,Nagpur,"3+ years in business Â· Plot No 40, Ambazari Rd",Open â‹… Closes 9â€¯pm Â· 095618 03885,,"21.1327404,79.0520528"
Fitness World Gym (Unisex Gym),Gym,Nagpur,"10+ years in business Â· Nagpur, Maharashtra",Open â‹… Closes 10â€¯pm Â· 092252 19244,,"21.1411655,79.0919696"
Energetic Fitness Gym Shree Ganesh Complex,Gym,Nagpur,"5+ years in business Â· Nagpur, Maharashtra",Open â‹… Closes 9:30â€¯pm Â· 098230 17367,,"21.1102004,79.1150657"
Being Fit Gym,Gym,Nagpur,"5+ years in business Â· 53, Rameshwari Rd",Open â‹… Closes 10:30â€¯pm Â· 095615 08197,",strongfitness39@gmail.com,","21.1319287,79.0898624"
CURVES EVOLUTION GYM & FITNESS,Gym,Nagpur,"2nd Floor, MISSAL LAYOUT, PLOT NO 3, Mangalwari Market Rd",Open â‹… Closes 10â€¯pm Â· 089993 27314,,"21.1862982,79.0938043"
Sweat 7 Fitness,Gym,Nagpur,"5+ years in business Â· House no 465, Raj bhavan, Meghraj Golchha Rd",Open â‹… Closes 10â€¯pm Â· 095613 67299,,"21.1629441,79.0752353"
Fitness Revolution,Gym,Nagpur,"7+ years in business Â· Nilay Murarka Marg, opposite santoshi mata Mandir, Modal Mill Square",Open â‹… Closes 11â€¯pm Â· 097669 35508,",ninfo@fitnessrevolution.in,pravesh.chokhandre@gmail.com,info@fitnessrevolution.in,","21.1138012,78.998835"
4R Fitness Power House,Gym,Nagpur,"3+ years in business Â· Plot no 9, Parmar Building, near chitnavispura bank",Open â‹… Closes 10â€¯pm Â· 088886 44438,"fourrfitness@gmail.com,,u003efourrfitness@gmail.com,info@powerhousegym.com,","21.1175817,79.1084554"
Avi's Fitness Studio,Gym,Nagpur,"7+ years in business Â· JK Tower, 254",Open â‹… Closes 10:45â€¯pm Â· 093700 00888,",info@avis-fitnessstudio.com,ninfo@avis-fitnessstudio.com,","21.1247413,79.0575968"
Endurance Fitness club,Gym,Nagpur,"5+ years in business Â· Plot no 2, 4, IT Park Rd",Open â‹… Closes 10â€¯pm Â· 099234 31462,,"21.1303582,79.0398729"
Black Box Fitness Studio,Gym,Nagpur,"7+ years in business Â· Abhinay Sankul, Abhyankar Nagar Rd, above Food Maholla Rest, opposite Tanjoor Rest",Open â‹… Closes 9â€¯pm Â· 086688 06214,",info@blackboxfitnessstudio.in,blackboxfitnessstudio@gmail.com,","21.1272872,79.055633"
FITNESS CLUB GYM,Gym,Nagpur,"5+ years in business Â· 14TH, Ambazari Rd, near NIT SWIMMING POOL",Open â‹… Closes 10â€¯pm Â· 098236 13167,",info@jdcoem.ac.in,fitnessclubgym100@gmail.com,","21.1417719,78.9893412"
Oneabove Fitness byramji town,Gym,Nagpur,15+ years in business Â· Ground J.P. Heights 4/1 Gondvana Chowk RBI Officer's Colony Byramji Town,Open â‹… Closes 10â€¯pm Â· 090217 38978,,"21.1743363,79.0818011"
New Muscle Magic Gym,Gym,Nagpur,"7+ years in business Â· Ground Floor, YMCA Complex, Khalasi Ln, near St.John's High School",Open â‹… Closes 11â€¯pm Â· 097676 11113,,"21.1603403,79.0823206"
Arnold's Gold Gym,Gym,Nagpur,10+ years in business Â· Mecosabagh Rd,Open â‹… Closes 11â€¯pm Â· 098901 11033,"WeCare@GoldsGym.in,,","21.1577531,79.0878421"
ad's Fitness World,Gym,Nagpur,"3+ years in business Â· 2105, 10B, IT Park Rd",Open â‹… Closes 9:30â€¯pm Â· 099604 53519,,"21.1145456,79.0436479"
Fitness Courtyard,Gym,Nagpur,"3+ years in business Â· Banode square, New shukrawari, near Patil Hospital",Open â‹… Closes 10:30â€¯pm Â· 097669 19117,,"21.1416078,79.0407671"
Avenger Fitness Hub,Gym,Nagpur,"3+ years in business Â· Bus Stop, Nandanvan Last, opposite Rajendra High School",Open â‹… Closes 11â€¯pm Â· 093256 88317,",info@splfitnesshub.com,","21.125932,79.1061769"
Universal Gym (Mens & Women's),Gym,Nagpur,"5+ years in business Â· Sai-lila niwas, plot no 21, shubhangi society 2 Near Balaji temple",Open â‹… Closes 10â€¯pm Â· 091581 06963,,"21.0861303,79.0855025"
The Warriors gym,Gym,Nagpur,"5+ years in business Â· Plot no 29 A jagrut nagar, Ring Rd, near chandni bar Nari",Open â‹… Closes 10â€¯pm Â· 098909 89193,",mmafiofficial@gmail.com,","21.188095,79.0966343"
Krishna fitness - Gym-Koradi-Nagpur,Gym,Nagpur,"5+ years in business Â· KORADI ROAD, BAJRANG NAGAR LANE NO 2 KRISHNA FITNESS GYM KORADI ROAD BAJRANG NAGAR LANE, NO 2, Koradi Rd, near BHARAT PETROL PUMP & SARASWATI HIGH SCHOOL",Open â‹… Closes 9â€¯pm Â· 097307 56892,,"21.2269786,79.0791166"
"Cult Dharampeth - Gym in Dharampeth, Nagpur",Gym,Nagpur,"3rd Floor, The West High, Plot 236, W High Ct Rd",Open â‹… Closes 10â€¯pm Â· 095038 88398,",hello@curefit.com,hello@cult.fit,x3ehello@cult.fit,","21.1433745,79.0587769"
Southern Hill Fitness,Gym,Nagpur,"3+ years in business Â· Southern hill fitness, 2'nd floor, Chhaoni Rd, opposite Achraj Tower 2",Open â‹… Closes 9â€¯pm Â· 091455 05544,",southernhillfitness@gmail.com,","21.16828,79.0761855"
Fit Nation Unisex Gym,Gym,Nagpur,"Ratan Nagar Mankapur, Ring Rd",Open â‹… Closes 11â€¯pm Â· 087931 18752,,"21.1887383,79.0760557"
The Pulse Fitness,Gym,Nagpur,"7+ years in business Â· Sant Jagnade Square, Great Nag Road, Nandanvan",Open â‹… Closes 10â€¯pm Â· 099230 23017,,"21.1382899,79.1171399"
Big Tech Panther's Gym,Gym,Nagpur,"3+ years in business Â· 93c, Manewada Rd, behind Devendra lawn",Open â‹… Closes 10â€¯pm Â· 084829 04809,,"21.104396,79.1020173"
Hardcore Fitness Hub - Gym for Ladies & Gents,Gym,Nagpur,"3+ years in business Â· Fawara Square, Wade Bhawan, 3rd Floor, Central Ave",Open â‹… Closes 11â€¯pm Â· 084120 58556,,"21.150686,79.1009751"
AARON FITNESS STUDIO,Gym,Nagpur,"3+ years in business Â· plot no.231, Patankar Chowk Rd",Open â‹… Closes 11â€¯pm Â· 072198 89175,",aaronmktg@yahoo.com,","21.181942,79.0941901"
Muscle Box Gym,Gym,Nagpur,"3+ years in business Â· Plot No. 82, 1st Floor, in front of Mayur Mangal Karyalaya",Open â‹… Closes 9â€¯pm Â· 095033 44167,",blackboxfitnessstudio@gmail.com,","21.1365222,79.1137283"
Dr. Sudhir's Fitness,Gym,Nagpur,"5+ years in business Â· Plot no 8 , Matrutirth, Manewada - Besa Rd, behind Vrundavan lawns",Open â‹… Closes 10â€¯pm Â· 093736 66905,",info@fitlineindia.com,dr.neelamss@gmail.com,","21.0974087,79.0984989"
Go gym,Gym,Nagpur,"5+ years in business Â· Plot No.864/C, 1 st Floor, Opp.Rahate Hospital, CA Road, near Kolbaswamy Chowk Old",Open â‹… Closes 11â€¯pm Â· 099214 42623,",strongfitness39@gmail.com,","21.1487002,79.1141186"
Terminator Gym,Gym,Nagpur,"7+ years in business Â· 44W7+65Q, Ayachit Rd, behind Bhosla Ved Shala, near Sankat Mochan Hanuman Mandir",Open â‹… Closes 11â€¯pm Â· 093269 37138,,"21.145586,79.1104049"
Xtreme full fitness hub,Gym,Nagpur,"Rani durgavati Chawk, opposite to police chawki, near by Gurudwara Road",Open 24 hours Â· 090674 81706,,"21.1737841,79.1134355"
Combat Fitness Club,Gym,Nagpur,"3+ years in business Â· Akash mall, Ayachit Rd",Open â‹… Closes 10â€¯pm Â· 086249 46706,"md.imranfw@gmail.com,,","21.1637667,79.0806781"
Orange Fitness,Gym,Nagpur,"3+ years in business Â· Diamond Tower, Mankapur Rd, near Basera Apartment",Open â‹… Closes 10â€¯pm Â· 083295 21579,,"21.1893737,79.0759047"
Millennium Health Club - GYM Trimurti Nagar,Gym,Nagpur,"10+ years in business Â· Ring Road, 31, Parekh Layout",Open â‹… Closes 10â€¯pm Â· 099605 67082,,"21.1155917,79.0389358"
Arena Gym & Health Club,Gym,Nagpur,10+ years in business Â· Manewada Rd,Open â‹… Closes 11â€¯pm Â· 097664 45077,,"21.10611,79.0994367"
Parate's Fitness Club,Gym,Nagpur,"7+ years in business Â· Parate Complex, Khamla Rd, opposite Gulmohar hall",Open â‹… Closes 10â€¯pm Â· 087889 19539,",info@jdcoem.ac.in,","21.11045,79.0605791"
SHREE GYM,Gym,Nagpur,"5+ years in business Â· 2nd floor, Balaji Kirana Store, Nandanvan Road, road, opposite ICICI Bank",Open â‹… Closes 11â€¯pm Â· 086984 09603,",shivajiscience_ngp@yahoo.com,","21.0817389,79.0418978"
Avis Fitness Studio,Gym,Nagpur,"7+ years in business Â· Nagpur, Maharashtra",Open â‹… Closes 12â€¯am Â· 093705 45566,",info@avis-fitnessstudio.com,","21.1272062,79.0575968"
HOUSE OF FITNESS,Gym,Nagpur,"HOUSE OF FITNESS 136, Ring Rd, behind Shivshankar Lawn",Open â‹… Closes 10â€¯pm Â· 093257 23086,",info@powerhousegym.com,","21.1418479,79.1042944"
EVOLVE FITNESS STUDIO,Gym,Nagpur,"7+ years in business Â· Nagpur, Maharashtra",Open â‹… Closes 9:30â€¯pm Â· 072767 00850,"ninfo@evolvefitness.co.in,info@evolvefitness.co.in,,","21.1388506,79.0634304"
Limitless,Gym,Nagpur,"2nd Floor, sq, The Cennet, Central Ave, above Pizza Hut",Open â‹… Closes 11â€¯pm Â· 075075 01176,",info@limitlessfit.in,","21.1483125,79.1309134"
YADAV'S FITNESS FACTORY,Gym,Nagpur,"3+ years in business Â· plot no 69, Hudkeshwar Rd",Open â‹… Closes 10â€¯pm Â· 093251 64160,",solanki.abhi466@gmail.com,","21.101711,79.119141"
A-SQUARE FITNESS STUDIO,Gym,Nagpur,"near Shubhash Putla, beside Dinesh Medical Store",Open â‹… Closes 10â€¯pm Â· 074105 70062,",blackboxfitnessstudio@gmail.com,","21.1542302,79.1165383"
Body Zone Gym,Gym,Nagpur,7+ years in business Â· Nara Rd,Open â‹… Closes 10â€¯pm Â· 076203 51035,"bodyzonefitnesscentre@gmail.com,,u003ebodyzonefitnesscentre@gmail.com,cchinmay@gmail.com,","21.186873,79.0891999"
Gladiator gym,Gym,Nagpur,"5+ years in business Â· Sakore Complex, Ramna Maroti Rd",Open â‹… Closes 10â€¯pm,",hello@curefit.com,guruym.gym@gmail.com,","21.1231176,79.1277037"
Fitness India,Gym,Nagpur,"7+ years in business Â· Siddi Vinayak Apartment, Plot No.1, Gajanan Mandir Rd",Open â‹… Closes 9â€¯pm,",memberexperience@anytimefitness.in,magnus.fitness@yahoo.com,info@magnusfitnessworld.com,fitnessclubgym100@gmail.com,","21.1379873,79.0427571"
REVOLVE FITNESS GYM,Gym,Nagpur,"56 57, Chichbhavan Main Road, near Bhavans School",Open â‹… Closes 10â€¯pm Â· 080871 18714,",revolvefitnessgym@gmail.com,","21.0695435,79.0686575"
Akhaada - The Performance Studio,Gym,Nagpur,"5+ years in business Â· Akhaada - The Performance Studio, 19, Red Cross Rd",Open â‹… Closes 9â€¯pm Â· 090962 12123,,"21.1606776,79.0743148"
STRONG FITNESS,Gym,Nagpur,"Ingle House, 9, Ring Rd, near Indian Oil",Open â‹… Closes 10â€¯pm Â· 096650 48850,",strongfitness39@gmail.com,","21.1135593,79.0413635"
Power House Gym,Gym,Nagpur,5+ years in business Â· 1442,Open â‹… Closes 10â€¯pm Â· 088550 61090,",info@powerhousegym.com,jack@colorpowered.com,hukrenandu@gmail.com,","21.1477572,78.9813274"
MB Fitness GYM,Gym,Nagpur,"5+ years in business Â· Hingna Rd, near babbus restaurant",Open â‹… Closes 11â€¯pm Â· 099700 96063,,"21.1194569,79.0190751"
IMPULSE GYM,Gym,Nagpur,44GH+CC8,Open â‹… Closes 10â€¯pm Â· 095031 77274,",hello@curefit.com,","21.126046,79.1260062"
Pohankar's Fitness Studios,Gym,Nagpur,"5+ years in business Â· T-Point, Government Press Society, 57, near Ring Road",Open â‹… Closes 10â€¯pm Â· 083083 12111,",pohankarsfitness@gmail.com,","21.1187917,79.0293412"
360 Functional Fit,Gym,Nagpur,"7+ years in business Â· 3A, Mecosabagh Rd",Open â‹… Closes 11â€¯pm Â· 099753 21300,,"21.171439,79.0832571"
Pulse on fitness,Gym,Nagpur,"5+ years in business Â· Clark town,aanand sai marg,opp jay kranti society,kadbi square",Open â‹… Closes 11â€¯pm Â· 097305 79712,,"21.1650036,79.0552507"
Fitness For Life - The Ladies Workout Studio,Gym,Nagpur,"5+ years in business Â· pankaj trading company, Plot no 108, lane, beside maa bhagwati devi mandir",Open â‹… Closes 9â€¯pm Â· 086687 19453,,"21.1804113,79.0875036"
Ace Fitness Studio,Gym,Nagpur,"3+ years in business Â· 78, Manewada Rd",Open â‹… Closes 9â€¯pm Â· 080102 86821,"support@acefitness.org,x3esupport@acefitness.org,x22support@acefitness.org,,","21.0989808,79.0901801"
Feel The Burn Fitness Nagpur,Gym,Nagpur,"3+ years in business Â· Near Kamgar Kalyan Swimming Pool, Sakkardara Rd",Open â‹… Closes 10â€¯pm Â· 080877 49466,,"21.1256073,79.1084422"
Fitness Garage,Gym,Nagpur,5+ years in business Â· p.no 186 behind gurunanak bhavan kamal road ashok nagar,Open â‹… Closes 10â€¯pm Â· 089831 16487,,"21.1684458,79.103559"
Narayani FIT & ACTIVE Gym Nagpur,Gym,Nagpur,"7+ years in business Â· 3rd & 4th Floor, Vimal Plaza, Plot No. 190, Central Ave, behind INOX Building",Open â‹… Closes 10â€¯pm,,"21.147729,79.1329811"
HIGH FITNESS GYM,Gym,Nagpur,5+ years in business Â· 67,Open â‹… Closes 10:30â€¯pm Â· 073850 38383,",contact@multifit.co.in,","21.1948188,79.1010392"
AJJU'S GYM,Gym,Nagpur,"7+ years in business Â· Plot no. 15, Gopal Nagar, Road",Open â‹… Closes 10â€¯pm Â· 098231 82020,",hello@curefit.com,","21.1149396,79.0462829"
NFS-NASRE'S FITNESS STUDIO,Gym,Nagpur,"Plot Number 2, above Nasre Kirana Store",Open â‹… Closes 10â€¯pm,,"21.1127762,79.0881233"
Avis Fitness Studio,Gym,Nagpur,"Plot No 27 A Cement Road, beside Jogger Fitness Club",Open â‹… Closes 11â€¯pm Â· 090110 01666,",info@avis-fitnessstudio.com,","21.1272062,79.0575968"
DP's Fitness,Gym,Nagpur,"3+ years in business Â· 57, behind chota tajbag",Open â‹… Closes 10â€¯pm,,"21.1212264,79.1094425"
Fitness World Unisex Gym,Gym,Nagpur,"3+ years in business Â· Nagpur, Maharashtra",Open â‹… Closes 10â€¯pm Â· 085529 49501,"manish.singh@fitness-world.in,,","21.1539485,79.0473403"
Fitlife Gym,Gym,Nagpur,"5+ years in business Â· Opposite Paatidar samaj, near Great Nag Road, opposite to Paatidar Bhawan",Open â‹… Closes 10â€¯pm Â· 098345 88136,,"21.1259304,79.0698311"
Nandanwar's Gym,Gym,Nagpur,"7+ years in business Â· Mangalmurti Complex, Ring Rd, Opp. NIT Garden",Open â‹… Closes 9:30â€¯pm Â· 093250 08361,,"21.1140742,79.0414605"
KRUNAL GYM FITNESS,Gym,Nagpur,"5+ years in business Â· Plot No 40 A, Manewada - Besa Rd, near Bhavani Sabhagruha",Open â‹… Closes 10:30â€¯pm Â· 089833 99830,",sfs_college@yahoo.com,","21.094146,79.0966237"
Mahabali's Fitness First,Gym,Nagpur,7+ years in business Â· 3461/A5,Open â‹… Closes 10â€¯pm Â· 094221 48292,,"21.1087205,79.074071"
fitness Cyclone,Gym,Nagpur,"3+ years in business Â· Byramji Town, Gondwana Sq",Open â‹… Closes 10â€¯pm Â· 097667 08910,"counsellor@studies-overseas.com,,","21.1741004,79.080655"
Grunt Fitness,Gym,Nagpur,ADBA Sports Complex,Open â‹… Closes 10â€¯pm,,"21.1734433,79.04527"
Pal Fitness,Gym,Nagpur,"Suyog Nagar Square, p no 47/48 Saket nagar, behind TVS show room",Open â‹… Closes 10â€¯pm Â· 090283 80933,,"21.1295147,78.9591876"
MARVEL FITNESS MANISH NAGAR BRANCH,Gym,Nagpur,"Plot no 36, anand enclave, above mahindra first choice",Open â‹… Closes 10â€¯pm Â· 077091 71914,,"21.0944571,79.0793696"
Fitzmax Fitness,Gym,Nagpur,5+ years in business Â· behind Royal celebration,Open â‹… Closes 10â€¯pm,,"21.1336941,79.1031742"
dev health club,Gym,Nagpur,5+ years in business Â· 1985/A/103/C,Open â‹… Closes 10â€¯pm Â· 090493 35322,",sales@tsysinfo.com,","21.1372778,79.0462395"
Kings Fitness Club,Gym,Nagpur,7+ years in business Â· MSH 9,Open â‹… Closes 10â€¯pm,,"21.1274854,79.1140602"
Joshi's Exclusive - The Fitness Park,Gym,Nagpur,"20+ years in business Â· Plot No. 134, Sita Niwas, Dr, Balraj Marg",Open â‹… Closes 9â€¯pm Â· 093723 06180,",thefitnessdoctor16@gmail.com,info@peoplesgym.com,info@avis-fitnessstudio.com,","21.1337864,79.0795387"
Zumba Fitness Studio & Gym,Gym,Nagpur,7+ years in business Â· above HDFC BANK,Open â‹… Closes 8:30â€¯pm Â· 094037 80518,,"21.1035802,79.0568236"
NOTION FITNESS,Gym,Nagpur,"House no - 191, Cement Road, near Venu Corner",Open â‹… Closes 10â€¯pm,",info@fitlineindia.com,","21.1115049,79.0985678"
Fitness DNA,Gym,Nagpur,"3+ years in business Â· Block no.201, rawel plaza, above hdfc bank home loan office",Open â‹… Closes 10:30â€¯pm,",sales@jeraifitness.com,","21.1687057,79.089521"
Pumping Iron Gym,Gym,Nagpur,7+ years in business Â· 5484+C3M Vithoba akhada,Open â‹… Closes 11â€¯pm Â· 093266 47897,,"21.1755856,79.087228"
J. D FITNESS,Gym,Nagpur,"J D FITNESS, Great Nag Rd",Open â‹… Closes 9â€¯pm,",info@fitlineindia.com,ufitdelhi@gmail.com,","21.138324,79.1120185"
360 CrossFit Gym,Gym,Nagpur,5+ years in business Â· near NIT Complex,Open â‹… Closes 10â€¯pm Â· 070665 50360,",360crossfitgym@gmail.com,","21.1295804,79.1195412"
Wellness Gym Nagpur,Gym,Nagpur,Katol Rd,Open â‹… Closes 10â€¯pm,",support@gymcompany.co.za,inquiry@wellnessclub.co.in,fitnessclubgym100@gmail.com,Inquiry@wellnessclub.co.in,","21.1736923,79.0542718"
ABS Fitness,Gym,Nagpur,10+ years in business Â· Ring Rd,Open â‹… Closes 10â€¯pm Â· 088884 53205,",nileshdhote2007@rediffmail.com,","21.1383176,79.0334417"
The fitness time gym,Gym,Nagpur,"19, Godhani Road",Open â‹… Closes 10â€¯pm,",strongfitness39@gmail.com,contact@multifit.co.in,","21.1966105,79.0669712"
MAHARANA FITNESS COURT,Gym,Nagpur,"7+ years in business Â· 72, Rameshwari Rd",Open â‹… Closes 10â€¯pm,,"21.1202243,79.0909278"
Barbarian Power Gym,Gym,Nagpur,"3+ years in business Â· 1st Floor Ganga Kashi Mall Jagnade Square, Great Nag Rd",Open â‹… Closes 10â€¯pm Â· 098214 20509,",kelkarsuresh82@gmail.com,","21.1434739,79.0482934"
Capital Health Club,Gym,Nagpur,"7+ years in business Â· 27, Khamla Rd",Open â‹… Closes 10â€¯pm Â· 099234 31675,,"21.1142333,79.0640084"
AJAZ FITNESS,Gym,Nagpur,"3+ years in business Â· 2, Koradi Rd",Open â‹… Closes 11â€¯pm Â· 073858 65523,",info@fitlineindia.com,","21.1831084,79.0759826"
CrossXFit - CrossFit & MMA Gym,Gym,Nagpur,"3rd Floor, Above Union Bank, near Batukbhai Jewellers",Open â‹… Closes 9â€¯pm,,"21.1385917,79.057585"
Focus Fitness,Gym,Nagpur,5+ years in business Â· Gorewada Rd,Open â‹… Closes 10â€¯pm Â· 089836 15131,",xmanagement-services-bg.jpg.pagespeed.ic.xYUXFOlPQo@2x.jpg,","21.1800353,79.052297"
UC fitness unisex gym,Gym,Nagpur,"3+ years in business Â· plot no. 34, 36",Open â‹… Closes 11â€¯pm,,"21.1917725,79.0696375"
The Muscle Rider,Gym,Nagpur,"L, 8/18, Ridge Rd, opp. NIT complex",Open â‹… Closes 10â€¯pm,,"21.1233036,79.1074481"
Global Fitness Center(ladies gym),Gym,Nagpur,5+ years in business Â· above Aashirvaad Provisions,Open â‹… Closes 9â€¯pm Â· 093731 26822,,"21.1820318,79.0578985"
Aeon Fitness club,Gym,Nagpur,"10+ years in business Â· Ankush-2, 405, model mill square, near Anandam city",Open â‹… Closes 10â€¯pm Â· 083790 12498,",info@jdcoem.ac.in,","21.1408139,79.0982615"
Winners Gym,Gym,Nagpur,7+ years in business Â· Beltarodi Rd,Open â‹… Closes 10â€¯pm Â· 082080 43155,,"21.0912731,79.0727995"
PB's Fitness Studio ( Nari Akhaada),Gym,Nagpur,"7+ years in business Â· plot No 4, CMPDI Rd",Open â‹… Closes 11:30â€¯pm Â· 082085 59481,,"21.1814001,79.0826115"
Addy's Fitness,Gym,Nagpur,"5+ years in business Â· Plot no 92 , mahakali nagar",Open â‹… Closes 11â€¯pm Â· 095611 55328,",info@fitlineindia.com,","21.1018205,79.1061999"
MW gym,Gym,Nagpur,"3+ years in business Â· 202, Amravati Rd",Open â‹… Closes 8:30â€¯pm,",contact@multifit.co.in,","21.1484303,79.0481795"
Akare fitness gym,Gym,Nagpur,"7+ years in business Â· Nagpur, Maharashtra",Open â‹… Closes 10â€¯pm,",info@fitlineindia.com,","21.1317983,79.1042225"
Ajay Gym,Gym,Nagpur,"7+ years in business Â· 135, Near Anil Golhar Hospital, Ramdaspeth",Open â‹… Closes 10â€¯pm Â· 097643 25013,,"21.134935,79.0675181"
Barbarian Gym,Gym,Nagpur,10+ years in business Â· 5424+795,Open â‹… Closes 10â€¯pm,,"21.1453767,79.0482934"
LALA- G Fitness Club,Gym,Nagpur,3+ years in business Â· opposite Indora,Open â‹… Closes 11:30â€¯pm,,"21.1811064,79.0924086"
Indian Iron Gym,Gym,Nagpur,5+ years in business Â· 1325/A,Open â‹… Closes 10â€¯pm,"purchase@iimnagpur.ac.in,,powerliftersindia@gmail.com,","21.1845299,79.077546"
Bhosale Gym,Gym,Nagpur,7+ years in business Â· Plot no.13,Open 24 hours Â· 084211 11584,,"21.1121116,79.0782609"
TFC (The Fitness Centre) - Best Gym in Nagpur,Gym,Nagpur,"Jagat Tower, Amravati Rd, near Law College Square",Open â‹… Closes 10â€¯pm Â· 070205 95905,,"21.1468337,79.0565491"
Officers club GYM,Gym,Nagpur,5357+32Q,Open â‹… Closes 10â€¯pm,"support-eproc@nic.in,,info@miacsr.com,cpclubnagpur@gmail.com,","21.1576589,79.0600781"
PULSE FITNESS UNISEX GYM,Gym,Nagpur,"Nagpur, Maharashtra",Open â‹… Closes 10â€¯pm Â· 093253 45566,,"21.1916039,79.0713339"
PULSE FITNESS UNISEX GYM,Gym,Nagpur,"Nagpur, Maharashtra",Open â‹… Closes 10â€¯pm Â· 093253 45566,,"21.1916039,79.0713339"
Red Iron Gym,Gym,Nagpur,"7+ years in business Â· Nagpur, Maharashtra",Â· 092700 50024,,"21.182818,79.0724256"
The Extreme Fitness,Gym,Nagpur,"5+ years in business Â· first railway gate, diwate bhawan, Panchpaoli Rd",Â· 093252 30968,",gawai.ashwini@yahoo.in,","21.1544333,79.0739094"
Shape-In Gym Fitness Center,Gym,Nagpur,"15+ years in business Â· 1st Floor, Upstairs To Punjab National Bank, 506, Nandanvan Main Rd, above Punjab national ban",Open 24 hours,,"21.128273,79.1166396"
FITNESS ADDA The Family Gym,Gym,Nagpur,"Pothi Ln, near Hanuman Mandir",Open â‹… Closes 11â€¯pm,,"21.1513886,79.1062447"
Flex Fitness Gym,Gym,Nagpur,Hudkeshwar Rd,Open â‹… Closes 11â€¯pm Â· 096651 45564,,"21.1101924,79.1144489"
FIT & FAB FITNESS STUDIO,Gym,Nagpur,"9, Old, near Mateshwari Bichyat Kendra",Open â‹… Closes 8â€¯pm Â· 095112 24573,,"21.1162474,79.0914351"
Kunda Ladies Fitness Centre,Gym,Nagpur,"5+ years in business Â· 15, Godhani Road",Open â‹… Closes 9:30â€¯pm Â· 095791 71117,,"21.183967,79.0394832"
FIT HER- Women's Fitness Club,Gym,Nagpur,"3+ years in business Â· 3rd Floor, Plot no. 221, Ring Rd, above Balaji Daily needs, opposite ICICI Bank",Open â‹… Closes 9â€¯pm Â· 094221 07048,,"21.1319797,79.1170235"
The Fitness Park,Gym,Nagpur,"7+ years in business Â· Plot # 13, Central Excise Colony, Chattrapati Square, Opp. Snehnagar petrol, pump",Open â‹… Closes 10â€¯pm Â· 084465 36031,",info@fitnesspark.fr,","21.1114249,79.0660813"
RELOAD FITNESS,Gym,Nagpur,3+ years in business Â· W High Ct Rd,Open â‹… Closes 10â€¯pm Â· 082083 25396,",info@fitlineindia.com,","21.1389378,79.0576238"
Neofit,Gym,Nagpur,"5+ years in business Â· 3rd Floor, Laxmi Krupa, Plot No. 221, N Bazar Rd, above Spot 9",Open â‹… Closes 10â€¯pm Â· 086000 01246,,"21.14057,79.0550737"
workout gym,Gym,Nagpur,"10+ years in business Â· Swawlambi Nagar, Ring Rd, opposite Padole Hospital",Open â‹… Closes 10â€¯pm,",strongfitness39@gmail.com,contact@multifit.co.in,fitnessclubgym100@gmail.com,","21.1494389,79.0052108"
Raw Fitness Gym,Gym,Nagpur,"Plot No 9, opp. Mahakalkar Celebration Hall",Open â‹… Closes 10â€¯pm,",powerliftersindia@gmail.com,","21.1171199,79.1137549"
Embassy Fitness Club,Gym,Nagpur,"3+ years in business Â· Nara Rd, opposite Canara Bank",086687 43868,,"21.1656984,79.0539432"
FitArt - The Fitness App,Gym,Nagpur,"3+ years in business Â· 209, F/6, Dharampeth Towers, W High Ct Rd",Open â‹… Closes 8â€¯pm Â· 080070 55055,,"21.1378846,79.0577984"
THE MUSCLE FACTORY GYM,Gym,Nagpur,"THE MUSCLE FACTORY GYM, below NIRMAN RESIDENCY",Open â‹… Closes 11:30â€¯pm,",support@gymcompany.co.za,","21.160553,79.1168082"
The Future Point Gym,Gym,Nagpur,"Uday Nagar Rd, near Lucky Chikan",,"purchase@iimnagpur.ac.in,mmafiofficial@gmail.com,,","21.1091533,79.0489816"
Pranalz Fitness Club,Gym,Nagpur,"53PR+9V5, Nara Rd",099221 33411,,"21.1858842,79.089648"
PROCRUNCH TRAINING ACADEMY,Gym,Nagpur,"3+ years in business Â· Shewalkar Arcades Above Patanjali 3rd floor Laxmi bhavan square, W High Ct Rd",Open â‹… Closes 10â€¯pm,,"21.1399509,79.0576477"
OLD SCHOOL GYM,Gym,Nagpur,"Central Ave, opposite Darshan tower hotel, near afsa traders",Open â‹… Closes 10â€¯pm Â· 072767 35368,,"21.1521592,79.096866"
Fitness Revolution,Gym,Nagpur,"Wasim place, near Sanjubha Highschool, opposite Water Tank",Open â‹… Closes 10â€¯pm,",ninfo@fitnessrevolution.in,pravesh.chokhandre@gmail.com,info@fitnessrevolution.in,","21.1138012,78.998835"
Spartans GYM,Gym,Nagpur,"7+ years in business Â· Sarvoday Plaza, gate, opposite Mominpura, in front of mb convent",Open â‹… Closes 1â€¯am Â· 087934 19802,",info@spartansgym.com,","21.1287681,79.0321954"
Paramount GYM,Gym,Nagpur,"5+ years in business Â· Nagpur, Maharashtra",Open â‹… Closes 10â€¯pm,,"21.1621026,79.0736954"
Sky Fitness,Gym,Nagpur,"460, Vaishali Nagar, Nagpur, Maharashtra 440017",5498,,"21.167839,79.1137131"
Trinity Fitness Club,Gym,Nagpur,53XM+5Q7,Open â‹… Closes 10â€¯pm,",cba9000@gmail.com,","21.197911,79.081851"
Fitness training,Gym,Nagpur,7+ years in business Â· 295,Open 24 hours,",contact@multifit.co.in,fitnessclubgym100@gmail.com,","21.1384554,78.9868336"
Xpose Fitness,Gym,Nagpur,"3+ years in business Â· First floor hitesh sankul, Jaripatka Police Station Rd",Open â‹… Closes 11â€¯pm Â· 070203 41005,,"21.1879974,79.088889"
Rituals Gym,Gym,Nagpur,"Patrakar Club, 64, opposite Institute of Science",Open â‹… Closes 11â€¯pm,",rituals.thegym@gmail.com,","21.1473055,79.0714667"
Galaxy gym,Gym,Nagpur,Nawabpura Rd,Open 24 hours Â· 098346 42006,,"21.1459134,79.1132526"
Being fitness,Gym,Nagpur,"44R3+PHG, New Shukrawari Rd",Open â‹… Closes 11â€¯pm,,"21.1417693,79.1014712"
DNC college Gym,Gym,Nagpur,43HJ+PGH,Open â‹… Closes 9:30â€¯pm,"dhanwatenationalcollege@yahoo.com,,","21.129304,79.0787849"
Sausthav Gym,Gym,Nagpur,7+ years in business Â· 150,Open â‹… Closes 10:30â€¯pm Â· 0712 224 2615,,"21.1278328,79.0581275"
ASHROH'S ZUMBA FITNESS,Gym,Nagpur,"3+ years in business Â· MSEB colony ground, 374 d",Open â‹… Closes 8â€¯pm,,"21.1095193,79.111949"
Power Zone Gym,Gym,Nagpur,7+ years in business Â· 54C3+2H6,Â· 099234 68549,",sani.sanidhya@gmail.com,","21.1700398,79.1013125"
Fitness courtyard,Gym,Nagpur,"3+ years in business Â· Nagpur, Maharashtra",Open â‹… Closes 11â€¯pm Â· 097667 36612,,"21.1383251,79.1004217"
Fitness First Health Center,Gym,Nagpur,7+ years in business Â· limsay building road,Open â‹… Closes 8â€¯pm Â· 098224 61851,"x22deakinreception@fitnessfirst.com.au,,x3edeakinreception@fitnessfirst.com.au,deakinreception@fitnessfirst.com.au,","21.1433836,79.1010751"
Corenergy Fittness,Gym,Nagpur,"2nd Floor Above Carewell Physiotherapy and Fitness Clinic 51, Vijay Nagar Rd, Chhaoni Rd",Open â‹… Closes 8:30â€¯pm,",info@fitlineindia.com,","21.1711414,79.0749912"
Sports iungo (Promarc Sports & Fitness Pvt Ltd),Gym,Nagpur,"Plot no, 57, Central Bazar Road",Â· 099224 30925,,"21.129482,79.0584311"
Power Station Gym,Gym,Nagpur,59,Â· 072761 20663,",info@powermaxfitness.net,","21.120008,79.105688"
MUSCLE UP FITNESS,Gym,Nagpur,"5578+P6H, Bharat wada square, Near MR Lawn Jam nagar krushna kamal colony",Open â‹… Closes 10â€¯pm,,"21.1643249,79.1630451"
New Ladies Health Club,Gym,Nagpur,"7+ years in business Â· Plot No, 3/A, Medical College Rd",Open â‹… Closes 7:30â€¯pm Â· 090280 58497,,"21.1282504,79.0910555"
"Ludus Sports & Fitness ,Ram Nagar",Gym,Nagpur,"plot no 7, CKP hall, beside Madrasi Temple",Open â‹… Closes 8â€¯pm Â· 095189 86917,,"21.1418876,79.0507576"
FITNESS STUDIO BY RAFI,Gym,Nagpur,"IBM road, opposite badi masjid",Open â‹… Closes 11â€¯pm,,"21.1733056,79.0512393"
Rome Fitness Center,Gym,Nagpur,"Zal Complex, 3rd Floor, Residency Rd, opp. SFS School, above Bharat Stores",Â· 088881 55696,,"21.1604679,79.0767752"
Barracks The Gym,Gym,Nagpur,"Patrakar Club, 64, opposite Institute of Science",Â· 092840 52415,",support@gymcompany.co.za,","21.1473109,79.071467"
Unique Sales -Dealer of Powermax Fitness,Gym,Nagpur,"Dhanshri Complex, UNIQUE SALES Shop no 31, 1st Floor, near Hotel Hardeo",Open â‹… Closes 8â€¯pm Â· 093263 49918,",customercare@powermaxfitness.net,","21.1403928,79.0831256"
HBT Wellness Center,Gym,Nagpur,"5+ years in business Â· Shop No. 10,Opp. Ahbab Community Hall, Square",Open â‹… Closes 9â€¯pm,",bhagwatintc@gmail.com,","21.1849171,79.0577194"
Friends fitness club,Gym,Nagpur,"R T COMPLEX, WADDHAMNA, Amravati Rd",Open â‹… Closes 9â€¯pm Â· 084848 05154,,"21.185798,78.9355504"
S.S.MUDALIAR THE FAMILY FITNESS CENTRE,Gym,Nagpur,"5+ years in business Â· Metro Station, Gaddigodam square Kasturi building, opposite Gaddigodam",Open â‹… Closes 9:30â€¯pm Â· 098902 99361,,"21.1610558,79.0809509"
Rooftop Fitness Club,Gym,Nagpur,"plot no-62, 5th floor, k.b. chambers, south, Canal Rd Gokulpeth",Â· 088302 48449,"rooftopfitnessngp@gmail.com,,nrooftopfitnessngp@gmail.com,","21.1444727,79.0564943"
Western gym mahal,Gym,Nagpur,"44W5+XG2, Pandit Bachharaj Vyas Square, Badkas Chowk, Mahal, Nagpur, Maharashtra 440032",,",Siliguri@jaquar.com,kprkca.nagpur@gmail.com,swapnilmagrawal@yahoo.com,","21.147398,79.1062045"
GREEN GYM MISSION,Gym,Nagpur,"Vidhrbha Premier Building No.3 Flat No.303 Gandhi Sagar, Lake Road",Â· 082757 76525,",parth.fibrotech@gmail.com,info@slsnagpur.edu.in,","21.1483305,79.0945416"
Harsh Fitness Gym,Gym,Nagpur,54CC+4Q3,Â· 099234 45859,"nsushant.sahu.13april@gmail.com,sushant.sahu.13april@gmail.com,,","21.1702613,79.1193432"
Avi's Fitness Studio,Gym,Nagpur,"Heera Balaji Tower, Pragati Society, Plot no. 7",Open â‹… Closes 11â€¯pm Â· 093700 00888,",info@avis-fitnessstudio.com,ninfo@avis-fitnessstudio.com,","21.1247413,79.0575968"
CREATance Dance & Fitness Studio,Gym,Nagpur,"1st Floor, of Radhey Celebrations, Kolte Layout, Godhani Road",Open â‹… Closes 9â€¯pm Â· 093246 07759,,"21.2070956,79.0632904"
Jd Fitness Studio,Gym,Nagpur,"Plot No 4, Nag Raod, Nandanvan Main Rd, near SD Hospital",089754 74321,",info@fitlineindia.com,jdfitness.anand@gmail.com,","21.138324,79.1120185"
Gyms,Gym,Nagpur,43WQ+87C,Temporarily closed,",support@gymcompany.co.za,hello@curefit.com,","21.1395131,79.0098883"
Zumba Fitness Studio & Gym - Nagpur,Gym,Nagpur,"3rd Floor, Above HDFC, Chhatrapati Chowk, Nagpur 440015, MH",+91-9403780518,,"21.0993061,79.043638"
Yadav's Fitness Factory Gym - Nagpur,Gym,Nagpur,"plot no 69, Hudkeshwar Rd, Renuka Mata Nagar, Sanmarga Nagar, Nagpur, Maharashtra 440034",093251 64160,,"21.101711,79.119141"
Universal Gym - Nagpur,Gym,Nagpur,"21/2, Shubhangi Society, Sailila Nivas, Near Balaji Temple, Besa, Nagpur 440034, MH",+91-712-2777052,",rajthakur11183@gmail.com,","21.1749839,79.0284582"
Ultrafit Gym - Nagpur,Gym,Nagpur,"17, Mate Square, Behind Dominos, Madhav Nagar, Nagpur 440010, MH",+91-7744803819,,"21.1362509,79.0477181"
Transform Gym - Nagpur,Gym,Nagpur,"3rd & 4th Floor, J.P. Emperio, Residency Rd, Sadar, above Pizza Hut, Nagpur, Maharashtra 440011",+91-8600400011,",u003ecustomercare@gymsforall.in,customercare@gymsforall.in,hariomsoni38@gmail.com,Inquiry@wellnessclub.co.in,","21.1638002,79.0767833"
Trans Fitness - Nagpur,Gym,Nagpur,"Alankar-Kachipura Sq. road, Below Kutz Salon Near Federal Bank, Opp Firstcry Ramdaspeth Connects Laxminagar Bajaj Nagar Connects, Dharampeth, Nagpur, Maharashtra 440010",098603 44777,",ninfo@transfitness.in,info@transfitness.in,","21.1358438,79.0660791"
The Vyayam Shala & Zest Dance Fitness Center - Nagpur,Gym,Nagpur,"426, Opposite Ishwar Deshmukh College, Krida Square Road, Hanuman Nagar, Nagpur 440024, MH",+91-9527840309,,"21.1285586,79.0999323"
The Rock Gym - Nagpur,Gym,Nagpur,"Harihars Apartment, 1st Floor, Above State Bank Of India, Beltodi Road, Manish Nagar, Nagpur 440015, MH",+91-9021819018,,"21.1029309,79.0727989"
The Pulse Fitness - Nagpur,Gym,Nagpur,"9, Jagnade Square, Opposite Shahu Samaj Bhawan, Great Nag Road, Nandanvan Colony, Nagpur 440024, MH",+91-9923023017,,"21.1382899,79.1171399"
The Muscle House Gym - Nagpur,Gym,Nagpur,"1st Floor, Besides Gajanan Maharaj Gate, Zanda Chowk, Mahal, Nagpur 440032, MH",+91-9767611113,,"21.1419233,79.0484117"
The Fitness First Ladies Health Club - Nagpur,Gym,Nagpur,"16, Padma Niwas, Behind Government Medical College, Wanjari Nagar, Ajni, Nagpur 440003, MH",+91-9595529759,"x22deakinreception@fitnessfirst.com.au,,x3edeakinreception@fitnessfirst.com.au,deakinreception@fitnessfirst.com.au,","21.1344787,79.0881022"
The Fitness Aura - Nagpur,Gym,Nagpur,"1st Floor, 12, Jawahar society, Above wardhaman Ele, near Bharat Petrol Pump, Gurudev Nagar, Nandanvan, Nagpur, Maharashtra 440003",+91-9021407287,,"21.129286,79.1191861"
Talwalkars Fitness Solution - Nagpur,Gym,Nagpur,"Hindustan Colony, Aditya building, Wardha Rd, near Ajni square, Prashant Nagar, Samarth Nagar East, Nagpur, Maharashtra 440015",085520 04100,",tbvfl.ipo@linkintime.co.in,","21.1162877,79.0695853"
Surefit Wellness Center - Nagpur,Gym,Nagpur,"Santaji Society Balpande Layout, Plot No 16, near Rachanavatika, Narendra Nagar Extension, Narendra Nagar, E, Nagpur, Maharashtra 440015",097661 53636,",surefit85@gmail.com,","21.1010779,79.0761162"
Sunshine Wellness Centre - Nagpur,Gym,Nagpur,"65, Near Police Station, Kamal Chowk, Lashkari Bagh, Nagpur 440017, MH",+91-8045798959,",admin@sunshinewellnesscentre.com,swapnilmagrawal@yahoo.com,kprkca.nagpur@gmail.com,sunshinefoundation2009@gmail.com,","21.1750836,79.0921869"
Subhash Fitness Town - Nagpur,Gym,Nagpur,"6368+C4P, W C L Colony, Godhni, Nagpur, Maharashtra 441501",093256 25629,,"21.2110839,79.0628663"
Spl Fitness Hub - Nagpur,Gym,Nagpur,"Pioneer Green Vally, Opp. Afzal Bakery, behind Vayusena Nagar, Friends Colony, Hajaripahad, Nagpur, Maharashtra 440013",097666 98739,",info@splfitnesshub.com,","21.1719152,79.0362423"
Solid Body Fitness Gym - Nagpur,Gym,Nagpur,"3rd Floor, Jagdamaba Appt, Shyam Talkies Chowk, Nagpur, Maharashtra 440002",098901 96031,"md.imranfw@gmail.com,,","21.1477611,79.1013919"
Shape Up Gym - Nagpur,Gym,Nagpur,"Near Swaminarayan Mandir, Sangharsh Nagar Chowk, Wathoda Ring Road, Wardhaman Nagar, Nagpur 440008, MH",+91-8055226666,,"21.1438506,78.8923714"
Shail Fitness - Nagpur,Gym,Nagpur,"244, Narayani house, Hill Rd, near Fabindia Experience Centre, Shivaji Nagar, Ram Nagar, Nagpur, Maharashtra 440010",090799 16779,,"21.1369318,79.0500572"
SF Fitness Klub - Nagpur,Gym,Nagpur,"Plot No, 1111, Kamptee Rd, near Gurudwara Road, Buddha Nagar, Balabhaupeth, Nagpur, Maharashtra 440017",+91-7620184019,",cancel@fitnesssf.com,sales@jeraifitness.com,","21.1738864,79.1014384"
S N Abs Gym - Nagpur,Gym,Nagpur,"4, Opposite Navodaya Bank, Manish Nagar, Nagpur 440015, MH",+91-9075935192,",swapnilmagrawal@yahoo.com,s.n.rajgarhia@gmail.com,kprkca.nagpur@gmail.com,nileshdhote2007@rediffmail.com,","21.1383176,79.0413104"
Rosetta Elite Club - Nagpur,Gym,Nagpur,"Prashant Nagar, Samarth Nagar East, Nagpur, Maharashtra 440015",093700 19259,"info@rosettastoneinfra.com,,rosettaelitecare@gmail.com,rosettabooking@gmail.com,","21.1177846,79.0726517"
Rock On The Power Gym - Nagpur,Gym,Nagpur,"Near Water Tank, Shaktimata Nagar, Second Gali, Kharbi Road, Raghuji Nagar, Nagpur 440009, MH",+91-7419863136,,"21.1525492,78.9941328"
Prime Fitness Gym - Nagpur,Gym,Nagpur,"Sai Plaza, Beside Old Maharashtra Emporium, Katol Road, Nagpur 440013, MH",+91-9890344442,",cs.companyhelp@gmail.com,","21.1804029,78.9881423"
Pranalz Fitness Club - Nagpur,Gym,Nagpur,"53PR+9V5, Nara Rd, Kukreja Nagar, Nagpur, Maharashtra 440014",099221 33411,,"21.1858842,79.089648"
Pohankars Fitness Studios - Nagpur,Gym,Nagpur,"T-Point, Government Press Society, 57, near Ring Road, Hingna, Nagpur, Maharashtra 440022",083083 12111,",pohankarsfitness@gmail.com,","21.1187917,79.0293412"
Planet Fit Womens Fitness Club - Nagpur,Gym,Nagpur,"116, Beside Keshav Hospital, Shri Nagar No 2, Manewada Road, Nagpur 440024, MH",+91-7666886961,,"21.118536,79.055314"
Peoples Gym - Nagpur,Gym,Nagpur,"96, VIP Rd, Ramdaspeth, Nagpur, Maharashtra 440010",0712 663 9428,",info@peoplesgym.com,","21.1354529,79.0664551"
Pb's Zumba Fitness Studio - Nagpur,Gym,Nagpur,"plot No 4, CMPDI Rd, Jaripatka, Nagpur, Maharashtra 440014",082085 59481,"kirandkotwani86@gmail.com,,","21.1814001,79.0826115"
Parate's Fitness Club - Nagpur,Gym,Nagpur,"Parate Complex, Khamla Rd, opposite Gulmohar hall, Khamla, Nagpur, Maharashtra 440025",087889 19539,",info@jdcoem.ac.in,","21.11045,79.0605791"
Out Raw Training Academy - Nagpur,Gym,Nagpur,"3rd Floor, Above Union Bank, West High Court Road, Gokulpeth, Nagpur 440010, MH",+91-8999496687,,"21.1279275,79.0470527"
Orange Fitness - Nagpur,Gym,Nagpur,"Diamond Tower, Mankapur Rd, near Basera Apartment, Pharas Road, Nagpur, Maharashtra 440030",083295 21579,,"21.1893737,79.0759047"
Oneabove Fitness - Nagpur,Gym,Nagpur,"4/1, JP Heights, Besides Rbi Officers Colony, Byramji Town, Gondvana Chowk, Rajnagar, Nagpur 440013, MH",+91-712-6642222,,"21.1555921,79.0606585"
O2 Oxygen Fitness Studio - Nagpur,Gym,Nagpur,"6th Floor, Natraj Tower, Zenda Square, Mahal, Nagpur, Maharashtra 440032",+91-9209009792,,"21.141784,79.1088003"
O2 Fitness - Nagpur,Gym,Nagpur,"16, Jai Sitaram Complex, Near New Era Hospital, Quetta Colony Road, Lakadganj, Nagpur 440008, MH",+91-9021565503,"purchase@iimnagpur.ac.in,,","21.1607255,79.0465773"
Multifit - Nagpur,Gym,Nagpur,"3rd Floor, Imperial Court, Rangole Marg, near Traffic Park, Khare Town, Dharampeth, Nagpur, Maharashtra 440010",077987 00050,",contact@multifit.co.in,","21.1389213,79.0627399"
Millennium Health & Fitness - Nagpur,Gym,Nagpur,"8, Near Mokhare College, Lokseva Nagar, Nagpur 440022, MH",+91-712-6544666,,"21.1114963,79.0404816"
Marvel Fitness - Nagpur,Gym,Nagpur,"100, Near Water Tank, Laxmi Nagar, Nagpur 440022, MH",+91-9834007388,",marvelfitnessln@gmail.com,","21.1101292,78.9904561"
Luckys Shape Up Zone For Ladies - Nagpur,Gym,Nagpur,"84,Rama Nivas, Hill Rd, Nagpur, 440010",+91-9860924344,,"21.1426149,79.053268"
Lion Heart Combat Club - Nagpur,Gym,Nagpur,"67-68, Uco Bank Building, Shilpa Society, Above Uco Bank, Narendra Nagar, Railway Crossing Road, Somalwada, Nagpur 440015, MH",+91-8048068321,,"21.1181942,79.0522002"
La Slimming Centre - Nagpur,Gym,Nagpur,"135, Near Anil Golhar Hospital, Renuka Construction Company, Ramdaspeth, Nagpur 440010, MH",+91-7947285166,",tbvfl.ipo@linkintime.co.in,dieticianedieter@gmail.com,","21.1610963,78.9886218"
Joggers Fitness Club - Nagpur,Gym,Nagpur,"Plot no.10 &11, Ayodhya Nagar Rd, Near Old Post Office, Ambika Nagar, Ayodhya nagar, Nagpur, Maharashtra 440024",086000 74446,",joggershealthclub@gmail.com,njoggershealthclub@gmail.com,","21.1171341,79.1083307"
Jd Fitness Studio - Nagpur,Gym,Nagpur,"J D FITNESS, Great Nag Rd, Juni Shukrawari, Ganesh Nagar, Azamshah Layout, Nagpur, Maharashtra 440009",+91-8975474321,",info@fitlineindia.com,","21.138324,79.1120185"
Inspire Gym - Nagpur,Gym,Nagpur,"118, Narsala Main Rd, Vaibhav Nagar, Dighori, Nagpur, Maharashtra 440009",099607 48882,,"21.1084912,79.1322058"
Indian Gymkhana - Nagpur,Gym,Nagpur,"Humpyard Rd, Dhantoli, Nagpur, Maharashtra 440032",092269 63555,",n@gmail.com,indiangymkhanangp@gmail.com,goa@indismart.co.in,","21.1346231,79.08207"
Golus Fitness Club - Nagpur,Gym,Nagpur,"Near Anaa Sathe Ground, Bhandewadi Road, Pardi, Nagpur 440035, MH",+91-6384010614,",info@jdcoem.ac.in,","21.1526688,79.1003175"
GK Fitness Club - Nagpur,Gym,Nagpur,"445Q+GF8, Piush apartment Atul lon, Umred Rd, behind umred rod, Ramkrishna Nagar, Dighori, Nagpur, Maharashtra 440024",086984 86124,,"21.108665,79.136353"
Galaxy Fitness Club - Nagpur,Gym,Nagpur,"221, Laxmi Krupa, 3rd Floor, North Bazar Road, Gokulpeth, Nagpur 440010, MH",+91-9657103894,,"21.1181596,79.0775194"
Fitness United - Nagpur,Gym,Nagpur,"1st Floor, Govindam Commercial, Kadbi Chowk, Nagpur, Maharashtra 440004",077118 81139,",fitnessunitedgym@gmail.com,","21.1674732,79.0875191"
Fitness Revolution 2.0 - Nagpur,Gym,Nagpur,"Near Shivshankar Lawn, Mitra Vihar Nagar, Ring Road, Kharbi, Nagpur 440024, MH",+91-7947397176,,"21.132093,79.0979864"
Fitness Headquarter Gym & Zumba - Nagpur,Gym,Nagpur,"340-333, Hudkeshwar Rd, New Subhedar Layout, Ashirwad Nagar, Nagpur, Maharashtra 440034",099968 87796,,"21.1108112,79.1143322"
Fitness Garage The Unique Gym - Nagpur,Gym,Nagpur,"186, Behind Gurunanak Bhavan, Kamal Talkies Road, Ashok Nagar, Nagpur 440017, MH",+91-8983116487,",contact@multifit.co.in,","21.1544008,79.004428"
Fitness Courtyard - Nagpur,Gym,Nagpur,"Banode Square, Near Patil Hospital, Mahal, Nagpur 440032, MH",+91-8888885509,,"21.1416078,79.0407671"
Fitness Club Gym - Nagpur,Gym,Nagpur,"14, Nit Swimming Pool, North Ambazari Road, Nagpur 440010, MH",+91-9115598631,",info@jdcoem.ac.in,fitnessclubgym100@gmail.com,","21.1116613,79.0383252"
Fitness 24x7 Gym - Nagpur,Gym,Nagpur,"451/201, 2nd Foor, Above Babuji Restaurant, Medical Square, Nagpur 440024, MH",+91-6384468509,,"21.1129169,79.103286"
Fitlife - Nagpur,Gym,Nagpur,"Aditya Building, Ajni Square, Near Hindustan Colony, Wardha Road, Nagpur 440015, MH",+91-8552004100,,"21.1259304,79.0698311"
Fit Me Gym & Zumba - Nagpur,Gym,Nagpur,"Plot No.853, Mahadule Complex, Bhandara Rd, opp. Sunil Hotel Subhash Putla, Queta Colony, Lakadganj, Nagpur, Maharashtra 440008",+91-7419857628,,"21.1540965,79.1153122"
Fit Flow - Nagpur,Gym,Nagpur,"4th Floor, Besides Lupin Diagnostics, Laxmi Nagar, Nagpur 440022, MH",+91-8010547261,,"21.1131061,79.0361243"
Fhive Fitness - Nagpur,Gym,Nagpur,"Plot no.04, 2nd floor, shree radhe govind, Ring Rd, Ward Number 3, Trimurtee Nagar, Nagpur, Maharashtra 440022",091457 33453,,"21.1155697,79.0357962"
Feel The Burn - Nagpur,Gym,Nagpur,"Near Kamgar Kalyan Swimming Pool, Sakkardara Rd, Raghuji Nagar, Nagpur, Maharashtra 444009",080877 49466,,"21.1256073,79.1084422"
Face and Figure Gym - Nagpur,Gym,Nagpur,"J-11, Beside Jeevan Jyoti Blood Bank, 8 Rasta Chowk, West High Court Road, Laxmi Nagar, Nagpur 440022, MH",+91-7947236464,,"21.1234244,79.0608631"
Face & Figure Ladies Gym - Nagpur,Gym,Nagpur,"J-11, Beside Jeevan Jyoti Blood Bank, 8 Rasta Chowk, West High Court Road, Laxmi Nagar, Nagpur 440022, MH",+91-7620967403,,"21.1394851,79.0005814"
Fab Fitness Center - Nagpur,Gym,Nagpur,"Bharucha Apartment, Above Crazy Bite Restaurant, Dhantoli, Nagpur 440012, MH",+91-7947444963,,"21.1310377,79.0788776"
Energetic Fitness - Nagpur,Gym,Nagpur,"Malagi Nagar, Ashirwad Nagar, Nagpur, Maharashtra 440024",098230 17367,,"21.1102004,79.1150657"
Embassy Fitness Club - Nagpur,Gym,Nagpur,"18, Near Jaripatka Police Station, Nara Road, Jaripatka, Nagpur 440014, MH",+91-9373289259,,"21.1656984,79.0539432"
Docs Fitness The Complete Gym - Nagpur,Gym,Nagpur,"Keshav Dwar, Reshimbag Square, Maharashtra 440024",079722 40709,"purchase@iimnagpur.ac.in,,","21.1339572,79.106126"
D Brother's Fitness & Helth Club - Nagpur,Gym,Nagpur,"Godavari Nagar, Talmale Layout, Butibori, Bori, Nagpur 441108, MH",+91-9115565363,,"21.0584872,78.9159335"
Combat Fitness Club - Nagpur,Gym,Nagpur,"151, Sethiya Square, Indira Gandhi Colony, Jaripatka, Nagpur 440014, MH",+91-9028656361,,"21.1637667,79.0806781"
C One Fitness Gym - Nagpur,Gym,Nagpur,"1st floor, Center One Complex, Nildoh ct, Maharashtra",+91-9115569587,,"21.1185103,79.0158782"
Bluerock Fitness - Nagpur,Gym,Nagpur,"Plot No.183, Super Pride Building, Ring Rd, Near Jaripatka Police Station, Nagpur, Maharashtra 440014",082081 81564,,"21.1886208,79.0908926"
Black Box Fitness Studio - Nagpur,Gym,Nagpur,"Abhinay Sankul, Abhyankar Nagar Rd, above Food Maholla Rest, opposite Tanjoor Rest, Abhyankar Nagar, Nagpur, Maharashtra 440010",086688 06214,",info@blackboxfitnessstudio.in,blackboxfitnessstudio@gmail.com,","21.1272872,79.055633"
Barokar's Gym - Nagpur,Gym,Nagpur,"Saroju-Kiran, Plot no 15 Bandhu Gruha Nirman Housing Society Sambhaji Chowk, Outer Ring Rd, Nagpur, Maharashtra 440022",093737 13452,",bhavana.kunnawar@rediffmail.com,","21.1132727,79.0421203"
Avis Fitness Studio - Nagpur,Gym,Nagpur,"Ambedkar Square, JK Complex, 3rd & 4th Floor, Above Change Saloon, Wardhaman Nagar, Nagpur 440008, MH",+91-9370000888,",info@avis-fitnessstudio.com,","21.1272062,79.0575968"
Aspire The Fitness Hub - Nagpur,Gym,Nagpur,"Sharda squre, 19, near Ayodhya Nagar, opposite smriti hall, Old Subhedar Layout, Jawahar Nagar, Ayodhya nagar, Nagpur, Maharashtra 440024",091757 64732,",info@splfitnesshub.com,","21.1176632,79.1053932"
Armor Fitness - Nagpur,Gym,Nagpur,"Plot no 183, Ring Rd, Rukmini Nagar, New Subhedar Layout, Manewada, Nagpur, Maharashtra 440024",089834 98082,",strongfitness39@gmail.com,","21.1076757,79.1140972"
Arena Gym And Fitness - Nagpur,Gym,Nagpur,"Manewada Rd, Manewada Chowk, Ulhas Nagar, Manewada, Nagpur, Maharashtra 440027",097664 45077,,"21.10611,79.0994367"
Archannaa Fitnessz - Nagpur,Gym,Nagpur,"37, Near Deshmukh Nursing Home, Deendayal Colony, Gopal Nagar, Nagpur 440022, MH",+91-7947442272,,"21.124326,79.0174234"
ABS Fitness - Nagpur,Gym,Nagpur,"30, Teachers Colony, Jafar Nagar, Nagpur 440013, MH",+91-8050988416,",nileshdhote2007@rediffmail.com,","21.1383176,79.0485061"
4R Fitness Power House - Nagpur,Gym,Nagpur,"Plot no 9, Parmar Building, near chitnavispura bank, Ayodhya nagar, Nagpur, Maharashtra 440024",088886 44438,"fourrfitness@gmail.com,,u003efourrfitness@gmail.com,info@powerhousegym.com,","21.1175817,79.1084554"
Tejas Health & Wellness - Sahakar Nagar - Nagpur,Gym,Nagpur,"Tejas Palace, near, Jyoti School Rd, Gadge Baba Nagar, New Sahakar Nagar, Kharbi, Nagpur, Maharashtra 440024",098222 22124,,"21.1223583,79.1284313"
Infinity Fitness Unisex Gym - Nagpur,Gym,Nagpur,"53PR+HWQ, Nara Rd, above AXIS BANK, Kukreja Nagar, Nagpur, Maharashtra 440014",097666 98853,,"21.1864625,79.0897856"
Om Fitness Junction - Manish Nagar - Nagpur,Gym,Nagpur,"185, Perfect Plaza, Near Railway Crossing, Manish Nagar, Nagpur 440015, MH",+91-9371714112,,
Figure Femi - Jaitala Road - Nagpur,Gym,Nagpur,"123, Nelco Society, Jaitala Road, Subhash Nagar, Nagpur 440016, MH",+91-9850384812,",bhavana.kunnawar@rediffmail.com,",
Dance Madness Club - Dharampeth - Nagpur,Gym,Nagpur,"Laxmibhawan Square, Near Milton Shop, W H C Road, Dharampeth, Nagpur 440010, MH","+91-9371467366, +91-9325423208",,
Body Zone Gym - Jaripatka - Nagpur,Gym,Nagpur,"Jaripatka, Nagpur 440014, MH","+91-9960385115, +91)9767628756",,
Barbarian Power Gym - Sardar Bazar - Nagpur,Gym,Nagpur,"Kingsway, Sadar Bazar, Nagpur 440001, MH",+91-9823013209,",barbarian-power-gym-nagpur-0eg@dd5lu.html,",
Avis Fitness Studio - Gandhibagh - Nagpur,Gym,Nagpur,"Saptarushi Building, Near Kali Mata Mandir, Gandhi Bagh, Nagpur 440002, MH","+91-9260202490, +91-9665018489, +91-9370565597",",info@avis-fitnessstudio.com,",
Arjun Gym - Jaitala Road - Nagpur,Gym,Nagpur,"1, Perfect Housing Society, Near Mangal Murti Square, Jaitala Road, Nagpur 440016, MH",+91-9422811463,,
Anytime Fitness - Civil Line - Nagpur,Gym,Nagpur,"Near Vidan Bhavan, Civil Line, Nagpur 440001, MH","+91-712-2532999, +91-9764624259",",memberexperience@anytimefitness.in,",
