Name,Sector,City,Address,Phone,Email,Lat-Long
Nav Nirman Formwork Systems Pvt Ltd,Companies(Private),Nagar,"6, Road No 7, IDA Nacharam, Hyderabad 500076, TS",+91-40-27150119,",sales@navnirman.in,",
Rapid Care Transcriptions Pvt Ltd,Companies(Private),Nagar,"2, 21, 41, VLV Complex, Mount Road, Little Mount, Saidapet, Chennai 600015, TN",,",accounting@rapidcare.net,kross@rapidcare.ai,",
Hempel Paints India Pvt Ltd,Companies(Private),Nagar,"801, 8th Floor, Vikas Center, C Gidwani Road, Chembur, Mumbai 400074, MH","+91-8046028972, +91-22-61392555",",vijay.joshi@growel.com,x3eMAPA@hempel.com,MAPA@hempel.com,",
Jindal Worldwide Ltd,Companies(Private),Nagar,"Jindal House, Opposite D Mart, IOC Petrol Pump Lane, Shivranjani, Ahmedabad 380015, GJ",+91-79-71001500,",info@dynemic.com,jindal_mktg@vsnl.net,x3ecsjindal@jindaltextiles.com,funworldparks@gmail.com,csjindal@jindaltextiles.com,",
Zealotech,Companies(Private),Nagar,"301, Genesis Office, 3rd Floor, Panchasheel Nagar, Mumbai Naka, Nashik 422002, MH",+91-253- 4037442,"accounts@ramagroup.com,,hxxxxxxxxxxxa@zealotechpeople.com,",
Travancore Aerospace,Companies(Private),Nagar,"A-35-D, K Infra International Apparel Park, Block No 10, Menamkulam, Trivandrum 695586, TN","+91-9400332189, +91-9446387498, +91-471-2707979",",ptnandakumar@gmail.com,careers@travancoreaerospace.com,",
Swasti Health Resource Center,Companies(Private),Nagar,"25, Raghavendra Nilaya, AECS Layout, Ashwathnagar, Bengaluru 560094, KA",+91-80-23419616,"hello@swasti.org,,contactus@swasti.org,",
Sagar Defence Engineering,Companies(Private),Nagar,"Triveni Krupa, Opposite Amba Mata Mandir, Carter Road No 3, Borivali East, Mumbai 400066, MH",+91-9034966650,",janedoe@sagardefence.com,info@sagardefence.com,info@companydetails.in,manoj@theaccent.in,abhi_shilp@rediffmail.com,laxmikantcm@gmail.com,",
JC Bhalla and Company,Companies(Private),Nagar,"B-5, Sector 6, Noida 201301, UP",+91-120-4241000,",anilbhalla@jcbhalla.com,taxaid@jcbhalla.com,jane@jcbhalla.com,bhallaandcompany@gmail.com,taxaid@vsnl.com,",
Adani Defence,Companies(Private),Nagar,"Adani Corporate House, Shantigram, Near Vaishnodevi Circle, S G Highway, Ahmedabad 382421, GJ",+91-79-26565555,"x3eBhanuPratapSingh.Naruka2@adani.com,,bhanupratapsingh.naruka2@adani.com,escalations.acpl@adani.com,customercare.acpl@adani.com,jane.doe@adani.com,x3ejane.doe@adani.com,BhanuPratapSingh.Naruka2@adani.com,hardik.shah@adani.com,",
Mirum India,Companies(Private),Nagar,,,",info.in@mirumagency.com,",
OS Management Consulting Services,Companies(Private),Nagar,"B-1236 Ithum Tower-B, Noida, India",+91-7065044020,",qgs@qgspl.com,",
Neoinfinit,Companies(Private),Nagar,"B-602, Kailas Business Park, Park Site Rd, Mumbai, Maharashtra 400079",+91-9152715920,"x3einfo.in@transsion.com,,mail@neoinfinit.com,clifford.pinto@roquette.com,x3eclifford.pinto@roquette.com,mail@litrum.in,info.in@transsion.com,",
Cloudmatic Technologies,Companies(Private),Nagar,"810-A, Bhandarkar Road, Pune 411004, MH",+91-20-41223087,",vidya_prj@yahoo.com,",
Wab IT Softwares,Companies(Private),Nagar,"101/101-A, Kapil Vastu Building, 1st Floor, Above PDCC Bank & Pankaj Barat Gas, Chondhe Patil Nagar Road, Phase 1, Siddarth Nagar Society, Aundh, Pune 411007, MH",+91-7040010693,",fortune@stpg.soft.net,sachinhr05@gmail.com,",
Hexagon Manufacturing Intelligence,Companies(Private),Nagar,"Unit No 101 & 105, Sai Radhe Complex, 1st Floor, Kenneday Road, Sangamwadi, Pune 411001, MH",,",John.Smith@hexagon.com,customer_desk@hexagon.org.uk,jane.doe@hexagon.com,x3ejane.doe@hexagon.com,contact.in.mi@hexagon.com,last@hexagon.com,",
Sparken IT Solutions,Companies(Private),Nagar,"Subodh Heights, Shivprasad Co-operative Housing Society, Near Sarita Nagari Phase 1, Sinhgad Road, Ganesh Mala, Pune 411030., MH",+91-9168798822,"sales@sparken.in,,nitinvaidya1@gmail.com,hr@sparken.net,",
Priyatech Solutions,Companies(Private),Nagar,"005, Amit Court, Behind Mangla Theatre, Shivajinagar, Pune 411005, MH",+91-20-29515288,",info@priyatech.in,nsss@rocketmail.com,",
Viraj Infosoft Solutions,Companies(Private),Nagar,"DO-01/359-D, Vinayak Smruti, Backside Of Parvati Mata, Shaniwarpeth, Pune 411030, MH","+91-7219789783, +91-7219789784, +91-9372267349, +91-9372267348, +91-9372267347, +91-9372267346, +91-9960892705",",dsc@virajsoftsolutions.com,sales@virajsoftsolutions.com,vinitdharankar@gmail.com,atre.viraj@gmail.com,",
PAIS Softwares,Companies(Private),Nagar,"231/3-A/4/3-B/Z-1/401, Lunkad Gold Coast, Lohagaon, Viman Nagar, Pune 411014, MH",,",sghiya@modeln.com,juikanade@gmail.com,x3eaprakash@velankanigroup.com,x3esghiya@modeln.com,aprakash@velankanigroup.com,x22sghiya@modeln.com,",
ODP Software,Companies(Private),Nagar,"15/34/13-C/4, Silver Crystal, Ambegaon Budruk, Pune 411046, MH",,"ADMIN@CAYEOLEKAR.COM,,",
Foxberry Technologies,Companies(Private),Nagar,"82/1-A & 83/1-A, Gate No 1, 4th Floor, Sakal Nagar, Baner Road, Aundh, Pune 411007, MH",+91-20-24252598,",hrd@foxberry.in,",
Hexanika,Companies(Private),Nagar,"1187/10, Krupa, Shivaji Nagar, Pune 411005, MH",+91-6467336636,",dypandit@gmail.com,John.Smith@hexanika.com,marketing@hexanika.com,info@hexanika.com,",
Arcanheim Interactive,Companies(Private),Nagar,"480/2/304, RK One, Rastapeth, Camp, Pune 411011, MH",+91-9881441155,,
Arkin,Companies(Private),Nagar,,,",arkininformationservice@gmail.com,abishek.v3012@gmail.com,",
Trading Technologies,Companies(Private),Nagar,"The Pavillion Mall, 3rd Floor, Next To JW Marriott Hotel, Senapati Bapat Road, Shivajinagar, Pune 411016, MH",+91-20-66845100,",vishal.deshmukh@tmf-group.com,mike.ryan@tradingtechnologies.com,axx@tradingtechnologies.com,rrcods@gmail.com,",
IKarmic Software Solutions,Companies(Private),Nagar,"69/8-2-248/1/7/69, Nagarjuna Hills, Nagarjuna CIircle, Banjara Hills, Hyderabad 500082, TS",+91-7419579869,",cajyothibas@yahoo.co.in,",
IOTE Technologies,Companies(Private),Nagar,"B-1003, The Platina, B-Block, Gachibowli, Hyderbad 500032, TS",,",ankit@junio.in,axx@iotainformatics.com,taxes@saigun.com,akecorporate@gmail.com,x3ebtofficial@outlook.com,bipint@iotasoft.com,x3eankit@junio.in,btofficial@outlook.com,x3etaxes@saigun.com,x3erashi@zypp.app,rashi@zypp.app,accounts-in@iotetech.com,",
Niyantra Software Services,Companies(Private),Nagar,"7/16, Near Geeta Mandiram, Kapileaswarapuram, Pamidimukkala 521246, AP",,",ksrao52@yahoo.com,ramineni.associates@gmail.com,",
R3 Software Information Technology Solutions,Companies(Private),Nagar,"Vasista Bhavan, 1st Floor, Opposite Lane To DLF Cyber City, APHB Colony, Indira Nagar, Gachibowli, Hyderabad 500032, TS",+91-40-40272502,",roc.chennai@mca.gov.in,ramachander57@gmail.com,cssunilzore@gmail.com,",
AINRA Tech,Companies(Private),Nagar,"810 & 811, Manjeera Trinity Corporate Building, 8th Floor, KPHB Colony, Hyderabad 500072, TS",+91-7396282904,",accounts@transtechprojects.com,works.transfabpower@gmail.com,",
Inovyte Software Solutions,Companies(Private),Nagar,"13 & 14, 1st Floor, Vivekananda Nagar Colony, Kukatpally, Hyderabad 500072, TS",,",x3eramprasad@inubesolutions.com,sandeepcas15@gmail.com,info@insolutions.in,x3econtact@omsoftware.net,",
IT Solutions Asia,Companies(Private),Nagar,"Khanamet, Hitech City Main Road, Kothaguda, Hyderabad 500084, TS",+91-7419597794,"fipl-imaging@ts.fujitsu.com,,",
Infinitive Software Solutions,Companies(Private),Nagar,"RHA-2, Usha Arun Apartments, Road No 13, Banjara Hills, Hyderabad 500086, TS",+91-7702771177,",x3eramprasad@inubesolutions.com,x3emala@theforte.com,support@infinitisoftware.net,digitalmarketingrobo@gmail.com,caanilreddy@gmail.com,naveen.d.av95@gmail.com,",
ITBrothers Software Solution,Companies(Private),Nagar,"677, 1st Floor, 27th Main Road, 13th Cross, Sector 1, HSR Layout, Bengaluru 560102, KA",,"mail@yourcompanyname.net,,xx@company.com,",
Novaya Software,Companies(Private),Nagar,"63, S Square, 2nd Floor, Shilpi Valley, Gafoor Nagar, Madhapur, Hyderabad 500081, TS",+91-40-48586101,"Novayasoft@gmail.com,,novayasoft@gmail.com,khadarbeshaik@gmail.com,",
Tripod Software Solutions,Companies(Private),Nagar,"8-2-624/A-1, iKeva Business Centre, Level 1, MB Towers, Road No 10, Banjara Hills, Hyderabad 500034, TS",,",contact@sayeureqa.com,",
Beitian,Companies(Private),Nagar,"159-C, Vengalrao Ngar, SR Nagar, Hyderabad 500038, TS",,",info@in.vector.com,name@companyname.com,",
Azioes Technologies,Companies(Private),Nagar,"Kukatpally, Hyderabad 500072, TS",+91-9966040058,,
we do IT,Companies(Private),Nagar,"Manjeera Trinity Corporate, 18th Floor, KPHB Colony, Kukatpally, Hyderabad 500072, TS",,",munjal2805@gmail.com,",
Agarwal Build Care,Companies(Private),Nagar,"+91-7878029270, +91-9829176821",,",x3einfo@agarwalassociatesgroup.com,info@agarwalassociatesgroup.com,priti.agarwal@careratings.com,secretarial_1@omaxe.com,care@careratings.com,",
Locanam 3D Printing,Companies(Private),Nagar,"Manjusha Building, Nehru Place 110019 ,DL",+91-7217686823,",info@locanam.com,",
Bin There Dump That,Companies(Private),Nagar,,,"Neha@digiwhistle.com,,info@themountainear.com,",
Digi Web,Companies(Private),Nagar,"Hamawi Building, Baskinta, Maten, Lebanon","+961-70403012, +961-70062251","secretarial@rkswamy.com,,omender1994@hotmail.com,indiacorporatesecretarial@honeywell.com,chitranjansharma64@gmail.com,x3esecretarial@rkswamy.com,x3eindiacorporatesecretarial@honeywell.com,gst@digisquare.org,slajaipur.india@gmail.com,",
Rafayee Cloud leaders,Companies(Private),Nagar,"151, Near Bethesda Church Back, Arch Street, Kengeri, Satellite Town, Bengaluru 560060, KA",+91-8495055678,",business@rafayee.com,",
Mann Enterprise,Companies(Private),Nagar,"23, D, B, Near S.B.I. Industrial Estate Branch, Sardar Patel Complex, G.I.D.C. Estate, Ankleshwar 393002, GJ",+91-2646-225988,",asvasen@gmail.com,",
Mamta Products,Companies(Private),Nagar,"18, 4, Site-4, Industrial Area, Ghaziabad 201010, UP",+91-120-4167935,"mamtamachinetools@yahoo.co.in,,x3evindi@saachiprocessor.com,Skumar_gobind@rediffmail.com,x3esales@feedingbottles.com,info@companydetails.in,sales@feedingbottles.com,vindi@saachiprocessor.com,",
Leuenberger Lighting Components India Pvt Ltd,Companies(Private),Nagar,"491-A, 12, 13, 3 Road Pasta Lane, Colaba, Mumbai 400005, MH",+91-22-22883355,",essilor@essilorindia.com,shekharshah@xylon.co.in,",
Kheraj Electrical Industries Pvt Ltd,Companies(Private),Nagar,"78, Shreeji Bhuvan, Lohar Chawl, Mumbai 400002, MH",+91-22-22087786,",kherajoffice@gmail.com,info@kherajsiren.com,info@kheraj.com,",
KBC Systems,Companies(Private),Nagar,"83, 2, Near Vidyut Control Old, N.D.A. Road, Shivne, Havali, Pune 411023, MH",+91-20-65003950,",vijay.bane@kbcsystems.in,crazyinfo83@gmail.com,businessloanatchennai@gmail.com,kbc@tulassi.com,kbcpn01@hotmail.com,",
K M Cables & Conductors,Companies(Private),Nagar,"234, 3, Garudachar Complex, Chickpet, Bangalore 560053, KA",+91-80-22253445,,
GVS Electronics,Companies(Private),Nagar,"32, 1st Cross, Anjanadri Layout, Konanakunte, Bangalore 560062, KA",+91-80-26321399,",gvsestatespvtltd@gmail.com,cs@blissgvs.com,shrinivas.hari@zcltd.com,",
Gupta Power Infrastructure Ltd,Companies(Private),Nagar,"Cuttack Road, Bhubaneswar 751006, OD",+91-674-2313898,",rd.led@guptapower.com,info@guptapower.com,x3ecompliance@guptapower.com,guptas_ngp@sancharnet.in,kishalay_08@rediffmail.com,rhino@guptapower.com,compliance@guptapower.com,",
Garg Electronics Pvt Ltd,Companies(Private),Nagar,"195-196, Industrial Area, Udyog Vihar, Phase? 2, Panchkula, Haryana 134113, TS",+91-172-2591449,",ashish.k@dixoninfo.com,x3egarg.industries@rediffmail.com,care@gargrealty.com,garg.industries@rediffmail.com,x3eashish.k@dixoninfo.com,",
Gajanan Engineering Works,Companies(Private),Nagar,"5-D, 3, Godown No. 1, Kothari Compound, Opposite Tikujiniwadi Chitalsar Manpada Thane, Mumbai 400610, MH",+91-22-41023838,",Gajananengg1@gmail.com,shreegajananengineers@rediffmail.com,xxxx@gwradiators.com,roc@mustafaco.com,gajanan.e.w@gmail.com,",
Flora Electronics Pvt Ltd (Hariram Gobindram Group),Companies(Private),Nagar,"101, Owners Industrial Estate, Gabrial Road, L.J. Road, Mahim, Mumbai 400016, MH",+91-22-24448811,,
Flexible Automation Systems Pvt Ltd,Companies(Private),Nagar,"412, Prestige Centre Point, Cunningham Road, Bangalore 560052, KA",+91-80-22282484,",fasindia@in.cehgroup.com,IN_-_fasblraccts@in.cehgroup,fasblraccts@in.cehgroup.com,",
Enviro Technologies,Companies(Private),Nagar,"1, Arihant Plaza, Phase 2, Ghodbunder Road, Ovale Village 400607, MH",+91-22-64646500,"surajchoudhary08@gmail.com,,office@setwater.co.in,admin@jmenviro.com,Psquare.tech@yahoo.com,",
Entraco Power Systems Pvt Ltd,Companies(Private),Nagar,"36-A, 2, Nice Area, Midc Satpur, Nashik 422007, MH",+91-253-6698128,"rajesh.nasikkar@entracogroup.com,,info@entracobks.comWebsite,",
Elkay Telelinks Ltd,Companies(Private),Nagar,"141, Sector 24, Faridabad 121005, HR",+91-129-4182700,",pradeep.kumar@careratings.com,gp@suranamailindia.com,achin.nirwani@careratings.com,info@elkaygroup.net,spl@redifmail.com,suranagoa@surana.com,finance@elkay.in,ACCOUNTS@ELKAYGROUP.NET,kgarg@elkay.in,",
ELCINA Electronic Industries Association of India,Companies(Private),Nagar,"422, Elcina House, Okhla Industrial Estate, New Delhi 110020, DL",+91-11-26924597,"info@elcina.com,,info@smev.in,",
Eagle Electricals,Companies(Private),Nagar,"Krishna Complex, M.G.Road, Mangalore 575003, KA",+91-824-2493009,",suvaselectricals@gmail.com,tenders.eagle@gmail.com,sangramcsoff@hotmail.com,rksghy@yahoo.com,",
Drive Technologies,Companies(Private),Nagar,"203, Aqua House, Sinhagad Road, Parvati, Pune 411030, MH",+91-20-24329526,",marketing@endurance.co.in,",
Dewan Radios Pvt Ltd,Companies(Private),Nagar,"1681, 27, 28, Mangal Market, Bhagirath Palace, New Delhi 110006, DL",+91-11-23865190,",Sales@dewanradios.com,dewanradios@gmail.com,SALES@DEWANRADIOS.COM,",
Desai Electronics Pvt Ltd,Companies(Private),Nagar,"870, 5, Bhandarkar Institute Road, Pune 411004, MH",+91-20-25654553,",mktg@deccapacitors.net,u003eprashant@deccapacitors.net,jane-doe@deccapacitors.net,prashant@deccapacitors.net,xxxx@deccapacitors.net,",
Cubix Control Systems Pvt Ltd,Companies(Private),Nagar,"19-F, Sector-11, Noida 201301, UP",+91-120-4335714,",accounts@cubixcontrolsystems.com,u003eaccounts@cubixcontrolsystems.com,info@cubixcontrolsystems.com,xxxx@cubixcontrolsystems.com,rh@nextgenmspl.com,Accounts@cubixcontrolsystems.com,",
Complus Systems Pvt Ltd,Companies(Private),Nagar,"77, 9, 1, 3, Rajajinagar Industrial Town, Bangalore 560044, KA",+91-80-41683883,",jy-wang@noiseken.com,jane.d@complus.in,complus@complus.in,",
Circuitsutra Technologies Pvt Ltd,Companies(Private),Nagar,"3-E, 1, Amity Innovation Incubator, Amity Univ. Campus, Sector 125, Noida 201301, UP",+91-120-9811204168,",usisodia@circuitsutra.com,sales-jp@circuitsutra.com,info@circuitsutra.com,",
Chandresh Cables Ltd,Companies(Private),Nagar,"6-G, Madhavpura Market, Shahibaug Road, Ahmedabad 380004, GJ",+91-79-25623055,"x3eankit@avocab.com,,ankit@avocab.com,works@avocab.com,doe-jane@avocab.com,",
Bihar State Power Holding Company Ltd,Companies(Private),Nagar,"Vidyut Bhawan, Bailey Road, Patna 800001, BR",+91-612-2504036,",cs.bsphcl@gmail.com,dgrcell@bsptcl.bihar.gov.in,x3emd.sbpdcl@gmail.com,md.sbpdcl@gmail.com,x22cs.bsphcl@gmail.com,mdcell.sbpdcl@gmail.com,x3ecs.bsphcl@gmail.com,bsphclgmhr@gmail.com,",
Belden India Pvt Ltd,Companies(Private),Nagar,"1007, 10, A, Iris Tech Park, Sohna Road, Sector 48, Gurgaon 122001, HR",+91-124-4509999,"x3eteresa.wong@belden.com,teresa.wong@belden.com,,jsk@jskindia.in,",
Ayma Electronics,Companies(Private),Nagar,"9, 35, 2, Shalimar Village, Industrial Area, New Delhi 110088, DL",+91-11-27490080,",ashiush10@gmail.com,",
Audioplus,Companies(Private),Nagar,"A1, A2, Giriraj Industrial Estate, Opposite Ahura Centre Mahakali Caves Road, Andheri, Mumbai 400093, MH",+91-22-42869000,",info@audioplus-india.com,",
Amit Filaments,Companies(Private),Nagar,"Vinod Oil Mill Compound, Near Satana Nak Malegaon Nashik, Malegaon 423203, MH",+91-2554-255968,",pranavpathak@gmail.com,ispriyankaart@gmail.com,BKLAW1957@GMAIL.COM,info@amitfilaments.com,",
SSG InfoService,Companies(Private),Nagar,,,",roc.chennai@mca.gov.in,chaudharydaksh@gmail.com,",
Vira Apparels,Companies(Private),Nagar,"679, Phase 5, Udyog Vihar, Gurgaon 122016, HR","+91-124-4005677, +91-124-4005680",",vira@bom3.vsnl.net.in,ca.vkjain1@gmail.com,contact@creativegarments.com,",
Usha Fabs Pvt Ltd,Companies(Private),Nagar,"451/452, Phase 3, Udyog Vihar, Gurgaon 122016, HR","+91-124-2342737, +91-124-2349616",",ceo@vastra-fashions.com,tarun@ufpl.in,usha@shivanil.com,acc.head@ufpl.in,",
Topman Export Ltd,Companies(Private),Nagar,"82, 331-A, Badam Wadi, Kalbadevi Road, Kalbadevi, Mumbai 400002, MH",+91-22-28594462,",athenappl@gmail.com,trinityomtrading@hotmail.com,",
Symbiosis Trading,Companies(Private),Nagar,"499/40, Zakir Nagar, New Delhi 110020, DL",+91-11-26985872,",symbiosisaccts2004@gmail.com,jadronova@intorq.in,x3ejadronova@intorq.in,info@companydetails.in,clifford.pinto@roquette.com,mirantraders@gmail.com,symbiosis2001_agro@rediffmail.com,x3eclifford.pinto@roquette.com,anirudh@symbiosisassistance.com,",
Sunrydge Kila Resorts Pvt Ltd,Companies(Private),Nagar,"Seven Style Mile, Mehrauli, New Delhi 110030, DL",+91-11-23381638,",sunrydge@vsnl.com,u003eteam@sunrydge.com,team@sunrydge.com,info@companydetails.in,",
Sumatex Ltd,Companies(Private),Nagar,"H-81, RIICO Extension, Pur Road, Bhilwara 311001, RJ","+91-1482-260693, +91-1482-260296",",sascha.ergezinger@mgb.ch,surbhitmalu@gmail.com,",
Siddhi Plastic,Companies(Private),Nagar,"Milanbhav, Nandanvan Society, Opposite Panchratna Tower, Kalawad Road, Rajkot 360005, GJ",+91-281-2581718,",alok.rathi@racold.com,info@companydetails.in,bhargavasandeep@hotmail.com,Bhargavasandeep@Hotmail.Com,",
Shivam Synthetics,Companies(Private),Nagar,"Match Factory Compound, Moti Talav Road, Kumbharwada, Bhavnagar 364006, GJ",+91-278-2516196,",finance@merlinprojects.com,shrinivas.hari@zcltd.com,info@companydetails.in,",
Scorpio Apparel Pvt Ltd,Companies(Private),Nagar,"16/1, Mathura Road, Faridabad 121002, HR","+91-129-4190100, +91-129-4041609",",roc.chennai@mca.gov.in,sapl@scorpios-india.com,",
Saibaba Garments Pvt Ltd,Companies(Private),Nagar,"345, Pragati Industrial Estate, NM Joshi Marg, Delisle Road, Mumbai 400011, MH",+91-22-40689300,",hemant.gavande@gmail.com,ravin@toram.in,accounts@saibabagarments.net,roc@samadhan.net,saibaba_garments@vsnl.com,roc.chennai@mca.gov.in,madya@greenlightcorp.net,",
Grasim Bhiwani Textiles Ltd (Aditya Birla),Companies(Private),Nagar,"Bhiwani Textiles Mills, Bhiwani 127021, HR",+91-1664-242577,",career.textiles@adityabirla.com,x3eanindya.chakraborti@adityabirla.com,anindya.chakraborti@adityabirla.com,einward.ris@kfintech.com,x3egrasim.secretarial@adityabirla.com,grasim.secretarial@adityabirla.com,sandeep.gurumurthi@adityabirla.com,",
R K Overseas,Companies(Private),Nagar,"7, Evergreen industrial Estate, Opposite Shakti Mills Lane, Mahalakshmi, Mumbai 400011, MH","+91-22-24934136, +91-22-24933835",",thaiemb.india@gmail.com,rohitkhosla@rkinternational-india.com,c.vijayakanth@gmail.com,ca.nishantrastogi30@gmail.com,info@rkoverseas.org,info@rkinternational-india.com,",
PSB Corporation,Companies(Private),Nagar,"B-509, Galleria, Hiranandani Gardens, Powai, Mumbai 400076, MH","+91-22-40052163, +91-22-25702163",",psbbooksnagpur@indiatimes.com,praveenkumar04522@gmail.com,psbpapers@gmail.com,MAIL.PSBINFRATECHPVTLTD@GMAIL.COM,omni_support@psb.co.in,ho.accts@psb.co.in,",
Pragati Polymers,Companies(Private),Nagar,"351/E, Pollam Industrial Estate, Jeedimetla, Hyderabad 500 055, TS",+91-9347531306,",sajan.goyal@careratings.com,info@pragatipolymers.com,info@companydetails.in,pragatipolymers@gmail.com,Bhargavasandeep@Hotmail.Com,",
Oracle Home Textile Ltd,Companies(Private),Nagar,"216, Creative Industrial Centre, 12, NM, Joshi Marg, Lower Parel, Mumbai 400011, MH",+91-22-42127200,",hshahassociates@gmail.com,",
Nite n Day Fashion Co Pvt Ltd,Companies(Private),Nagar,"3-G-21, Treasure Island Market, Madge Lane, Kolkata 700016, WB",+91-33-22521247,",nitenday_nd@rediffmail.com,",
Nick Apparels,Companies(Private),Nagar,"2, Sundaram Layout, Opposite All India Radio, Trichy Road, Coimbatore 641045, TN",+91-9487219870,",shrinivas.hari@zcltd.com,",
Naseeb Fashions Clothing Pvt Ltd,Companies(Private),Nagar,"333/1, 2nd Floor, Paper Mills Road, Perambur, Chennai 600011, TN","+91-44-25593496, +91-44-25582884","ravishankar@yandr.in,,info@nfcuniversal.co.in,",
Matex India Pvt Ltd,Companies(Private),Nagar,"207-208, 2nd Floor, Chopra Complex, 8 Community Centre, Preet Vihar, Vikas Marg, New Delhi 110092, DL",+91-11-22524449,",pathuri@hotmail.com,matex@indiamatex.com,",
M P Shan Tex Pvt Ltd,Companies(Private),Nagar,"SJ-145/1A/A, Parappalayam Road, Mannarai Post, Tirupur 641607, TN","+91-421-2222492, +91-421-2222162",",mpshan@satyam.net.in,",
M K Exim India Ltd,Companies(Private),Nagar,"G-1/150, Garment Zone, EPIP Sitapura, Tonk Road, Jaipur 302022, RJ","+91-141-3937501, +91-9829459359",",info@mkexim.com,beetal@beetalfinancial.com,beetalrta@gmail.com,mkexim@mkexim.com,",
Knitex Textiles Pvt Ltd,Companies(Private),Nagar,"2nd Floor, Atlanta Arcade, Opposite Hotel Leela Church Road, Andheri East, Mumbai 400059, MH",+91-22-66942701,",vhktex@yahoo.co.in,shahexin1@gmail.com,civicg@sify.com,office@knitextextiles.com,sarvan@knitco.com,office@knitextextiles.in,x3evhktex@yahoo.co.in,knitco@dataone.in,factory@knitextextiles.in,",
Ketan Plastic Industries Pvt Ltd,Companies(Private),Nagar,"D-2, Mathuradas Mill Compound, Lower Parel, Mumbai 400012, MH",+91-22-24929204,",kironelek@gmail.com,sales@ketanindia.com,kpil@vsnl.com,dhanesh@ketanindia.com,kondal1290@yahoo.com,",
Harisons & Harlaj Ltd,Companies(Private),Nagar,"Opposite Maharaja Hotel, GT Road, Panipat 132103, HR",+91-180-4091700,,
Hand Tex India,Companies(Private),Nagar,"7-A, Bharathi Nagar, Karur 639002, TN",+91-4324-237745,",x3eaccounts@geospafitness.com,x22prabal@canopi.in,ipo@pantomathgroup.com,accounts@geospafitness.com,info@welkinapex.com,onindia@gmail.com,x3eprabal@canopi.in,DLEVRYINDIA@tietoevry.com,prabal@canopi.in,nagendra@artpalaceexpo.com,x3efinance@hush.in,x3eDLEVRYINDIA@tietoevry.com,finance@hush.in,",
Gupta Exim India Pvt Ltd,Companies(Private),Nagar,"144, DLF Industrial Area Phase 1, Faridabad 121003, HR",+91-129-4090400,",info@guptaexim.com,jane_d@guptaexim.com,sandeep@guptaexim.com,accounts@guptaexim.com,x3eaccounts@guptaexim.com,JohnSmith@guptaexim.com,",
Fashionable Garments Pvt Ltd,Companies(Private),Nagar,"1001, Chiranjeev Tower, Nehru Place, New Delhi 110019, DL",+91-11-26447371,",x3emanojp@creativegarments.com,GARG_FASHION@YAHOO.CO,raj.nautiyal@gmail.com,hrm@rbrindia.com,a5@somanifabrics.com,info@reliablespaces.com,secretarial06@gmail.com,x22manojp@creativegarments.com,x3einfo@reliablespaces.com,manojp@creativegarments.com,",
Fashion Knits,Companies(Private),Nagar,"81/82, Angeripalayam Main Road, Gandhi Nagar, Tirupur 641603, TN",+91-421-2470005,"raj@golffashion.in,,psktup@yahoo.co.in,x3epragati@vsnl.in,pragati@vsnl.in,media@shahi.co.in,knits@cbcfashions.com,mail@kmknitwear.com,x3eknitting@ambikaknits.com,knitting@ambikaknits.com,info@eifpl.com,",
Fashion Gate,Companies(Private),Nagar,"42, PV Nagar, Mannarai, Tirupur 641607, TN",+91-421-2224260,",roc.chennai@mca.gov.in,",
Dolphin Exports International,Companies(Private),Nagar,"E-199, Near Metro Station, Shastri Nagar, New Delhi 110052, DL","+91-11-23644555, +91-11-23649555",",info@dolphinexportsindia.com,di@dolphingranite.com,info@dolphinexports.com,",
Devanshi Exports Pvt Ltd,Companies(Private),Nagar,"F-212, Bawana Industrial Area, Sector 5, New Delhi 110015, DL","+91-11-42261150, +91-8376807895",",x3edulari@dulariexports.com,sgeplacc@gmail.com,dulari@dulariexports.com,x3eSreeji@sreeragamexports.com,Sreeji@sreeragamexports.com,info@devanshiexports.com,u003eINFO@DEVANSHIEXPORTS.COM,INFO@DEVANSHIEXPORTS.COM,divesh_decorative@rediffmail.com,accounts@indian-designs.com,x3eaccounts@indian-designs.com,x3esgeplacc@gmail.com,x22Sreeji@sreeragamexports.com,",
Deegee Cotsyn Pvt Ltd,Companies(Private),Nagar,"Badnera-Yavatmal Road, Dabha, Amravati 444701, MH","+91-721-2580424, +91-721-2580425",",u003esimar@manjeetgroup.com,simar@manjeetgroup.com,",
D.V.R Exports Pvt Ltd,Companies(Private),Nagar,"8-2-293/F/29, Road 5, Jubilee Hills, Hyderabad 500034, TS",+91-40-23544651,",x3edulari@dulariexports.com,dulari@dulariexports.com,x3eSreeji@sreeragamexports.com,Sreeji@sreeragamexports.com,sarada.vuppala@gmail.com,accounts@indian-designs.com,x3eaccounts@indian-designs.com,x22Sreeji@sreeragamexports.com,",
Craft Knit Garments,Companies(Private),Nagar,"4/684, Palladam Road, Veerapandi, Tirupur 641605, TN","+91-9790038123, +91-9790040123",",nagaraj@quantumknits.com,craftknit@dataone.in,sreethar@sbms.net,export@craftknit.com,mail@cotfabindia.com,",
Covema Filaments Ltd,Companies(Private),Nagar,"14-B, Cochin Special Economic Zone, Kakkanad, Kochi 682030, KL",+91-484-2413122,",covemafilaments@gmail.com,covema@giasmd01.vsnl.net.in,",
Cactus Clothing Pvt Ltd,Companies(Private),Nagar,"2815, 5th B Cross, 18th Main HAL, 2nd Stage, Bangalore 560008, KA",+91-80-42829201,"accounts@cactusclothing.co.in,gvcompany2003@yahoo.co.in,,",
BR Enterprises,Companies(Private),Nagar,"24-A, Near Malik Petrol Pump, Dada Nagar, Kanpur 208022, UP",+91-9415051140,"x3ehardik@shrotra.com,,x3eakhil.gupta@kanta-group.com,brbf@rediffmail.com,brentpvt@gmail.com,hardik@shrotra.com,mishradinesh.pat@gmail.com,akhil.gupta@kanta-group.com,guntur@integratedindia.in,",
Bhadani Export Inc,Companies(Private),Nagar,"148, Srirampore Road, Garia, Kolkata 700084, WB",+91-33-24306468,",villagerugs.company@gmail.com,pralay122@rediffmail.com,ibrahim68662@gmail.com,nbhadani@gmail.com,",
Bee Vee Impex,Companies(Private),Nagar,"448, Sivakami Main Road, Gandhi Nagar, Tirupur 641604, TN","+91-421-2476412, +91-421-2486780",,
Anil Labels Pvt Ltd,Companies(Private),Nagar,"305, Amit Industrial Estate, Near Gandhi Hospital, DR SS Rao Road, Parel, Mumbai 400012, MH",+91-22-24111862,",roc.chennai@mca.gov.in,kapil@anillabels.com,arbutus99@gmail.com,",
Alagendira Exports,Companies(Private),Nagar,"551, Periyakadu, Thottam, Tirupur 641603, TN",+91-421-9944941,"saranya@alagendira.com,,dhawan@globalexport.net.in,accounts@alagendira.com,alagendira@vsnl.com,exports@jgindia.in,",
Sydney Apparels,Companies(Private),Nagar,"SF-572/A, Kuttai Thottam, Sirupooluvapatti, Tirupur 641601, TN",+91-421-2201168,",nyle@eth.net,tritonapparel@gmail.com,tritonapparels@gmail.com,durai@nylegarments.com,roc.chennai@mca.gov.in,",
Tufropes Pvt Ltd,Companies(Private),Nagar,"25-26, 2nd Floor, Makers Chambers, Nariman Point, Mumbai 400021, MH",+91-22-40502600,",sales.inquiries@tufropes.com,x3esecretarial@tufropes.com,secretarial@tufropes.com,",
The All India Handloom Fabrics Marketing Co-Operative Society Ltd,Companies(Private),Nagar,"5-5-395, Machani Somappa Bhavan, MJ Road, Nampally, Hyderabad 500001, TS",+91-40-24732019,,
Thaker Engineering Co. Pvt Ltd,Companies(Private),Nagar,"F-7, Khira Industrial Estate, BM Bhargava Road, Santacruz West, Mumbai 400054, MH","+91-22-26616773, +91-9833409084",",thakerengg@sify.com,thakerengg@gmail.com,",
Wilhelm Textiles India Pvt Ltd,Companies(Private),Nagar,"38th Stone, Behrampur Road, Khandsa, Gurgaon 122001, HR","+91-124-4770400, +91-124-4031684",",info@wilhelmindia.co.in,info@wilhelm-textil.de,ag@wilhelmindia.co.in,u003eag@wilhelmindia.co.in,illig@wilhelm-textil.de,",
Visagar Polytex Ltd,Companies(Private),Nagar,"907-908, 9th Floor, Dev Plaza, Opposite Andheri Fire Station, SV Road, Andheri West, Mumbai 400058, MH",+91-22-67424815,"secretarial@visagar.com,,business@visagar.com,contact@visagar.com,",
Vimal Handloom Emporium Pvt Ltd,Companies(Private),Nagar,"878/7, SD College Road, Old Housing Board Colony, Panipat 132103, HR",+91-180-4007866,"mohit@vimalhandloom.com,,vimalhandloom@hotmail.com,mohitmehta7@gmail.com,",
Arihant Mattresses Pvt Ltd,Companies(Private),Nagar,"156, Godown No F, Krishna Press Compound, Zakariya Bunder Road, Sewree, Mumbai 400015, MH",+91-22-24121330,",project@arihantmattress.com,acpl.desk1@gmail.com,",
Supertech Textile Instruments Pvt Ltd,Companies(Private),Nagar,"S-60, 2nd Floor, Vijay Vihar, Uttam Nagar, New Delhi 110059, DL","+91-11-28563091, +91-9910164707","sales@supertechindia.com,,info@supertechfabrics.com,s_shah@re-india.co.in,info@supertech.in,u003esales@supertechindia.com,x3es_shah@re-india.co.in,ca_pawanchadha@hotmail.com,",
Apple Needles,Companies(Private),Nagar,"1-E/12, 4th Floor, Jhandewalan Extension, New Delhi 110055, DL",+91-11-41540471,",kavitabansalipr@gmail.com,",
Shree Ram Textiles,Companies(Private),Nagar,"23, Shri Ram Cloth Market, Opposite Manilal Mansion, Relief Road, Revdi Bazaar, Ahmedabad 380002, GJ",+91-79-22145771,",x3eajayca0716@gmail.com,atul1966@gmail.com,x3ekamlesh@mahacot.in,ajayca0716@gmail.com,kamlesh@mahacot.in,bcagrawal.srt@gmail.com,",
Shekhawati Poly-Yarn Ltd,Companies(Private),Nagar,"1102/1103, A Wing, Express Zone, Patel Vatika, Malad East, Mumbai 400097, MH","+91-22-61162500, +91-22-32567126",",compliance@shekhawatiyarn.com,info@shekhawatiyarn.com,",
Sharman Woollen Mills Ltd,Companies(Private),Nagar,"5, Jugiana, GT Road, Ludhiana 141120, PB","+91-161-2511108, +91-161-2511109",",shaman@jla.vsnl.net.in,info@sharmanyarn.com,",
Samosaran Yarns Pvt Ltd,Companies(Private),Nagar,"41/42, 2nd Floor, Liberty Building, New Marine Lines, Mumbai 400020, MH",+91-22-22002112,",accounts@samosaran.com,info@samosaran.com,",
Rajshree Industries,Companies(Private),Nagar,"9, 6th Floor, Old China Bazar Street, BBD Bagh, Kolkata 700001, WB",+91-33-22427689,",x22corp@tormac.in,marketing@rajshreepolypack.com,corp@tormac.in,info@rajshreepolypack.com,x3eindore.repl@gmail.com,manisha.parab@borouge.com,DLEVRYINDIA@tietoevry.com,x3ecorp@tormac.in,x3eDLEVRYINDIA@tietoevry.com,x3emanisha.parab@borouge.com,indore.repl@gmail.com,kadakmatches@gmail.com,",
Premier Mills Pvt Ltd,Companies(Private),Nagar,"244, ATD Street, Race Course, Coimbatore 641018, TN","+91-422-3050100, +91-422-2221223",",fabric@premill.in,x3esecretarial@premiermills.com,mail@premill.in,secretarial@premiermills.com,paragudani@gmail.com,",
Only For U designs Pvt Ltd,Companies(Private),Nagar,"103/113, Sun Mill Compound, Amir Industrial Estate, Lower Parel West, Mumbai 400013, MH","+91-22-61405400, +91-9820343249",",sandeep@ofudesigns.com,Vaishali.paradkar@ucb.com,ajay@atiradesign.com,x3eVaishali.paradkar@ucb.com,x3eajay@atiradesign.com,",
Omex Mechanical Works,Companies(Private),Nagar,"Street No 6, Main Road, Kirpal Nagar, Ludhiana 141007, PB",+91-161-6535082,,
Nomadic Pvt Ltd,Companies(Private),Nagar,"Plot No 5 & 6, 14/75, 2nd Floor, Opposite United Public School, VIP Road, Civil Lines, Kanpur 208001, UP",+91-512-3051748,",caashishsomgupta@gmail.com,nomadichomes2022@gmail.com,info@fandvpoint.com,",
Lovable Lingerie Ltd,Companies(Private),Nagar,"A-46, Street 2, MIDC, Andheri East, Mumbai 400093, MH",+91-22-28383581,"corporate@lovableindia.in,,arunava.paul@careratings.com,jane@lovableindia.in,",
Kochar Woolen Mills Pvt Ltd (Kochar),Companies(Private),Nagar,"Golden Temple, Katra, Ahluwalia, Amritsar 143006, PB","+91-183-2483248, +91-183-2552238",",u003ewool@kochar.com,wool@kochar.com,",
Kanodia Fabrics (International),Companies(Private),Nagar,"47, 2nd Floor, Dadiseth Agiary Lane, Kalbadevi Road, Mumbai 400002, MH","+91-22-22012846, +91-22-22087198",",exim@kgfabrics.com,kanodiahosiery@gmail.com,sales@kanodiadecor.com,sanjaynandani_co@rediffmail.com,kanodiafabricspvtltd@gmail.com,",
K Suraj Exports Inc,Companies(Private),Nagar,"H-1, 102-B, 3rd Floor, RIICO Industrial Area, Mansarover, Jaipur 302020, RJ","+91-141-2395101, +91-141-2395431",",suraj@ksurajexports.com,mnk1970@gmail.com,il@gmail.com,",
Alpine Overseas,Companies(Private),Nagar,"2nd Lane, Shivpuri West, Moradabad 244001, UP",+91-591-2491692,"alpinecapital93@gmail.com,,hiral@alpine.net.in,a_brajeshk@rediffmail.com,cshardikshah@gmail.com,contact@alpinehousing.com,achin.nirwani@careratings.com,",
Aloktex,Companies(Private),Nagar,"602, DD Inifinity, JP Road, Goregaon East, Mumbai 400063, MH",+91-22-40055004,",x3einvestor.relations@alokind.com,investor.relations@alokind.com,info@aloktex.com,aloktex@gmail.com,",
Jayakumaran Exports,Companies(Private),Nagar,"4/440C, Palladam Road, Bharathi Nagar, Veerapandi, Tirupur 641605, TN","+91-421-2214090, +91-421-2214091",,
GTN Textiles Ltd,Companies(Private),Nagar,"3rd Floor, Palal Towers, Ravipuram, MG Road, Kochi 682016, KL",+91-484-3928300,"ho@gtntextiles.com,,ravisam@adwaithlakshmi.in,cs@gtntextiles.com,",
Global Linen Company,Companies(Private),Nagar,"G-79, Rushabh Textile Tower, Opposite Abhishek Textile Market, Ring Road, Surat 395002, GJ","+91-261-2350716, +91-9825710389",",info@omplie.com,diftrointernational@gmail.com,nitin@linencraft.in,arvind.goel@goip.in,",
Flying Fashions,Companies(Private),Nagar,"Plot No 29, W-21/5, Western Avenue, New Delhi 110062, DL",+91-9811119366,"riddhitexco@gmail.com,,selvarajnadar1967@gmail.com,",
Fabcare Garments & Textile Machinery Pvt Ltd,Companies(Private),Nagar,"90/5, 90/6, Road 7, Industrial Area, Mundka, New Delhi 110041, DL","+91-11-64646634, +91-11-66242891",,
Exolloys Engineering Pvt Ltd,Companies(Private),Nagar,"J-42, S Block, MIDC, Bhosari, Pune 411026, MH",+91-20-27119087,"accounts@exolloys.com,,x3eaccounts@exolloys.com,sban_bhosale1234@rediffmail.com,",
Euro Leder Fashion Ltd,Companies(Private),Nagar,"99, GST Road, Pallavaram, Chennai 600043, TN",+91-44-42943204,",m_nagendra@euroleder.com,keshav_singh@welspun.com,u003em_nagendra@euroleder.com,investor@cameoindia.com,amd@arvind.in,lax@euroleder.com,roc.chennai@mca.gov.in,",
Eco Polychem Pvt Ltd,Companies(Private),Nagar,"354, GVMM Estate, Odhav, Ahmedabad 382415, GJ","+91-79-22901904, +91-9879636265",",INFO@SDCCONSULTINGS.COM,hemant.gavande@gmail.com,rakesh.shejwal@aartigroup.cominfo,Envocomp@Gmail.Com,hemal@amritpolychem.com,polychemltd@kilachand.com,madya@greenlightcorp.net,ecopoly@yahoo.co.in,",
Dhall Enterprises and Engineers Pvt Ltd,Companies(Private),Nagar,"Saijpur Bogha, Naroda Road, Ahmedabad 382345, GJ",+91-79-22820383,",roc.chennai@mca.gov.in,dhall@dhallgroup.com,",
Deepak Fibers Ltd,Companies(Private),Nagar,"E-536-37, Phase 6, Focal Point, Ludhiana 141001, PB",+91-161-3911111,",mrigendra@sify.com,internalaudit@deepakfasteners.com,deepakfibres1997@gmail.com,",
Creative Garments Ltd (Creative Group),Companies(Private),Nagar,"401, Sun Mill Compound, Sun Industrial Estate, Lower Parel West, Mumbai 400013, MH","+91-22-40383195, +91-22-24920307",",x3emanojp@creativegarments.com,corporate@creativegroup.in,x22manojp@creativegarments.com,cgpl.india@gmail.com,manojp@creativegarments.com,",
Consolidated Carpet Industries Ltd,Companies(Private),Nagar,"4/A, 1st Floor, Aurobindo Marg, Adhchini, New Delhi 110017, DL",+91-11-40697000,",u003epanwar@ccil.in,panwar@ccil.in,",
BST Textile Mills Pvt Ltd,Companies(Private),Nagar,"309, 3rd Floor, Woodrow Building, Opposite Veera Desai Police Station, Veera Desai Road, Andheri West, Mumbai 400053, MH",+91-22-42063999,"surendra.gupta@bsttextile.com,,bstyarn@ttml.co.in,sales@bstgroup.in,bstyarn@yahoo.com,ashish.doshi@bsttextile.com,nikhiltyagi@bsttextile.com,",
Bothra International,Companies(Private),Nagar,"E-230, MIA Basni, 2nd Phase, 6th Road, Jodhpur 342005, RJ",+91-291-2742845,",headoffice@bothragroup.com,pradeep.kumar@careratings.com,info@bothrainternational.com,bothrainternational@gmail.com,rdkglobalfinancepvtltd@gmail.com,",
Aditya Birla Nuvo Ltd (Aditya Birla),Companies(Private),Nagar,"Aditya Birla Centre, SK Ahire Marg, Worli, Mumbai 400030, MH","+91-22-66525000, +91-22-24995000",",x3egrievance.housingfinance@adityabirlacapital.com,abhishek.m.m.mohla@adityabirla.com,abnlsecretarial@adityabirla.com,x3ejane.d@adityabirla.com,jane.d@adityabirla.com,doe@adityabirla.com,jane.doe@adityabirla.com,grievance.housingfinance@adityabirlacapital.com,x3eabnlsecretarial@adityabirla.com,x3ejane.doe@adityabirla.com,x3edoe@adityabirla.com,",
Best Corporation Pvt Ltd,Companies(Private),Nagar,"89/2, Best Industrial Estate, Avinashi Road, Padmavathipuram, Tirupur 641603, TN","+91-421-3980000, +91-421-2477477",",acs@bestcorp.in,jd@bestcorp.in,x22acs@bestcorp.in,roc.chennai@mca.gov.in,x3eacs@bestcorp.in,",
Asia Pack Ltd,Companies(Private),Nagar,"3th Floor, Mirag House, Punchwati, Udaipur 313001, RJ","+91-294-2528435, +91-294-2528437",",moongipas@gmail.com,lakshit.samar@mirajgroup.in,roc.chennai@mca.gov.in,cs@mirajgroup.in,",
Asadeep Handloom Fabrics,Companies(Private),Nagar,"BA-19, Mangolpuri Industrial Area Phase 2, New Delhi 110034, DL","+91-11-64541192, +91-11-64701192",,
WoodWare Furnitures Pvt Ltd,Companies(Private),Nagar,"Devidayal Compound, Next To Britannia, Reay Road Station, Mumbai 400010, MH","+91-22-23714287, +91-22-23748273",",info@woodwareindia.com,salim@woodware.in,customercare@woodware.in,",
Usha Shriram Enterprises Pvt Ltd,Companies(Private),Nagar,"DDA Commercial Complex, Block A, Naraina Ring Road, New Delhi 110028, DL",+91-11-45770990,",last@usha.in,j-d@usha.in,",
Uniply Industries Ltd,Companies(Private),Nagar,"5, Branson Garden Street, Kilpauk, Chennai 600010, TN",+91-44-26605995,",jane@uniply.in,cs@uniply.in,janed@uniply.in,",
Samrat Plywood Ltd,Companies(Private),Nagar,"182/11, Industrial Area, Chandigarh 160002, CH",+91-172-4690746,",info@samratply.in,plysamrat@gmail.com,",
Sakshi Enterprises,Companies(Private),Nagar,"276, Shopping Centre, Kota 324007, RJ",+91-9828366377,",sakshienterprises99@gmail.com,info@sakshienterprises.com,sakshient2000@gmail.com,",
Raghavendra Wood Industries,Companies(Private),Nagar,"A-28/1/9-A, Road No 15, I. D. A, Nacharam, Hyderabad 500076, TS","+91-40-27173521, +91-9396332300",",roc.chennai@mca.gov.in,",
"Pyramid Seating Systems, India",Companies(Private),Nagar,"3, Hundekari Arcade, New Modikhana Camp, Pune 411001, MH","+91-20-32329032, +91-9370553255",,
Pravi Plastics Pvt Ltd,Companies(Private),Nagar,"82, S. R Compound, Lasudiya Mori, Dewas Naka, Indore 452001, MP",+91-731-4247322,",maheshwarirajul@gmail.com,info@companydetails.in,",
Perfect Industrial Products,Companies(Private),Nagar,"1, Green Fountain Society, Maninagar East, Ahmedabad 380008, GJ",+91-79-32950990,",perfectdoors@gmail.com,info@companydetails.in,",
Murphy Steel Industries,Companies(Private),Nagar,"IX/1096, Multani Mohalla Road, Gandhi Nagar, New Delhi 110031, DL","+91-11-22082486, +91-11-55877071",",ZFayaz@STC.in,",
Madras Glass & Plywood Depot,Companies(Private),Nagar,"415, 228/1, Sydenhams Road, Apparao Garden, Choolai, Chennai 600003, TN",+91-44-26692089,,
Gold Plex Aluminum Systems India Pvt Ltd,Companies(Private),Nagar,"Behrampur Road, Khandsa, 38 Mile Stone, Delhi Jaipur Highway, Gurgaon 122001, HR","+91-124-4266443, +91-8447578191",",goldplexsystems@gmail.com,",
GMP Solutions Pvt Ltd,Companies(Private),Nagar,"1-12-87, Golnaka, Alwal, Secunderabad 500010, TS","+91-40-27972705, +91-40-27972706",",mohan@gmpinfosystems.com,jaideep.singh@gmptech.net,info@companydetails.in,first@gmptech.net,enquiry@gmptech.net,mkt@gmptech.net,x3eenquiry@gmptech.net,udey@gmptech.net,",
Composite Boards Pvt Ltd,Companies(Private),Nagar,"169, Sydenhams Road, Chennai 600003, TN","+91-44-25361602, +91-44-25384318",",info@compositeboards.com,lifinsfinancial@gmail.com,x3eaccounts@everestfibre.com,sunil@prishafinance.com,accounts@everestfibre.com,x22accounts@everestfibre.com,x3esunil@prishafinance.com,drronchemicalind123@gmail.com,",
AICA Laminates India Pvt Ltd,Companies(Private),Nagar,"13, Jet Air House, 4th Floor, Community Centre, Yusuf Sarai, New Delhi 110049, DL","+91-11-26562431, +91-11-26562430",",jane-doe@aicasunmica.com,bangalore.sales@aicaindia.in,",
SMC Power Generation Ltd,Companies(Private),Nagar,"13-E, 29, 2, New Delhi 110001, DL",+91-11-41517501,",CS@SMCPOWER.CO.IN,minesketch2005@gmail.com,first@smcpower.co.in,cs@smcpower.co,cs@smcpower.co.in,",
Shyam Indus Power Solutions Pvt Ltd,Companies(Private),Nagar,"129, Transport Centre, Rohtak Road, Punjabi Bagh, New Delhi 110035, DL",+91-11-45764400,",corporatecompliance@sindhutrade.com,info@shyamindus.com,last@shyamindus.com,x3einfo@shyamindus.com,",
Sanmarg Projects Pvt Ltd,Companies(Private),Nagar,"5, 16, ATS Tower, Sector ?135, Noida 201305, UP",+91-120-9711638520,",u003egaurav.mahajan@sanmargprojects.com,gaurav.mahajan@sanmargprojects.com,info@companydetails.in,",
RPG Enterprises,Companies(Private),Nagar,"463, Dr. Annie Besant Road, Worlitions Department, RPG House 400025, MH",+91-22-24930621,",info@rpglifesciences.com,rpgventures1910@gmail.com,eksambekars@kecrpg.com,",
RattanIndia Power Ltd,Companies(Private),Nagar,"5, B, Worldmark 1, Aerocity, New Delhi 110037, DL",+91-11-66612666,",rel@rattanindia.com,ir@rattanindia.com,",
R G Electronics,Companies(Private),Nagar,"59-A, Keshopur Industrial Area, New Delhi 110018, DL",+91-11-64681706,",vishal@zybra.in,deveshshahin@yahoo.co.in,contact@zybra.in,email@dgsm.co.in,roc.chennai@mca.gov.in,sunraysenergies@gmail.com,",
Punam Energy Pvt Ltd,Companies(Private),Nagar,"1-A, D.L. Khan Road, Jaju Bhawan, Kolkata 700027, WB",+91-33-22237454,",sandeep.salvi@konecranes.com,x3esupport@registrationmart.in,dynamicpowerbattary@yahoo.com,solar@onergy.in,accounts@soleos.in,x3eaccounts@soleos.in,sanjay.nagar@live.com,syncsunenergy@gmail.com,support@registrationmart.in,",
Power Engineering and Automation Pvt Ltd,Companies(Private),Nagar,"333, 19, 5, BEML Layout, Basveswaranagar, Bangalore 560079, KA",+91-80-23485996,",pnayak@pena.co.in,girija@uvka.net,info@pena.co.in,automation@maxgroup.co.in,",
Photon Energy Systems Ltd,Companies(Private),Nagar,"26, 8, 2, 603, 1, 26, No-10, Silicon Banjara Building Road, Krishnapuram, Banjara Hills, Hyderabad 500034, TS",+91-40-23331336,"finance@photonsolar.in,,sgco_2008@yahoo.co.in,u003efinance@photonsolar.in,",
Paradigm Engineers & Consultants Pvt Ltd,Companies(Private),Nagar,"3-A, Adityapur Industrial Area, Phase 1, Adityapur, Jamshedpur 832109, JH",+91-657-2371003,,
Madhya Gujarat Vij Company Ltd,Companies(Private),Nagar,"Sardar Patel, Vidyut Bhavan, Race Cource, Vadodara 390007, GJ",+91-265-2310584,",x3esupport.mgvcl@gebmail.com,x22ccc@ugvcl.com,nmgvcl@gebmail.com,support.mgvcl@gebmail.com,ccc@ugvcl.com,x3eccc@ugvcl.com,naresh.golani@careratings.com,",
LAXYO Energy Pvt Ltd,Companies(Private),Nagar,"46, 1, Laxyo Tower, T.I.T. Road, Ratlam 457001, MP",+91-7412-232432,,
Isotex Corporation Pvt Ltd,Companies(Private),Nagar,"181, 2, 3, G.I.D.C Industrial Estate, Naroda, Ahmedabad 382330, GJ",+91-79-22804321,",sales@isotexcorp.com,accounts@isotexcorp.com,jane@isotexcorp.com,purchase@isotexcorp.com,",
India Power Corporation Ltd,Companies(Private),Nagar,"1-X, 2, 3, EP, Sector 5, Salt Lake City, Kolkata 700091, WB",+91-33-66094300,,
HHV Solar Technologies Pvt Ltd,Companies(Private),Nagar,"31, 32, 33, 34, 37, Nos, KIADB Industrial Area Phase 1, Dabaspet, Nelamangala, Bangalore 562111, KA",+91-80-22633700,",info@hhv.in,jane@hhvsolar.com,info@hhvsolar.com,",
Godawari Power & Ispat Ltd,Companies(Private),Nagar,"428, 2, Industrial Area, Phase-1, Siltara, Raipur, Chattisgarh 493111, CG",+91-771-4082000,,
Global Wind Power Ltd,Companies(Private),Nagar,"Kala Gorniya, Andheri 400013, MH",+91-22-9320840209,",info@gwpl.co.in,",
Eden Energy India Pvt Ltd,Companies(Private),Nagar,"2, Kushan Aparments, Friends Colony, Ambawadi, Ahmedabad 380015, GJ",+91-79-26420121,",x3evijay.kulkarni@clarke-energy.com,mdixit@edenenergyindia.com,pe@o2power.in,vijay.kulkarni@clarke-energy.com,ka.vishwanath@o2power.in,last@eden-re.com,anoops@powergrid.in,",
Decentralised Energy Systems India Pvt Ltd,Companies(Private),Nagar,"32, Near Reliance Fresh, Kempapura Main Road, Kempapura, Bangalore 560024, KA",+91-80-41328160,",netpro1@vsnl.com,",
Daksha Marketing and Consultancy Services,Companies(Private),Nagar,"127, Sagar Prabhat Industrial Complex, W.E.High Dahisar, Mumbai 400068, MH",+91-22-9004075927,",roc.chennai@mca.gov.in,srng.consultant@gmail.com,CKKETHIREDDY@GMAIL.COM,",
Chhattisgarh State Power Transmission Company Ltd,Companies(Private),Nagar,"Energy Info Tech Centre, Daganiya, Raipur, Chattisgarh, 492013, CG",+91-771-4066899,",cmd@optcl.co.in,chairman@cspc.co.in,hr.csptcl@cspc.co.in,companysecretary@cspc.co.in,mdgenco@cspc.co.in,",
Azure Power India Pvt Ltd,Companies(Private),Nagar,"8, Local Shopping Complex, Pushp Vihar, Madangir, New Delhi 110062, DL",+91-11-49409800,"last@azurepower.com,,cs@azurepower.com,info@azurepower.com,",
Anu Solar Power Pvt Ltd,Companies(Private),Nagar,"19-A, Peenya Industrial Area, Phase 2, NTTF Road, Bangalore, 560058, KA",+91-80-32525200,"info@anusolar.com,joseph@anusolar.com,janedoe@anusolar.com,,",
Agni Power & Electronics Pvt Ltd,Companies(Private),Nagar,"114, Rajdanga Gold Park, Kolkata 700107, WB",+91-33-40051193,,
Ador Powertron Ltd,Companies(Private),Nagar,"51-D, 2, Ramnagar Complex, MIDC,Chinchwad, Pune 411019, MH",+91-20-27472532,",gsdeshpande@adorpower.com,ravin.mirchandani@adorpower.com,sxxxxy@adorwelding.com,info@adorpower.com,",
Phoenix Solar Pvt Ltd,Companies(Private),Nagar,"51, Phoenix, Deshmukh Colony, Satara 415001, MH",+91-2162-230383,",mktg@phoenixsolar.co.in,acclimatesystem@gmail.com,anandagencieskop@gmail.com,rajesh1996kb@gmail.com,",
Golden India Expotrade Pvt Ltd (Savemax),Companies(Private),Nagar,"Plot No 806/807, 2nd Floor, Udyog Vihar, Phase V, Gurgaon 122016, HR",+91-124-4262907,"ajayfcs@gmail.com,swatijasoria@gmail.com,,",
Yeluri Formulations Pvt Ltd,Companies(Private),Nagar,"AVM Towers, Opposite Shiv Parvathi Theatre, KPHB Colony, Kukatpally, Hyderabad 500072, TS",,"shatammohan@gmail.com,,shivmurari@gmail.com,info@yeluri.net,",
Vinati Organics Ltd,Companies(Private),Nagar,"1102, C-38 & C-39, Parinee Crescenzo Building, 11th Floor, G Block, Behind MCA, Bandra Kurla Complex, Bandra East, Mumbai 400051, MH",,",vinlote@vinattorganics.com,jane@vinatiorganics.com,shares@vinatiorganics.com,x3evinlote@vinattorganics.com,Vikash.agarwal@careratings.com,sales@vinatiorganics.com,vinati@vinatiorganics.com,saikat.roy@careratings.com,",
Vihar Engineering,Companies(Private),Nagar,"9, Kembros Industrial Estate, Behind Asian Paints, Sonapur Lane, Bhandup, Mumbai 400078, MH",,",psuryabhushan@gmail.com,shyampanchal9999@gmail.com,mca@bmcgroup.in,Kkjadia1944@gmail.co,engineering@jainexgroup.com,Rajesh.SekharSarkar@in.bosch.com,",
VAV Life Sciences Pvt Ltd,Companies(Private),Nagar,"51/B, 224, Mittal Court, Nariman Point, Mumbai 400021, MH",,",d_jane@vav.in,customercare@universalmedicare.com,u003esabita@vav.in,jane@vav.in,sabita@vav.in,ramans.consultancy@gmail.com,",
Vardhman Chemtech Ltd,Companies(Private),Nagar,"SCO 148-149, 4th Floor, Sector 34-A, Chandigarh 160022, CH",,"legal@dpbpharma.com,,mail@medicointercontinental.com,x3elegal@dpbpharma.com,secretarial@vpl.in,",
Terrace Pharmaceuticals Pvt Ltd,Companies(Private),Nagar,"F-67/68, Industrial Area, Phase-7, Mohali 160062, CH",,"salian@aristopharma.org,,nr2058@yahoo.co.in,shatammohan@gmail.com,Terracepharma1@Gmail.Com,x3esalian@aristopharma.org,accounts.terrace@gmail.com,Ashishjain611@gmail.com,",
SureMed Lifecare Pvt Ltd,Companies(Private),Nagar,"108, Malwa, Patanwala Industrial Estate, Opposite Shreyas Cinema, LBS Road, Ghatkopar West, Mumbai 400086, MH",,",corporate@precisebiopharma.com,chetan@precisechemipharma.com,kaushikprecise@gmail.com,",
Sitec Labs Pvt Ltd,Companies(Private),Nagar,"Gen 40, Pee-Dee Infotech, TTC Industrial Estate, Near Nelco Bus Stop, MIDC, Turbhe, Navi Mumbai 400701, MH",,",last@siteclabs.com,cipla.secretarial@cipla.com,chandresh_thakker@yahoo.co.in,doe_jane@Www.siteclabs.com,x3echandresh_thakker@yahoo.co.in,",
Sigachi Industries Pvt Ltd,Companies(Private),Nagar,"229/1 & 90, Kalyan?s Tulsi Ram Chambers, 4th Floor, Madinaguda, Hyderabad 500049, TS",,"cs@sigachi.com,,u003ecs@sigachi.com,x3einfo@sigachi.com,mktg.gm@sigachi.com,manish.kumar@careratings.com,info@sigachi.com,",
Shiv Shakti Pharmasynth Technologies,Companies(Private),Nagar,"407, Shiv Shakti, Shivam Chambers, S V Road, Goregaon West, Mumbai 400062, MH",,",delhi@pharmasynth.in,shivshaktipharma@gmail.com,",
Saviour Biotech Pvt Ltd,Companies(Private),Nagar,"2047/48, Gali No 6, 2nd Floor, Chuna Mandi, New Delhi 110055, DL",,"info@nutrahelix.com,x3eakbiotechpltd@rediffmail.com,,x3einfo@nutrahelix.com,saviourbiotech2019@gmail.com,Rajutomar578@gmail.com,akbiotechpltd@rediffmail.com,x22akbiotechpltd@rediffmail.com,",
SAI Life Sciences Ltd,Companies(Private),Nagar,"8-2-120/86/9-B, Luxor Park, Road No 2, Banjara Hills, Hyderabad 500033, TS",,"saibd@sailife.com,,last_initial@sailife.com,x3ejane.d@sailife.com,rishonlaboratories@gmail.com,jane.d@sailife.com,bhupathikalam@gmail.com,",
Ray Health Care Pvt Ltd,Companies(Private),Nagar,"406-407, New India Chamber, Marol Bus Depot Lane, Andheri East, Mumbai 400093, MH",,",nitin@neelkanthfinechem.com,info@rayhealth.in,manoju_mco1@yahoo.co.in,kankalapati7@gmail.com,akbose.mexray@gmail.co,akbose.mexray@gmail.com,rajeshh@nextgen.com,x3emanoju_mco1@yahoo.co.in,marimuthu@trivitron.com,roc.chennai@mca.gov.in,bimal.rajpara@gmail.com,x3erajeshh@nextgen.com,x3enitin@neelkanthfinechem.com,",
Rama Super Speciality Hospital,Companies(Private),Nagar,"A/1-8, Near Kanpur University, Lakhanpur, Kanpur 208024, UP",,",deepak76427@gmail.com,principalrmchrc@ramagroup.in,",
Radha Medicals,Companies(Private),Nagar,"Sai Radha Bhakti, 2nd Floor, VST Road, Udupi 576101, KA",,",asimatrey11@icloud.com,finance@merlinprojects.com,ajsldh@gmail.com,ahmedabad@vidalhealth.com,",
Precise Chemipharma Pvt Ltd,Companies(Private),Nagar,"108-E, Malwa, S Patanwala Industrial Estate, LBS Marg, Ghatkopar West, Mumbai 400086, MH",,",info@precisegroup.co.in,last_initial@precisegroup.co.in,chetan@precisechemipharma.com,corporate@precisechemipharma.com,",
Pelltech Healthcare Pvt Ltd,Companies(Private),Nagar,"202, Sonmur Apartments, Daruwala Compound, S V Road, Malad West, Mumbai 400064, MH",,"jane@pelltechhealthcare.com,,md@vancehealth.in,info@companydetails.in,",
Orbit Lifescience Pvt Ltd,Companies(Private),Nagar,"15, Mehta Mahal, 7th Floor, Matthew Road, Opera House, Mumbai 400004, MH",,",roc.chennai@mca.gov.in,deepak@orbitlifescience.com,jane@orbitlifescience.com,",
OCTIS Research Laboratories Pvt Ltd,Companies(Private),Nagar,"AK-25, 11th Main Road, Anna Nagar, Chennai 600040, TN",,",vtananth2010@gmail.com,",
MSN Laboratories Pvt Ltd,Companies(Private),Nagar,"C-24, Industrial Estate, Sanathnagar, Hyderabad 500018, TS",,",x3evinodchawla@msnlabs.com,VINODCHAWLA@MSNLABS.COM,formulation@msnlabs.com,vinodchawla@msnlabs.com,cphicustomerservice@informa.com,",
Meyer Organics Pvt Ltd,Companies(Private),Nagar,"A-303, Wagle Estate, Road No 32, Mumbai 400604, MH",,"last@meyerorganics.com,,rddesai@meyer.co.in,sathavale@meyer.co.in,",
Medisol Lifescience Pvt Ltd,Companies(Private),Nagar,"228, Pragati Industrial Estate, N M Joshi Marg, Lower Parel East, Mumbai 400011, MH",,"sreejith_k@asianitg.com,info@medisunlifescience.com,medisol@asianitg.com,,",
Maxheal Pharmaceuticals India Ltd,Companies(Private),Nagar,"169, CTS 1043, Max Heal House, Village Pahadi, Goregaon West, Mumbai 400090, MH",,",x3esushil@maxheal.in,sushil@maxheal.in,",
Legency Remedies Pvt Ltd,Companies(Private),Nagar,"132/2 & 133/2, Near Coca Cola, Village Katha, Baddi, Nalagarh 173205, HP",,",x3etarunagoelcs@gmail.com,sandeepgoyalca@gmail.com,tarunagoelcs@gmail.com,",
KNISS Laboratories Pvt Ltd,Companies(Private),Nagar,"9, Multe Industrial Estate, Gerugambakkam, Chennai 602101, TN",,",x3eaccounts@knisslabs.com,kniss_mvr@hotmail.com,accounts@knisslabs.com,knissindia@gmail.com,mradul.mishra@careedge.in,",
Kemotheraptik Drugs Ltd,Companies(Private),Nagar,"404, Arun Apartments, Red Hills, Hyderabad 500004, TS",,",cs@hetero.com,x3ecs@hetero.com,ravikumar.u@hetero.com,sambhram.p@heterodrugs.com,",
Ions Pharma,Companies(Private),Nagar,"A-106/107, Kanara Business Centre, Near Laxmi Nagar, Ghatkopar East, Mumbai 400075, MH",,",ions@ionspharma.com,nitesh.seth@rediffmail.co,prs@sadekarenviro.com,jainsuryawanshi@gmail.com,roc.chennai@mca.gov.in,ranchi@kaplindia.com,",
Inventia Healthcare Pvt Ltd,Companies(Private),Nagar,"703/704, Hubtown Solaris, 7thFloor, N S Phadke Marg, Andheri East, Mumbai 400069, MH",,",x3erupa.desai@inventiahealthcare.com,last@inventiahealthcare.com,rupa.desai@inventiahealthcare.com,",
Innova Formulations Pvt Ltd,Companies(Private),Nagar,"487/25, Innova House, 1st Floor, National Market, Peeragarhi, New Delhi 110087, DL",,",support@innovaformulations.in,gupta@rxhealthcare.co.in,dermapcdcompanies@gmail.com,u003egupta@rxhealthcare.co.in,",
Indus Biotech Pvt Ltd,Companies(Private),Nagar,"1, Plot No 6 & 7, Rahul Residency, Off Salunke Vihar Road, Kondhwa, Pune 411048, MH",,",bd@indusbiotech.com,x3erucha.khaire@indusbiotech.com,rucha.khaire@indusbiotech.com,",
HLL Lifecare Ltd,Companies(Private),Nagar,"HLL Bhavan, Poojappura, Thiruvananthapuram 695012, KL",,"mohan.joseoh@gmail.com,,x3einfo@lifecarehll.com,hllpharmacythrissur@lifecarehll.com,enquiry@hllhites.com,info@lifecarehll.com,",
Harbansram Bhagwandas Ayurvedic Sansthan Pvt Ltd,Companies(Private),Nagar,"A-16, Sector 80, Gautam Buddha Nagar, Noida 201301, UP",,",u003ehrbd@ascoca.in,ajaishankerandcompany@gmail.com,hrbd@ascoca.in,",
Guardian Lifecare Pvt Ltd (GNC Holdings),Companies(Private),Nagar,"55, Guardian House, Udyog Vihar, Phase 4, Sector 37, Gurgaon 122001, HR",,",poonam@guardian.in,x3epoonam@guardian.in,guardianlifecare88@gmail.com,hello@guardian.in,",
GLS Pharma Ltd,Companies(Private),Nagar,"R-4, Main Road, Khirki Extension, Malviya Nagar, New Delhi 110017, DL",,",info@glspharma.com,ceo@glspharma.com,x3eceo@glspharma.com,",
Ganga Pharmaceuticals Ltd,Companies(Private),Nagar,"Gangatat, Dhanvantri Marg, Gopcharpada East, Virar, Thane 401305, MH",,",roc.chennai@mca.gov.in,gplvirar@gmail.com,ayurvedganga@gmail.com,",
Fresenius Kabi Oncology Ltd,Companies(Private),Nagar,"11, Echelon Institutional Area, Sector 32, Gurgaon 122001, HR",,",x3efkipl@fresenius-kabi.com,Covigilancecell.IN_ND@fresenius-kabi.com,complianceofficer.india@fresenius-kabi.com,fkipl@fresenius-kabi.com,",
Enal Drugs Pvt Ltd,Companies(Private),Nagar,"D-33/34/35, Phase 1, Jeedimetla, Hyderabad 500055, TS",,"accounts@enaldrugs.com,,",
Elder Projects Ltd,Companies(Private),Nagar,"A-38/1, Patalganga Industrial Area, Khalapur, Khopoli, Thane 410220, MH",,",x3epremkumar.iyer@elderindia.com,bishambar2001@gmail.com,corporate.info@elder-india.com,premiyer@elderindia.com,premkumar.iyer@elderindia.com,last@elder-india.com,",
Dr Sabharwals Medicals Pvt Ltd,Companies(Private),Nagar,"1019, Sector 27-B, Chandigarh 160019, CH",,",sales@drsabharwal.com,drsmpl@gmail.comINTERNET,",
Crescent Scientific Pvt Ltd (CSPL),Companies(Private),Nagar,"C-114, Synthofine Industrial Estate, Off Aarey Road, Goregaon East, Mumbai 400063, MH",,",first@cspl.in,vichu@cspl.in,crescent@cspl.in,",
Corona Remedies Pvt Ltd,Companies(Private),Nagar,"Corona House, Mondeal Business Park, Block C, S G Highway, Thaltej, Ahmedabad 380054, GJ",,",x3ebhavin@coronaremedies.com,coronapharma@rediffmail.com,last_initial@coronaremedies.com,d-j@coronaremedies.com,bhavin@coronaremedies.com,",
Cooper Pharma Ltd,Companies(Private),Nagar,"5, Nidhi Plaza, 2nd Floor, Gulabi Bagh, Shakti Nagar, New Delhi 110052, DL",,",axx@cooperpharma.com,accountsdel@cooperpharma.com,last@cooperpharma.com,cooperpharma@hotmail.com,",
Connexios Life Sciences Pvt Ltd,Companies(Private),Nagar,"28/1-91, Prestige South End, 3rd Floor, Opposite Surana College, South End Road, Basavanagudi, Bengaluru 560004, KA",,",minovalife@gmail.com,sales.india@bigtech.org,jana@grouplifespring.com,x3eminovalife@gmail.com,malhotrampl@gmail.com,info@connexios.com,rashmadiag@vsnl.com,x3emalhotrampl@gmail.com,x22malhotrampl@gmail.com,",
Centaur Pharmaceuticals Pvt Ltd,Companies(Private),Nagar,"Centaur House, Opposite Grand Hyatt, Vakola, Santacruz East, Mumbai 400055, MH",,",centaur@centaurlab.com,x3ecentaur@centaurlab.com,",
Burnet Pharmaceuticals Pvt Ltd,Companies(Private),Nagar,"28/5, 3rd Floor, C N Roy Road, Kolkata 700039, WB",,"x3eoffice@burnetpharma.org,,n@vsnl.com,burnetgida@gmail.com,pmt@burnetpharma.org,office@burnetpharma.org,",
Bio Veda Action Research Company Pvt Ltd (Biotique),Companies(Private),Nagar,"D-105/106, Hosiery Complex, Phase 2, Noida 201305, UP",,",naveen@atbiotiqe.com,CONTACT@BIOTIQUE.COM,x3ebiovedaactions@gmail.com,bioactionofveda@gmail.com,biovedaactions@gmail.com,",
Bio Nutrients India Pvt Ltd,Companies(Private),Nagar,"192, A V N Towers, Zone 1, M P Nagar, Bhopal 462011, MP",,",info@bionutrients.in,sastrisankar11@gmail.com,",
Ban Labs Pvt Ltd,Companies(Private),Nagar,"Ban House, Opposite Swaminarayan Temple, Kalawad Road, Rajkot 360001, GJ",,"mail@banlab.com,finance@banlab.com,last@banlab.com,,",
Arbro Pharmaceuticals Ltd,Companies(Private),Nagar,"6/14, Industrial Area, Kirti Nagar, New Delhi 110015, DL",,",arbro@arbropharma.com,arbrolab@arbropharma.com,",
AMI Lifesciences Pvt Ltd,Companies(Private),Nagar,"40, Prestige Plaza, 2nd Floor, Urmi Society, Urmi Char Rasta, Productivity Road, Vadodara 390020, GJ",,",info@amilifesciences.com,abhishek.patel@amilifesciences.com,krunal.modi@careratings.com,mail@amilifesciences.com,jane@amidrugs.com,x3eabhishek.patel@amilifesciences.com,",
Alkem Laboratories Ltd,Companies(Private),Nagar,"Alkem Hse Devashish Building, Senapati Bapat Marg, Lower Parel, Mumbai 400013, MH",,"contact@alkem.com,,bns@alkem.com,investors@alkem.com,",
Agappe Diagnostics Ltd,Companies(Private),Nagar,"Agappe Hills, Pattimattom, Ernakulam 683562, KL",,"marketing@agappeswiss.com,,last@agappe.com,info@agappeswiss.com,axxxxxv@agappe.com,agappe@agappe.in,service@agappeswiss.com,x3eagappe@agappe.in,",
Adani Pharmachem Pvt Ltd,Companies(Private),Nagar,"2729 To 2731, Road 1, GIDC, Metoda, Lodhika, Kotda Sangani 360021, GJ",,"x3eexports@adanipharma.com,,exports@adanipharma.com,",
Acichem Laboratries,Companies(Private),Nagar,"1, Prabhat Nagar, Jogeshwari West, Mumbai 400102, MH",,",abdlabs@yahoo.co.in,sheth.company@gmail.com,muhurdmehta@kilitch.com,cerc@envis.nic.in,shethbipinv@hotmail.com,",
Zenith Forgings Pvt Ltd,Companies(Private),Nagar,"13, Brabourne Road, Kolkata 700001, WB",+91-33-22428083,",sankalpind@vsnl.net,accounts@zcwpl.com,admin@zenithforge.com,zenith@cal.vsnl.net.in,accounts@zenithforgings.com,",
Wella India Haircosmetics Pvt Ltd,Companies(Private),Nagar,"P & G Plaza, Cardinal Gracious Road, Chakala, Andheri East, Mumbai 400099, MH","+91-22-28266000, +91-22-67021070","press@cotyinc.com,,khyati.maheshwari@wella.com,ramachandran.v.3@pg.com,",
Warren Tea Ltd,Companies(Private),Nagar,"Suvira House, 4B, Hungerford Street, Kolkata 700017, WB","+91-33-22894009, +91-33-22872287",",sectcal@warrentea.com,investors@warrentea.com,sec@jwtl.in,dea@warrentea.com,",
Vinod Industries,Companies(Private),Nagar,"17-B, Industrial Area, Faridabad 121001, HR",+91-129-2232197,"vtc_vc_1@yahoo.com,,taracorporation@gmail.com,info@vinodgroup.com,",
Vinayak Agro & Foods,Companies(Private),Nagar,"B/224/1/ H/ 2, Near Bharat Sporting Club, Bagmari Road, Kankurgachi, Kolkata 700054, WB",+91-33-64575303,,
V & V Beverages Pvt Ltd,Companies(Private),Nagar,"8107, DLF Phase IV, Gurgaon 122002, HR",+91-124-4272099,,
Terai Tea Company Ltd,Companies(Private),Nagar,"Agarwala House, 2nd Mile, Sevoke Road, Siliguri 734402, WB","+91-353-2543857, +91-353-2543856",",teraitea@gmail.com,",
T & I Global Ltd (TIGL),Companies(Private),Nagar,"4-A Auckland Square,11, Jassal House, Kolkata 700017, WB","+91-33-22833613, +91-9331020398",,
Supreme Equipments Pvt Ltd,Companies(Private),Nagar,"Plot No B-19, NICE, M.I.D.C., Satpur, Nashik 422007, MH","+91-253-2355561, +91-253-2355562",",info@supremeequipments.com,Shailendra0727@gmail.com,info@companydetails.in,",
Sunrise Foods Pvt Ltd,Companies(Private),Nagar,"AE-340, 1st Floor, Sector 1, Salt Lake City, Kolkata 700064, WB",+91-33-23377593,",ecom@sunrise.itc.in,last@sunrise.in,jane_d@sunrise.in,",
Sumukha Farm Products Pvt Ltd,Companies(Private),Nagar,"4, Srivari Tower, Kamaraj Colony, 2nd Cross, Hosur 635109, TN","+91-4344-226644, +91-4344-226633",",info@growsure.in,u003einfo@sumukhaindia.com,JohnSmith@grosureseeds.com,sales@sumukhaindia.com,info@sumukhaindia.com,",
SR Foils & Tissues Ltd,Companies(Private),Nagar,"2nd Floor, Vardhman Plaza-II, Community Centre, Rajouri Garden, New Delhi 110027, DL",+91-11-41444855,,
Solar Agrotech Pvt Ltd,Companies(Private),Nagar,"3, Royal Complex, Behind Shyam Milpara, Rajkot 360002, JG",+91-281-2229877,",u003eskv@doctorseeds.com,skv@doctorseeds.com,sunilj712@gmail.com,doctorseeds@gmail.com,",
SMG Agrotech Pvt Ltd,Companies(Private),Nagar,"69/1/1, Chetla Road, Kolkata 700027, WB",+91-33-24798235,",smgagrotech@gmail.com,x3eganesh@masoom.in,fincor7@gmail.com,caashokinsan@gmail.com,",
Shri Kanhaiyalal Ramratan Krishi Yantra Laghu Udyog,Companies(Private),Nagar,"National Highway 11, Near Rampura Darbari, Sikar Road, Amber 303704, RJ","+91-1423-224485, +91-9829195072","mail@karwaexports.com,,info@krkylu.com,",
Shree Mahalaxmi Agro Farms Pvt Ltd,Companies(Private),Nagar,"Flat No 101, Vishwakarma Complex, K Building, Devkar Panand Vasahat, Kolhapur 416012, MH",+91-231-2325667,",liq.mahalaxmiagro@rirp.co.in,info@alphonsoindia.com,",
ShivGanga Marine Products,Companies(Private),Nagar,"Plot No 704/705, Kapiswar Ice & Cold Storage, G. I. D. C Estate, Veraval 362269, GJ",+91-2876-231938,",shivganga.marine@gmail.com,alashoremarine@gmail.com,jjseafoods@gmail.com,ghanandra999@gmail.com,",
Shineroads Foods India Pvt Ltd,Companies(Private),Nagar,"441, EPIP, HSIIDC, Kundli, Sonepat 131028, HR","+91-130-6535441, +91-130-6536441",",info@shineroadindia.com,",
Sharp Global Ltd,Companies(Private),Nagar,"Plot No 9, Sharp House, LSC, Gujranwala Town 1, New Delhi 110009, DL",+91-11-42290700,"x3ecustomer.support@sharpglobal.in,,sales@sharpglobal.in,customer.support@sharpglobal.in,sales@sharpmint.com,x3esales@sharpmint.com,csdesk@sharpglobal.in,accountsblr@sharpglobalfreight.com,",
Shankar Group of Companies,Companies(Private),Nagar,"201-301, Shri Krishna Chamber 23-24, Dhenu Market, Indore 452001, MP","+91-731-2544839, +91-731-4042659",",x3evikasphatak76@gmail.com,vikasphatak76@gmail.com,skassociates.ca@gmail.com,parmarthidurgesh@yahoo.co.in,puru.tripathimayank@gmail.com,",
Schreiber Dynamix Dairies Ltd,Companies(Private),Nagar,"A wing, 306/307, Dynasty Business Park, 58, Andheri Kurla Road, Andheri East, Mumbai 400059, MH","+91-22-67711900, +91-22-28402304",",jay.sharma@schreiberfoods.com,info@companydetails.in,x3ejay.sharma@schreiberfoods.com,Dynamix@schreiberfoods.com,",
Rich Dairy Products India Pvt Ltd,Companies(Private),Nagar,"SF No 341 & 342, Akkiampatty Village, Sendamangalam Post, Namakkal 637409, TN",+91-4286-292210,",info@companydetails.in,x3egayatridairy2005@yahoo.co.in,dairyindiadigital@gmail.com,citydairy@gmail.com,sijuanto@hotmail.com,",
Ratnagiri Impex Pvt Ltd,Companies(Private),Nagar,"1/1G, Annapurna House, 7th Cross, New Guddadha Halli, Mysore Road, Bangalore 560026, KA","+91-80-26985100, +91-80-32710246",",info@ratnagiriimpex.com,",
R B Mangharam Foods Ltd,Companies(Private),Nagar,"322, Near NTTF Circle, 4th Phase, Peenya Industrial Area, Bangalore 560058, KA","+91-80-28361555, +91-80-65321200, +91-80-48523248, +91-9845018221, +91-9035239962",",x3esonarajora@britindia.com,rbmfoods@gmail.com,ca.pranay@outlook.com,sonarajora@britindia.com,",
Prabhat Udyog,Companies(Private),Nagar,"8-2-674/B/M, SBI Lane Road No 12, Banjara Hills, Hyderabad 500034, TS",+91-9848050871,",prabhatcolorlam@gmail.com,vishal@zybra.in,vkanodia@auerlicht.com,contact@zybra.in,j-d@prabhatudyog.net,",
Pioneer Non Fried Foods Pvt Ltd,Companies(Private),Nagar,"HPO 1, Rajdhani Mandi Yard, Opposite VKI Area, Sikar Road, Jaipur 302013, RJ","+91-141-5172763, +91-141-2751474",",RAJ@ROASTYTASTY.COM,contact@pioneerfoods.in,",
Paresh Engineering Co.,Companies(Private),Nagar,"74-B, Sanjay Building No 5, Mittal Industrial Estate, M. Vasanji Road, Marol Naka, Andheri East, Mumbai 400069, MH",+91-22-28501794,",supanvora@gmail.com,",
Pagariya Food Products Pvt Ltd,Companies(Private),Nagar,"270, Sachin Towers, Albert Victor Road, 1st Main Road, Chamarajpet, Bangalore 560018, KA","+91-80-26706204, +91-80-26706205",",info@kwalityspices.com,jane@kwalityspices.com,info@companydetails.in,",
NCS Group of Companies,Companies(Private),Nagar,"Flat No 405, 4th Floor, Minar Apartments, Deccan Towers, Near Babu Khan Estate, Basheerbagh, Hyderabad 500029, TS","+91-40-66666331, +91-40-23232317",",nandu@ncs.net.in,anilsci331@gmail.com,",
Nagpal Brothers,Companies(Private),Nagar,"C-127, Phase II, Mayapuri Industrial Area, New Delhi 110064, DL","+91-11-28117631, +91-11-28116407",",balvindersahrawat@gmail.com,",
Multimol Micro Fertilizer Industries,Companies(Private),Nagar,"A Wing, 629, 2nd Floor, Market Yard Shopping Complex, Dindori Road, Nashik 422005, MH","+91-253-2620003, +91-253-2620004",",multimol_nsk@sancharnet.in,ktsahakarisangh@gmail.com,VIJAYSHINDE025@GMAIL.COM,multimolnsk@yahoo.com,",
Mohan Mutha Polytech Pvt Ltd,Companies(Private),Nagar,"961, Siyat House, Poonamallee High Road, Purasawalkam, Chennai 600084, TN",+91-44-43444666,"accounts@mmexports.com,,ACCOUNTS@MMEXPORTS.COM,x3eACCOUNTS@MMEXPORTS.COM,",
Modern Dairies Ltd,Companies(Private),Nagar,"SCO 98-99, Sub City Centre, Sector 34, Chandigarh 160022, CH","+91-172-2609001, +91-172-2609002",",support@Ananda.in,x3esupport@Ananda.in,secretarial@moderndairies.com,helpdeskdelhi@mcsregistrars.com,",
Manpasand Beverages Ltd,Companies(Private),Nagar,"E-62, Manjusar, G. I. D. C, Savli Road, Savli 391775, GJ","+91-2667-264733, +91-2667-290290",",x3ecomplianceofficer@manpasand.co.in,info@manpasand.co.in,complianceofficer@manpasand.co.in,",
Mangal Machines Pvt Ltd,Companies(Private),Nagar,"Old Factory Area, Patiala 147001, PB","+91-175-2360180, +91-175-5003358",",info@mangalmachines.com,",
Magnum Group Of Companies,Companies(Private),Nagar,"132-A, Sector A, Zone A, Mancheswar Industrial Estates, Bhubaneswar 751010, OD",+91-674-2537100,",jane@magnum-india.com,info@magnum-india.com,magnumlandsmith@gmail.com,praveen.kumar@magnumgroup.co.in,",
M.R. Agro Industries,Companies(Private),Nagar,"D-259, New Gunj Bazar, Sidhpur, Unjha 384170, GJ",+91-2767-252144,",bismillahmragroindustriespvtltd@gmail.co,mitesh@mragroindustries.com,info@companydetails.in,x3erajagrocompany@gmail.com,acagrohalvad@gmail.com,almragroindustriespvtltd2022@gmail.com,x3espagroodisha@gmail.com,",
Known-You Seed India Pvt Ltd,Companies(Private),Nagar,"504 & 505, 5th Floor, Pride Icon, Opposite Hp Petrol Pump Byepass Road, Pune 411014, MH",+91-20-67333111,",kyigm@knownyou.com,x3esatish.joshi@eastwestseed.com,info@eliteseeds.in,u003eknownyouacs@gmail.com,knownyouacs@gmail.com,",
Karamhans Foods Pvt Ltd,Companies(Private),Nagar,"Export Promotion Industrial Park, Sidco Complex, Phase 3, Bari Brahmana, Samba 181133, JK","+91-1923-222717, +91-1923-221287",",x3esecretarial@himeshfoods.com,x3erajender.afpl@gmail.com,u003esujiv.jain@gmail.com,sujiv.jain@gmail.com,pradeep.kumar@careratings.com,x3erajanmalik@hotmail.com,x3egaurav@packingpeople.com,saikat.roy@careratings.com,dkpa1@rediffmail.com,",
J J Bakers,Companies(Private),Nagar,"1, Ashok Marg, Lucknow 226001, UP",+91-522-4048642,",paruccofoundry@gmail.com,fnb@franchiseindia.in,gogreen@mygreenbin.in,iespantnagar@gmail.com,",
Indian Oilseed and Produce Export Promotion Council (IOPEPC),Companies(Private),Nagar,"78/79, Bajaj Bhavan, Nariman Point, Mumbai 400021, MH","+91-22-22029295, +91-22-22023225",",arparikh.co@gmail.com,info@iopepc.org,",
HyFun Foods,Companies(Private),Nagar,"A/905, Titanium Square, Thaltej Cross Roads, Ahmedabad 380059, GJ",+91-79-29707776,",info@hyfunfoods.com,jane@hyfunfoods.com,",
Horticulture Department,Companies(Private),Nagar,"Udhyan Bhawan, Sector 21, Panchkula 134116, HR",+91-172-2582322,",aksharahorticulture@gmail.com,akshhorticulture@gmail.com,",
Himalayan Leaf Pvt Ltd,Companies(Private),Nagar,"B-85, 1st Floor,Udyog Vihar, Phase 5, Sector 53, Gurgaon 122002, HR",+91-124-4235661,",sangeeta@himalayanleaf.com,roc.chennai@mca.gov.in,pacificexporterstaj@gmail.com,MANOJ@INDIAEXOTICA.IN,",
Garnier Seed India Pvt Ltd,Companies(Private),Nagar,"129, Local Shopping Centre, Vardhaman Royal Plaza, Gujranwala Town, New Delhi 110009, DL",+91-11-27457777,"vijbhushan@yahoo.co.in,,info@companydetails.in,","28.7018281,77.1792839"
G.D.Foods Manufacturing India Pvt Ltd (Tops India),Companies(Private),Nagar,"B1/14, Community Centre, Janakpuri, New Delhi Delhi, 110058",+91-11-45233333,",companysecretary@tops.co.in,tops.care@tops.in,","29.3104102,75.5039737"
Floral Seed Company,Companies(Private),Nagar,"3/3, Vasant Vihar Enclave, New Forest, Dehradun 248006, UK",+91-135-2761257,,"18.5016475,73.8481644"
Fena Pvt Ltd,Companies(Private),Nagar,"A-237, Okhla Industrial Area, Phase 1, New Delhi 110020, DL",+91-11-26811989,",x3evijaykumar@fena.com,vijaykumar@fena.com,atul1966@gmail.com,nsrana@fena.com,sales@fena.com,","19.8159328,72.3094297"
Farm Food Dehydrates Pvt Ltd,Companies(Private),Nagar,"2/714, S. K. Associate Building, Sagrampura, Ring Road, Surat 395003, GJ",+91-261-2332360,",hindustan9290@gmail.com,rawal_bhv@yahoo.co.in,","18.4757774,73.5813287"
Energy Beverages Pvt Ltd,Companies(Private),Nagar,"506,Time Square Building, C. G. Road, Navrangpura, Ahmedabad 380006, GJ","+91-79-26569990, +91-79-30022222",",neeraj@hectorbeverages.com,x3eneeraj@hectorbeverages.com,x22neeraj@hectorbeverages.com,x22bhaskar@cocacolabareilly.com,info@companydetails.in,x3ebhaskar@cocacolabareilly.com,x3egurjit@kbl.net.in,jane_d@clearpani.com,shailesh_shah5@yahoo.com,bhaskar@cocacolabareilly.com,gurjit@kbl.net.in,","22.9485596,72.2025323"
Eggway International Asia Pvt Ltd,Companies(Private),Nagar,"Survey No 515, Aspallyguda Village Road, Shabad ? R. R. District, Chevella 509217, AP",+91-8417-305300,",u003efinance@eggway.com,n.kumar@eggway.com,k.kumar@eggway.com,quality@eggway.com,finance@eggway.com,","17.7699706,64.8013949"
Dynamech Engineers,Companies(Private),Nagar,"214, Palsikar Colony, Indore 452007, MP","+91-731-2364890, +91-8447528377",",xxxx@dynamechengineers.com,info@dylanwelsh.com,","18.4451929,73.9616127"
Dozo Services Pvt Ltd,Companies(Private),Nagar,"2nd & 3rd Floor, Kanhaiya Complex, Khasra No 1824/1, 1826/2, Wazirabad, Sector 52, Gurgaon 122003, HR",,",x3etomo.k@dozoservices.com,tomo.k@dozoservices.com,x3evenkatesh.bangera@resources-in.com,venkatesh.bangera@resources-in.com,","23.6760869,69.6664012"
Dairy Tech India,Companies(Private),Nagar,"El-31/5, J Block, M. I. D. C, Bhosari, Pune 411026, MH",+91-20-27130100,",dairytechindia@gmail.com,dairytechindiamtpl@gmail.com,manumanohar411@gmail.com,","18.6292082,73.7730081"
Chhattisgarh State Beverages Corporation Ltd,Companies(Private),Nagar,"Labhandi, Chokra Nara, Aabkarir Bhawan, Raipur 492001, CG",+91-771-4287925,"csbcraipur@gmail.com,,","21.6569705,81.2764705"
Charbhuja Industrial Group,Companies(Private),Nagar,"Creators Cabin, G-222, G1-219, G-225, F-133, Industrial Area, Akhapura, Sheoganj, Sirohi 307027, RJ",+91-2972-272591,",SONUNAWAL@YAHOO.CO.IN,arjunmundra@gmail.com,anilsoniasl@gmail.com,n.developrs@gmail.com,Vaishali.paradkar@ucb.com,charbhujainfrasteel@gmail.com,x3eVaishali.paradkar@ucb.com,x3eshyam.mahadik@omya.com,shyam.mahadik@omya.com,","18.4757774,73.5813287"
Best Foods Ltd,Companies(Private),Nagar,"502, D-Mall, Netaji Subhash Place, Pitampura, New Delhi 110034, DL","+91-11-45574481, +91-11-45574482",",accounts.mgr@memoms.co.in,info@nrgimports.nl,CAARVINDGAUR@GMAIL.COM,elitefoods@eliteindia.com,x3erajanmalik@hotmail.com,x3eaccounts.mgr@memoms.co.in,rajanmalik@hotmail.com,feedback@eatmanfoods.com,vrdbestfoods@gmail.com,","29.8553033,77.0247645"
Baghmari Tea Company Ltd,Companies(Private),Nagar,"Mcleod House, 3 Netaji Subhas Road, Kolkata 700001, WB","+91-33-22489168, +91-33-22489165",",desaitea123@gmail.com,BAGHMARI1234@GMAIL.COM,","22.5717872,88.3372046"
Amrit Group of Companies,Companies(Private),Nagar,"Infinity Benchmark, 6th Floor, Saltlake City, Sector 5, RDB Cinema, Kolkata 700091, WB","+91-33-40091000, +91-33-40091050","amritagency@yahoo.co.in,,info@masserv.com,n@vsnl.net,","19.0781515,72.7259063"
Amrit Food,Companies(Private),Nagar,"Amrit Nagar, G. T Road, Ghaziabad 201009, UP","+91-120-2866880, +91-120-2866883",",info@companydetails.in,info@masserv.com,Info@amritfood.com,n@vsnl.net,","18.4759913,73.7461912"
Amir Chem Pvt Ltd,Companies(Private),Nagar,"Plot No 41 & 42, Sector 3, Industrial Area, Pithampur, Dhar 454773, MP","+91-7292-400930, +91-7292-401248",",rakesh.shejwal@aartigroup.cominfo,semco@semco.co.in,nitinjoglekar25@yahoo.com,","22.6240882,75.588794"
Amar Bulk Carriers,Companies(Private),Nagar,"205, South Soti Gunj, 1st Floor, Andhra Bank Building, Meerut 250001, UP","+91-121-2660841, +91-1214000841",",roc.chennai@mca.gov.in,amarbulkexports@gmail.com,ROYALBLACKOLIVES@GMAIL.COM,","28.984059,77.376741"
Amar Agricultural Machinery Group,Companies(Private),Nagar,"Amar Street, Janta Nagar, Gill Road, Ludhiana 141003, PB","+91-161-2493128, +91-161-2491780",",Amaragri@gmail.com,","24.6105537,63.71332"
Aaksh Beverages Pvt Ltd,Companies(Private),Nagar,"703, Damji Shamji Business Galleria, LBS Marg, Kanjur Marg West, Mumbai 400078, MH",+91-9892601983,"finance@sangameshwar.co,,neeraj@hectorbeverages.com,u003eaccounts@aaksh.com,x3eneeraj@hectorbeverages.com,x22neeraj@hectorbeverages.com,x3egurjit@kbl.net.in,accounts@aaksh.com,doe-j@aaksh.com,preshit@aaksh.com,corporate@sangameshwar.com,akashjain0041@gmail.com,gurjit@kbl.net.in,","19.1294476,72.9161666"
Zubaan,Companies(Private),Nagar,"128-B, 1st Floor, Shahpur, New Delhi 110019, DL",+91-11-26494617,"vishal@zybra.in,,mcafilingcs@gmail.com,contact@zybra.in,","19.0735335,72.8713125"
Trellisys.net Pvt Ltd,Companies(Private),Nagar,"572, 3rd Main, RT Nagar, Bangalore 560005, KA",+91-80-23337032,",anil@trellisys.net,","13.0207443,77.5828025"
Standard Printers Providers,Companies(Private),Nagar,"54, 2nd Floor, Wing-C, Raj Industrial Complex, Military Road, Marol, Andheri East, Mumbai 400059, MH",+91-22-29203507,",roc.chennai@mca.gov.in,standard.printers@gmail.com,","18.9908268,72.8195539"
Shagun Offset Pvt Ltd,Companies(Private),Nagar,"3-B, Sector-65, Noida 201301, UP",+91-120-4232464,",info@companydetails.in,u003eshagunoffsetpress1@gmail.com,shagunpack@yahoo.com,shagunoffsetpress1@gmail.com,roc.chennai@mca.gov.in,","19.2308009,73.10656"
Servalakshmi Paper Ltd,Companies(Private),Nagar,"31, 10-Z, Bharathi Park, Saibaba Colony, Coimbatore 641011, TN",+91-422-4333344,",ho@servalakshmi.in,secretarial@servalakshmi.in,sthangavelucbe@rediffmail.com,finance@danalakshmi.in,sppl@servalakshmi.in,coimbatore@linkintime.co.in,","11.0197355,76.9344622"
Rupa Publication India Pvt Ltd,Companies(Private),Nagar,"7, 16, Ansari Road, Darya Ganj, New Delhi 110002, DL",+91-11-43226666,",info@fmpl.in,rajat.busyy@gmail.com,rupa@rupapublications.com,editorial@rupapublications.com,sales@prakashbooks.com,sales@rupapublications.com,info@rupapublications.com,x3eeditorial@rupapublications.com,saurabhgupta@rupapublications.com,","13.0533863,80.2372306"
Rachna Sagar Pvt Ltd,Companies(Private),Nagar,"4582-83, 15, Near LIC Office, Darya Ganj, New Delhi 110002, DL",+91-11-23285568,",gxxxxi@rachnasagar.in,mumbai.rspl@gmail.com,","19.128582,72.8480169"
R G Books India,Companies(Private),Nagar,"4-5-53, Andhra Bank, Koti, Hyderabad 500095, TS",+91-40-66758362,",info@fmpl.in,rajat.busyy@gmail.com,nasiddiquilko@gmail.com,mna_fca@rediffmail.com,office@anaadih.com,","26.2883924,73.0137427"
Orient Links Pvt Ltd,Companies(Private),Nagar,"19-B, 1st Floor, Ansari Road, Darya Ganj, New Delhi 110002, DL",+91-11-23266289,",x3edilip@orientservices.in,dilip@orientservices.in,secretarial@rajeshlalandco.com,orientlinksafrica@gmail.com,","19.1449433,72.8429463"
Network18 Media & Investments Ltd ( Publishing Department ) ( Network 18 ),Companies(Private),Nagar,"414, 1st Floor, Empire Complex, Senapati Bapat Marg, Lower Parel, Mumbai 400013, MH",+91-22-40019000,,"20.0820688,71.5210628"
Navajyoti Printing Press Pvt Ltd ( Dainik Navajyoti ),Companies(Private),Nagar,"72, Navajyoti Building, Kesar Ganj, Ajmer 305001, RJ",+91-145-2429516,"u003enavajyotipress@gmail.com,navajyotipress@gmail.com,d.jane@dainiknavajyoti.com,,","18.9352573,72.8238161"
Mermaid Print Concepts Pvt Ltd,Companies(Private),Nagar,"88, 4, Chikka Begur, Kudlu Gate, Hosur Main Road, Bangalore 560068, KA",+91-80-25730504,",kbn@bigbasket.com,x3esales@feedingbottles.com,sales@feedingbottles.com,account@mermaiddigital.com,roc.chennai@mca.gov.in,x3ekbn@bigbasket.com,","12.9304458,77.5483885"
Manohar Publishers & Distributors,Companies(Private),Nagar,"4753, 23, Ansari Road, Darya Ganj, New Delhi 110002, DL",+91-11-23284848,,"19.0790383,72.9907871"
Jindal Photo Ltd,Companies(Private),Nagar,"11, 5-B, Pusa Road, New Delhi 110008, DL",+91-11-25767000,",u003ecs_jphoto@jindalgroup.com,cs_jphoto@jindalgroup.com,cs_cfhl@jindalgroup.com,CS_JPHOTO@JINDALGROUP.COM,","20.3279728,72.9605396"
Indo Afrique Paper Mills Pvt Ltd,Companies(Private),Nagar,"Samruddhi Appartment, Bandra Station Road, Bandra West, Mumbai 400050, MH",+91-22-26552952,",x3eaccounts.indoafrique@gmail.com,x3eapnapapermillsp.ltd@gmail.com,JITUPATEL.INDO@GMAIL.COM,x3eMEENUPAPER@GMAIL.COM,rakesh.shejwal@aartigroup.cominfo,MEENUPAPER@GMAIL.COM,doe_jane@gmail.com,imports.indo@gmail.com,contact@iapaper.com,x3erajeev@bestpaper.co.in,rajeev@bestpaper.co.in,accounts.indoafrique@gmail.com,apnapapermillsp.ltd@gmail.com,","18.1724691,73.9538803"
Five Star Printing Machinery Company,Companies(Private),Nagar,"266, 100 Feet Road, Mohan Nagar, Amritsar 143006, PB",+91-183-5094787,",rkg_ca30@rediffmail.com,","19.2028851,72.8166743"
Economic Research India Pvt Ltd ( ERIL ),Companies(Private),Nagar,"5, 7, Sorabji Santuk Lane, Dr. Cawasji Hormasji Street, Marine Lines East, Mumbai 400002, MH",+91-22-61011700,",u003eaccounts@eril.co.in,j_d@eril.co.in,mktg@eril.co.in,accounts@eril.co.in,","18.9443067,72.816312"
Bindu Labels Pvt Ltd,Companies(Private),Nagar,"54, 55, 56, Puttnanarayyanappa Complex, 14th Main Road, Bangalore 560091, KA",+91-9845079873,",mal_s2004@yahoo.co.in,thrimurthy.puttanarayanappa@gmail.com,bindulabels@vsnl.net,info@companydetails.in,ajaykumar45@gmail.com,","12.9850422,77.510081"
Bindlas Duplux Ltd,Companies(Private),Nagar,"Bhopa Road, Muzafar Nagar 251003, UP",+91-131-2468590,"bindlas99@gmail.com,,dbindlas@yahoo.co.in,","29.4704371,77.7960127"
Bhabani Books,Companies(Private),Nagar,"176, 3rd Floor, Opposite Car Club, Rajgarh Road, Guwahati 781007, AS",+91-361-2522222,",accounts@bhabani.com,bhabanibooks@bhabani.com,ceo@dcbooks.com,bhavaniagrovet@gmail.com,bhabani@bhabani.com,books@bhabani.com,","18.6138363,73.7901351"
Aditya Books Pvt Ltd,Companies(Private),Nagar,"116-B, Sector-67, Noida 201301, UP",+91-120-2484151,",mediahousedelhi@gmail.com,aditya.bengaluru@adityabooks.in,harisingh@adityabooks.in,n.mediahouse@gmail.com,contactus@balaniinfotech.com,orders@adityabooks.in,info@balaniinfotech.com,","17.3588099,78.5009112"
Abhinav Exports,Companies(Private),Nagar,"18-F, Sector-8, Noida 201301, UP",+91-120-4251853,"casclekhwani_company@rediffmail.com,,info@abhinavexports.com,company_info@rediffmail.com,","18.5687143,73.7839392"
Aamoda Publications Pvt Ltd ( Andhra Jyothi ),Companies(Private),Nagar,"76, Journalist Colony, Ashwani Layout, Jubilee Hills, Road No 70, Hyderabad 500033, TS",+91-40-23558233,",radhakrishna@andhrajyothy.com,","17.421172,78.3998826"
Trox India Pvt Ltd,Companies(Private),Nagar,"Unit No 751, 5th Floor, Building No 7, Solitaire Corporate Park, Andheri East, Mumbai 400093, MH",+91-22-67751600,"kunal@trox.in,,info@trox.in,","19.0997138,72.9058801"
Toxics Link,Companies(Private),Nagar,"H2, Jungpura Extension, New Delhi 110014, DL","+91-11-24328006, +91-11-24320711","swrrajk@gmail.com,,jane@toxicslink.org,","28.5570002,77.2389742"
Synergy Environics Ltd,Companies(Private),Nagar,"133-A, 2nd Floor, Lane No 1, Westend Marg, Saidulajab, New Delhi 110030, DL",+91-11-64563999,"anoop@environics.co.in,,last@environics.co.in,contact@environics.co.in,","28.4605844,77.0679616"
Leistung Engineering Pvt Ltd,Companies(Private),Nagar,"Plot No 3/103, NIDC, Near Bhammariya Kuva, Lambha, Ahmedabad 382405, GJ","+91-79-25733411, +91-79-25733412",",accounts@leistung.in,x3eshilpiengg@rediffmail.com,info@leistung.in,shilpiengg@rediffmail.com,","21.9960268,71.4108686"
IRG Systems South Asia Pvt Ltd,Companies(Private),Nagar,"E-16, 3rd Floor, Hauz Khas Main Market, New Delhi 110016, DL",+91-11-45974597,",nail-business@arkitechno.com,amit@irgssa.com,u003eIRGSSA@IRGSSA.COM,IRGSSA@IRGSSA.COM,amit@irgindia.com,lakhanikamal1981@yahoo.co.in,","28.4962584,77.3915816"
Inovex Enterprises Pvt Ltd,Companies(Private),Nagar,"30A, Hosur Road, Adugodi, Bommasandra Industrial Area, Bangalore 560099, KA",+91-80-41658924,",rajkumarrautray@gmail.com,info@inovexenterprises.com,PP_SARKAR@HOTMAIL.COM,","15.724979,70.4168009"
Green Tree Building Energy Pvt Ltd,Companies(Private),Nagar,"H-19, Sector 63, Noida 201301, UP","+91-120-4373374, +91-9891852358",",greentreegst@gmail.com,u003egreentreegst@gmail.com,pp_mittal@yahoo.com,","19.1183067,72.8435549"
Goldi Green Technologies Pvt Ltd,Companies(Private),Nagar,"149, K-2, Pipodara, Surat 395004, GJ",+91-261-3099999,",maulesh.desai@careratings.com,info@goldisolar.com,info@companydetails.in,accounts@goldisolar.com,","19.1605425,72.8355378"
Gensol Consultants Pvt Ltd,Companies(Private),Nagar,"108, Pinnacle Business Park, Corporate Road, Pralahad Nagar, Ahmedabad 380015, GJ",+91-79-40068239,"cs@gensol.in,,accounts@gensol.in,puneetjaggi@solariggensol.com,CS@GENSOL.IN,ceo@tecaero.in,info@tecaero.in,","18.544961,73.8669777"
Elbitec Innovations Ltd,Companies(Private),Nagar,"New No 25, Old No 10, Kodambakkam High Road, Nungambakkam, Chennai 600034, TN",+91-44-28255812,"velmurugan@elbitec.com,,auditornkr@yahoo.com,","12.9830955,80.213445"
Conserve Consultants Pvt Ltd,Companies(Private),Nagar,"12, 1st Cross Street, Karpagam Gardens, Adyar, Chennai 600020, TN","+91-44-24450655, +91-44-45504313",",info@conserveconsultants.com,accounts@conserveconsultants.com,u003eaccounts@conserveconsultants.com,","19.0795277,72.8859692"
ABS Enviro Tech India Pvt Ltd,Companies(Private),Nagar,"Old No 324, New No 468, MKN Road, F1, 1st Floor, Alandur, Chennai 600016, TN",+91-44-45410820,",microexports@ir.bosch.com,accounts@absgroups.co.in,","18.4882497,73.9228556"
Aastha Enviro Systems Pvt Ltd,Companies(Private),Nagar,"37-A, Pratap Nagar, Opposite Jeevan Anmol Hospital, Mayur Vihar, Phase-I, New Delhi 110091, DL",+91-11-22791211,",info@aasthaenviro.com,u003einfo@aasthaenviro.com,","23.7425939,69.7962043"
V2 Retail Ltd,Companies(Private),Nagar,"919, 921, 925 & 926, 1st Floor, Kapashera, New Delhi 110037, DL",+91-8010202222,",kxxxxxh@v2retail.com,","19.0818513,72.9007177"
Thirdi Digital,Companies(Private),Nagar,"8-2-270, Opposite Mosque, Banjara Hills, Hyderabad 500034, TS","+91-40-23547483, +91-40-65509216",",customercare@integratedindia.in,reachus@inspirisys.com,roc.chennai@mca.gov.in,cashless@eastwestassist.com,","19.960531,73.7500236"
Techvedic Technologies Pvt Ltd,Companies(Private),Nagar,"501, West End Mall, Janakpuri, New Delhi 110058, DL",+91-11-45733736,"dnsharma@techvedic.com,,rajdhani222@gmail.com,","19.168075,72.7521501"
StalkBuyLove.com,Companies(Private),Nagar,"D-72, Phase 1, Okhla Industrial Area, New Delhi 110017, DL",+91-11-40007000,,"18.4760628,73.9007086"
Sakhi-By Chandras,Companies(Private),Nagar,"305, 6th Main, Defence Colony, Indira Nagar, Bangalore 560038, KA","+91-80-41155551, +91-80-25252007",",sakhi.nlg@gmail.co,","18.5348388,73.7272655"
Sai Internet Marketing,Companies(Private),Nagar,"S-4, 2nd Floor, Unicom House, A-3, Commercial Complex, janakpuri, New Delhi 110058, DL",+91-9999552353,",ramnivasjat@gmail.com,saipharma@gmail.com,hazari.sandip@yahoo.com,","18.4760447,73.8286054"
Promptec Renewable Energy Solutions Pvt Ltd ( Havells ),Companies(Private),Nagar,"Shibra Farms, Near 8 Mile, Nagasandra Main Road, Tumkur Road, Bangalore 560073, KA",+91-80-28390897,",ameet.gupta@havells.com,u003eameet.gupta@havells.com,","13.0384653,77.4929119"
One Mobikwik Systems Pvt Ltd,Companies(Private),Nagar,"2nd Floor, Orchid Centre, Golf Course Road, Sector 53, Gurgaon 122002, HR",+91-9313925342,",upasana@mobikwik.com,fraudalerts@mobikwik.com,delhi@linkintime.co.in,cs@mobikwik.com,x3efraudalerts@mobikwik.com,","18.9626646,72.8157376"
MeltWater India Pvt Ltd,Companies(Private),Nagar,"B-77, 1st Floor, Defence Colony, New Delhi 110024, DL",+91-11-49106400,",x22help@meltwater.com,x3ehelp@meltwater.com,help@meltwater.com,prashantrathee@gmail.com,harpreet@jotwani.com,","15.9775453,69.9122674"
LearnSocial,Companies(Private),Nagar,"Plot No 1246, 3, Jubilee Casa, Jubilee Hills, Hyderabad 500033, TS",+91-9533166166,,"17.4304798,78.4094169"
KeenBean Retail Pvt Ltd,Companies(Private),Nagar,"305, Magnum Opus, Shantinagar Industrial Area, Santacruz East, Mumbai 400050, MH","+91-22-67989876, +91-8767989876","vishal@zybra.in,,pankaj.chandra@foodesto.com,contact@zybra.in,","18.4760628,73.9007086"
IndiaIdeas.com Ltd,Companies(Private),Nagar,"E-510, Crystal Plaza, New Link Road, Andheri West, Mumbai 400053, MH","+91-22-40920000, +91-22-40920001",",bala@billdesk.com,vasu@billdesk.com,last@billdesk.com,",
HackerEarth Inc,Companies(Private),Nagar,"3rd Floor, Salarpuria Business Center, A Block, 4th B Cross Road, Koramangala, Bangalore 560095, KA",-7760572248,",sachin@hackerearth.com,x3esupport@hackerearth.com,support@hackerearth.com,johns@eyerov.com,",
Cook Gourmet Pvt Ltd,Companies(Private),Nagar,"C-2367, Sushant Lok 1, Sector 43, Gurgaon 122002, HR",-8882157066,",ravinder.singh@gourmetinvestments.com,damanskohli@gmail.com,gpgandco@gmail.com,roc.chennai@mca.gov.in,chef@holachef.com,info@dhanyam.in,",
Carthero Technologies Pvt Ltd ( Roadrunnr ),Companies(Private),Nagar,"2nd Floor, Leela, 1st Cross Road, Ashwini Layout, Ejipura, Bangalore 560047, KA",-30196404,",ankit@junio.in,bhuvan@lendbox.in,x22bhuvan@lendbox.in,x3ecompliance@myglamm.com,x3ebtofficial@outlook.com,x3ebhuvan@lendbox.in,secretarial@zomato.com,x3eankit@junio.in,btofficial@outlook.com,johnson.p@roadrunnr.in,compliance@myglamm.com,mohitasmi@gmail.com,",
Camden E-commerce Services Pvt Ltd,Companies(Private),Nagar,"4-E, KIADB Industrial Area, Attibele, Bangalore 562107, KA",-9343240036,",accounts@tailorman.com,care@tailorman.com,",
Astro Mangal,Companies(Private),Nagar,"Mem Nagar, Ahmedabad 380052, GJ",-9879377687,",roc.chennai@mca.gov.in,mangalmurthyllp@gmail.com,customercare@astrosage.com,",
99Games,Companies(Private),Nagar,"217, 3-62B, 1st Floor, Robosoft Campus, National Highway 66, Santhekatte, Udupi 576105, KA",-2594659,",contactus@99games.in,",
Vinayak Jewellers,Companies(Private),Nagar,"44, 2nd Floor, Sir Hariram Goenka Street, Banstola, Bura Bazar, Kolkata 700007, WB",-22744186,"accounts@vinayakjewels.com,contact@vinayakjewels.com,,vidhivinayakmetals@gmail.com,export@yahoo.com,nikhiljain@vinayakjewels.com,siddivinayak.export@yahoo.com,",
Twinkle Diamonds,Companies(Private),Nagar,"403/404, Prasad Chambers, Opera House, Mumbai 400001, MH",-23641513,",stores@sgjewels.com,training@responsiblejewellery.com,twinklejewelery@taxdetails.in,roc.chennai@mca.gov.in,admin@twinklediamonds.com.au,",
Sunita Silver Shoppe,Companies(Private),Nagar,"C-28, Lalkothi, Indrapuri, Jaipur 302005, RJ",-9314114058,",supanvora@gmail.com,shrinivas.hari@zcltd.com,",
Shashi Jewels And Crafts,Companies(Private),Nagar,"1057/7, Shyam Market, Gali Hiranand, Maliwara, Chandni Chowk, New Delhi 110006, DL","+91-11-23256997, +91-9810866997",",ssanjayksharma14@gmail.com,tanna@linksin.com,pradeep@indian-crafts.in,gudduhalder1@gmail.com,shashi.tanna@linksin.com,an@gmail.com,",
Notandas & Sons Jewellers,Companies(Private),Nagar,"6, Mangal Darshan, Waterfield Road, Bandra West, Mumbai 400050, MH","+91-22-26426063, +91-22-26428616",,
Mini Diamonds India Ltd,Companies(Private),Nagar,"7-A, Nusser House, Opposite Panchratna Building, Opera House, Mumbai 400004, MH","+91-22-23671210, +91-22-23670940",",support@purvashare.com,pulkit.agarwal@careratings.com,accounts@minidiamonds.net,",
Lucky Jewellery,Companies(Private),Nagar,"7/4 & 5, Back Bay View Building, 4th Floor, Opera House, Mumbai 400004, MH",-23697707,",shafeekh@malbargroup.com,nitesh.seth@rediffmail.co,jainsuryawanshi@gmail.com,roc.chennai@mca.gov.in,balajivinayakgold@gmail.com,",
Vikas Packaging,Companies(Private),Nagar,"443/444, Dabri Nasirpur Road, Nasirpur, New Delhi 110046, DL",-9958767019,",suresh_skplastic@yahoo.com,vprabhudesai@bossar.com,paradise@paradisepackaging.net,x3esales@feedingbottles.com,sales@feedingbottles.com,vikas@upack.in,vikas.ghorawat@gmail.com,x3evprabhudesai@bossar.com,x3eparadise@paradisepackaging.net,ajit_renuka@rediffmail.com,",
Vayudoot Road Carriers Pvt Ltd,Companies(Private),Nagar,"402, Tower P 1, 4th Floor, Opposite Abs Gymnasium, Magarpatta Township, Hadapsar, Pune 411028, MH","+91-20-26898388, +91-9325949807","a.banerjee@vayudootlogistics.com,a.banerjee@vayudootlogistics.in,,u003ea.banerjee@vayudootlogistics.in,",
Vashist Packers & Movers,Companies(Private),Nagar,"7, 1st Floor, Near GT Road, Street No 2, Transport Nagar, Ludhiana 141003, PB",-9216578464,,
Value Freight Mumbai Pvt Ltd (Super Freight),Companies(Private),Nagar,"503/504, Sabari Samriddh, Next To Maitri Park, Sion Trombay Road, Chembur, Mumbai 400071, MH",-61418831,",mumbai@superfreight.co.in,agencymumbai@seawaysindia.com,",
Vaccu Plast India Pvt Ltd,Companies(Private),Nagar,"844-845, Gram Kota, Agra Delhi Bypass Road, Mathura 281001, UP",-9756606581,",amit@vaccuplast.com,u003eamit@vaccuplast.com,kanhamaakhan@gmail.com,",
Universal Relocations,Companies(Private),Nagar,"76, Chamiers Road, Nandanam, Chennai 600018, TN",-40408753,"first@universalrelocations.com,,sales@universalrelocations.com,accounts@universalrelocations.com,",
Titan Sea & Air Services Pvt Ltd,Companies(Private),Nagar,"301/311, Gokul Arcade B, Near Garware House, Subhash Road, Vile Parle East, Mumbai 400057, MH",-40543930,,
Swastik Tins Pvt Ltd,Companies(Private),Nagar,"60, TTC Industrial Area, MIDC, Mahape, Navi Mumbai 400710, MH",-9820499942,",javed@swastiktins.com,info@swastiktins.com,u003einfo@swastiktins.com,accounts@swastikplastics.co.in,",
Safexpress Pvt Ltd,Companies(Private),Nagar,"Near Hotel Good Luck, Road No 4, National Highway 8, Mahipalpur Extension, Delhi 110037, DL",-7947317866,"info@safexpress.com,last@safexpress.com,,",
Rushabh Sealink Pvt Ltd,Companies(Private),Nagar,"310/9, Damji Shamji Industrial Complex, L B S Marg, Kurla, Mumbai 400070, MH",-66299930,",info@rushabhsealink.com,info@pankajtransport.com,gurpreet.singh@cargo-partner.com,vpmehta3@gmail.com,",
Portrucks Equipments Pvt Ltd,Companies(Private),Nagar,"128, Chand Towers, L B Road, Thiruvanmiyur, Chennai 600041, TN",-24450660,",accounts@portrucks.com,OFFICE@CASTREHAN.COM,info@companydetails.in,dev@portrucks.com,",
Pesmel Packaging India Pvt Ltd,Companies(Private),Nagar,"21/29, Simran Residency, Sector 7, Kharghar, Navi Mumbai 410210, MH",-27740353,"narendra.chore@pesmel.com,,jagannathan.rajagopalan@pesmel.com,srikumar.js@pesmel.com,",
Ocean Continental Shipping & Logistics Pvt Ltd,Companies(Private),Nagar,"C-401/55, City Towers, Sector 15, Mahim, Mumbai 400016, MH","+91-22-27574688, +91-22-40242892",,
Moldtek Packaging Ltd,Companies(Private),Nagar,"8-2-293/82/A/700, Road No 36, Jubliee Hills, Hyderabad 500033, TS","+91-40-40300300, +91-40-40300301",",cs@moldtekpackaging.com,cstech@moldtekindia.com,first@moldtekpackaging.com,x3ecstech@moldtekindia.com,",
Harsha International Packers and Movers,Companies(Private),Nagar,"201, Badriraj Nilayam, Near NSTL Family Gate, APSEB Colony, Butchirajupalem, Visakhapatnam 530027, TS",-2703599,",Harshapackersmovers@gmail.com,harshpackers.bangalore@gmail.com,",
Harsh Express,Companies(Private),Nagar,"Z-3, Zone ?1, M P Nagar, Bhopal 462011, MP",-2575523,",jainsuryawanshi@gmail.com,nitesh.seth@rediffmail.co,",
Gateway Freight System Pvt Ltd,Companies(Private),Nagar,"RZ-1073, Gateway House, Rajokri, New Delhi 110038, DL",-9810294403,",x3ecs@feicargo.com,x3eankur.gupta@freightsystems.com,ankur.gupta@freightsystems.com,Pujan@gatewayfreight.co.in,cs@feicargo.com,",
Ecofresh Cold Storage & Warehousing Pvt Ltd (Efficient),Companies(Private),Nagar,"143, Wadgaon Dairy, Pune Sinhgad Road, Pune 411041, MH",-24392627,,
BnB Software,Companies(Private),Nagar,"24, Tarachand Dutta Street, Kolkata 700073, WB",-22352187,"nbhat@bnb1.in,ceo@bnbinfosys.com,,bhatiajaipur1@gmail.com,contact@bnbsoftware.net,",
Automobile Carriers,Companies(Private),Nagar,"35, Opposite Maruti Gate No 2, Gurgaon 122015, HR",-4019482,",brbmy@bhavnaroadways.com,marketing@endurance.co.in,Emailinfo@vtransgroup.com,info@vtransgroup.com,",
Asmaco Industries Ltd,Companies(Private),Nagar,"B-41, Asmaco House, Main Road, Wagle Industrial Estate, Thane 400604, MH",-25803001,",mushtaq.sheikh@ftindia.com,mushtaq.sheikh@atomtech.in,info@asmaco.com,tpil@bom2.vsnl.net.in,",
Air Linkers Express Pvt Ltd,Companies(Private),Nagar,"11, Vandhana Building, Tolstoy Marg, New Delhi 110001, DL",-23327211,"airlinkerelhi@hotmail.com,,rtlogistics@bol.net.in,munusamy@linkers.co.in,suresh.docs@linkers.ind.in,",
Walplast Products Pvt Ltd,Companies(Private),Nagar,"Plot No 13, Rainbow Builing, Opposite Sanpada, Railway Station, Turbhegaon, Sector 24, Vashi, Mumbai 400705, MH",-41418213,",manoj.dabir@walplast.com,companysecretary@walplast.com,u003ecompanysecretary@walplast.com,vivek@icraindia.com,",
Schablona India Ltd,Companies(Private),Nagar,"Kassar, Bahadurgarh 124507, HR","+91-1276-241133, +91-1276-241134",",ngoenka@somanytiles.co,ngoenka@somanyceramics.com,marketing@schablona.in,ngoenka@somanytiles.co.in,",
Parth Natural Stones Pvt Ltd,Companies(Private),Nagar,"National Highway 8, Bhuwana, Udaipur 313001, RJ",-9414165305,",parthbolya@gmail.com,u003eparthbolya@gmail.com,info@companydetails.in,",
Oriental Trimex Ltd,Companies(Private),Nagar,"26/25, Bazar Marg, Old Rajendra Nagar, New Delhi 110060, DL","+91-11-43100200, +91-11-25769567",",oriental.ipo@aslfinancial.com,orientaltrimexlimited@gmail.com,info@orientaltrimex.com,",
Navkar Builders Ltd,Companies(Private),Nagar,"407, Sarita Complex, Behind Hotel Classic Gold, CG Road, Ahmedabad 380009, GJ",-26442281,",roopalcs2001@gmail.com,pradeep.kumar@careratings.com,navkarbuilders@yahoo.co.in,",
Murudeshwar Ceramics Ltd,Companies(Private),Nagar,"604/B, Murudeshwar Bhavan, Gokul Road, Hubli 580030, KA","+91-836-2331618, +91-836-2331615",",projects@naveentile.com,",
Ms Impex,Companies(Private),Nagar,"135, NMT, Sector 1, Rewari 123401, HR","+91-1274-321848, +91-9996032201",",x3ebcpl_calcutta@bcplindia.com,x22support@navpad.in,x3esupport@navpad.in,nikhil.soni@careratings.com,bcpl_calcutta@bcplindia.com,meenal.sikchi@careratings.com,sales@magnumohs.com,ms@glowstarindia.com,support@navpad.in,pawanakash@vsnl.net,ankur.sachdeva@careratings.com,roc.chennai@mca.gov.in,cs@marqueimpex.com,",
Kalyanpur Cements Ltd,Companies(Private),Nagar,"1, Maurya Centre, Frazer Road, Patna 800001, BR",-2222072,",x3einvestor@indiacements.co.in,kcl@giasel01.vsnl.net.in,kcl@giascl01.vsnl.net.in,pkchaubey@kalyanpur.com,investor@indiacements.co.in,",
A-One Industries,Companies(Private),Nagar,"506, 5th Floor, Mall Manglam Place, Ring Road, Sector 3, Rohini, New Delhi 110085, DL",-46479920,",s.chopra@dhruvindustries.com,canitinsingla9@gmail.com,care@aone.in,x3es.chopra@dhruvindustries.com,x3egarg.industries@rediffmail.com,cs@agindus.com,garg.industries@rediffmail.com,borachem@gmail.com,x3ecs@agindus.com,x3eborachem@gmail.com,",
VJ Media Works Pvt Ltd,Companies(Private),Nagar,"1019/2, 1st main, 1st cross, Geetanjali Layout, New Thippasandra, Bangalore 560075, KA",-40522766,",vjante@vjmediaworks.com,accounts@vjmediaworks.com,krutipromotions@gmail.com,jane@vjmediaworks.com,",
Vasundhara Media Pvt Ltd,Companies(Private),Nagar,"B-213, Nariana Industrial Area, Phase 1, New Delhi 110028, DL","+91-11-44111111, +91-9810489870","j.doe@gocityguides.com,,sangwan.nirpender@gmail.com,",
Touchstone Enterprises Pvt Ltd (OffiNeeds.com),Companies(Private),Nagar,"23/1, Behind Poornima Theatre, 1st Cross, J C Road, Bangalore 560027, KA",-43590579,"srikanth@offineeds.com,,info@offineeds.com,",
The Economist Group,Companies(Private),Nagar,"122/31, DBS House, Prescott Road, Mumbai 400001, MH","+91-22-40779237, +91-22-40779233",",x3eletters@economist.com,maxjacobs@economist.com,letters@economist.com,impactinfo@economist.com,editorialvacancies@economist.com,",
Tentacles Events & Marketing,Companies(Private),Nagar,"S-103, Manipal Centre, Dickenson Road, Off M G Road, Bangalore 560042, KA","+91-80-25580633, +91-80-25559234",,
Surya Adsystems Pvt Ltd,Companies(Private),Nagar,"C-23, Suryavani Ville, Gaganvihar Colony, Begumpet, Hyderabad 500016, TS","+91-40-27762455, +91-40-27762456","surya@suryaads.com,,campaign.advt@gmail.com,",
SIBSA Digital Pvt Ltd,Companies(Private),Nagar,"61, Chimes, 5th floor, Sector 44, B Wing, Gurgaon 122003, HR",-4228455,",sugandha.dubey@gmail.com,sarvesh.bagla@gmail.com,cosect@chimesgroup.in,",
Shubang Communications Pvt Ltd,Companies(Private),Nagar,"582/35, Sriramnagar Colony, Sanjeeva Reddy Nagar, Hyderabad 500038, TS",-23810252,",agarwal.manoj1968@gmail.com,",
Sanskar Info TV Pvt Ltd (Pittie),Companies(Private),Nagar,"D-56, Sector 2, Noida 201301, UP",-4272500,",info@sanskargroup.in,x3einfo@sanskargroup.in,rmtiwarifcs@gmail.com,",
RIVOX,Companies(Private),Nagar,"A-2, Mantra Complex, Judges Bung Road, S G Highway, Bodakdev, Ahmedabad 380054, GJ","+91-79-40025161, +91-79-40026957",,
Right Win Medias,Companies(Private),Nagar,"143-C, Anthonipuram, Suramangalam, Salem 636005, TN",-2336328,",roc.chennai@mca.gov.in,contact@nirmalbang.com,paruccofoundry@gmail.com,",
Reality Premedia Services Pvt Ltd,Companies(Private),Nagar,"4/001, SEZ S.P Infocity, Wing A, Pune Saswad Road, Phursunghi, Pune 412308, MH",-40604729,",John.Smith@realitypremedia.com,last@realitypremedia.com,",
Prabhatam Group of Companies,Companies(Private),Nagar,"38, Rashtriya Tower, Rani Jhansi Road, Jhandewalan, New Delhi 110055, DL","+91-11-43603300, +91-11-43603301","parmod.prabhatam@gmail.com,,pramod@prabhatamgroup.com,pramod.prabhatamgroup@gmail.com,",
PDA Tradefairs (Pradeep Deviah & Associates Pvt Ltd),Companies(Private),Nagar,"32/2, 'PDA' House, Frazer Town, Spencer Road, Bangalore 560005, KA","+91-80-42505000, +91-80-25547434",,
P & A Media Ventures Pvt Ltd,Companies(Private),Nagar,"D-268, Oshiwara Industrial Estate, Opposite Goregaon Bus Depot, New Link Road, Goregaon West, Mumbai 400104, MH",-42641605,,
Onixx Communication Pvt Ltd,Companies(Private),Nagar,"B-109, 4th Floor, Shashi Garden, Mayur Vihar, Phase I, New Delhi 110091, DL",-22757989,",shekhar@onixxindia.com,onixstructurepvt.ltd@gmail.com,ojasvinwc@gmail.com,",
Nijukti Khabar,Companies(Private),Nagar,"TS-3/193, Mancheswar Industrial Estate, Bhubaneswar 751010, OD","+91-674-2582534, +91-674-2587532",",nijuktikhabar@gmail.com,Pratigyannews09@gmail.co,shreehbe@gmail.com,",
Navajyoti Printing Press Pvt Ltd (Dainik Navajyoti),Companies(Private),Nagar,"72, Navajyoti Building, Kesarganj, Ajmer 305001, RJ",-2429570,",navajyotipress@gmail.com,d.jane@dainiknavajyoti.com,",
Monkey Wrench Communications Pvt Ltd,Companies(Private),Nagar,"122/1/1-G, Satyendra Nath, Manjumdar Sarani, Kolkata 700026, WB",-24198152,",info@monkeywrench.in,sanjay@monkeywrench.in,jaivikramsingh@hotmail.com,",
Mediaone Global Entertainment Ltd (S Lad),Companies(Private),Nagar,"26/13, Saraswati Estate, Mahalingapuram, Chennai 600034, TN","+91-44-42148005, +91-44-42146321",",contact@mediaoneglobal.com,contact@mediaoneglobal.in,",
Madison Communications Pvt Ltd,Companies(Private),Nagar,"349, Business Point, Western Express Highway, Andheri East, Mumbai 400015, MH","+91-22-66401500, +91-22-66750419",",x3eneha@madisonindia.com,neha@madisonindia.com,",
Lifes Calling Sports Management Pvt Ltd,Companies(Private),Nagar,"2946/E, Opposite Mar Vijaynagar, Service Road, Bangalore 560040, KA",-9980744241,",sunil@lifeiscalling-sports.com,",
JCDecaux Advertising India Pvt Ltd,Companies(Private),Nagar,"231, Okhla Industrial Estate, Phase III, New Delhi 110020, DL",-40652920,",x3erajeev.sharma@jcdecaux.com,rajeev.sharma@jcdecaux.com,",
Infallible Ideas,Companies(Private),Nagar,"Manik Arcade, 2nd Floor, Kalda Corner, Ramanagar, Aurangabad 431001, MH","+91-9260606001, +91-9260606002","info@domain.com,,",
Impression Plus Concepts and Solutions Pvt Ltd,Companies(Private),Nagar,"1387, Near I Discovery School, Sector 46, Gurgaon 122001, HR",-9818374296,",pawan@impressionplus.co.in,rksachdev.associates@gmail.com,office@ImpressionsServices.in,",
Hypnautyx Entertainment Pvt Ltd,Companies(Private),Nagar,"7, Saraswathi Street, Mahalingapuram, Nungambakkam, Chennai 600034, TN",-9380503913,"accounts@hypnautyx.com,,jane@hypnautyx.com,",
Hindustan Media Ventures Ltd (KK Birla),Companies(Private),Nagar,"18/20, Hindustan Times House, 2nd Floor, Kasturba Gandhi Marg, New Delhi 110001, DL","+91-11-66561400, +91-11-23361234","feedback@livehindustan.com,,Jaideep.dahiya@hindustantimes.com,atpriyanko.mukherjee@hindustantimes.com,einward.ris@karvy.com,corporatedept@hindustantimes.com,",
Gemini Industries and Imaging Pvt Ltd,Companies(Private),Nagar,"28, New Bangaru Colony West, K K Nagar, Chennai 600078, TN",-23642293,"office@geminicolorlab.org,,OFFICE@GEMINICOLORLAB.ORG,",
Fotobubbles Tech Pvt Ltd,Companies(Private),Nagar,"2800, Srinidhi, 1st Floor, 27th Main, HSR Layout, Sector 1, Bangalore 560102, KA","+91-80-42134706, +91-80-22583301",",info@fotobubbles.com,ca.gswco@gmail.com,",
Film Farm India Pvt Ltd,Companies(Private),Nagar,"129, SBT Road, Mahada, Andheri West, Mumbai 400053, MH",-26353249,",accountsffipl@gmail.com,filmfarm@filmfarmindia.com,studioeplus@hotmail.com,x3esanjay.talavlikar@rieter.com,sanjay.talavlikar@rieter.com,",
Exhibitions India Group Pvt Ltd,Companies(Private),Nagar,"217-B, 2nd Floor, Okhla Industrial Estate, Phase III, New Delhi 110020, DL",-42794920,"sunilk@eigroup.in,,info@abec.asia,anupam.sharma@expobazaar.com,delhi@eigroup.in,",
Eventoss Entertainment Pvt Ltd,Companies(Private),Nagar,"403 & 208, Kauhsalya Estate, Bander Bagicha, Dak Bunglow Road, Patna 800001, BR",-2230576,",eventoss@gmail.com,info@eventoss.in,",
Event Speciale,Companies(Private),Nagar,"107/2416, Sahajanand Complex, East Street Camp, Pune 411001, MH",-26854929,",roc.chennai@mca.gov.in,rerid@rogersworldwideindia.com,",
E I Green Management LLP,Companies(Private),Nagar,"4024, 1st Floor, 13th G Main, 1st Cross, HAL 2nd Stage, Indirangar, Bangalore 560038, KA",-25288980,,
DigiStreet Media Pvt Ltd,Companies(Private),Nagar,"B-302, Pacific Business Park, Site 4, Near Kaushambi Metro Station, Ghaziabad 201010, UP",-4563584,"John@digistreetmedia.com,,",
DDB Mudra Group (ADAG),Companies(Private),Nagar,"Mudra House, Opposite Grand Hyatt, Santacruz East, Mumbai 400055, MH",-33080739,",last@ddbmudragroup.com,John.Smith@ddbmudragroup.com,",
Dainik Sambad,Companies(Private),Nagar,"7, Nilambar Mukherjee, Kolkata 700004, WB","+91-33-25550791, +91-33-25550792",",ssdatta23@gmail.com,",
Classic Apertures Professional Photography Pvt Ltd,Companies(Private),Nagar,"FF-114, Srinivasa Nilayam,? Phase 6, K P H B Colony, Kukatpally, Hyderabad 500072, TS",-32913119,",classicapertures@gmail.com,",
Chary Publications Pvt Ltd,Companies(Private),Nagar,"201, Premalaya, Next To Cafe Coffee Day, Opposite Telecom Factory, Deonar, Mumbai 400088, MH",-25073232,",miyer@charypublications.in,sub@charypublications.in,roc.chennai@mca.gov.in,charybank@gmail.com,",
Catrack Entertainment Pvt Ltd,Companies(Private),Nagar,"400-C, Sector 82, Mohali 160059, CH",-9876304656,",parveshtandon@yahoo.in,",
C TO C Marketing Pvt Ltd,Companies(Private),Nagar,"11, Bearing No 259, 1st Floor, Hauz Rani, Opposite Max Hospital, Malviya Nagar, New Delhi 110017, DL",-26682499,",x22cgmmarketingprivatelimited@gmail.com,x3emalhotrampl@gmail.com,mohan@randsca.net,rajan@c2cm.com,u003erajan@c2cm.com,cgmmarketingprivatelimited@gmail.com,malhotrampl@gmail.com,sachinsandhu71@gmail.com,x3ecgmmarketingprivatelimited@gmail.com,x22malhotrampl@gmail.com,",
Brandish Media & Entertainment Pvt Ltd,Companies(Private),Nagar,"3, Parag Niketan, 10th Road, JVPD Scheme, Vile Parle West, Mumbai 400049, MH","+91-22-26207623, +91-22-26207178",,
BrainWave Biosolutions Pvt Ltd,Companies(Private),Nagar,"305, TTKrishnamachari Road, Chennai 600018, TN",-43051122,",roc.chennai@mca.gov.in,info@brainwave.in,",
Binary Berries Advertising & Resources Pvt Ltd,Companies(Private),Nagar,"3/43/165, Flat No 1, 1st Floor, Ghanshyam Super Market, Wellington Road, Secunderabad 500003, AP",-9849128555,,
Annik Technology Services Pvt Ltd,Companies(Private),Nagar,"World Tech Park, 14th Floor, Block A-2, Sector 30, Gurgaon 122001, HR","+91-124-4003282, +91-124-6179000",",rahul_sahgal@hotmail.com,",
Anil Kapoor Film Co Pvt Ltd,Companies(Private),Nagar,"601, Saboy Chambers, Dattatray Marg, Shastri Nagar, Santacruz West, Mumbai 400045, MH","+91-22-26130620, +91-22-66066299",",finance@akfcnetwork.in,info@akfcnetwork.in,",
Amura Marketing Technologies,Companies(Private),Nagar,"101 To 104, Elite Premio, 1st Floor, Near Vijayadashami Dasra Chowk, Pune 411045, MH",-66895925,",x3esupport@amuratech.com,u003evinayak@amuratech.com,vinayak@amuratech.com,support@amuratech.com,first@amuratech.com,",
Alakananda Advertising PvtLtd,Companies(Private),Nagar,"69, DSIDC Shed, 1st Floor, Scheme I, Okhla Phase II, New Delhi 110020, DL","+91-11-26386831, +91-11-26386832",",alaknandaksp@gmail.com,narender@adsyndicate.in,",
AimCorp,Companies(Private),Nagar,"RS-4, Bombay Market, Umarwada Road, Surat 395010, GJ",-2345220,",akshat@aimcorp.in,",
Abhiyan Marketing Services Pvt Ltd,Companies(Private),Nagar,"O-132, DLF Shopping Mall, DLF City, Phase I, Arjun Marg, Gurgaon 122002, HR","+91-124-4380251, +91-124-4380252",",info@abhiyan.in,",
Trustman Management Consultants Pvt Ltd,Companies(Private),Nagar,"298-A, New Friends Colony, New Delhi 110065, DL",,"mkumar@velsof.com,abhishekchhapolika@icai.org,mkumar@velsof.com,abhishekchhapolika@icai.org,virtualvelocitysoftware@gmail.com,",
Triumph India Software Services Pvt Ltd,Companies(Private),Nagar,"9, Raheja Towers, MG Road, Bangalore 560001, KA",,"last@valueonshore.com,",
Topsys Solutions Pvt Ltd,Companies(Private),Nagar,"135, 1, 3, 27, BTM 1st Stage, Bangalore 560076, KA",,"swapnil_dc@yahoo.com,legal@pharmeasy.in,anitha.kale@arnekt.com,swapnil_dc@yahoo.com,x3elegal@pharmeasy.in,x3eanitha.kale@arnekt.com,",
Team Web Power,Companies(Private),Nagar,"52, 1, 47-C, 2, Anna Nagar Plaza, Avenue Anna Nagar, Chennai 600040, TN",,"srini@thorantech.com,",
Sbbs Infotech Pvt Ltd,Companies(Private),Nagar,"618, Kalikapur Road, Kolkata 700099, WB",,"compliance@silverskills.com,x3ecompliance@silverskills.com,",
Maximaa Infoways Pvt Ltd,Companies(Private),Nagar,"1-B, Yashkamal, Tithal Road, Valsad 396001, GJ",,"clients@msbpl.in,vikas@retailwhizz.com,vikas@retailwhizz.com,vmpl.gpl@gmail.com,clients@msbpl.in,vikas@retailwhizz.com,vikas@retailwhizz.com,",
Interglobe Enterprises Ltd (Interglobe),Companies(Private),Nagar,"2-B, DLF Corporate Park, DLF Phase 3, Gurgaon 122002, HR",-244284709,"jfl.contact@jetair.co,jfl.contact@jetair.co,jfl.contact@jetair.co.in,jfl.contact@jetair.co.in,",
Ids Infotech Ltd,Companies(Private),Nagar,"138-C, Phase 8, Mohali 160022, PB",,"akshayk.sangwan@gmail.com,akshayk.sangwan@gmail.com,akshayk.sangwan@gmail.com,hr.yashka@gmail.com,",
Ditech Process Solutions Pvt Ltd,Companies(Private),Nagar,"F, 6, Solaris 1, Opposite to L & T Gate No 6, Saki Vihar Road, Powai, Andheri, Mumbai 400072, MH",,"info@easyway3e.com,u003einfo@easyway3e.com,info@easyway3e.com,info@easyway3e.com,info@easyway3e.com,u003einfo@easyway3e.com,info@easyway3e.com,info@easyway3e.com,info@easyway3e.com,info@LawyerServices.in,",
Vishnu Gum & Chemicals,Companies(Private),Nagar,"186, Amrut Chem Compound Jolva, Palsana, Bardoli 394315, GJ","+91-2622-273046, +91-9825148532","sales@waxoils.com,sales@waxoils.com,sales@waxoils.com,sales@waxoils.com,payal.sarvaiya@waxoils.com,",
Vijayasri Organics Ltd,Companies(Private),Nagar,"Plot No 39, Vijayasri Enclave, Vikaspuri, Hyderabad 500038, TS","+91-40-23801837, +91-40-65344044","vinichem@hotmail.com,vinichem@hotmail.com,mumbaidacs.private@gmail.com,",
Tupperware India Pvt Ltd,Companies(Private),Nagar,"1A, Udyog Vihar, Sector 18, Gurgaon 122001, HR",-4322255,,
Srikrishna Polymer Industries Pvt Ltd,Companies(Private),Nagar,"G-72, Site 5, UPSIDC, Surajpur Industrial Area, Kasna, Greater Noida 201306, UP",-2341365,"stayon123@rediffmail.com,enquiry@sheetlapapers.com,stayon123@rediffmail.com,enquiry@sheetlapapers.com,",
Sri Vinayaka Trading Co,Companies(Private),Nagar,"4-A, 2nd Cross, Srivari Tower, Kamaraj Colony, Hosur 635109, TN",-8870006613,"info@starplasticind.com,gajjarteja22@gmail.com,info@starplasticind.com,",
Sree Rayalaseema Alkalies And Allied Chemicals Ltd (TGV),Companies(Private),Nagar,"25, 1st Floor, Radha Nivas, Shankara Park Road, Shankara Puram, Bangalore 560004, AP","+91-8518-221933, +91-8518-280006","muthukumar@sriramfoams.com,enquiry@sriramfoams.com,",
Solaris ChemTech Industries Ltd (Avantha Group),Companies(Private),Nagar,"1st India Place, Tower C, Mehrauli Road, Gurgaon 122002, HR","+91-124-2804242, +91-124-4099295",,
Slach Hydratecs Equipment Pvt Ltd,Companies(Private),Nagar,"15, Najafgarh Road, New Delhi 110015, DL","+91-11-25928100, +91-11-25928200",,
Shreeji Plastic (Dodia Group),Companies(Private),Nagar,"Unit 28, Paras Industrial Estate, Kanchpada, Malad West, Mumbai 400064, MH",-28832160,"krishnaplasticprivatelimited@gmail.com,rkipl@rediffmail.com,naveengoyal03@gmail.com,rkipl@rediffmail.com,x3ekrishnaplasticprivatelimited@gmail.com,",
Shivalik Agro Poly Products Ltd,Companies(Private),Nagar,"B-45, Phase 3, Industrial Area, SAS Nagar, Mohali 160055, CH",-2227168,"bhandari.p.ltd@gmail.com,u003ebhandari.p.ltd@gmail.com,u003ebhandari.p.ltd@gmail.com,bhandari.p.ltd@gmail.com,bhandari.p.ltd@gmail.com,n@gmail.com,Bhandari.p.ltd@gmail.com,bhandari.p.ltd@gmail.com,",
Sharda Containers Pvt Ltd,Companies(Private),Nagar,"363, Patparganj Industrial Estate, New Delhi 110092, DL",-22161930,"shivaagro1@gmail.com,support@sivashakthi.com,windmills@steragro.com,contact@shivaagro.org,shivaagro1@gmail.com,support@sivashakthi.com,windmills@steragro.com,",
Sharad Micro Die & Engg Works,Companies(Private),Nagar,"T-12, Udyog Nagar, Navsari 396445, GJ",-243295,"shivshakti55@gmail.com,siba@goldseal.in,shivshakti55@gmail.com,abc@email.com,siba@goldseal.in,",
Shaily Engineering Plastics Ltd,Companies(Private),Nagar,"Survey No 364 & 366, Rania, Savli 391780, GJ","+91-2667-244307, +91-2667-244348","Biodegradable@Live.In,dk@prayagmb.com,primo@primoltd.com,abhijit.shah@ski.com,shanthiplastic@gmail.com,info@shanthiplastic.in,fareed@shanthiplastic.in,Biodegradable@Live.In,dk@prayagmb.com,primo@primoltd.com,abhijit.shah@ski.com,",
Schwabe Incoat,Companies(Private),Nagar,"1/204, 2nd Floor, Navjivan Society, Lamington Road, Mumbai 400008, MH","+91-22-23071996, +91-22-23092626","nshah@shahpaperplast.in,sales@shahpaperplast.in,nshah@shahpaperplast.in,jane@shahpaperplast.in,nshah@shahpaperplast.in,",
Sarvottam Polymers Pvt Ltd,Companies(Private),Nagar,"B-13, Dattani Tower, Near Mc Donalds, Kora Kendra Road, S V Road, Borivali W",-28330269,"tomktg@savita.com,Customersupport@savita.com,polymers@savita.com,Customersupport@savita.com,renewable@savita.com,last@savita.com,legal@savita.com,legal@savita.com,fmco@frenchmotor.in,tomktg@savita.com,last@savita.com,legal@savita.com,legal@savita.com,fmco@frenchmotor.in,x3eCustomersupport@savita.com,x3epolymers@savita.com,x3eCustomersupport@savita.com,x3erenewable@savita.com,",
Rubamin Ltd,Companies(Private),Nagar,"Synergy House, Subhanpura, Vadodara 390023, GJ","+91-265-2282079, +91-265-2282078","amish@skci.in,u003eamish@skci.in,sales@skci.in,sanjaychem223@gmail.com,amish@skci.in,u003eamish@skci.in,sales@skci.in,amish@skci.in,x3esanjaychem223@gmail.com,",
Rishichem Distributors Pvt Ltd,Companies(Private),Nagar,"B-104/105, Citi Point, JB Nagar, Andheri East, Mumbai 400059, MH",-40403131,"wrtaccounts@wrtbros.com,ronix167@gmail.com,info@ronixpolymer.in,ronix@vsnl.com,ronix@vsnl.com,wrtaccounts@wrtbros.com,",
Reichhold India Pvt Ltd,Companies(Private),Nagar,"A-101, Deipha Orshid Avenue, Heeranandani Business Park, Powai, Mumbai 400007, MH",-42563264,,
RC Ventures,Companies(Private),Nagar,"New No 59, Old No 29, Nainiappan Street, Mannady, Chennai 600001, TN",-25242197,"last@renukasugars.com,pgtulsianroc@gmail.com,last@renukasugars.com,diamart123@gmail.com,",
R L Chemical Industries Pvt Ltd,Companies(Private),Nagar,"22, Abhishek, Vadgadi, 303, Samuel Street, Masjid, Mumbai 400003, MH","+91-22-23437035, +91-22-23423229","info@desaienterpriseshubli.com,sumati1106@yahoo.co.in,info@desaienterpriseshubli.com,sumati1106@yahoo.co.in,raghunath.vepl@gmail.com,",
Quality Hindustan Corporation,Companies(Private),Nagar,"220, Adarsh Industrial Estate, Sahar Road, Andheri East, Mumbai 400099, MH","+91-22-28325110, +91-8042962015","rakesh.shejwal@aartigroup.cominfo,rakesh.shejwal@aartigroup.cominfo,",
Process Technologies & Services,Companies(Private),Nagar,"226, Jodhpur Park, Kolkata 700068, WB","+91-9903300264, +91-7439376587","arvind@pvn.in,arvind@pvn.in,vijukhirkar67@gmail.com,arvind@pvn.in,",
Pratibha Group,Companies(Private),Nagar,"121, GIDC, Pandesara, Surat 394221, GJ",-2897911,"investor@primplastics.com,investor@primaplastics.com,investor@primplastics.com,",
Prakash Chemicals International Pvt Ltd,Companies(Private),Nagar,"39/40, Prakash House, Opposite BIDC, Krishna Estate, Vadodara 390016, GJ",-3926174,"precision_bom@rediffmail.com,precision_bom@rediffmail.com,grievances@skylinerta.com,precision_born@rediffmail.com,info@medigrip.in,precision_bom@rediffmail.com,precision_bom@rediffmail.com,grievances@skylinerta.com,precision_born@rediffmail.com,info@medigrip.in,",
Phoenix Global,Companies(Private),Nagar,"A-602, Samarth Aaishwarya Building, Lokandwala, Andheri West, Mumbai 400053, MH","+91-22-26346482, +91-22-26398537","pppl@sancharnet.in,info@pithampurpoly.in,",
Papro Industries,Companies(Private),Nagar,"Plot No 3A, Unit No 18, 1st Floor, SV Road, Udyog Nagar, Goregaon West, Mumbai 400062, MH","+91-22-28784786, +91-22-28784787",,
Panchamrut Chemicals Pvt Ltd,Companies(Private),Nagar,"709, 710, Harikrupa Tower, Near Old Sharda Mandir Crossing, Ellisbridge, Ahmedabad 380006, GJ",-26447458,"parasplastic@hotmail.com,parasplastic@hotmail.com,",
Nivedita Chemicals Pvt Ltd,Companies(Private),Nagar,"A-14, MIDC, Andheri East, Mumbai 400093, MH","+91-22-28329337, +91-22-28327321","suresh@nugroup.in,suresh@nugroup.in,suresh@nugroup.in,suresh@nugroup.in,suresh@nugroup.in,suresh@nugroup.in,",
New Alliance Dye Chem Pvt Ltd,Companies(Private),Nagar,"3, 4, Saurabh Co Operative Housing Soceity, Prarthana Samaj Road, Vile Parle East, Mumbai 400057, MH",-26171838,"info@payalgroup.com,mohan.ashwani@gmail.com,fcmca10@gmail.com,info@payalgroup.com,",
Nav Bharat Metalic Oxide Industries Pvt Ltd,Companies(Private),Nagar,"315, Marathon Max, LBS Marg, Mulund West, Mumbai 400080, MH",-25670508,"info@neelamaqua.com.sa,info@neelamaqua.com.sa,",
Nakoda Chemicals Ltd,Companies(Private),Nagar,"Plot No 64/A, Phase 1 IDA, Jeedimetla, Hyderabad 500055, TS","+91-40-23447755, +91-40-23447756","nimeshshah1966@hotmail.com,nimeshshah1966@hotmail.com,mhathia@tatachemicals.com,",
Nagarjuna Fertilizers and Chemicals Ltd (Nagarjuna),Companies(Private),Nagar,"Nagarjuna Hills, Hyderabad 500082, TS","+91-40-23357200, +91-40-23356418",,
Modern Metallurgicals,Companies(Private),Nagar,"Ct-1, City Heart Towers, Gayatri Nagar, Vijayawada 520008, AP","+91-866-2482129, +91-866-6533242",,
Miku Traders,Companies(Private),Nagar,"518, Yashkamal Building, Sayajiganj, Vadodara 390005, GJ",-2363500,,
Microfine Industries,Companies(Private),Nagar,"316/1, National Highway 8, GIDC, Ranoli, Vadodara 391350, GJ","+91-265-2308520, +91-9824040252","bagmacker@gmail.com,bagmacker@gmail.com,neelamrna@gmail.com,",
Mangalam Timber Products Ltd (BK Birla),Companies(Private),Nagar,"9/1, 10th Floor, RN Mukherjee Road, Kolkata 700001, WB","+91-33-22438706, +91-33-22438707","123@marinechemical.in,akapoor@rishiroop.com,sales07@acuro.in,marinechemical@gmail.com,123@marinechemical.in,wps.delhi@wilhelmsen.com,akapoor@rishiroop.com,sales07@acuro.in,",
Logicon Engineers Pvt Ltd,Companies(Private),Nagar,"Plot R-78, TTC, MIDC Industrial Area, Rabale, Ghansoli, Navi Mumbai 400703, MH",-27699823,"info@mpdin.com,info@mpdyechem.com,info@mpdin.com,info@mpdyechem.com,info@mpdyechem.com,info@mpdyechem.com,info@mpdyechem.com,info@mpdin.com,info@mpdyechem.com,info@mpdyechem.com,info@mpdyechem.com,info@mpdyechem.com,x3einfo@mpdin.com,x3einfo@mpdyechem.com,",
KV Fire Chemicals India Pvt Ltd,Companies(Private),Nagar,"Plot No 32, Lane D, Kamala Niwas, Sector 8, Vashi, Mumbai 400703, MH",-27820758,"laxmiaccounts@skgroup.org,",
K-TECH India Ltd,Companies(Private),Nagar,"7-B, Bata Compound, Near Flower Valley, Eastern Express Highway, Khopat, Thane 400601, MH","+91-22-25476486, +91-22-25476496","jane.d@kushalgroup.com,",
Krishna Industries,Companies(Private),Nagar,"Plot No L-30-46-1 & 2, Phase 3, GIDC Industrial Estate, Naroda, Ahmedabad 382330, GJ",-22822542,"kumar.archtech@rediffmail.com,kumar.archtech@rediffmail.com,kumar.archtech@rediffmail.com,pradeep.kumar@careratings.com,x22kumar.archtech@rediffmail.com,x3ekumar.archtech@rediffmail.com,x3ekumar.archtech@rediffmail.com,",
Kolorjet Chemicals Pvt Ltd,Companies(Private),Nagar,"B/5, Raj Ratan Industrial Estate, Liberty Garden Road, Malad West, Mumbai 400001, MH","+91-22-28826803, +91-22-28826795","info@kplintl.com,karishma@kplintl.com,karishma@kplintl.com,karishma@kplintl.com,info@kplintl.com,jane.doe@kplintl.com,info@kplintl.com,jane.doe@kplintl.com,x22karishma@kplintl.com,x3ekarishma@kplintl.com,x3ekarishma@kplintl.com,",
Kerox Chemicals Pvt Ltd,Companies(Private),Nagar,"95, Basavanapura, Bannerghatta Road, Bengaluru 560083, KA","+91-80-28429532, +91-80-28429775","icegatehelpdesk@icegate.gov.in,manish@khodiyargroup.com,exports.bts@gmail.com,manishbhimani7@gmail.com,icegatehelpdesk@icegate.gov.in,manish@khodiyargroup.com,",
Kaveri Metallising And Coating Industries Pvt Ltd,Companies(Private),Nagar,"Plot No 11, Kamaldeep Industrial Estate, Opposite New Arvind Mill, Khatraj, Kalol 382721, GJ","+91-2764-281536, +91-2764-281537","tapashghosh199@gmail.com,tapashghosh199@gmail.com,",
Kapurthala Durastic Pvt Ltd,Companies(Private),Nagar,"72, Jalandhar Road, Dhawankha Jagir, Kapurthala 144601, PB","+91-1822-231766, +91-9814631764","vrkedia@yahoo.co.in,u003evrkedia@yahoo.co.in,viral@kocpl.com,vrkedia@yahoo.co.in,j.doe@kediaorganic.in,u003evrkedia@yahoo.co.in,viral@kocpl.com,vrkedia@yahoo.co.in,j.doe@kediaorganic.in,",
K Patel Chemopharma Pvt Ltd (K Patel Group),Companies(Private),Nagar,"101, Alaknanda, Anna Saheb, Vartak Marg, TPS 3, Borivali, Mumbai 400092, MH",-28994073,"pcsbalamurugan@gmail.com,sales@kalbonusa.com,sales@kalbonusa.com,sales@kalbonusa.com,sales@kalbonusa.com,sales@kalbonusa.com,pcsbalamurugan@gmail.com,sales@kalbonusa.com,pcsbalamurugan@gmail.com,commoditiesagro@gmail.com,x3epcsbalamurugan@gmail.com,",
Jyoti Colours Pvt Ltd,Companies(Private),Nagar,"486, 11th Cross, 2nd Phase, 8th Main Road, JP Nagar, Bengaluru 560078, KA","+91-80-26586506, +91-80-26586507",,
Hydro Carbons & Chemicals,Companies(Private),Nagar,"25, Chanditala Main Road, Kolkata 700053, WB","+91-33-24032585, +91-33-24031866","sales@imperialchem.com,marketing@imperialchem.com,sales@imperialchem.com,sales@imperialchem.com,",
Gupta Chemicals,Companies(Private),Nagar,"180-C, Gali Abdul Hakim, Tilak Bazar, New Delhi 110006, DL",-43642000,"gxxxxxxxl@cscpl.com,harshilchemindia@gmail.com,gxxxxxxxl@cscpl.com,",
Gayatri Rub Tech,Companies(Private),Nagar,"3609/31/1, Kameshwar Estate, Opposite Petrol Pump, Phase 4, Vatva, Ahmedabad 382445, GJ",-25841261,"sandip@tradeindia.com,Sreeji@sreeragamexports.com,Sreeji@sreeragamexports.com,Sreeji@sreeragamexports.com,tech.support@ggorganics.co.in,draja@ggorganics.co.in,draja@ggorganics.co.in,draja@ggorganics.co.in,sandip@tradeindia.com,tech.support@ggorganics.co.in,draja@ggorganics.co.in,draja@ggorganics.co.in,draja@ggorganics.co.in,x22Sreeji@sreeragamexports.com,x3eSreeji@sreeragamexports.com,x3eSreeji@sreeragamexports.com,",
Fosroc Chemicals India Pvt Ltd,Companies(Private),Nagar,"38, 2nd & 3rd Floor, CBI Road, 12th Cross, Ganaganagar, Hebbal, Bengaluru 560024, KA",-42521889,"mohan@yahoo.in,hr@sundaksolar.com,galaxy.mohan@yahoo.in,inq@galaxysivtek.com,weblead@galaxysivtek.com,hr@sundaksolar.com,",
Finar Ltd,Companies(Private),Nagar,"184-185-186/P, Sarkhej Bavla Highway, Chacharwadi-Vasna, Bavla, Sanand 382110, GJ",-659383,"sheejalabapu@yahoo.com,rbdyechem@rediffmail.com,floradye@mtnl.net.in,dyes@floradye.com,pharma@floradye.com,rm@floradye.com,sheejalabapu@yahoo.com,rbdyechem@rediffmail.com,",
FIBREX Construction Chemicals Pvt Ltd,Companies(Private),Nagar,"Plot No 73, 1st Floor, New DLF Industrial Area, Faridabad 121003, HR",-4081450,"careers@asianpaints.com,",
Dynamic Rubbers Pvt Ltd,Companies(Private),Nagar,"904/05, Suyojan Towers, Near Hotel President, Off CG Road, Ahmedabad 380009, GJ",-26420901,"sales@easternpolycraft.com,sales@easternpolycraft.com,sales@easternpolycraft.com,accounts@easternpolycraft.com,sales@easternpolycraft.com,sales@easternpolycraft.com,sales@easternpolycraft.com,accounts@easternpolycraft.com,excel.mumbai@excelind.co,",
DK Pharma Chem Pvt Ltd,Companies(Private),Nagar,"606, 607, 6th Floor, Gateway Plaza, Hiranandani Gardens, Powai, Mumbai 400076, MH","+91-22-42153111, +91-22-42153112","info@dugars.com,projects@dugars.com,info@dugars.com,projects@dugars.com,surat@dugars.com,info@dugars.com,projects@dugars.com,surat@dugars.com,info@dugargroup.net,",
Classic Paints,Companies(Private),Nagar,"3rd Floor, The Monarch, PT Usha Road, Kochi 682011, KL","+91-484-2382662, +91-484-2363541","kdshah@colortek-india.in,bhaumik.vyas@gmail.com,n@vedarealty.co.in,bhaumik.vyas@gmail.com,info@colortek.in,",
Choksey Chemicals Pvt ltd,Companies(Private),Nagar,"111, Industrial Area, Near Cinemax, Sion East, Mumbai 400022, MH",+91-22-24090124,"drcipy@pidilite.com,xx@cipypolyurethane.com,drcipy@pidilite.com,xx@cipypolyurethane.com,",
BPS Products Pvt Ltd,Companies(Private),Nagar,"Block B, Bhola Nath Nagar, Shahdara, New Delhi 110032, DL","+91-11-22308682, +91-11-22309682","contact@calco.in,contact@calco.in,",
Bec Chemicals Pvt Ltd,Companies(Private),Nagar,"S-86, IBI HSE Chimatpada, Marol Naka, Andheri Kurla Road, Andheri East, Mumbai 400059, MH","+91-22-28505152, +91-22-28500112",,
Amazon Papyrus Chemicals Pvt Ltd,Companies(Private),Nagar,"7-B, Anrich Industrial Estate, Bollaram, Narsapur 502325, AP",+91-8458-279488,"violet@amipigments.com,amipigments@outlook.com,",
Altret Performance Chemicals Gujarat Pvt Ltd,Companies(Private),Nagar,"12/2881, Altret House, Main Road, Sayedpura Surat 395003, GJ","+91-261-2451807, +91-261-2451808","INFO@TGLADVISORS.COM,shreeambika.manishgupta@gmail.com,ambikadelhi99@gmail.com,INFO@TGLADVISORS.COM,diwaker@teamambika.com,diwaker@teamambika.com,",
Alps Chemicals Pvt Ltd,Companies(Private),Nagar,"Plot No 612, GIDC Phase 4, Vatva, Ahmedabad 382445, GJ","+91-79-40235235, +91-79-25831927","ambicapastind@yahoo.com,ambica@ambica.co,ambica@ambicagroup.com,info@ambicamachinetools.com,sales@ambicamachinetools.com,",
Yoma Multinational Solutions LLP,Companies(Private),Nagar,"203-A, IRIS Tech Park, Sector-48, Sohna Road, Gurgaon 122018, HR",+91-124-4511999,"anilk@zenstarcs.com,anilk@zenstarcs.com,anilk@zenstarcs.com,anilk@zenstarcs.com,",
Yinsol,Companies(Private),Nagar,"4th Floor, Sri Nagar, Hyderabad 500073, TS",+91-7675992196,"hr@adani.in,mumbaidacs.private@gmail.com,hr@adani.in,",
Xcelion Advisory Pvt Ltd,Companies(Private),Nagar,"47, Sector-32, Gurgaon 122001, HR","+91-124-4252069, +91-124-4035555",,
Wruksham Management Services Pvt Ltd,Companies(Private),Nagar,"15, Nagappan Street, Jafferkhanpet, Ashok Nagar, Chennai 600083, TN",+91-44-43589646,"yu@yudirect.com,roc.chennai@mca.gov.in,yu@yudirect.com,roc.chennai@mca.gov.in,",
Wazir Advisors Pvt Ltd,Companies(Private),Nagar,"115, 3rd Floor, Institutional Area, Sector-44, Gurgaon 122002, HR",+91-124-4590300,,
VentureBean Consulting Pvt Ltd,Companies(Private),Nagar,"704-A, Mantri Classic, Oramangala, Bangalore 560034, KA",+91-9845452199,"sascardboard@rediffmail.com,info@techvibrant.com,venu@vibranttech.net,info@vibranttech.net,sascardboard@rediffmail.com,",
Vaidat Legale Services,Companies(Private),Nagar,"415-A, Defence Colony, New Delhi 110024, DL",+91-11-46045777,"anand@vanuston.com,",
Think People Solutions Pvt Ltd,Companies(Private),Nagar,"J216, 2nd Floor,Tower No ?5, Vashi, Mumbai 400703, MH",+91-22-41130433,"consumer.support@in.experian.com,consumer.support@in.experian.com,info@mastersindia.co,Vinod.Kumar2@tmf-group.com,consumer.support@in.experian.com,consumer.support@in.experian.com,info@mastersindia.co,",
The Banyan Tree,Companies(Private),Nagar,"6, Panchdeep, Behind Pandit Automotive, ITI Road, Aundh, Pune 411007, MH",+91-20-32918698,"savaliya.nikunj@bayer.com,aadyaoffice.nidhi@gmail.com,x3esavaliya.nikunj@bayer.com,",
TAS (Tata Administrative Service),Companies(Private),Nagar,"24, Group Human Resources, Bombay House, Homi Mody Street, Mumbai 400001, MH",+91-22-66658282,"x3einfo@teamlease.com,x22info@teamlease.com,info@teamlease.com,clients@teamlease.com,John@teamlease.com,contact@teamlease.com,",
SSS Consultancy,Companies(Private),Nagar,"402-A, Amrut Bhavan Chitale Path, Bhavanishankar Road, Dadar West, Mumbai 400028, MH","+91-22-24212911, +91-22-24368175","u003eoffice@stepaheadlogistics.com,TOMAR.RAJAN83@GMAIL.COM,vinay@stepaheadventures.co.in,office@stepaheadlogistics.com,",
Shristi Consultant Corporate HR Services,Companies(Private),Nagar,"5-B, Shiv Ram Krishna Colony, Marredpally, Secunderabad 500026, AP",+91-40-27704634,"GOPINATH@SIMHO.IN,soorasiva@yahoo.com,",
Seventh Edge Consulting Pvt Ltd,Companies(Private),Nagar,"115, 1st Floor, Manish Nagar Shopping Centre, Near Bank of Baroda, Four Bungalow, J.P.Road, Andheri West, Mumbai 400053, MH","+91-22-67988123, +91-22-67988113",,
Search Career Services,Companies(Private),Nagar,"14, 649, Paschim Vihar, New Delhi 110087, DL",+91-9968597789,"sonalkotharics@gmail.com,raj.jacob@gmail.com,",
Search 4 Excellence,Companies(Private),Nagar,"205, Picasso Kedari Arcade, Salunke Vihar Road, Kedari Nagar, Wanowari, Pune 411040, MH",+91-20-40054623,,
Samdhup Technologies,Companies(Private),Nagar,"330-B-1, Sarita Vihar, New Delhi 110076, DL",+91-9953533269,"gppattanaik@gmail.com,fidele.sra@gmail.com,shaleen@sanshadow.com,x3egppattanaik@gmail.com,x3efidele.sra@gmail.com,u003eshaleen@sanshadow.com,",
Saisun Group,Companies(Private),Nagar,"17, 18, 13, Platinum Techno Park, Sector-30-A, Vashi, Mumbai 400705, MH","+91-22-61818483, +91-22-6456005","hr@sampoorna.com,",
SAI Systra Group,Companies(Private),Nagar,"Satyam Corporate Square, Rajpath Club Bodakdev, Ahmedabad 380054, GJ",+91-79-66142600,"sanjiv@codecube.in,info@steneral.com,bharat@charteredinfo.co,satish.mittal@eborn.co.in,andamanfiart.private@gmail.com,x3esatish.mittal@eborn.co.in,",
S S Rana & Co,Companies(Private),Nagar,"317, Lawyers Chambers, New Delhi 110003, DL","+91-11-30562000, +91-11-23384491",,
RKCO Group,Companies(Private),Nagar,"1-Z, New Palam Vihar, Gurgaon 122001, HR",+91-124-6462222,"emails@rsmindia.in,emails@astuteconsulting.com,",
Rightwaay Talent Consulting LLP,Companies(Private),Nagar,"417-L, Ittina Soupernika, Kaikondrahalli, Carmelram, Bangalore 560035, KA",+91-9916000116,"shushmul@rncos.com,",
Resonate Consulting Pvt Ltd,Companies(Private),Nagar,"404-G, Gokul Residency, Thakur, Kandivali East, Mumbai 400101, MH",+91-22-28864184,,
Pragati Engineering Management Services,Companies(Private),Nagar,"111-A, Level, Arcadia, Hiranandani Business Park, Ghodbunder Road, Thane West, Mumbai 400607, MH","+91-22-41006008, +91-8885552962","finance@priorityoneindia.com,John.Smith@priorityoneit.co.uk,",
Poovayya & Co,Companies(Private),Nagar,"121, Dickenson Road, Bangalore 560042, KA",+91-80-41156777,"projects@pragatiengineering.com,construction@pragatiengineering.com,",
PMI Organization Centre Pvt Ltd,Companies(Private),Nagar,"302, 3rd Floor, Bandra Kurla Complex, Bandra East, Mumbai 400051, MH",+91-22-26598659,"bhushandesai@piresourcesindia.com,",
pManifold,Companies(Private),Nagar,"741, Nelson Square, Nagpur 440013, MH",+91-8805655069,,
PI Advisory Pvt Ltd (Protiviti),Companies(Private),Nagar,"15th Floor, Tower A, DLF Building No- 5, Phase-3, Gurgaon 122002, HR",+91-124-6618600,"doe.jane@placewell.in,resume@theshapers.com,anjulik@e-lixirweb.com,winjobs@windowsindia.net,ethiopia@placewell.in,info@placewell.in,",
People Matters Media Pvt Ltd,Companies(Private),Nagar,"503-505, 5th Floor, Millennium Plaza, Tower A, Sector-27, Gurgaon 122009, HR","+91-124-4148102, +91-124-4148101","info@pssindia.com,",
Optimum Management Solutions Pvt Ltd,Companies(Private),Nagar,"35-E, 104, 1st Floor, Shree Ganesh Complex, Jawahar Park, Vikas Marg, Laxmi Nagar, New Delhi 110092, DL",+91-11-47507938,,
OC&C Strategy Consultants,Companies(Private),Nagar,"141-E Okhla Industrial Estate, Phase 3, New Delhi 110020, DL",+91-11-40516666,"sanaagulf@gmail.com,",
Nutan Enterprises,Companies(Private),Nagar,"Epip Gate Industrial Area, National Highway 8, Neemrana, Alwar 301705, RJ",+91-9772210007,"tarang@ohmencon.com,enconavinash@gmail.com,",
Nidhi Reddy Consultants,Companies(Private),Nagar,"7, Kalakshetra Avenue, 2nd Street, Thriuvanmiyur, Chennai 600041, TN",+91-44-64619977,,
NI Consulting Services Pvt Ltd,Companies(Private),Nagar,"81, Peters Road, Royapettah, Chennai 600014, TN",+91-44-33041148,"vijay.kunche@gmail.com,ms-nma@nic.in,n.assoc@gmail.com,",
NET Employment Services Pvt Ltd,Companies(Private),Nagar,"1st Floor, Brijwasi Building, Opposite Udhyog Bhavan, Sonawala Road, Goregaon East, Mumbai 400063, MH",+91-22-67135100,"shyam@nhzindia.com,newhorizon@dga.in,sgsushil@gmail.com,",
Middle Earth Consultants Pvt Ltd,Companies(Private),Nagar,"8-2-333-N, 47, Road No-3, Hyderabad, 500034 TS","+91-40-65171777, +91-9701556938","sheaker@mindgroupsolutions.com,rameshnambi@gmail.com,hr@mindsharereconsultants.com,",
Metro Consultants,Companies(Private),Nagar,"204, Mayur Plaza, Mayur Vihar, New Delhi 110091, DL",+91-11-43071790,,
Mega Ace Consultancy,Companies(Private),Nagar,"68-B, Mittal Tower, Nariman Point, Mumbai 400021, MH","+91-22-22812298, +91-22-22815126","prasanna.kumar@resmed.com,ashok.anchalia@lawrex.in,merrillindia@merrillcorp.com,",
Matrix HR Solutions Pvt Ltd (Corporate Image),Companies(Private),Nagar,"27-A, 1st Floor, Sector-16, Noida 201301, UP","+91-120-4277500, +91-120-4253700","info@mdnfusion.in,",
Ladder Networks,Companies(Private),Nagar,"95, 1, Pereira Building, Near Minerva Complex, Sarojini Devi Road, Secunderabad 500003, AP",+91-40-27896259,"VARUN.SINGH@SKVLAWOFFICES.COM,meistersadv121@gmail.com,saket.advocate@gmail.com,selvinraja.law@gmail.com,",
Kyron Management Services Pvt Ltd,Companies(Private),Nagar,"164, Indira Nagar, Bangalore 560038, KA",+91-80-25295432,"last@latentview.com,jane.doe@latentview.com,xx@gmail.com,x3ejane.doe@latentview.com,",
Kranium HR Services Pvt Ltd,Companies(Private),Nagar,"303, Oxford House, 15 Rustom Bagh Main Road, Airport Road, Bangalore 560017, KA",+91-80-41266891,"KVMADHAN1950@GMAIL.COM,",
Kou-Chan Knowledge Convergence Pvt Ltd,Companies(Private),Nagar,"19, 205, Brigade Gardens, Church Street, Bangalore 560001, KA","+91-80-41122580, +91-80-41122581","csmstc@mstcindia.in,mail@arshipping.co.in,grievances@skylinerta.com,",
Kat Industrial Consultants Pvt Ltd,Companies(Private),Nagar,"38, Babar Road, Barakhamba Lane Connaught Place, Continental, New Delhi 110001, DL",+91-11-23413183,,
Kalysta Business Solutions Ltd,Companies(Private),Nagar,"45, 52-A, 2-A, 2nd Floor, Sterling Road, Nungambakkam, Chennai 600034, TN",+91-9444961487,"info@katindustrialconsultants.com,roc.hyderabad@mca.gov.in,roc.chennai@mca.gov.in,",
JobsPlan,Companies(Private),Nagar,"Rolex Shopping Centre, Near Railway Station, SV Road, Mumbai 400062, MH",+91-9867862808,"richard13584@yahoo.com,",
Jeetva Life Skills Consultants,Companies(Private),Nagar,"47, 1st Floor, Nandidurg Extention, 5th Road, Bangalore 560046, KA","+91-80-23332560, +91-9980822748","jobingohrsolution@gmail.com,shakil@jobingohrsolutions.com,jobingoindia@gmail.com,",
International Manpower Resources Pvt Ltd,Companies(Private),Nagar,"33-A, 1st Floor, Rajouri Garden, Ring Road, New Delhi 110027, DL",+91-11-42085208,"shekarm@vsnl.com,ketan.sachdeva88@gmail.com,",
Interlink Marketing Consultancy Pvt Ltd,Companies(Private),Nagar,"166, 3-A, Central Plaza, C.S.T. Road, Kalina, Santacruz East, Mumbai 400098, MH","+91-22-26666611, +91-22-26666644","x3emegha.makker@intertek.com,sibendranath.roy@intertek.com,megha.makker@intertek.com,",
Insightful Intelligence Consultancy Pvt Ltd,Companies(Private),Nagar,"68-A, 1st Floor, Phase-5, Udyog Vihar, Gurgaon 122001, HR",+91-124-4000492,"ven.mumbai@gmail.com,swatideo09@gmail.com,",
Inqubex Consulting,Companies(Private),Nagar,"215, I-Tech Park, Tower 4-B, Sector-49, Sohna Road, Gurgaon 122002, HR",+91-124-4007248,"pxxxxa@manaskritischool.com,",
Innosolv Consultancy Services Pvt Ltd,Companies(Private),Nagar,"3164, 1st Floor, Near ESI Hospital, ESI Domlur Service Road, Indira Nagar, Bangalore, 560008, KA",+91-80-65706116,"info@inspirationmanpower.co.in,accounts1@inspirationmanpower.co.in,x3eenquiry@manpowergroup.com,employee.resolution@manpowergroup.com,first@inspirationmanpower.co.in,",
IMTP Consultancy Services Chennai Pvt Ltd,Companies(Private),Nagar,"73, 1st Floor, L.B. Road, Adayar, Chennai 600020, TN","+91-44-42187003, +91-44-24422202",,
IDEN Consulting Pvt Ltd,Companies(Private),Nagar,"1, 380, PM Palem, Visakhapatnam 530001, AP","+91-891-2591287, +91-8886292200","info@rajnakraassociates.com,uchil.nisha@gmail.com,",
HVS India,Companies(Private),Nagar,"2nd Floor, Paras Downtown Centre, Course Road, Parsvnath Exotica, Sector-53, Gurgaon 122002, HR",+91-124-4616000,"info@icmcertification.com,l.divekar@icmq.in,communicationgeneral@gmail.com,",
Greentech Knowledge Solutions Pvt Ltd,Companies(Private),Nagar,"197, Indraprastha Apartment, Pocket 3, Sector-12, New Delhi 110078, DL",+91-11-45535574,"chin.chi.haw@opusbhd.uemnet.com,rishi.vasal@gmail.com,",
Good Fellow Foreign Services Agency,Companies(Private),Nagar,"159, 1, 1st Floor, Sarai Jullena, New Delhi 110025, DL",+91-11-47122786,"spastn@dataone.in,greencracker.csir@neeri.res.in,vc@annauniv.edu,",
Global Human Resource Consultants,Companies(Private),Nagar,"910, Devika Tower, Nehru Place, New Delhi, 110019 DL","+91-11-26866432, +91-11-46541910","roc.chennai@mca.gov.in,info@zinnov.com,anandsngl1@gmail.com,",
Global Business Solutions,Companies(Private),Nagar,"134, 4-1-15, 1, Nacharam Main Road, Hyderabad 500076, TS",+91-40-27173344,"ccproj@gmail.com,nurses@globalplacements.ind.in,",
Genser Aerospace & IT Pvt Ltd,Companies(Private),Nagar,"4, 3, Crescent Road, High Ground, Bangalore 560001, KA","+91-80-22370418, +91-80-22370417",,
GCAS Quality Certifications Pvt Ltd,Companies(Private),Nagar,"403, 96, 104, 4th Floor, Kaveri Complex, Nungambakkam, Chennai 600034, TN",+91-44-45038179,"demagsales@tradetechindia.com,krish@tradetechindia.com,",
FlySquare Solution,Companies(Private),Nagar,"206, 207, 2nd Floor, Vardhman Crown Mall, Sector-19, Dwarka, New Delhi 110075, DL","+91-11-65912244, +91-11-28042827","axxxxxv@persistent.com,ysfpune@gmail.com,",
Filix Consulting Pvt Ltd,Companies(Private),Nagar,"31, 3rd Floor, Krishna Marketplace, Kalkaji, New Delhi 110019, DL",+91-11-46578674,"lancy@flomicgroup.com,ashwini@flomicgroup.com,flomic@flomicgroup.com,",
Fairwood Holdings Pvt Ltd,Companies(Private),Nagar,"7th Floor, Tower-D, Logix Techno Park, Sector-127, Noida 201301, UP",+91-120-4056500,"legal@fiduslawchambers.com,delhi@dmd.law,dua.hr@duaassociates.com,mumbai@dmd.law,info@finseclaw.com,admin@finseclaw.com,internship@fiduslawchambers.com,jane@fiduslawchambers.com,",
Excellers Manangement Services Pvt Ltd,Companies(Private),Nagar,"8, Nehru Street, Usman Road, T Nagar, Chennai 600017, TN",+91-44-28140708,,
Eqfs Certification Pvt Ltd,Companies(Private),Nagar,"45, 9-B, 2nd Floor, Amar Plaza, DLF Colony, Dilshad Extension, Hasanpur, Sahibabad, New Delhi 110095, DL","+91-9650399488, +91-11-45689488",,
engage4more India Pvt Ltd,Companies(Private),Nagar,"204-B, Cello Triumph, IB Patel Road, Goregaon East, Mumbai 400063, MH",+91-22-61668981,,
Divya Placement Consultant,Companies(Private),Nagar,"503-B, 3rd Floor, Nehru Ground, Faridabad 121001, HR",+91-129-4038425,"last@dragonsourcing.com,contact.india@dragonsourcing.com,hello@dragonsourcing.com,",
Directway India Manpower Consultant,Companies(Private),Nagar,"CB-353, Ring Road Naraina, New Delhi 110028, DL","+91-11-25770450, +91-9968893319",,
Development Consultants Pvt Ltd,Companies(Private),Nagar,"Development House, 24 Park Street, Kolkata 700016, WB","+91-33-22497603, +91-33-40124500","hr@adani.in,chandigarhsacs.pvt@gmail.com,firozattari@rediffmail.com,cgsacsprivateart@gmail.com,",
Curoso Consulting Pvt Ltd,Companies(Private),Nagar,"606, Eros City Square, Rosewood City, Sector-49, Gurgaon 122018, HR","+91-124-4303030, +91-8800105555","raj@daedalus.co.in,sales@daedalus.co.in,info@companydetails.in,",
Counselage India Pvt Ltd,Companies(Private),Nagar,"117-N, Panchsheel Park, New Delhi 110017, DL","+91-11-26497245, +91-11-26497246","sales.in@crownrms.com,last@crownrms.com,",
Corsendonk Consultants Pvt Ltd,Companies(Private),Nagar,"73, 25, Poulomi Estates Water Front, Vishali Nagar, Madinaguda, Hyderabad 500050, TS",+91-40-20044578,"jane.doe@crowehorwath.com,x3ejane.doe@crowehorwath.com,",
Cooper Lybranth Consultancy Services Pvt Ltd,Companies(Private),Nagar,"360, Sector-22-A, Gurgaon 122015, HR","+91-124-4550455, +91-9717269977",,
Connections Placement Consultancy,Companies(Private),Nagar,"303, 3Rd Floor, Shaily House, BH Rainbow Complex, Navrangpura, Ahmedabad - 380009, GJ",+91-9824045486,,
Centum Accuro Global Solutions,Companies(Private),Nagar,"3rd Floor, Lazer Arcade, Near Ashok Cinema, Thane West, Mumbai 400601, MH",+91-9819203640,,
CareerVita India Pvt Ltd,Companies(Private),Nagar,"562-640, Bannergatta Road, Bilekahalli, Bangalore 560095, KA",+91-80-40558383,"makarandlonkar@gmail.com,",
Career Vision HR Consultancy,Companies(Private),Nagar,"38, 1st Floor, Lodha Paradise, Near Majiwada Flyover, Eastern Express Highway, Boulevard, Thane West, Mumbai 400601, MH","+91-22-69422081, +91-22-69422080","info@ecatapult.net,akalra@ecatapult.net,",
Bhuta Shah & Co,Companies(Private),Nagar,"901-902, Regent Chambers, Nariman Point, Mumbai 400021, MH",+91-22-22832626,,
Benaka Business Consultancy,Companies(Private),Nagar,"36, Banashankari, 3rd Stage, Bangalore 560085, KA","+91-9663383550, +91-80-42174533",,
Avyayh,Companies(Private),Nagar,"39, 21, North Road, CIT Nagar, Chennai 600035, TN",+91-44-42867393,"janedoe@bhardwajservices.com,x3erksharma@bhardwajservices.com,djane@bhardwajservices.com,rksharma@bhardwajservices.com,",
Athena Executive Search & Consulting Pvt Ltd,Companies(Private),Nagar,"4th Floor, Vision Business Centre, Time Square Building, Sushant Lok-1, Gurgaon 122002, HR",+91-124-4224100,"support@authentic-staffing.com,",
Arctern Consulting Pvt Ltd,Companies(Private),Nagar,"34, 5th Block, Koramangala Industrial Layout, Bangalore 560095, KA",+91-80-42448999,"canks.associates@gmail.com,arun1960@gmail.com,pradeep.kumar@careratings.com,cadhereoffice@gmail.com,anil.aggarwal@shriramgi.com,akd65@hotmail.com,info@akaca.net,",
Arcot Medical Placements,Companies(Private),Nagar,"1168, 2004, 38, Lakshmi Nagar Colony, Marredpally, Secunderabad 500026, AP",+91-40-65456668,"info@arseniusskillcapital.com,",
Apex Services,Companies(Private),Nagar,"2nd Floor, Chitrahar Building, Opposite Prince Complex, Hazrat Ganj, Lucknow 226001, UP",+91-522-2302985,"yudee@ushankar.com,",
American Systems Registrar,Companies(Private),Nagar,"657, Sector 15, Gurgaon 122001, HR","+91-124-4371719, +91-124-2300238",,
AHS Hospitality India Pvt Ltd,Companies(Private),Nagar,"309, Atlanta Estate, Dr. Ambedkar Chowk, Off. W.E. Highway, Goregaon East, Mumbai 400063, MH",+91-22-29270412,"info@hamdard.edu.pk,",
Access Management Services Pvt Ltd,Companies(Private),Nagar,"6, 701, Devika Tower, Nehru Place, New Delhi 110019, DL","+91-9810119016, +91-11-41617069","office@acekpogroup.com,resourcemanagementind@gmail.com,internationalace2022@gmail.com,",
Abir Infrastructure Pvt Ltd,Companies(Private),Nagar,"143, 144, Udyog Vihar, Phase-4, Gurgaon 122015, HR",+91-124-4630800,,
Zoom Insurance Brokers Pvt Ltd,Companies(Private),Nagar,"Zoom House, 621, Phase? 5, Udyog Vihar, Gurgaon 122016, HR","+91-124-4771700, +91-9999954324",,
Zephyr Peacock Management India Pvt Ltd,Companies(Private),Nagar,"INDIQUBE - Alpha, B2, 2nd Floor, Panathur Junction, Outer Ring Road, Bangaluru 560103, KA",+91-80-67347080,"ceo@3eggroup.com,",
VidKris Group,Companies(Private),Nagar,"VidKris House, B-91, Behind Triveni Complex, Sheikh Sarai Phase 1, New Delhi 110017, DL","+91-11-40511101, +91-11-40511199","info@vishwasfincap.com,naresh@vishwasfincap.com,esaiandco@gmail.com,",
Utopia Advisors Pvt Ltd,Companies(Private),Nagar,"12, India Exchange Place, 2nd Floor, Kolkata 700001, WB",+91-33-22622405,"arun.kumar@molecularglobal.com,khandelwalnupur23@gmail.com,",
Spark Capital Advisors India Pvt Ltd,Companies(Private),Nagar,"New 2, Leith Castle Center Street, Santhome High Road, Chennai 600028, TN",+91-44-43440000,,
Share Wise Equity Brokers Pvt Ltd,Companies(Private),Nagar,"F-14/16, Model Town, Part 2, New Delhi 110009, DL","+91-11-47006200, +91-11-42283201, +91-9810079496",,
Sangam Advisors Ltd,Companies(Private),Nagar,"17/19, Navi Wadi, Nand Bhavan, Dadi Seth Agairy Lane, Mumbai 400002, MH",+91-22-22060644,"support@sasonline.in,sanjayjkapoor@rediffmail.com,contactus@sasbroking.com,",
Ruplee I Pay Solutions Pvt Ltd,Companies(Private),Nagar,"903, Time Tower, MG Road, Gurgaon 122001, HR",+91-124-4125526,"info@saharaindiapariwar.org,statutorysiccl@rediffmail.com,grievance.life@sahara.in,",
Puneet Advisory Services Pvt Ltd,Companies(Private),Nagar,"Puneet Advisory Services 1101, Dalamal Towers, Nariman Point, Mumbai 400021, MH",+91-22-43456200,"accounts@puneetindia.com,bkg.majestic@gmail.com,tushar@kmsindia.in,",
Practical Financial Services Pvt Ltd,Companies(Private),Nagar,"Jethalal Mansion, 10, Bank Street, Cross Lane, Fort, Mumbai 400001, MH",+91-22-66371020,"22705372_service@practicalfinancial.com,compliances@skylinerta.com,service@practicalfinancial.com,",
NKGSB Co-op. Bank Ltd,Companies(Private),Nagar,"Laxmi Sadan, 361, VP Road, Girgaum, Mumbai 400004, MH","+91-22-67545000, +91-22-65276195","laxmikantdesai@nkgsb-bank.com,vadodara61@nkgsb-bank.com,",
NKB Securities,Companies(Private),Nagar,"G-6, Press Complex, Quality Parikrama, Zone 1, MP Nagar, Bhopal 462011, MP","+91-755-4220248, +91-755-4220675","neeleshb20@gmail.com,sinoshushma@gmail.com,rocfiling2009@gmail.com,niraj.balasaria@rediffmail.com,contact@nkbpvtltd.in,support@nirmalbang.com,",
Money Affairs Financial Services Pvt Ltd,Companies(Private),Nagar,"C-44, Factory Flatted Complex, Jhandewalan, New Delhi 110055, DL",+91-9654069000,"roc.chennai@mca.gov.in,x3err@indusind.com,x3ecompliance1@sisindia.com,ajaypandharkar@gmail.com,",
Lead Financial Services Ltd,Companies(Private),Nagar,"718 / 21, Sita Ram Mansion, 101, Joshi Road, Karol Bagh, New Delhi 110005, DL","+91-11-23549823, +91-11-23549822","mfsl@mas.co.in,mohan@randsca.net,mohd.shariq@almondz.com,lead_financial@rediffmail.com,",
I-Peritus Solutions & Services Pvt Ltd,Companies(Private),Nagar,"311-312, Woodrow, Veera Desai Road, Andheri West, Mumbai 400053, MH",+91-22-42934750,,
Hyderabad District Cooperative Central Bank Ltd,Companies(Private),Nagar,"5-4-488, Nampally Station Road, Hyderabad 500001, TS","1800-425-0665, +91-40-66758303, +91-40-66758304","ceo_hyd@hyddccb.org,",
Helix Investments Advisors India Pvt Ltd,Companies(Private),Nagar,"1421, Maker Chamber 5, Nariman Point, Mumbai 400021, MH",+91-22-66157324,"varun@helix-investments.com,",
Grameen Capital India Ltd,Companies(Private),Nagar,"402, 36, Opposite Tavaa Restaurant, Turner Road, Bandra West, Mumbai 400050, MH",+91-22-66752992,"info@grameencapital.in,satishkumar@nexusi.in,info@creditaccess.com,",
Gowra Leasing & Finance Ltd,Companies(Private),Nagar,"501, 5th Floor, Gowra Grand, Behind Gowra Plaza, 1-8-384 & 385, SP Road, Begumpet, Secunderabad 500003, AP",+91-40-27843086,,
Commodity Research Solutions,Companies(Private),Nagar,"2nd Floor, City Plaza Complex, 14, Haibowal Kalan, Ludhiana 141001, PB","+91-161-4199923, +91-9914736655","iscgan@mcxindia.com,lullagupta@gmail.com,info@plindia.com,",
Chhattisgarh Rajya Sahakari Bank Maryadit,Companies(Private),Nagar,"Pandri, Indira Gandhi Parisa, Raipur 492001, CG","+91-771-4057292, +91-771-2582752","Rscb.pd@rajasthan.gov.in,",
BP Equities Pvt Ltd,Companies(Private),Nagar,"4th Floor, Rustom Building, 29, Veer Nariman Road, Fort, Mumbai 400001, MH",+91-22-61596161,"support@stoxbox.in,vishal.sanghavi@careratings.com,",
Basant Securities Ltd,Companies(Private),Nagar,"606, Unique Tower, Behind Patel Petrol Pump, SV Road, Goregaon West, Mumbai 400062, MH","+91-22-28783633, +91-22-28783631","jane.doe@basantsecurities.com,jain.ashokca@gmail.com,",
Bajaj Holdings and Investment Ltd (Bajaj),Companies(Private),Nagar,"Mumbai Pune Road, Akurdi, Pune 411035, MH","+91-20-66107150, +91-20-27472851","investors@bhil.in,praveen.akula@kfintech.com,wecare@bajajfinserv.in,einward.ris@kfintech.com,x3evgupte@bhil.in,x3ewecare@bajajfinserv.in,vgupte@bhil.in,ssubbramaniam@bhil.in,einward.ris@karvy.com,bhflwecare@bajajfinserv.in,",
AZTEC Capital,Companies(Private),Nagar,"30, 2nd Floor, Pragathi Mansion, Dr DVG Road, Basavangudi, Bangaluru 560004, KA",+91-9845976317,"roc.chennai@mca.gov.in,office.deepaksahoo@gmail.com,carachinmshah@gmail.com,sajan.unnithan@gmail.com,prabal@canopi.in,x22prabal@canopi.in,x3eprabal@canopi.in,nubiolaindia@ferro.com,x3enubiolaindia@ferro.com,",
Atharv Enterprises Ltd,Companies(Private),Nagar,"SF 4/5, Arihant Tower, Station Road, Kolhapur 416001, MH",+91-231-2650152,"atharventerprisesltd@gmail.com,info@adroitcorporate.com,atharv.el@gmail.com,pardhe_ramesh@yahoo.com,",
ASREC India Ltd,Companies(Private),Nagar,"Solitaire Corporate Park, Building 2, Unit 201-202 A & 200-202 B, Andheri Ghatkopar Link Road, Chakala, Andheri East, Mumbai 400093, MH",+91-22-61387000,"gujarat@c1india.com,asrec@asrec.co.in,",
Andromeda Sales And Distribution Pvt Ltd,Companies(Private),Nagar,"158, Dani Corporate Park, CST Road, Kalina, Mumbai 400098, MH",+91-22-26653851,"info@andromeda.nyc,janed@andromedaloans.com,x3ejaned@andromedaloans.com,last_initial@andromedaloans.com,shyam@andromeda.in,x3eshyam@andromeda.in,contact@andromeda.in,",
MGRM Net Ltd,Companies(Private),Nagar,"C-6/5, Safdarjung Development Area, New Delhi 110016, DL",,"milindpagare75@gmail.com,contact@hitachimgrmnet.com,",
BG Appliances Pvt Ltd,Companies(Private),Nagar,"968, Bidkin, Paithan, Aurangabad 431105, MH",+91-2431-241154,"kaushikrobin87@gmail.com,x3ejaimin@oliveworld.co.in,x3ekaushikrobin87@gmail.com,info@bgapl.com,gharkal@bgapl.com,jaimin@oliveworld.co.in,",
Kevin Technologies Pvt Ltd,Companies(Private),Nagar,"201, Shapath-1, Opposite Rajpath Club, Sarkhej Gandhinagar Highway, Ahmedabad 380054, GJ",+91-79-26872555,"karan@oscargroup.co.in,u003einfo@kevintech.com,info@kevintech.com,x3emanoj@kevin.in,manoj@kevin.in,khs@khsindia.com,kevinthakkar@hotmail.com,",
Vindas Chemical Industries Pvt Ltd,Companies(Private),Nagar,"210/413, Adamji Building, Narsianatha Street, Masjid Bunder Road, Chinch Bunder, Mumbai 400009, MH",,"x22rjain68@hotmail.com,rjain68@hotmail.com,carefitindustries@gmail.com,x3edrdkataria@yahoo.co.in,x3erjain68@hotmail.com,drdkataria@yahoo.co.in,info@pharmexcil.com,schonpharma@gmail.com,order@gurjarchemicals.com,info@gurjarchemicals.com,",
MOLD-TEK Technologies Ltd,Companies(Private),Nagar,"8-2-293/82-A/700, Opposite Dr. Mohans Diabetics Centre, Jubliee Hills, Hyderabad 500016, TS",+91-40-40300300,"x3ecstech@moldtekindia.com,cstech@moldtekindia.com,cs@moldtekindia.com,",
DPN Tools,Companies(Private),Nagar,"75, Pillaiyar Koil Street, Sidco Industrial Estate, Ambattur, Chennai 600098, TN",+91-44-26256164,,
Medusind Solutions Pvt Ltd,Companies(Private),Nagar,"6, 13-D, The Great Oasis, Street 21, MIDC Marol, Andheri, Mumbai 400093, MH",,"d-jane@medusind.com,dhiren.kapadia@medusind.com,x3edhiren.kapadia@medusind.com,",
Caliber Point Business Solutions Ltd,Companies(Private),Nagar,,,"shyam.mansukhani@caliberpoint.com,info@companydetails.in,dhiren@sintexin.com,",
Lanco Industries ,Companies(Private),Nagar,,,"sgodiawala@deloitte.com,jp.versha.jp@gmail.com,",
