,Name,Sector,City,Address,Phone,Email,Lat-Long
2677,Savitribai Phule Pune University (formerly University of Pune,College,Pune,,,,
2678,Bharati Vidyapeeth,College,Pune,,,,
2679,Deccan College Post-Graduate and Research Institute,College,Pune,,,,
2680,Defence Institute of Advanced Technology (formerly Institute of Armament Technology),College,Pune,,,,
2681,Dnyaneshwar Vidyapeeth,College,Pune,,,,
2682,FLAME University,College,Pune,,,,
2683,Gokhale Institute of Politics and Economics,College,Pune,,,,
2684,"Indian Institute of Information Technology, Pune",College,Pune,,,,
2685,"Indian Institute of Science Education and Research, Pune",College,Pune,,,,
2686,"Christ University Pune Lavasa, Campus",College,Pune,,,,
2687,"Indian Institute of Science Education and Research, Pune",College,Pune,,,,
2688,National Institute of Construction Management and Research,College,Pune,,,,
2689,National Defence Academy,College,Pune,,,,
2690,Tilak Maharashtra University,College,Pune,,,,
2691,Savitribai Phule Pune University,College,Pune,,,,
2692,Spicer Adventist University,College,Pune,,,,
2693,Symbiosis International University,College,Pune,,,,
2694,"MIT University - MIT Art, Design and Technology University",College,Pune,,,,
2695,Ajeenkya DY Patil University,College,Pune,,,,
2696,Flame University,College,Pune,,,,
2697,MIT - World Peace University,College,Pune,,,,
2698,Spicer Adventist University,College,Pune,,,,
2699,"Christ University Pune Lavasa, Campus",College,Pune,,,,
2700,Symbiosis International University,College,Pune,,,,
2701,Symbiosis Skills and Professional University,College,Pune,,,,
2702,Vishwakarma University,College,Pune,,,,
2703,"Indian Institute of Tropical Meteorology, Pune https://www.tropmet.res.in/",College,Pune,,,,
2704,"Indian Institute of Information Technology, Pune",College,Pune,,,,
2705,College of Agriculture Pune,College,Pune,,,,
2706,College of Engineering Pune,College,Pune,,,,
2707,"Government College Of Engineering And Research, Avasari Khurd",College,Pune,,,,
2708,Government Polytechnic Pune,College,Pune,,,,
2709,G. H. Raisoni College of Engineering and Management (GHRCEM),College,Pune,,,,
2710,G. H. Raisoni Institute of Engineering and Technology (GHRIET),College,Pune,,,,
2711,Maharashtra Academy of Engineering,College,Pune,,,,
2712,MKSSS's Cummins College of Engineering for Women,College,Pune,,,,
2713,Vishwakarma Institute of Information Technology,College,Pune,,,,
2714,Vishwakarma Institute of Technology,College,Pune,,,,
2715,Maharashtra Academy of Naval Education and Training (MANET Pune),College,Pune,,,,
2716,"Pimpri Chinchwad College of Engineering, Akurdi",College,Pune,,,,
2717,"Indira College of Engineering & Management, Pune",College,Pune,,,,
2718,"Indira College of Architecture & Design, Pune",College,Pune,,,,
2719,AISSMS College of Engineering,College,Pune,,,,
2720,AISSMS College of Polytechnic[3],College,Pune,,,,
2721,"Army Institute of Technology, Pune",College,Pune,,,,
2722,"College of Military Engineering, Pune",College,Pune,,,,
2723,Cusrow Wadia Institute of Technology,College,Pune,,,,
2724,Dhole Patil College of Engineering,College,Pune,,,,
2725,Indian Institute of Aeronautical Engineering & Information Technology,College,Pune,,,,
2726,"International Institute of Information Technology, Pune",College,Pune,,,,
2727,ISB&M School of Technology,College,Pune,,,,
2728,Jayawantrao Sawant College of Engineering,College,Pune,,,,
2729,Jayawantrao Sawant Polytechnic,College,Pune,,,,
2730,Maharashtra Institute of Technology,College,Pune,,,,
2731,MIT College of Engineering,College,Pune,,,,
2732,"Modern Education Society's College of Engineering, Pune",College,Pune,,,,
2733,"PES Modern College of Engineering, Pune",College,Pune,,,,
2734,Pune Institute of Computer Technology,College,Pune,,,,
2735,Pune Vidhyarthi Griha's College of Engineering and Technology,College,Pune,,,,
2736,Sinhgad Academy of Engineering,College,Pune,,,,
2737,Sinhgad Institute of Technology and Science,College,Pune,,,,
2738,Smt. Kashibai Navale College of Engineering,College,Pune,,,,
2739,Suman Ramesh Tulsiani Technical Campus - Faculty of Engineering,College,Pune,,,,
2740,Department of Management Sciences (PUMBA),College,Pune,,,,
2741,G. H. Raisoni College of Engineering and Management,College,Pune,,,,
2742,"Indira Institute of Management, Pune",College,Pune,,,,
2743,"Indira School of Business Studies PGDM, Pune",College,Pune,,,,
2744,Indira Global Business School. Pune,College,Pune,,,,
2745,Balaji Institute of Modern Management Pune (formerly known as Indian Institute of Modern Management),College,Pune,,,,
2746,Institute of Management Development and Research,College,Pune,,,,
2747,MIT School of Business,College,Pune,,,,
2748,National Institute of Bank Management,College,Pune,,,,
2749,National Insurance Academy,College,Pune,,,,
2750,Symbiosis Institute of Management Studies,College,Pune,,,,
2751,"Christ University Pune Lavasa, Campus",College,Pune,,,,
2752,Vishwakarma Institute of Management,College,Pune,,,,
2753,MES Garware College of Commerce,College,Pune,,,,
2754,Armed Forces Medical College (AFMC),College,Pune,,,,
2755,B. J. Medical College,College,Pune,,,,
2756,Bharati Vidhyapeeth Medical College,College,Pune,,,,
2757,D.Y Patil Medical College,College,Pune,,,,
2758,Kashibai Navale Medical College,College,Pune,,,,
2759,Maharashtra Institute of Medical Education and Research,College,Pune,,,,
2760,Symbiosis Medical College for Women,College,Pune,,,,
2761,Bharat Ratna Atal Bihari vajpaye Medical College,College,Pune,,,,
2762,"A. R. Kalsekar Polytechnic College,Panvel,Navi Mimbai,Maharshtra.",College,Mumbai,,,,
2763,"Bhavan's College of Arts, Science and Commerce, Andheri West",College,Mumbai,,,,
2764,"Bunts Sangha's S.M.Shetty College of Science, Commerce and Management Studies, Powai",College,Mumbai,,,,
2765,"B. K. Birla College of Arts, Science and Commerce,Kalyan[1]",College,Mumbai,,,,
2766,"Chetana College,",College,Mumbai,,,,
2767,"C. H. M. College, Ulhasnagar",College,Mumbai,,,,
2768,"D. G. Ruparel College of Arts, Science and Commerce, Matunga",College,Mumbai,,,,
2769,"Elphinstone College, Kala Ghoda, Fort",College,Mumbai,,,,
2770,"Guru Nanak Khalsa College (King's Circle), Matunga",College,Mumbai,,,,
2771,"H.R. College of Commerce and Economics, Churchgate",College,Mumbai,,,,
2772,"Jai Hind College, Churchgate",College,Mumbai,,,,
2773,"Kalasadan, Sion",College,Mumbai,,,,
2774,"Kishinchand Chellaram College, Churchgate",College,Mumbai,,,,
2775,"R. D. National College, Bandra West",College,Mumbai,,,,
2776,"M. M. K. College, Bandra West",College,Mumbai,,,,
2777,"Kirti M. Doongursee College, Dadar West",College,Mumbai,,,,
2778,"K.J. Somaiya College of Arts & Commerce, Vidyavihar",College,Mumbai,,,,
2779,"K.J. Somaiya College of Science & Commerce, Vidyavihar",College,Mumbai,,,,
2780,"Malini Kishor Sanghvi College of Commerce & Economics, JVPD, Vile Parle",College,Mumbai,,,,
2781,"Mithibai College, Vile Parle",College,Mumbai,,,,
2782,"Mulund College of Commerce, Mulund West",College,Mumbai,,,,
2783,"Hinduja College, Charni Road",College,Mumbai,,,,
2784,"N.G. Aacharya and D.K Marathe College of Arts, Science and Commerce, Chembur",College,Mumbai,,,,
2785,"Nagindas Khandwal College of Commerce and Economics, Malad",College,Mumbai,,,,
2786,"Narsee Monjee College of Commerce and Economics, Vile Parle West",College,Mumbai,,,,
2787,"NES Ratnam College Of Arts, Science & Commerce, Bhandup",College,Mumbai,,,,
2788,"Patkar-Varde College, Goregaon",College,Mumbai,,,,
2789,"Jashbhai Maganbhai Patel College of Commerce, Goregaon",College,Mumbai,,,,
2790,"Ramnarain Ruia College, Matunga",College,Mumbai,,,,
2791,"Ramniranjan Anandilal Podar College of Commerce and Economics, Matunga",College,Mumbai,,,,
2792,"Ramniranjan Jhunjhunwala College of Arts, Science & Commerce.",College,Mumbai,,,,
2793,"Royal College of Science, Arts and Commerce, Mira Road",College,Mumbai,,,,
2794,"Shree L. R. Tiwari Degree College of Arts,Commerce and Science, Mira Bhayandar[2]",College,Mumbai,,,,
2795,Smt. K. L. Tiwari Degree College of Commerce and Science Nalasopara West[3],College,Mumbai,,,,
2796,"Sanpada College of Commerce and Technology, Sanpada",College,Mumbai,,,,
2797,"Sathaye College, formerly Parle College, Vile Parle",College,Mumbai,,,,
2798,"Shri M.D. Shah Mahila College of Arts and Commerce, Malad West",College,Mumbai,,,,
2799,"Siddharth College of Arts Science and Commerce, Buddha Bhavan, Fort",College,Mumbai,,,,
2800,"Siddharth College of Commerce and Economics, Anand Bhavan, Fort",College,Mumbai,,,,
2801,"SIES College of Arts, Science, and Commerce, Sion West",College,Mumbai,,,,
2802,"SIES College of Commerce and Economics, Sion East",College,Mumbai,,,,
2803,"SIES (Nerul) College of Arts, Science and Commerce, Nerul",College,Mumbai,,,,
2804,"S.K. Somaiya College of Arts & Sciences, Vidyavihar",College,Mumbai,,,,
2805,"South Indians' Welfare Society College, Wadala",College,Mumbai,,,,
2806,"SPDT Lions Juhu College of Arts, Commerce and Science, Mumbai, Andheri East",College,Mumbai,,,,
2807,"St. Andrew's College, Bandra",College,Mumbai,,,,
2808,"St. Xavier's College, Dhobitalao, Fort",College,Mumbai,,,,
2809,Swami Vivekanand International Schools[4],College,Mumbai,,,,
2810,"Sydenham College of Commerce and Economics, Churchgate",College,Mumbai,,,,
2811,"Thakur College of Science and Commerce, Thakur Village, Kandivali",College,Mumbai,,,,
2812,"Tolani College of Commerce, Andheri",College,Mumbai,,,,
2813,"Vani Vidyalaya High School and Junior College, Mulund West",College,Mumbai,,,,
2814,"VIVA College of Arts, Science and Commerce, Virar",College,Mumbai,,,,
2815,"Wilson College, Girgaon",College,Mumbai,,,,
2816,Shailesh J. Mehta School Of Management IIT Bombay  [SJMSOM] Mumbai[5],College,Mumbai,,,,
2817,"Rajiv Gandhi College of Arts,Commerce & Science Vashi[6]",College,Mumbai,,,,
2818,"Seth N.K.T.T College of commerce arts and science, kharkaralii road Thane West",College,Mumbai,,,,
2819,A. P. Shah Institute of Technology - Thane,College,Mumbai,,,,
2820,"Bharati Vidyapeeth College of Engineering, Belapur, Navi Mumbai",College,Mumbai,,,,
2821,"Datta Meghe College of Engineering, Airoli, Navi Mumbai",College,Mumbai,,,,
2822,"Don Bosco Institute of Technology, Kurla (West)",College,Mumbai,,,,
2823,"Dwarkadas J. Sanghvi College of Engineering, Vile Parle West",College,Mumbai,,,,
2824,"Fr. Conceicao Rodrigues College of Engineering, Bandra",College,Mumbai,,,,
2825,"Fr. Conceicao Rodrigues Institute of Technology, Vashi",College,Mumbai,,,,
2826,"Institute of Chemical Technology, Matunga (Autonomous)",College,Mumbai,,,,
2827,"Indian Institute of Technology Bombay, Powai",College,Mumbai,,,,
2828,"KC College of Engineering, Thane East",College,Mumbai,,,,
2829,"K.J. Somaiya College of Engineering, Vidyavihar",College,Mumbai,,,,
2830,"K.J. Somaiya Institute of Technology, Sion (Autonomous)",College,Mumbai,,,,
2831,"Konkan Gyanpeeth College of Engineering, Karjat",College,Mumbai,,,,
2832,"Lokmanya Tilak College of Engineering, Kopar Khairane, Navi Mumbai",College,Mumbai,,,,
2833,M. H. Saboo Siddik College of Engineering - Byculla,College,Mumbai,,,,
2834,"Mahatma Gandhi Mission's College of Engineering and Technology, Kamothe",College,Mumbai,,,,
2835,"NMIMS Narsee Monjee Institute of Management Studies, Juhu",College,Mumbai,,,,
2836,"Padmabhushan Vasantdada Patil Pratishthan's College of Engineering, Sion",College,Mumbai,,,,
2837,"Pillai College of Engineering (Autonomous), Panvel",College,Mumbai,,,,
2838,"Rajiv Gandhi Institute of Technology, Mumbai",College,Mumbai,,,,
2839,"Ramrao Adik Institute of Technology, Nerul",College,Mumbai,,,,
2840,"Rizvi College of Engineering, Bandra (West)",College,Mumbai,,,,
2841,"Rustomjee Academy for Global Careers, Thane",College,Mumbai,,,,
2842,Shree L. R. Tiwari College of Engineering - Mira Bhayandar,College,Mumbai,,,,
2843,Saraswati College of Engineering - New Mumbai,College,Mumbai,,,,
2844,Sardar Patel College of Engineering - Andheri (West),College,Mumbai,,,,
2845,Sardar Patel Institute of Technology - Andheri (West),College,Mumbai,,,,
2846,"Shah and Anchor Kutchhi Engineering College, Chembur",College,Mumbai,,,,
2847,"Shivajirao S. Jondhale College of Engineering, Dombivali",College,Mumbai,,,,
2848,"Sindhudurg Shikshan Prasarak Mandal's College of Engineering, Kankavli",College,Mumbai,,,,
2849,"SIES Graduate School of Technology, Nerul",College,Mumbai,,,,
2850,SMT. Indira Gandhi College of Engineering - Ghansoli,College,Mumbai,,,,
2851,"St. Francis Institute of Technology, Borivali",College,Mumbai,,,,
2852,"Terna Engineering College, Nerul, Navi Mumbai",College,Mumbai,,,,
2853,"Thakur College of Engineering and Technology, Thakur Village, Kandivali",College,Mumbai,,,,
2854,"Thadomal Shahani Engineering College Mumbai, Bandra (W)",College,Mumbai,,,,
2855,"Vidyalankar Institute of Technology, Wadala(E),Mumbai",College,Mumbai,,,,
2856,"Vidyavardhini College of Engineering and Technology, Vasai Road(W)",College,Mumbai,,,,
2857,"Universal Ai University, Karjat, Mumbai",College,Mumbai,,,,
2858,"Usha Mittal Institute of Technology, Santacruz(W), Mumbai",College,Mumbai,,,,
2859,"Veermata Jijabai Technological Institute, Matunga, Mumbai (Autonomous)",College,Mumbai,,,,
2860,"Vivekanand Education Society's Institute of Technology Mumbai, Chembur(E)",College,Mumbai,,,,
2861,"Watumull Institute of Electronics Engineering and Computer Technology, Ulhasnagar",College,Mumbai,,,,
2862,Xavier Institute of Engineering Mahim (West),College,Mumbai,,,,
2863,"Yadavrao Tasgaonkar Institute of Engineering & Technology (YTIET), Bhivpuri",College,Mumbai,,,,
2864,"Apeejay Institute of Hospitality, CBD Belapur",College,Mumbai,,,,
2865,"ICE College of Hotel Management and Catering Technology, Andheri",College,Mumbai,,,,
2866,"ICE College of Hotel Management and Catering Technology, Nerul",College,Mumbai,,,,
2867,"Ramanath Payyade College of Hospitality Management Studies, Mumbai",College,Mumbai,,,,
2868,"IHM Mumbai, Dadar west",College,Mumbai,,,,
2869,"Rustomjee Academy for Global Careers, Dahanu",College,Mumbai,,,,
2870,"Sheila Raheja Institute of Hotel Management, Bandra East",College,Mumbai,,,,
2871,"School of Law, University of Mumbai, Mumbai",College,Mumbai,,,,
2872,"G. J. Advani Law College, Bandra",College,Mumbai,,,,
2873,"Government Law College, Churchgate",College,Mumbai,,,,
2874,"K C Law College, Churchgate",College,Mumbai,,,,
2875,"Maharashtra National Law University, Mumbai",College,Mumbai,,,,
2876,"Shree L.R. Tiwari College of Law, Mira Bhayandar[7]",College,Mumbai,,,,
2877,"Siddharth College of Law, Anand Bhavan, Fort",College,Mumbai,,,,
2878,Asmita Law College,College,Mumbai,,,,
2879,"IES's Management College and Research Centre, Bandra West",College,Mumbai,,,,
2880,"Humera Khan Institute of Management Studies and Research, Jogeshwari West",College,Mumbai,,,,
2881,"Dr V N Bedekar Institute of Management Studies, Thane West",College,Mumbai,,,,
2882,"University of Mumbai, Thane Sub Campus, Thane",College,Mumbai,,,,
2883,"SIES College of Management Studies, Nerul",College,Mumbai,,,,
2884,"Institute of Management and Computer Studies, Thane West",College,Mumbai,,,,
2885,Jamnalal Bajaj Institute of Management Studies,College,Mumbai,,,,
2886,"Alkesh Dinesh Mody Institute, Santacruz",College,Mumbai,,,,
2887,"Sydenham Institute of Management Studies, Research and Entrepreneurship Education, Churchgate",College,Mumbai,,,,
2888,"K. J. Somaiya Institute of Management Studies and Research (SIMSR), Vidyavihar",College,Mumbai,,,,
2889,"N. L. Dalmia Institute of Management Studies and Research, Mira Road East",College,Mumbai,,,,
2890,"Narsee Monjee Institute of Management Studies, Vile Parle West",College,Mumbai,,,,
2891,"National Institute of Industrial Engineering, Powai",College,Mumbai,,,,
2892,"Oriental Institute of Management, Vashi",College,Mumbai,,,,
2893,"S. P. Jain Institute of Management and Research, Andheri West",College,Mumbai,,,,
2894,"Shailesh J. Mehta School of Management, IIT Bombay, Powai",College,Mumbai,,,,
2895,"St. Francis Institute of Management and Research, Borivali",College,Mumbai,,,,
2896,"Tata Institute of Social Sciences, Deonar",College,Mumbai,,,,
2897,"Welingkar Institute of Management Development & Research, Matunga Central",College,Mumbai,,,,
2898,"Chetana's R.K. Institute of Management Studies and Research, Bandra East",College,Mumbai,,,,
2899,"Uma Krishna Shetty Institute of Management Studies and Research, Kurla",College,Mumbai,,,,
2900,"Universal Ai University, Karjat",College,Mumbai,,,,
2901,"Institute of Chemical Technology, Matunga (Autonomous)",College,Mumbai,,,,
2902,"Dr L H HIranandani College of Pharmacy, Ulhasnagar",College,Mumbai,,,,
2903,"Anjuman I Islam S Kalsekar Technical Campus School Of Pharmacy, New Panvel",College,Mumbai,,,,
2904,Bharati Vidyapeeth College Of Pharmacy C B D Belapur Navi Mumbai,College,Mumbai,,,,
2905,Bombay college Of Pharmacy Kalina Santacruz East Mumbai,College,Mumbai,,,,
2906,C U Shah College Of Pharmacy,College,Mumbai,,,,
2907,Dr Bhanuben Nanavati College Of Pharmacy,College,Mumbai,,,,
2908,"Gahlot Institute Of Pharmacy, Koper Khairane",College,Mumbai,,,,
2909,H K College of Pharmacy,College,Mumbai,,,,
2910,"Ideal College Of Pharmacy and Research,  Kalyan",College,Mumbai,,,,
2911,"Ideal Institute Of Pharmacy, Wada",College,Mumbai,,,,
2912,"K M Kundnani College Of Pharmacy, Cuffe Parade Colaba Mumbai",College,Mumbai,,,,
2913,"Konan Gyanpeeth Rahul Dharkar College Of Pharmacy And Research Institute, Karjat",College,Mumbai,,,,
2914,Viva Institute Of Pharmacy,College,Mumbai,,,,
2915,Mumbai Educational Trusts Institute Of Pharmacy Degree,College,Mumbai,,,,
2916,"Ncrds Sterling Institute Of Pharmacy, Nerul, Navi Mumbai",College,Mumbai,,,,
2917,Oriental College of Pharmacy,College,Mumbai,,,,
2918,"Rustomjee Academy for Global Careers,[8] Thane",College,Mumbai,,,,
2919,"Garware Institute of Career Education & Development, Kalina - Certificate course in Commerce[9]",College,Mumbai,,,,
2920,"ICE College of Hotel Management and Catering Technology, Mumbra",College,Mumbai,,,,
2921,JD Institute of Fashion Technology,College,Mumbai,,,,
