Name,Sector,City,Address,Phone,Email,Lat-Long
ICONIC FITNESS KORAMANGALA 1st BLOCK - Largest fitness chain in Bangalore | Best Rated | Unisex Fitness Centers | Gx Studios,Gyms,Bangalore,"5+ years in business · 43, 5th A Main Rd, near Wipro Park",Open ⋅ Closes 12 am · 070262 76888,,
Royal Fitness Gym Bangalore,Gyms,Bangalore,"3+ years in business · #277, 9th main, Mahadeshwaranagara Main Rd",Open ⋅ Closes 10:30 pm · 097316 91413,,
Iconic Fitness BTM 1st stage Maruthi Nagar | Best Rated Gym In Bangalore | Unisex | Group classes |,Gyms,Bangalore,"5+ years in business · To More Super Market, No 4/19,1st Floor",Open ⋅ Closes 12 am · 070263 22322,,
Olympic Gym & Fitness Center,Gyms,Bangalore,"10+ years in business · AFTER GURU'SWEET'Z,SOMESHWARA'TEMPLE,U'LL FIND D GYM TOWARD'S UA LEFT_HAND'SIDE WITH D BIG'POSTER OF'D OLYMPIC'GYM ON'D BUILDIN. #11,GROUND'FLOOR, Someshwara Temple Rd",Open ⋅ Closes 10 pm · 098863 07472,,
Intensity Fitness Center,Gyms,Bangalore,"10+ years in business · 5, Thanappa Enclave, 1st & 2nd Floor, 1st Cross Road, Sirur Park Rd, opp. Mantri Mall",Open ⋅ Closes 9:30 pm · 080500 04558,,
FitGainer GYM & Fitness Centre,Gyms,Bangalore,"3+ years in business · Sub Registrar office, Seethappa layout, Opposite Families Super Market and above Apollo pharmacy RT Nagar Post, near Hebbal",Open ⋅ Closes 10:30 pm · 098866 83646,,
Golden Fizzik,Gyms,Bangalore,"10+ years in business · Rajeshwari Complex, # 163, 1st Floor, Above Karnataka Bank R.V.Road Minerva Circle Bangalore Karnataka 560004 IN, Girls High School Rd",Open ⋅ Closes 11 pm · 098455 91664,,
Fitness Club,Gyms,Bangalore,"7+ years in business · 3rd floor, No 6, 12th Cross Rd, behind TVS showroom, opp. to Behtar Super Market",Open ⋅ Closes 11 pm · 099867 86763,,
Fitness Edge,Gyms,Bangalore,"10+ years in business · S.G.Palya Main Road, Shop No : 1, 1st Floor, 1st Main Road, 8th Cross Rd",Open ⋅ Closes 10 pm · 094816 71454,,
XNA FITNESS (Xcuses not allowed),Gyms,Bangalore,"5+ years in business · 2nd Floor, Survey No. 10, Site No. 5, 6-7, Yelenahalli Main Rd",Open ⋅ Closes 10:30 pm · 093803 41373,,
Cult HSR - Best Gym in Bangalore,Gyms,Bangalore,"5+ years in business · 15th B Cross, 19th Main Rd, 15th B Cross Rd, opp. Mumbai Tiffin",Open ⋅ Closes 10 pm,,
"GymX, Fitness Redefined - Available at cult.fit - Gyms in Marathahalli, Bangalore",Gyms,Bangalore,"7+ years in business · Outer Ring Rd 90/2, Fourth Floor, Sri Balaji Suprabatha Complex",Open ⋅ Closes 10:30 pm · 063628 52078,,
Silver's Gym,Gyms,Bangalore,"7+ years in business · #34,Mahalakshmi Arcade, 3rd Floor, CBI Road post, next to Sichi Sagar hotel",Open ⋅ Closes 10:30 pm · 087222 23289,,
ICONIC FITNESS KORAMANGALA 4th BLOCK - Largest fitness chain in Bangalore | Best Rated | Unisex Fitness Centers | Gx Studio,Gyms,Bangalore,"3+ years in business · 142 ST BED layout 1st Main Road, 8th Cross Rd",Open ⋅ Closes 11 pm · 070262 76888,,
FitBox Gym,Gyms,Bangalore,"3+ years in business · 3rd H Main Rd, opposite Krisha Leela Grand hotel",Open ⋅ Closes 10:30 pm · 092076 64477,,
"Volt Fitness Club - Gym in 2nd Stage, Indiranagar, Bengaluru",Gyms,Bangalore,"7+ years in business · 2986, 12th Main Rd",Open ⋅ Closes 10:30 pm,,
TOP GYM,Gyms,Bangalore,"5+ years in business · 4, Seppings Rd",Open ⋅ Closes 12 am,,
LMNT Fitness Club,Gyms,Bangalore,"3+ years in business · Ward No. 82, 4th Floor, Sy.no. 69/2, Opp Decathlon Mahadevpura Village, Whitefield Main Rd",Open ⋅ Closes 11 pm · 098459 98451,,
Bodywise Gym | Old-School Gym | Jayanagar | Basavangudi | RV Road | Gyms in Bangalore,Gyms,Bangalore,"10+ years in business · 39/1, 1st Floor, Rashtriya Vidyalaya Rd, above Turkish Pasha Restaurant, opp. to THE BANGALORE HIGHER SECONDARY SCHOOL",Open ⋅ Closes 9:30 pm · 088673 78884,,
International Fitness Centre (IFC),Gyms,Bangalore,"10+ years in business · No. 20, 108B Bus Stand, 1st Main Road, 9th Main Rd",Open ⋅ Closes 10 pm · 089042 94027,,
"Cult Brigade Road - Gyms in Ashok Nagar, Bangalore",Gyms,Bangalore,"3+ years in business · 4th Floor, Cult, Eva Mall, 157, Brigade Rd",Open ⋅ Closes 10 pm,,
Athena Gym and Fitness,Gyms,Bangalore,"7+ years in business · 45, Millers Rd, opposite Photo Flash",Open ⋅ Closes 10 pm · 080 4123 5577,,
ICONIC FITNESS HSR SECTOR 2 - Largest fitness chain in Bangalore | Best Rated | Unisex Fitness Centers | Gx Studio |,Gyms,Bangalore,"3+ years in business · Apartment, 107, 24th Cross Rd, next to Purva Fairmont Road, above ALANKRITA",Open ⋅ Closes 12 am · 070263 22322,,
Fitness Empire,Gyms,Bangalore,"5+ years in business · 2nd & 3rd Floor, Sri Sapthagiri Complex, 90/3, Outer Ring Rd, opposite innovative multiplex, above Yo chow",Open ⋅ Closes 11:30 pm · 070194 74809,,
Body Vignyan Gym JP Nagar | Gym in JP Nagar | Best Gym In Bangalore | weight loss Center in jp nagar.,Gyms,Bangalore,"7+ years in business · 745/AB, 15TH Cross, 24th Main Rd, next to Nandhini Hotel, above MC Donalds",Open ⋅ Closes 10:30 pm · 095917 07008,,
"Cult SG Palya - Gyms in Suddagunte Palya, Bangalore",Gyms,Bangalore,"3+ years in business · 1st Floor, Above Nexa, KDP Building, Near Forum Mall, Suddagunte Palya",Open ⋅ Closes 10 pm · 1800 572 6303,,
Hammer Fitness,Gyms,Bangalore,"7+ years in business · 2nd Floor, 2341, 17th Cross Rd, opp. to Basaveshwara Gayathri Temple",Open ⋅ Closes 10 pm · 090087 72772,,
Rockwall Fitness,Gyms,Bangalore,"No.4, 2nd Floor, Krishna Nagar Industrial Area, Hosur Main Road, next to Royal Enfield showroom",Open ⋅ Closes 10:45 pm · 080 4991 5898,,
Powerfitness club Bangalore,Gyms,Bangalore,"3+ years in business · # 4 Hennur Bagalur Road, New Airport Rd, near DMart",Open ⋅ Closes 10 pm · 099169 92499,,
ARL FITNESS CENTER (GYM),Gyms,Bangalore,"5+ years in business · 25, 3RD FLOOR, Annipura Main Rd",Open 24 hours · 097411 31778,,
"Supergym - Available on cult.fit - Gyms in Thippasandra Main Road, Bangalore",Gyms,Bangalore,"New Thippasandra Main Rd, Murgan Temple Rd, above More Supermarket, opposite Sri Jagadamma",Open ⋅ Closes 11 pm · 080730 07464,,
ICONIC FITNESS KORAMANGALA 5th BLOCK - Largest fitness chain in Bangalore | Best Rated | Unisex Fitness Centers | Gx Studios,Gyms,Bangalore,"MM Mention, 67, 60 Feet Rd",Open ⋅ Closes 11 pm · 070262 76888,,
OneUp Fitness,Gyms,Bangalore,"15+ years in business · Building No, 2012, 100 Feet Rd",Open ⋅ Closes 10 pm · 099000 67511,,
The Den - Strength & Conditioning Gym,Gyms,Bangalore,3+ years in business · Annaswamy Mudaliar Rd,Open ⋅ Closes 8 pm · 095352 77784,,
"Elite Fitness Club - Available on cult.fit - Gyms in R.M.V, Bangalore",Gyms,Bangalore,"5+ years in business · 112, New BEL Rd",Open ⋅ Closes 10 pm · 098454 25811,,
Zest Fitness Studio,Gyms,Bangalore,"5+ years in business · No. 257, 1st & 2nd & 3rd, above RBL Bank",Open 24 hours · 074113 47411,,
Poundd Fitness,Gyms,Bangalore,"5+ years in business · Poundd Fitness, 3rd floor, #77 Prabha's Legacy, NAL Wind Tunnel Main Road, Murgeshpalya",Open ⋅ Closes 10 pm · 077957 90767,,
endorphin.fitness,Gyms,Bangalore,"3+ years in business · S N Complex, No 13 & 20, 3rd Floor 1st Main Road, 2nd Cross St",Open ⋅ Closes 10 pm · 096325 07665,,
Gym Town Fitness Club,Gyms,Bangalore,"5+ years in business · 5th floor, Komarla Towers, Circle, above Axis Bank",Open ⋅ Closes 10 pm · 096205 21444,,
Body Carvers Gym,Gyms,Bangalore,"20+ years in business · 12/11-8, Mouna Guru Swamy Mutt Road, behind St. Aloysius institution",Open ⋅ Closes 10:30 pm · 094488 65751,,
Super Muscle gym,Gyms,Bangalore,"dodda matta, 46, Main Rd, near jain temple",Open ⋅ Closes 10 pm · 097395 56723,,
Mutante Strength Gym,Gyms,Bangalore,"5+ years in business · 36/1 S.L.J Reach, 2nd floor, 9th Cross Rd",Open ⋅ Closes 10 pm · 097404 45167,,
BODY MORPH Gym,Gyms,Bangalore,"3+ years in business · 3rd Floor, Bangalore east, above Unilet Subhash Nagar, next to Tanishq Jewellery",Open ⋅ Closes 10 pm · 097422 36888,,
"Cult Chandra Layout - Gyms in Chandra Layout, Bangalore",Gyms,Bangalore,"5+ years in business · 2nd & 3rd floor, 89/A, 4th Main Rd, next to Brahmin's cafe",Open ⋅ Closes 10 pm,,
LIFTR - Strength & Conditioning Gym | Residency Road,Gyms,Bangalore,"Terrace Floor, Wework Galaxy, 43, Residency Rd",Open ⋅ Closes 8:30 pm · 079 4910 7788,,
Adithya Fitness #1,Gyms,Bangalore,"3+ years in business · Shop No. 5, 6, 7th Cross Rd, opposite Police Station",Open ⋅ Closes 9:30 pm,,
Fit And Active Gym,Gyms,Bangalore,"Site No 300, 2nd Floor AECS Layout 60 ft Road, A Block above Reliance Trends Women AECS Layout",Open ⋅ Closes 11 pm · 081231 41166,,
Venki's Gym,Gyms,Bangalore,"3+ years in business · #7, 1st Floor, SS Arcade, BTS Main Rd, opp. Bharathi Refreshment",Open ⋅ Closes 10 pm · 098451 43709,,
121 Premium Fitness Studio,Gyms,Bangalore,"88, Brigade Millenium Rd",Open ⋅ Closes 11:30 pm · 072597 67676,,
BISON FITNESS,Gyms,Bangalore,"3+ years in business · 14, Soms-Medhu, KIRA, Hosur Main Road, next to Christ universe college, near The Forum Mall",Open ⋅ Closes 11:30 pm · 080 4218 5849,,
Fitdeck Bangalore,Gyms,Bangalore,"#33, 4th floor, above Reliance Trends Ashoka Pillar, 100 Feet Ring Rd",Open ⋅ Closes 10:30 pm · 081230 88672,,
High Fitness Club,Gyms,Bangalore,"5+ years in business · No.9, Old-No.523, 2nd Floor, 33rd Cross Rd, above VBJ Jewels",Open ⋅ Closes 9:30 pm · 098865 36111,,
"Cult Gym Richmond Road - Gyms in Richmond Road, Bangalore",Gyms,Bangalore,"No 2, Mirza House, Convent Road, Richmond Rd, near HDFC Bank",Open ⋅ Closes 9:30 pm,,
ICONIC FITNESS KORAMANGALA 7th Block - Largest fitness chain in Bangalore | Best Rated | Unisex Fitness Centers | Gx Studios,Gyms,Bangalore,"Site No 6/B, 2nd Floor, 20th Main Rd, above HDFC Bank, next to Bombay Adda",Open ⋅ Closes 11 pm · 070262 76888,,
Kumar's Gym,Gyms,Bangalore,"15+ years in business · #13/1, Banappa, 7th Cross Road, Bannappa Park Rd",Open ⋅ Closes 10:30 pm · 099027 97385,,
Fitness Fuel Factory - Best Gym in HSR Layout,Gyms,Bangalore,"3+ years in business · #16,2nd floor,9th Main, 17th Cross Rd",Open ⋅ Closes 10 pm · 099646 66617,,
Posh Fitness Koramangala,Gyms,Bangalore,"80 Feet Rd, near Wipro Avenue, opposite to Starbucks",Open ⋅ Closes 11 pm · 099454 85143,,
"Cult Indiranagar - Gyms in Indiranagar, Bangalore",Gyms,Bangalore,"7+ years in business · 1st floor, 100 Feet Rd, above Ritu Kumar",Open ⋅ Closes 9 pm,,
Max Fitness Bangalore,Gyms,Bangalore,3+ years in business · Govindapura Main Rd,Open ⋅ Closes 11:30 pm · 099017 55437,,
NAMMA Training,Gyms,Bangalore,"10+ years in business · 19, 5th Level, HTC Aspire, Ali Asker Rd",Open ⋅ Closes 10 pm · 088845 62662,,
Kitty's Muscle Planet Gym,Gyms,Bangalore,"10+ years in business · 881/B, Dr MC Modi Hospital Rd",Open ⋅ Closes 12 am · 096635 89008,,
Naks Gym - Best Gym & Fitness centre in Sanjay Nagar,Gyms,Bangalore,"15+ years in business · Sanjaynagar Post 1st Main Road,UAS LAYOUT NTI LAYOUT BUS STOP",Open ⋅ Closes 9 pm · 095350 21774,,
"Cult Koramangala 80ft Rd - Gyms in Koramangala, Bangalore",Gyms,Bangalore,"5+ years in business · 80 Feet Rd, near Wipro Avenue, opposite Costa Coffee",Open ⋅ Closes 10 pm · 1800 572 6303,,
"Muscle Mutant - Available on cult.fit - Gyms in Basavanagudi, Bangalore",Gyms,Bangalore,"1st floor, Bull Temple Rd, below Kamat bugle rock, near BMS College of Engineering",Open ⋅ Closes 10:30 pm · 081477 57279,,
Gold's Gym Basavanagudi,Gyms,Bangalore,5+ years in business · Old Kanakapura Rd,Open ⋅ Closes 9:45 pm · 098861 00056,,
Fab Physique GYM,Gyms,Bangalore,"3+ years in business · 21/Bannerghatta road, post, near Hero cycle, above D s rajus garage",Open ⋅ Closes 10:30 pm · 097406 78838,,
Sun Fitnez World Gym,Gyms,Bangalore,"10+ years in business · HMR Complex, 39 & 40, First Floor, above Reliance Fresh",Open ⋅ Closes 10 pm · 098805 05357,,
Barbell Cartel Gym,Gyms,Bangalore,"5th floor, Varthur Rd, above ICICI Bank, next to Laughing Waters 5th Cross Road",Open ⋅ Closes 11 pm · 089047 59007,,
T99 Fitness,Gyms,Bangalore,"5+ years in business · #1&2, 3rd Floor, Horamavu Main Rd",Open ⋅ Closes 10 pm · 097316 04008,,
"Taurus Fitness - Available on cult.fit - Gyms in Rajajinagar, Bangalore",Gyms,Bangalore,"3+ years in business · No 46, 2nd Floor 10th Cross West, off Chord Road, above Tata Motors",Open ⋅ Closes 10 pm · 094834 29999,,
Zero 3 - The Fit Factory| The Best Gym In Kundalahalli and Munnekolal,Gyms,Bangalore,"5+ years in business · Sai Baba Temple Rd, Above More Supermarket",Open ⋅ Closes 11:30 pm · 073377 71888,,
4K Fitness Club,Gyms,Bangalore,"2nd Floor, 20, Langford Rd",Open ⋅ Closes 10:30 pm · 096863 33738,,
DRD FITNESS CENTRE,Gyms,Bangalore,"3+ years in business · BMP-15/1, 8th Cross Rd, opp. Banappa Park",Open ⋅ Closes 10 pm · 097397 99979,,
PLEJ FITNESS - Best Gym in Jayanagar +916362800922 +916362800921,Gyms,Bangalore,"11, 9th Main, 42nd Cross Rd",Open ⋅ Closes 11 pm · 063628 00921,,
Ninja Fitness,Gyms,Bangalore,"3+ years in business · Sriven Rag Landmarl, No2, 4th floor HombegowdaNagar, near Brand factory",Open ⋅ Closes 10 pm · 082770 53888,,
Gold's Gym J P Nagar,Gyms,Bangalore,"5+ years in business · 67, 1st Floor 15th Cross Road, 6th B Main Rd",Open ⋅ Closes 10:30 pm · 072593 20404,,
"Cult JP Nagar 7th Phase - Gyms in JP Nagar 7th Phase, Bangalore",Gyms,Bangalore,"5+ years in business · 2nd Floor, No 35",Open ⋅ Closes 10 pm,,
"FUERZA - Available on cult.fit - Gyms in Krishna Nagar Koramangala , Bengaluru",Gyms,Bangalore,"7+ years in business · Hosur Main Rd No. 5, Second floor, Srinivasa Arcade, near Forum Mall, above Royal Enfield",Open ⋅ Closes 11 pm · 099169 83338,,
Evolve fitness,Gyms,Bangalore,"no 36, vikas towers, Castle St",Open ⋅ Closes 11:30 pm · 090617 13386,,
The world gym,Gyms,Bangalore,"Bengaluru, Karnataka",Open ⋅ Closes 11:30 pm,,
GOLDSTAR FITNESS,Gyms,Bangalore,"5+ years in business · 18, 1st Main Rd",Open ⋅ Closes 10 pm · 077959 99923,,
Emerge private fitness studio,Gyms,Bangalore,"15+ years in business · Shop No. 26, No. 164/B, 2nd Floor, 24th Cross Rd, near Yediyur lake",Open ⋅ Closes 12 am · 096068 85111,,
Mi Crossfit Gym - Near Koramangala,Gyms,Bangalore,"3+ years in business · 10, 1st Floor, KNI, Layout, Between Christ College & Forum Mall, Hosur Rd",Open ⋅ Closes 10:30 pm · 087923 65294,,
Game On Fitness Wilson Garden,Gyms,Bangalore,"No.376, TV Plaza, 21, 6th Cross Rd, opp. to traffic police station",Open ⋅ Closes 11 pm · 096639 95409,,
Muscle Fitness gym,Gyms,Bangalore,"3+ years in business · 214, Narayan Pillai St",Open ⋅ Closes 1:30 am · 099163 78616,,
"Raw Fitness , Richmond Town",Gyms,Bangalore,"3+ years in business · 1st floor, 18/1, Alexandria St, above royal mart supermarket, near Richmond Park",Open ⋅ Closes 12 am · 097395 40008,,
"Cult Jayanagar - Gyms in Jayanagar, Bangalore",Gyms,Bangalore,"10+ years in business · 3rd Floor, 11th Main Rd, above Burger King",Open ⋅ Closes 10 pm,,
Aurum Health Club,Gyms,Bangalore,"764, 3rd floor, 100 Feet Rd",Open ⋅ Closes 11 pm · 081474 75647,,
Shape Fitness,Gyms,Bangalore,"10+ years in business · No.34, 1st Floor, 17th Cross, Opposite Lakshmipuram Bus Stop, Chinmaya Mission Hospital Rd",Open ⋅ Closes 10 pm,,
The Movement Fitness Centre - Best Gym in HSR Layout,Gyms,Bangalore,"3+ years in business · 17, Jakkasandra Cross Rd",Open ⋅ Closes 10 pm · 063662 41805,,
"Cult RR Nagar - Gyms in Kenchenhalli, Bangalore",Gyms,Bangalore,"5+ years in business · 2nd floor, above Reliance Tr.ends",Open ⋅ Closes 10 pm · 1800 572 6402,,
"Cult Hsr 24th Main - Gyms in 1st Sector, Hsr Layout, Bangalore",Gyms,Bangalore,"3+ years in business · Cult HSR 24th Main, Sabira Prestine, #2333, 17th Cross, 24th Main Rd",Open ⋅ Closes 10 pm · 1800 572 6303,,
Invictus Athletic Club,Gyms,Bangalore,"5+ years in business · 5th Floor, SAKET CALLIPOLIS, Sarjapur Main Rd, above Zudio",Open ⋅ Closes 10 pm · 097404 69517,,
Muscle fitness center koramangala,Gyms,Bangalore,"3+ years in business · 67-15/7,Y.Nanjappa Reddy Layout 3rd Cross Road K R Garden",Open ⋅ Closes 10:30 pm · 095911 95764,,
Live fitness gym,Gyms,Bangalore,"5+ years in business · 2ND FLOOR, NO.110/A,BHUVANESHWARI, Sri Rama Temple Rd",Open ⋅ Closes 11 pm · 097388 17224,,
"CONTENDER GYM, JC NAGAR",Gyms,Bangalore,"JC Nagar Main Rd, opposite to Jamia Masjid",Open ⋅ Closes 10:30 pm,,
"Play On Fitness - Available on cult.fit - Gyms in BTM Layout, Bengaluru",Gyms,Bangalore,"7+ years in business · 324, 7th Cross Rd",Open ⋅ Closes 11 pm · 090359 07979,,
YohFitness,Gyms,Bangalore,"3+ years in business · No 14, Pottery Rd",Open ⋅ Closes 11 pm · 080 4126 7007,,
"Cult RMV 2nd Stage - Gyms in RMV 2nd Stage, Bengaluru",Gyms,Bangalore,"2nd and 3rd floor, above Cafe Coffee day, 3rd Main Road, 379, 80 Feet Rd",Open ⋅ Closes 10 pm · 1800 572 6303,,
Aarna Fitness - Available on Cult.fit | Gyms in Konakunte,Gyms,Bangalore,"Forum Mall, Ashoka Arcade Adjacent to Prestige Falcon City and, Konanakunte Main Rd",Open ⋅ Closes 10 pm · 097404 05143,,
Royal Fitness,Gyms,Bangalore,"#34, JM Arcade, 3rd floor, Annipura Main Rd",Open ⋅ Closes 11 pm · 091418 90500,,
"Cult Rajajinagar - Gyms in Nandini Layout, Rajajinagar, Bangalore",Gyms,Bangalore,"5+ years in business · 77, Ground Floor, Below Stories Pub, Beside Mahalakshmi Metro Nandini Layout",Open ⋅ Closes 10 pm,,
Muscle shape Gym,Gyms,Bangalore,"10+ years in business · 40, 2nd Main Rd, near Vinayaka circle",Open ⋅ Closes 10:46 pm,,
Fit Life gym,Gyms,Bangalore,"7+ years in business · 1st floor, Ramanjaneya complex, 8th Cross Rd, opp. Anjaneya temple, near Kalamandir",Open ⋅ Closes 10 pm · 081052 91333,,
"Cult Tribe Indiranagar - Gyms in Indiranagar, Bangalore",Gyms,Bangalore,"7+ years in business · 307, 100 Feet Rd, next to Dominos",Open ⋅ Closes 10 pm,,
Evolve Fitness Studio,Gyms,Bangalore,"10+ years in business · Shop No:#470, E End Main Rd",Open ⋅ Closes 11 pm · 080 4375 8232,,
TRANSFORM FITNESS,Gyms,Bangalore,"8, Serpentine Rd",Open ⋅ Closes 9 pm,,
Fitness Life Gym,Gyms,Bangalore,"7+ years in business · Plot No. D3/2, Sarjapur Main Rd, near Pavitra hardware",Open ⋅ Closes 10 pm · 097439 82222,,
Fit n Fun Fitness Studio,Gyms,Bangalore,"10+ years in business · 3rd floor, 11, above Reload, next to Top in Town Super market",Open ⋅ Closes 10 pm · 081230 99940,,
"Super Gym - Available on cult.fit - Gyms in Mahadevapura, Bangalore",Gyms,Bangalore,"3+ years in business · Mahalinga Complex, 1st Main Rd",Open ⋅ Closes 10:30 pm · 097409 70749,,
JAGUAR FITNESS MARUTHINAGAR,Gyms,Bangalore,3+ years in business · Maruthi Nagar Main Rd,Open ⋅ Closes 11:30 pm,,
"Cult Kalyan Nagar - Gyms in Hrbr Layout 3rd Block, Kalyan Nagar, Bangalore",Gyms,Bangalore,"5+ years in business · Cult Kalyan Nagar, 3rd floor, Above Absolute Barbecue Roseline Landmark, 5th B Cross Road",Open ⋅ Closes 10 pm,,
"Zest Fitness Studio - HSR Layout Gym, Bangalore",Gyms,Bangalore,"818, 2nd 3rd and 4th floor, 27th Main Rd, opposite to Liberty Exclusive Showroom",Open ⋅ Closes 11 pm · 098457 43430,,
4th station gym,Gyms,Bangalore,"7+ years in business · 86,Ashiana,1st floor",Open ⋅ Closes 10 pm · 091484 34838,,
Fitness World Gym,Gyms,Bangalore,"15+ years in business · 5, Dodda Banaswadi Main Rd, above Srinidhi Upachar Hotel",Open ⋅ Closes 9:30 pm · 093412 20971,,
Mario's Fitness Bangalore,Gyms,Bangalore,"3rd Floor, above Aprilla/Vespa showroom, next to Patel Public School",Open ⋅ Closes 10 pm · 099002 35657,,
Silhouette Fitness,Gyms,Bangalore,"5+ years in business · 2462, 24th Cross Rd",Open ⋅ Closes 11 pm · 097409 31931,,
"Cult Banashankari - Gyms in Banashankari, Bangalore",Gyms,Bangalore,"5+ years in business · 5th Block, 113, Outer Ring Rd",Open ⋅ Closes 10 pm,,
Rock Fitness Gym,Gyms,Bangalore,"5+ years in business · 778, SRS Rd",Open ⋅ Closes 10 pm · 090364 05752,,
Finix Fitness Basavanagudi,Gyms,Bangalore,"5+ years in business · Kodandrama Complex, No:106, 1st Floor, Kodandarama Complex Gandhi Bazaar, Basavanagudi Above Vijaya Bank, Gandhi Bazaar Main Rd, next to Poorvika Mobile Showroom",Open ⋅ Closes 10 pm · 082175 00205,,
Falcon fitness 24/7,Gyms,Bangalore,"2nd floor, J M capital, No. 63, Post, opp. to Indian oil petrol bunk",Open ⋅ Closes 11 pm · 099725 28242,,
Steve's Gym,Gyms,Bangalore,"10+ years in business · 23, Wheeler Rd, Coxtown",Open ⋅ Closes 9:30 pm · 098440 33487,,
"Cult Yelahanka - Gyms in Yelahanka, Bangalore",Gyms,Bangalore,"5+ years in business · 1st A Main Road, Opposite State Bank of India, Yelahanka New Town, 353, near Yelahanka",Open ⋅ Closes 10 pm,,
"Cult Marathahalli ORR - Gyms In Marathahalli, Bangalore",Gyms,Bangalore,"3+ years in business · 2nd Floor, Raja Ikon, Cult Marathalli ORR, Marathahalli - Sarjapur Outer Ring Rd",Open ⋅ Closes 10 pm · 099164 73154,,
One Fitness,Gyms,Bangalore,"10+ years in business · 3rd floor, 13, Mosque Rd",Open ⋅ Closes 10 pm · 099805 22000,,
Cult Gym Banaswadi Bangalore,Gyms,Bangalore,"3+ years in business · 1st & 2nd Floor,Kasturi Nagar, 5th Cross Rd",Open ⋅ Closes 10 pm,,
BURN & FLEX FITTNESS,Gyms,Bangalore,"3+ years in business · 136-137, 8th Main Rd",Open ⋅ Closes 10:30 pm · 080950 60259,,
"Mani's core fit - Available on cult.fi - Gym in Malleshwaram, Bengaluru",Gyms,Bangalore,"3+ years in business · 3rd Cross Rd Plot 10A, Second & Third Floor",Open ⋅ Closes 9 pm · 089044 17935,,
Fitness 24/7,Gyms,Bangalore,"5+ years in business · #72, 2nd Floor, 16th Main Road, Mahendra Towers, Service Rd, next to Bata Showroom",Open ⋅ Closes 11 pm · 096112 33133,,
Temple Fitness Gym,Gyms,Bangalore,"3+ years in business · No 10, 2nd Floor, 60 Feet Road, 5th Cross Rd",Open ⋅ Closes 10:30 pm · 099728 79932,,
NO LIMITS FITNESS,Gyms,Bangalore,"3+ years in business · 4th floor, SLV Towers, 607, 80 Feet Rd",Open ⋅ Closes 10 pm · 097381 54841,,
Spartans Fitness Studio,Gyms,Bangalore,"45, Old Race Course Rd, above Iyengars Bakery",Open ⋅ Closes 10:30 pm · 087929 22003,,
GOLDSTAR FITNESS,Gyms,Bangalore,"5+ years in business · 91, 19th Main Road",Open ⋅ Closes 10 pm · 098450 71474,,
Pyro Fitness,Gyms,Bangalore,"7+ years in business · 2nd Floor, Jayavani's, Ishwerya Towers, Meanee Ave Rd, opp. Lakeside Hospital",Open ⋅ Closes 10 pm · 080 4157 1272,,
"Cult Sahakar Nagar - Gyms in Sahakar Nagar, Bangalore",Gyms,Bangalore,"5+ years in business · 1st & 2nd Floor, Sahakara Nagar Main Rd",Open ⋅ Closes 10 pm · 1800 572 6303,,
Fitness Goals,Gyms,Bangalore,7+ years in business · VP Deenadayalu Naidu Rd,Open ⋅ Closes 11 pm · 099160 03611,,
"SHRED Fitness - Available on cult.fit - Gyms in Frazer Town, Bengaluru",Gyms,Bangalore,"3+ years in business · Coles Rd No. 55, Second Floor, above Icici Bank",Open ⋅ Closes 11 pm · 070190 31564,,
Rzee Fitness,Gyms,Bangalore,"2nd Floor, No 79/4, 1st Cross Rd",Open ⋅ Closes 11 pm · 097393 27801,,
RESET Koramangala,Gyms,Bangalore,"3+ years in business · 501, 6th Cross Rd",Open ⋅ Closes 10:30 pm · 063600 90000,,
Whitefield Total Fitness,Gyms,Bangalore,"10+ years in business · 2nd Floor, MCC Arcade, Varthur Road, Opp to Virgina Mall, 5/2A, SH 35",Open ⋅ Closes 10:30 pm · 098862 01919,,
iFitness,Gyms,Bangalore,"7+ years in business · No. 126, Chabria Square, Kengal Hanumanthaiah Rd",Open ⋅ Closes 10:30 pm · 080 4149 5014,,
"Play On Fitness - Available on cult.fit - Gym in HSR Layout, Bengaluru",Gyms,Bangalore,"3+ years in business · 2562, First & Second Floor, 14th Cross Rd",Open ⋅ Closes 11 pm · 099720 96268,,
Quadz Fitness Sadashivanagar,Gyms,Bangalore,"3+ years in business · 1st Floor, Esteem Plaza, 13th Cross Rd, next to JustBe Resto Cafe, opposite to PEPPERFRY",Open ⋅ Closes 10 pm · 088846 50334,,
EXCEL FITNESS CENTER,Gyms,Bangalore,3+ years in business · VP Deenadayalu Naidu Rd,Open ⋅ Closes 10 pm · 085538 47351,,
GYM,Gyms,Bangalore,"5+ years in business · XHCH+VXW, Hospital Rd",Open ⋅ Closes 10 pm,,
The Sun Fitness,Gyms,Bangalore,3+ years in business · 560037,Open ⋅ Closes 10 pm · 081520 21967,,
Gold's Gym,Gyms,Bangalore,"7+ years in business · Sai Sharan Heights, No-78, 4th Main, 15th Cross Rd",Open ⋅ Closes 10 pm · 089718 01100,,
"Cult Kanakapura Road - Gyms in Kanakapura Road, Bangalore",Gyms,Bangalore,"3+ years in business · 3rd floor, opp Brand Factory, Anjanapura Main Rd, Kanakapura Rd",Open ⋅ Closes 10 pm,,
DP DYNAMIC GYM,Gyms,Bangalore,"7+ years in business · Metro pillar no 89, Royalyok building",Open ⋅ Closes 10 pm · 082965 99214,,
"Cult Malleshwaram - Gyms in Malleshwaram, Bangalore",Gyms,Bangalore,"5+ years in business · 1st Floor, 47, Margosa Rd, opp. Veena Stores",Open ⋅ Closes 10 pm,,
Beast Fitness,Gyms,Bangalore,"5+ years in business · 404, 30th A Cross Rd, 28th Main Rd",Open ⋅ Closes 10 pm · 099166 64986,,
"Cult Basavanagudi - Gyms in Basavanagudi, Bangalore",Gyms,Bangalore,"5+ years in business · 3rd Floor, Sri Chamber's, Subbarama Chetty Rd, above Karnataka Bank",Open ⋅ Closes 10 pm,,
Zeus Fitness Studio - Best Gym in Koramangala | Zumba Dance Classes in Koramangala,Gyms,Bangalore,"5+ years in business · #10, 1st Floor, KNI Layout Between Christ College & Forum Mall, Hosur Rd",Open ⋅ Closes 11 pm,,
Rocks Fitness - The Best Premium Gym in Devarabisanahalli,Gyms,Bangalore,"16 ward no 150, Gear international school road, Hobli",Open ⋅ Closes 10:30 pm · 096776 68942,,
BULL FITNESS BANGALORE,Gyms,Bangalore,"5+ years in business · 30, 5th Cross Rd",Open ⋅ Closes 10 pm · 080 4371 8312,,
Leon Maestro De Fitness - Kammanahalli,Gyms,Bangalore,"7+ years in business · Bengaluru, Karnataka",Open ⋅ Closes 10:30 pm · 098867 81967,,
"Cult Basaveshwar Nagar - Gyms in Basaveshwara nagar, Bangalore",Gyms,Bangalore,"5+ years in business · 3rd floor above Reliance Digital , 2nd Stage Basaweshwarnagar Dr Modi Hospital Road, WOC",Open ⋅ Closes 10 pm,,
"Foundry Active - Available on cult.fit - Gyms in Domlur, Bengaluru",Gyms,Bangalore,"5+ years in business · 1st & 2nd Floor, 302, 7th Cross Rd",Open ⋅ Closes 9:30 pm · 091336 04545,,
Breakthrough Studio | The Fitness Studio,Gyms,Bangalore,"3+ years in business · 23/1 1st Floor, Coles Rd",Open ⋅ Closes 8 pm · 063626 82417,,
"Cult RT Nagar - Gyms in Krishnappa Block, RT Nagar, Bangalore",Gyms,Bangalore,"5+ years in business · 1st Floor, beside Empire Restaurant",Open ⋅ Closes 10 pm · 1800 572 6402,,
Kamaraj's Gym | Nataraj | Jogupalaya,Gyms,Bangalore,"58, G Main St",Open ⋅ Closes 9:55 pm,,
LIGER FITNESS,Gyms,Bangalore,"4&5, Old Post Office Rd",Open ⋅ Closes 11 pm · 090374 99282,,
Muscle Power Gym,Gyms,Bangalore,"7+ years in business · Magadi Main Rd, opposite to Anjan theatre",Open ⋅ Closes 11 pm,,
Robusto | Fitness Center,Gyms,Bangalore,"5+ years in business · Sy.no.2/1, Harlur village, Varthur Hobli, East, Taluk, next to Prestige Ferns",Open ⋅ Closes 10 pm · 098455 27353,,
Fitness Garage,Gyms,Bangalore,5+ years in business · WFHP+HMJ,Open ⋅ Closes 11 pm · 098808 91999,,
MAGNET GYM,Gyms,Bangalore,"3+ years in business · NO.637' 2nd Floor 6th main, road",Open ⋅ Closes 10 pm · 098456 30463,,
"Cult Frazer Town - Gyms in Pulikeshi Nagar, Bangalore",Gyms,Bangalore,"5+ years in business · Cult Frazer Town, # 77/2, Ground Floor, Robertson Road, Fraser Town, Landmark:, near More Super Market",Open ⋅ Closes 10 pm · 1800 572 6402,,
Madbody Fitness Studio,Gyms,Bangalore,"building, 72, 73 & 74, Abmgp, 17th Cross Rd",Open ⋅ Closes 10 pm · 097314 33091,,
K7 FITNESS,Gyms,Bangalore,"119, 3rd floor, 19th Cross, Rama Temple road, Ejipura",Open ⋅ Closes 10:30 pm · 097395 97867,,
"Cult Mahadevapura - Gyms in Mahadevapura, Bangalore",Gyms,Bangalore,"5+ years in business · 3rd Floor, No 62, Mahadevpura Flyover, opp. Bagmane World Technology Centre",Open ⋅ Closes 10 pm · 080882 54821,,
"Cult Hsr 14th Main - Gyms in 7th Sector, Hsr Layout, Bangalore",Gyms,Bangalore,"3+ years in business · 14th Main Rd, near California Burrito",Open ⋅ Closes 10 pm,,
Figurine Fitness,Gyms,Bangalore,"10+ years in business · #3167, ESI hospital road",Open ⋅ Closes 10 pm · 098450 32994,,
R.D.X POWER GYM,Gyms,Bangalore,"No 216, 8th cross, 1st Main Rd, opposite IDC Hotel",Open 24 hours · 090361 43796,,
ICONIC FITNESS BELLANDUR - Largest fitness chain in Bangalore | Best Rated | Unisex Fitness Centers,Gyms,Bangalore,"1st Floor, 152, Hobli, near HDFC bank",Open ⋅ Closes 12 am · 070262 76888,,
Maze fitness - Body Transformation Studio,Gyms,Bangalore,"No.52, 2nd floor, Chaitanya Plaza, DVG Road, above Jockey Showroom",Open ⋅ Closes 10 pm,,
Arnold Gym,Gyms,Bangalore,10+ years in business · Old Taluk Cutchery Rd,Open ⋅ Closes 10 pm,,
"Cult Harlur - Gyms in Harlur, Bangalore",Gyms,Bangalore,"5+ years in business · 3rd Floor, Haralur Main Rd, above Freshco",Open ⋅ Closes 10 pm · 099164 72815,,
Snap Fitness,Gyms,Bangalore,"10+ years in business · 79/5,4th Floor, Sri Lakshmi Venkateshwara Complex, Vanivilas Rd",Open ⋅ Closes 11 pm · 099000 03939,,
Quadz Fitness Seshadripuram,Gyms,Bangalore,"5+ years in business · 142, 1st and 2nd Floor, 1st Main Road, Seshadripuram, Next to HAFELE Showroom, near Chaitanya Techno School",Open ⋅ Closes 10 pm · 096632 64469,,
Lotus Sports and Fitness Gym - 3rd Phase JP Nagar,Gyms,Bangalore,"72/A, 3rd Floor, 15th Cross Rd",Open ⋅ Closes 10 pm · 089512 71112,,
"Cult Akshayanagar - Gyms in Akshayanagar, Bangalore",Gyms,Bangalore,"3+ years in business · 1st Floor, Above McDonald's, Kukke Plaza",Open ⋅ Closes 10 pm,,
Polo Fitness,Gyms,Bangalore,"17, SG Palya, 1st Main Rd, near Srinivasa Theatre",Open ⋅ Closes 10:30 pm,,
Planet Fitness Plus,Gyms,Bangalore,"30 1st Floor, 2nd Floor, Arekere Main Rd",Open ⋅ Closes 11 pm · 084311 05707,,
"Cult Nagavara - Gyms in Nagavara, Bangalore",Gyms,Bangalore,"3+ years in business · 1st & 2nd Floor, Manyata Tech Park, opp, Manyata Tech Park Rd",Open ⋅ Closes 10 pm,,
"Cult Sarjapur Doddakannalli - Gyms in Doddakannalli, Sarjapur Road, Bangalore",Gyms,Bangalore,"5+ years in business · 2nd Floor, Sarjapur - Marathahalli Rd, above Puma factory outlet",Open ⋅ Closes 10 pm · 099164 72639,,
Multifit Ulsoor,Gyms,Bangalore,"1st Floor, South United Football Club Gate, 3, Gangadhar Chetty Rd, near Ulsoor",Open ⋅ Closes 10 pm,,
Muscle Tribes Gym,Gyms,Bangalore,"10+ years in business · 1st Floor, 775, 16th Main Rd",Open ⋅ Closes 10 pm · 097415 19741,,
Fitness Active Gym,Gyms,Bangalore,"3+ years in business · 643, CJ Venkatesh Das Rd, above Royal Super Market",Open ⋅ Closes 10 pm · 080 4165 7546,,
Cult.fit,Gyms,Bangalore,"3+ years in business · 13/GF, Mosque Rd",Open ⋅ Closes 10 pm,,
Vivs Gym,Gyms,Bangalore,"5+ years in business · #9, Cruz Manor, Mosque Rd",Open ⋅ Closes 10:30 pm · 074069 65922,,
Core Fitness Station,Gyms,Bangalore,"5+ years in business · 17/2, 17/3 Renaissance Bangaluru Race Course Hotel, #77",Open ⋅ Closes 10 pm,,
Life The Fitness Centre,Gyms,Bangalore,"7+ years in business · 5, Assaye Rd",Open ⋅ Closes 11 pm · 080 2555 5929,,
Tony's Gym,Gyms,Bangalore,"No 9, Sai Sadan Enterprise, St John's, Road",Open ⋅ Closes 9:30 pm,,
Power House Gym,Gyms,Bangalore,"7+ years in business · 28, 2",Open ⋅ Closes 10 pm · 099722 42393,,
Hyatt Centric Fitness Studio,Gyms,Bangalore,"7+ years in business · 4th floor, Hyatt Centric MG Road Bangalore, 1/1, Old Madras Rd",Open 24 hours · 080 4018 7016,,
Shape Up Fitness Centre,Gyms,Bangalore,"10+ years in business · 1st R Block, 53/2, Mount Joy Rd",Open ⋅ Closes 10 pm · 099166 79696,,
"Cult Jp Nagar - Gyms in Jp Nagar 2nd Phase, Bangalore",Gyms,Bangalore,"7+ years in business · 688, 100 Feet Ring Rd",Open ⋅ Closes 10 pm · 1800 572 6303,,
FITNESS TYCOON HSR,Gyms,Bangalore,"7+ years in business · bus stop, Parangipalya",Open ⋅ Closes 11 pm · 091646 33017,,
SHIELD'S FITNESS CLUB BASAVANAGUDI,Gyms,Bangalore,"79/1 , 3rd floor, Aishwarya sampurna, Vanivilas Rd, above KFC",Open ⋅ Closes 10 pm,,
MASCULINE GYM,Gyms,Bangalore,"10+ years in business · 86, 2, St Johns Church Rd, near aks convention center",Open ⋅ Closes 11 pm · 098861 16785,,
Fitness Race - Karate Gym Gymnastics Scating classes in Bangalore,Gyms,Bangalore,"10+ years in business · Dinnur Main Road, RT Nagar Near",Open ⋅ Closes 10 pm · 097314 20000,,
ROWELL FITNESS,Gyms,Bangalore,"Canara Bank & HDFC Bank Building, 4, 5&6 MARG Aditya Complex, 1st Main Road, 7th Phase J.P.Nagar Land Mark",Open ⋅ Closes 12 am · 091088 82791,,
Triton Fitness Studio - Gym and Group Class,Gyms,Bangalore,"7+ years in business · #05 & 10, Syndicate Bank Colony Main Rd",Open ⋅ Closes 11 pm · 095357 57777,,
Maidan Athletic Club,Gyms,Bangalore,"5+ years in business · 20, 3rd Floor, Dodda Banaswadi Main Rd",Open ⋅ Closes 10 pm · 077603 44646,,
Gym Factory fitness club,Gyms,Bangalore,"4th floor, Blue square, above Simply namdharis, 24th Main Rd, near HDFC bank",Open ⋅ Closes 11 pm,,
Tarzan Fitness Gym | Best Gym | Gym in Harlur,Gyms,Bangalore,"4th Floor, Aksara Sai Plaza, Birla Circle, Kudlu Rd, above Freshco Hyperbazaar",Open ⋅ Closes 11 pm · 081972 64944,,
Body Shape Gym,Gyms,Bangalore,"7+ years in business · 2, 1st Floor, 14th Cross Rd",Open ⋅ Closes 9:30 pm,,
2 THE FIT STUDIO,Gyms,Bangalore,"3+ years in business · 22/1, KRISHNA SING LANE Ganigara, B, Gurkar Ramanayak Ln",090929 55955,,
Crossfit,Gyms,Bangalore,"7+ years in business · 24/1, Vittal Mallya Rd",Open ⋅ Closes 11 pm · 080671 89999,,
Fille fitness only ladies gym,Gyms,Bangalore,"3+ years in business · 8, Mosque Rd",· 080 4162 1887,,
Chisel Fitness Richmond Road,Gyms,Bangalore,"10+ years in business · No. 36, Richmond Road",Open ⋅ Closes 10 pm · 091640 28998,,
Aurum Fitness Kormangala,Gyms,Bangalore,"13, 80 Feet Rd, above Kotak Mahindra Bank",Open ⋅ Closes 10:30 pm · 081474 75647,,
Cuts and Curves,Gyms,Bangalore,"10+ years in business · Police Station, 15, 2nd Floor, Above-Vivek Show Room, Next To",· 080 2343 5320,,
Park With Open Gym And Enormous Greenery,Gyms,Bangalore,"5+ years in business · 3rd Cross Park, 3rd Cross Rd",Open 24 hours,,
Lotus Sports and Fitness,Gyms,Bangalore,"5+ years in business · 105/71, 1st main, 4th Cross Rd",Open ⋅ Closes 9:30 pm · 080 4151 6677,,
Best gym HSR Layout,Gyms,Bangalore,"818, 2nt & 3rd & 4th Floor, 27th Main Rd",Open ⋅ Closes 11 pm,,
Om Sai fitness centre,Gyms,Bangalore,"3+ years in business · 44, Appaji Rao Ln",Open ⋅ Closes 9:30 pm,,
ICONIC FITNESS INDIRA NAGAR - Largest fitness chain in Bangalore | Best Rated | Unisex Fitness Centers | Gx Studio,Gyms,Bangalore,"3rd, 4th and 5th Floor, 872/A, 80 Feet Rd, above Brik Oven, near Sapna book house",Open ⋅ Closes 11 pm,,
Golden Lion's Fitness,Gyms,Bangalore,"5+ years in business · 47, Hosur Rd",Open ⋅ Closes 10 pm · 088843 55996,,
"Cult Outdoors Koramangala (Near ThoughtWorks) - Gyms in Koramangala 3rd Block, Bangalore",Gyms,Bangalore,"5+ years in business · 7th Cross Rd, near Thoughtworks",Open ⋅ Closes 10 pm,,
Muscle Maniac Studio,Gyms,Bangalore,"No 01, Sir M N K, MN Krishna Rao Rd",Open ⋅ Closes 10 pm,,
BURN - The fitness studio,Gyms,Bangalore,"3+ years in business · 19/4, 2 floor, Fathima Towers, 19, Rhenius St, above Food World",Open ⋅ Closes 10 pm · 099860 02315,,
HOUSE OF FITNESS,Gyms,Bangalore,"Shanthinagar 3/5, RS compound, Basappa Rd",Open ⋅ Closes 10 pm · 081051 02859,,
Assualt fitness,Gyms,Bangalore,"3+ years in business · Haines road, Jain Temple Rd",Open ⋅ Closes 12 am,,
Quick fitness,Gyms,Bangalore,"Hkp Road, Broadway",Open ⋅ Closes 12:30 am,,
Onset Fitness,Gyms,Bangalore,"32, 4th Cross Rd",Open ⋅ Closes 10 pm,,
Al Nasa Gym,Gyms,Bangalore,Bazaar St,Open ⋅ Closes 11 pm,,
Kintore Fitness Club - Best Gym in Vijayanagar Bangalore,Gyms,Bangalore,"5+ years in business · Poornima Complex, 998/20, 3rd Floor, Service Rd, above ICICI Bank, next to S B I Bank",Open ⋅ Closes 10:30 pm · 098454 27078,,
The BlackBx Studio,Gyms,Bangalore,"Ground Floor, CRN Chambers, 13, Kasturba Rd",Open ⋅ Closes 9 pm,,
"Cult Prestige Tech Park - Gyms in Prestige Tech Park Kadubeesanahalli, Bangalore",Gyms,Bangalore,"PRESTIGE TECH PARK, Marathahalli - Sarjapur Outer Ring Rd",,,
"Cult Pritech Park - Gyms in Adarsh Palm Retreat Bellandur, Bangalore",Gyms,Bangalore,"Park Food court, Cult Pritech Park, 1st Floor, Pritech Rd, above Starbucks",,,
Platinum Gym,Gyms,Bangalore,7+ years in business · 39 2nd floor Nawab Hyder Ali Khan Road Kalasipalyam,Open ⋅ Closes 11 pm · 098867 91247,,
Chakra Athletica,Gyms,Bangalore,"Prestige Nugget, 126, Infantry Rd",Open ⋅ Closes 9 pm · 091132 55982,,
Cottonpet Chikka Garadi,Gyms,Bangalore,"Cottonpet Main Rd, opposite to vandana hotel",Open ⋅ Closes 8:30 pm · 081519 93314,,
Metabolix Fitness Studio | Gym,Gyms,Bangalore,"26, Rhenius St",· 080958 04999,,
"Cult Koramangala JNC - Gyms in Koramangala, Bangalore",Gyms,Bangalore,"No. 135, First Floor, 60 Feet Rd, above 7 Plates",,,
Fusion Beats Dance Fitness Studio,Gyms,Bangalore,"5+ years in business · Kaggadasapura Main Rd, above Union Bank of India",Open ⋅ Closes 8 pm · 078999 81033,,
R2 Fitness Revolution - ಆರ್2 ಫಿಟ್ನೆಸ್ ರೇವೊಲುಷನ್,Gyms,Bangalore,"7+ years in business · No:A303, Purvi Grand Apartment, near Ryan International School Kundalahalli",· 098807 86312,,
Fitternity,Gyms,Bangalore,5+ years in business · 2J8P+G7M,Open ⋅ Closes 7 am Thu,,
Zela Luxury Health Club,Gyms,Bangalore,"1st Floor, The Residency, 133/1, Residency Rd, opposite Bipshop Cotton High School",· 080 4334 7000,,
AATMA PILATES STUDIO BY RAMYA,Gyms,Bangalore,"JW Marriott Hotel, 24/1, Vittal Mallya Rd, next to UB City",· 099806 35395,,
Incorporate Fitness Bangalore,Gyms,Bangalore,"#12, 9th Cross Rd",,,
Raw energy fitness bangalore,Gyms,Bangalore,"65 gold plaza 3rd floor coles road frazer town, above Printo Frazer Town",· 098861 01124,,
Techno Gym,Gyms,Bangalore,"1/15, #2, 1st Floor, St Mark's Rd",· 080 4112 6068,,
Reset Gym,Gyms,Bangalore,"1, 21, Ramana Maharshi Rd",,,
Reach Fitness,Gyms,Bangalore,"10+ years in business · # 1 ,1st stage , 1st main , KHB colony , Basavehwaranagar , Bangalore-560079.",080 4211 6655,,
Rockstar Fitness,Gyms,Bangalore,"SAMADHAN NAGAR, 6th Cross Rd",,,
Edge Fitness,Gyms,Bangalore,"5+ years in business · JW Marriott, 24/1, Vittal Mallya Rd",091984 55392,,
Bangalore Fight Club,Gyms,Bangalore,"103, Old Madras Rd",Open ⋅ Closes 9 pm,,
Best gym,Gyms,Bangalore,"1/3, R.R Compelx, Begura Main Road, Bommanahlli, Begur Rd",,,
"Pilates for Wellbeing, Lavelle Road| Pilates in Bangalore| Pilates Training | Pilates Classes",Gyms,Bangalore,"#35, Raja Sabha, Lavelle Road, Off, Kasturba Cross Rd",Open ⋅ Closes 8:30 pm · 095389 99967,,
Top 10 Gym in Bangalore,Gyms,Bangalore,WHVF+GG2,Temporarily closed,,
CKA Fitness,Gyms,Bangalore,"5+ years in business · Richmond Building, 403,'C', 4th Floor, Richmond Rd",· 081470 50222,,
Mighty Fit Aerobics,Gyms,Bangalore,"10+ years in business · 1087, 18th Main, 66th Cross, Rajaji Nagar, Near National Public School, Rajaji Nagar",080 2335 7300,,
Apple Fitness & Reshape,Gyms,Bangalore,"No.12/1, 6/5, 2nd floor Siddhaganga Plaza",,,
Navi Fitness Gym,Gyms,Bangalore,"4th Block, 24/A, 80 Feet Rd",Temporarily closed,,
Sheraton Fitness,Gyms,Bangalore,"A Block, Dr Rajkumar Rd",,,
S FITNESS GYM & CROSSFIT STUDIO,Gyms,Chennai,"7+ years in business · 1, Orandi Amman Koil St",Open ⋅ Closes 10 pm · 098849 67040,,
SLAM Lifestyle And Fitness Studio (RK Salai),Gyms,Chennai,"5+ years in business · No 25, Third floor, RK Salai, Yellow Pages Junction Mylapore (Above Grill Box Restaurant",Open ⋅ Closes 10 pm · 090403 74037,,
Just Gym (Men & Women),Gyms,Chennai,"5+ years in business · 59/27, Purasawalkam High Rd",Open 24 hours · 063838 14811,,
Sen Fitness,Gyms,Chennai,"5+ years in business · Tower Victoria, 45, Gopathi Narayanaswami Chetty Rd, Same building as Absolute Barbecues, next to Hotel Accord",Open ⋅ Closes 11 pm · 073056 01445,,
FIT TREE FITNESS CENTRE,Gyms,Chennai,"7+ years in business · 29, Lakshmi Talkies Rd",Open ⋅ Closes 9:30 pm · 098844 17776,,
HARD ROCK FITNESS,Gyms,Chennai,"7+ years in business · landmark Poorvika Mobile, No-# 259, 259, Pycrofts Rd, near Ratna Cafe",Open ⋅ Closes 10 pm · 073052 40240,,
i5 Fitness Studio,Gyms,Chennai,"10+ years in business · 117, Nelson Tower, First Wing, Basement, Nelson Manickam Rd",Open ⋅ Closes 9 pm · 097910 70214,,
GYM IT,Gyms,Chennai,"10+ years in business · 1st floor, Choolaimedu High Road, no 4, Khan St",Open ⋅ Closes 10:30 pm · 073585 05505,,
Burn Out Unisex Fitness Studio - Anna Nagar West,Gyms,Chennai,"1420, 13th Main Rd",Open ⋅ Closes 10 pm · 073394 11222,,
Muscle Town Fitness Studio,Gyms,Chennai,"5+ years in business · 21, Westcott Rd",Open ⋅ Closes 10 pm · 098849 51045,,
XTREAM FITNESS STUDIO,Gyms,Chennai,"7+ years in business · 13/4, 1st St",Open ⋅ Closes 10 pm,,
Feral Fitness,Gyms,Chennai,"3+ years in business · Feral fitness, new number 44, 2nd floor above Kotak Mahindra Bank ATM, near five lights junction",Open ⋅ Closes 10 pm · 096008 83838,,
Flame Fitness Studio,Gyms,Chennai,"10+ years in business · No 6, 69, Thirumalai Pillai Rd",Open ⋅ Closes 9:30 pm · 063699 11594,,
Anytime Fitness,Gyms,Chennai,"7+ years in business · Plot No 3978, 2nd Floor, 6th Ave",Open ⋅ Closes 10 pm · 081240 87777,,
Flux Fitness Studio,Gyms,Chennai,"7+ years in business · NKS Complex, 106 107 Thirumalai Annexure, Rajiv Gandhi Salai",Open ⋅ Closes 10:30 pm · 044 4211 4242,,
Crunch Fitness Studio - Anna Nagar (Best Gym in Anna Nagar),Gyms,Chennai,"5+ years in business · Rais Towers, 2054/b, 2nd Ave",Open ⋅ Closes 9:30 pm · 081482 59637,,
NFS GYM,Gyms,Chennai,"3+ years in business · 127, Brick Kiln Rd, near Lumbini Square",Open ⋅ Closes 9 pm · 098848 52999,,
Maruthi fitness centre - Body transformation gym | Personal fitness trainer chennai | unisex fitness studio,Gyms,Chennai,"7+ years in business · No 6, Rotlers St",Open ⋅ Closes 9:30 pm · 097100 42732,,
SLAM Lifestyle and Fitness Studio - Chetpet,Gyms,Chennai,"5+ years in business · No.10, 2nd Floor, Spur Tank road",Open ⋅ Closes 11 pm · 099620 11411,,
Rocky Fitness Studio,Gyms,Chennai,"5+ years in business · 33, 12th Ave",Open ⋅ Closes 11 pm · 098844 13301,,
,Gyms,Chennai,,,,
,Gyms,Chennai,,,,
Muscle Town Fitness Studio,Gyms,Chennai,"5+ years in business · 48, Venkatakrishna Rd",Open ⋅ Closes 10 pm · 044 4860 1850,,
"Cult Anna Nagar - Gyms in Anna Nagar, Chennai",Gyms,Chennai,"3rd and 4th floor, No 292, Z Block, 2nd Avenue Anna Nagar Tower Metro",Open ⋅ Closes 10 pm · 073059 46839,,
SLAM Lifestyle and Fitness Studio (Kilpauk),Gyms,Chennai,"7+ years in business · 6, Harleys Rd",Open 24 hours · 044 4211 2288,,
Gold’s Gym,Gyms,Chennai,"10+ years in business · No 7, 1st Ave",Open ⋅ Closes 10 pm · 075500 66903,,
Sai Fitness,Gyms,Chennai,"3+ years in business · No.211,Ayyasamy Street, Triplicane High Rd",Open ⋅ Closes 9:30 pm · 099401 88495,,
Gymsquare,Gyms,Chennai,"5+ years in business · 33, Rutland Tower, Shafee Mohammed Rd",Open ⋅ Closes 11 pm · 098842 00089,,
Body Care Gym & Physical Fitness a/c Unisex,Gyms,Chennai,"5+ years in business · Old No. 21/2 , 2nd Floor, 1st Main Road, Landmark:, opp. to SBM TVS Show Room",Open ⋅ Closes 10 pm,,
First Set,Gyms,Chennai,"7+ years in business · First Floor, 1 ( Landmark opposite to Indian petrol bunk, 80 Feet Road",Open ⋅ Closes 9 pm · 091761 98666,,
SANA GYM,Gyms,Chennai,"10+ years in business · 26HJ+X2P, NANDI LOOP LANE",Open ⋅ Closes 9 pm · 098401 22692,,
Smash Fitness Studio,Gyms,Chennai,"5+ years in business · 98/165, Avvai Shanmugam Salai, Lloyds Road, Royapettah, Chennai 600014 Royapettah, Chennai 600014",Open ⋅ Closes 11 pm · 098410 37786,,
Flux Fitness Studio,Gyms,Chennai,"10+ years in business · 55, 1st Ave",Open ⋅ Closes 10:30 pm · 090031 75000,,
Versatile fitness gym வெர்சைடைல் ஃபிட்னஸ் உடற்பயிற்சி மையம்,Gyms,Chennai,"3+ years in business · 23/38, Westcott Rd",Open ⋅ Closes 10 pm · 094445 23109,,
Highlite Fitness Square,Gyms,Chennai,"3+ years in business · F-11, 2nd Floor, 2nd Main Rd, near Valliammal College",Open ⋅ Closes 10 pm · 098841 37820,,
Fitness Avenue gym,Gyms,Chennai,"5+ years in business · EB office o(pp, M-7 & M8, Lattice Brg Rd",Open ⋅ Closes 12 am · 098849 29982,,
Hammer Healthcare and Fitness Centre,Gyms,Chennai,"3+ years in business · New no 213 old no 186, 3rd floor, Mahavir Complex, Royapettah High Rd, above SBI and, opp. Regenta Central Deccan Chennai",Open ⋅ Closes 11 pm · 096000 05497,,
SO ladies Fitness Studio - Santhome,Gyms,Chennai,"7+ years in business · 104, 113, Santhome High Rd, opp. kfc",Open ⋅ Closes 9 pm · 097898 37220,,
Fitness Plus,Gyms,Chennai,"10+ years in business · 209, Kutchery Rd",Open ⋅ Closes 9:30 pm · 098401 98999,,
Max gym,Gyms,Chennai,"5+ years in business · 160, Linghi Chetty Street",Open ⋅ Closes 10 pm · 098419 52446,,
SLAM Lifestyle And Fitness Studio (Nandanam),Gyms,Chennai,"7+ years in business · 67, 2nd & 3rd Floor, Pasumpon Muthuramalinga Thevar Rd",Open ⋅ Closes 12 am · 044 4356 2288,,
Ashwin Fitness Center,Gyms,Chennai,"15+ years in business · 65, Dr MGR Salai",Open ⋅ Closes 9:30 pm · 087092 33893,,
MACHO GYM,Gyms,Chennai,"25+ years in business · NO.23, 1ST FLOOR, Choolaimedu High Rd",Open ⋅ Closes 9 pm · 044 4353 5544,,
Xtreme fitness centre,Gyms,Chennai,"30, 61, CIT 1st Main Rd",Open ⋅ Closes 9 pm,,
MusclePowerGym (With AC facility),Gyms,Chennai,"10+ years in business · 6, Thayar Sahib St",Open ⋅ Closes 10 pm · 098405 58873,,
Pink Fitness - Ladies Gym Ashok Nagar,Gyms,Chennai,"10+ years in business · 65/30, 7th Ave, next to Hotel Sangamam",Open ⋅ Closes 8 pm · 089399 97513,,
STRENGTH AND STAMINA GYM,Gyms,Chennai,"7+ years in business · 1st Floor, Ghori Street, 13, Masthan Gori St",Open ⋅ Closes 9 pm · 096000 53348,,
FITT GYM,Gyms,Chennai,"3+ years in business · 1st Floor, 3752+4RV KTMS Building, No.36/1, 46/20, Model School Rd",Open ⋅ Closes 10 pm · 093607 58393,,
Ronnie's Walk In Gym,Gyms,Chennai,"3+ years in business · Anbazhagan nagar 4th street, Pallavan Salai",Open ⋅ Closes 10 pm,,
SLAM Lifestyle and Fitness Studio Best Gym in Adyar Chennai,Gyms,Chennai,"5+ years in business · No 17, B Block, Indira Nagar 4th Main Rd",Open ⋅ Closes 10 pm · 075500 43555,,
Sen Fitness,Gyms,Chennai,"3rd Floor, Jansons Towers, 2nd Ave",Open ⋅ Closes 10 pm · 073056 01445,,
365 Days Fitness Studio,Gyms,Chennai,1st Main Rd,Open ⋅ Closes 9 pm · 096000 43650,,
Fitness Paradise,Gyms,Chennai,"25+ years in business · No.51, Ramakrishna Mutt Rd, near Ramakrishna Mutt",Open ⋅ Closes 10 pm · 098842 55666,,
Focus Fitness Studio,Gyms,Chennai,"7+ years in business · 31 A Dr Seethapathy Nagar, Taramani Link Rd",Open ⋅ Closes 9 pm · 091764 43433,,
Fitness Factory,Gyms,Chennai,"893, Munusamy Salai",Open ⋅ Closes 10 pm · 099819 98183,,
BLACK BULL FITNESS STUDIO,Gyms,Chennai,"NO, 8, 1, Govindan Rd, near IOC petrol bunk",Open ⋅ Closes 9:30 pm · 081220 24774,,
Pink Fitness - Ladies Gym T.Nagar,Gyms,Chennai,"10+ years in business · Building No. 29, Dr. Nair Road, Opp. Grand Sweets,, Venkataraman Street, T.Nagar",Open ⋅ Closes 8 pm · 095000 50669,,
FITNESS ONE T.NAGAR,Gyms,Chennai,"7+ years in business · Old No. 143, New No 58A, 1st Floor, Habibullah Rd, opp. SGS Saba",Open ⋅ Closes 10 pm · 096000 09010,,
"Cult Nungambakkam - Gyms in Nungambakkam, Chennai",Gyms,Chennai,"2nd Floor, 15, Khader Nawaz Khan Rd",Open ⋅ Closes 10 pm · 073059 45039,,
Monk Lifestyle & Fitness Studio,Gyms,Chennai,"172, 3rd floor Mount Poonamallee High Road Mugalivakkam",Open ⋅ Closes 10:30 pm · 074188 81887,,
JB Fitness unisex,Gyms,Chennai,"3+ years in business · #281,Triplicane High Road, Ellis Rd",Open ⋅ Closes 11 pm · 086673 02162,,
"Cult T Nagar - Gyms in Parthasarathi Puram, Chennai",Gyms,Chennai,"3+ years in business · 4th Floor, Prashanth Gold Tower, 40, N Usman Rd",Open ⋅ Closes 10 pm · 1800 572 6303,,
Slam Lifestyle and Fitness Studio - Perambur,Gyms,Chennai,"5+ years in business · 131, Paper Mills Road",Open ⋅ Closes 10 pm · 044 4859 9851,,
Body Focus Gym,Gyms,Chennai,"3+ years in business · 63, Old, 125, Mint St, near Ramar koil",Open ⋅ Closes 10:30 pm,,
Iron Stars Gym,Gyms,Chennai,"5+ years in business · No. 200, Rangarajapuram Main Rd",Open ⋅ Closes 9:30 pm · 091769 61222,,
OLIVE HEALTH & FITNESS,Gyms,Chennai,"7+ years in business · No. 16, 1st Floor, E VK Sampath Rd, above Axis Bank Branch",Open ⋅ Closes 10 pm · 094455 44155,,
Gold's Gym,Gyms,Chennai,"3+ years in business · 1st Floor, Orient Bank Commerce Building, Gandhi Mandapam Rd",Open ⋅ Closes 10:30 pm · 091763 20551,,
Fitness Zone,Gyms,Chennai,"10+ years in business · 517, 3rd St",Open ⋅ Closes 9 pm · 099623 62876,,
Solid Fitness Purasaiwakkam,Gyms,Chennai,"NO: 128, Norton SB Tower, Brick Kiln Rd",Open ⋅ Closes 11 pm · 098405 62133,,
SBD FITNESS(UNISEX GYM),Gyms,Chennai,"52, 225, Choolaimedu High Rd",Open ⋅ Closes 10 pm · 090030 10604,,
Roque lifestyle and fitness studio,Gyms,Chennai,"3rd floor, Rashmi Towers, No - 1, Valluvar Kottam High Rd",Open ⋅ Closes 11 pm · 091760 06719,,
Naveen Gym,Gyms,Chennai,"7+ years in business · 7, Chakravarthy Nagar Rd",Open ⋅ Closes 10 pm · 073581 87366,,
Fusion Fitness,Gyms,Chennai,"7+ years in business · 222, Eldams Rd",Open ⋅ Closes 9:30 pm · 095000 00994,,
FITFLIX GYM ANNANAGAR - Best Premium Gym in Chennai,Gyms,Chennai,"Fitflix gyms,Ground floor, Karuna conclave, 4th Ave",Open ⋅ Closes 11 pm · 063820 80309,,
W Fitness - women fitness and weight loss,Gyms,Chennai,"5+ years in business · 17/14, 2nd Street, Gill Nagar, Choolaimedu",Open ⋅ Closes 8:30 pm · 073389 95222,,
Spartanz fitness center,Gyms,Chennai,"7+ years in business · 8, Rajiv Gandhi Salai",Open ⋅ Closes 10 pm · 078714 33777,,
RIO Fitness,Gyms,Chennai,"5+ years in business · 2nd floor, Old no.110, New, 78, Iyya Mudhali St",Open ⋅ Closes 10 pm · 098401 51814,,
Dr. Kennedy's Greek God Fitness center,Gyms,Chennai,"5+ years in business · 144, Medavakkam Main Rd",Open ⋅ Closes 10 pm · 074185 55173,,
Storm Fitness Gym,Gyms,Chennai,5+ years in business · 1155,Open ⋅ Closes 9:30 pm,,
The One H Fitness Studio,Gyms,Chennai,"No 226/7, Om Sakthi Plaza, Kilpauk Garden Road",Open ⋅ Closes 11 pm · 075500 94560,,
INDIAN POWER GYM A/C Unisex fitness center | Near Arumbakkam Metro| Near Choolaimedu | Near Vadapalani | For Men and Women,Gyms,Chennai,"7+ years in business · 11/6, 3rd St",Open ⋅ Closes 9:30 pm · 098843 60431,,
Madras Barbell,Gyms,Chennai,"5+ years in business · 15/6a, 3rd St",Open ⋅ Closes 9 pm · 098402 79389,,
Unique Gym,Gyms,Chennai,5+ years in business · 47/2,Open ⋅ Closes 9 pm · 072999 06111,,
Body Stylle Fitness Centre,Gyms,Chennai,"7+ years in business · 1st Floor, New, no 212, Kilpauk Garden Road",Open ⋅ Closes 9 pm · 098843 37783,,
Total fitness studio,Gyms,Chennai,"10+ years in business · No. 35-B, Vijaya Saras Building 3rd Floor, Rajendra Prasad Road, Gayathri Nagar, above Axis Bank",Open ⋅ Closes 9 pm · 099419 42942,,
Revive Gym Kilpauk,Gyms,Chennai,New Avadi Rd,Open ⋅ Closes 9:30 pm · 098414 32613,,
Worlds Gym,Gyms,Chennai,"7+ years in business · Shop No.11/24, Madras Thiruvallur High Road, Mogappair East",Open ⋅ Closes 10 pm · 093851 11222,,
RC GYM,Gyms,Chennai,"3+ years in business · No 73, Thiruvengadapuram Main Rd",Open ⋅ Closes 10 pm,,
M Fitness Studio,Gyms,Chennai,"No.83, 1, Ashtabujam Rd",Open ⋅ Closes 10 pm · 097100 50443,,
Power Gym,Gyms,Chennai,"10+ years in business · 3rd Floor, E-34, 2nd &",Open ⋅ Closes 8 pm · 044 4215 4747,,
BodyLanguage Fitness Studio.,Gyms,Chennai,"10+ years in business · No.5, Railway Colony 1st St, Aminjikarai, Nelson Manickam Road, Opp To Bata Showroom",Open ⋅ Closes 9:30 pm · 044 2374 5557,,
Sai Fitness Studio,Gyms,Chennai,"2, 140, Konnur High Rd",Open ⋅ Closes 10 pm · 099404 12124,,
Avengers Fitness Studio,Gyms,Chennai,"7+ years in business · No. 327, First Floor, Avvai Shanmugam Salai",Open ⋅ Closes 10 pm · 095518 77687,,
Play - Best Fitness Center for Women in Anna Nagar,Gyms,Chennai,"No. 88, V Block, 2nd Floor, 5th Ave",Open ⋅ Closes 9 pm · 091691 57157,,
MAK Gym,Gyms,Chennai,"5+ years in business · no.109, 192, Dr Besant Rd",Open ⋅ Closes 10 pm · 098407 36831,,
Revoke Gym,Gyms,Chennai,"5+ years in business · 2nd & 3rd Floor, No.251, Sriman Srinivasa Road, TT Krishnamachari Rd",Open ⋅ Closes 9:30 pm · 073388 16222,,
Fitness Spott Gym Centre,Gyms,Chennai,"7+ years in business · 1/5, W Kal Mandapam Rd",Open ⋅ Closes 10 pm · 072991 23866,,
Beyond Fitness,Gyms,Chennai,"1st Floor, Hafiz Court, 19, Dr MGR Salai",Open ⋅ Closes 1 am · 091149 11432,,
"Cult Velachery - Gyms in Velachery, Chennai",Gyms,Chennai,"3+ years in business · Cult Velachery, 3rd Floor, ASV Crown Plaza, No.391, Velachery - Tambaram Main Rd",Open ⋅ Closes 10 pm · 099622 07445,,
V SHAPERS PRIME GYM,Gyms,Chennai,"7+ years in business · 33/21, Krishnan colony, Nerkundram Pathai, behind HDFC Bank",Open ⋅ Closes 10 pm · 098840 81588,,
Fuel Gym,Gyms,Chennai,"238, Purasawalkam High Rd",Open ⋅ Closes 9 pm · 084284 28866,,
Muscle Garage,Gyms,Chennai,"5+ years in business · No 189, Asma Building, TT Krishnamachari Rd",Open ⋅ Closes 10 pm · 096004 11122,,
New Health Forum Fitness,Gyms,Chennai,"Old no .505 ,New.294 periyar evr Salai, Poonamallee High Rd",Open ⋅ Closes 10 pm · 098416 12448,,
Royal Fitness Centre,Gyms,Chennai,"3+ years in business · 20, 21, Subramaniam St",Open ⋅ Closes 10 pm · 099626 61333,,
"Pink Fitness - Ladies Gym Nelson Manickam Road, Choolaimedu",Gyms,Chennai,"5+ years in business · 2(30), Railway Colony 2nd Street ,Nelson Manickam Road Opp to Chennai Fertility Centre Choolaimedu",Open ⋅ Closes 8 pm · 097909 75140,,
Boss Gym,Gyms,Chennai,"10+ years in business · #40, Taylor's, Road Leading to Chinmaya School, Kilpauk",Open ⋅ Closes 9 pm,,
Tuskers gym & fitness center,Gyms,Chennai,"5+ years in business · 166, Patel Rd",Open ⋅ Closes 9:30 pm,,
Purple Fitness Studio,Gyms,Chennai,"3+ years in business · 31 Q block, 6th Ave, opp. to K4 police Station",Open ⋅ Closes 8 pm · 099626 89000,,
AUGUSTINS GYM,Gyms,Chennai,"7+ years in business · No 73, Thiruvengadapuram Main Rd",Open ⋅ Closes 10 pm · 099405 75355,,
Arrow Fitness Center,Gyms,Chennai,"10+ years in business · 73/86, Lake View Rd",Open ⋅ Closes 9 pm · 098416 09122,,
RETRO COMBAT AND FITNESS PRO,Gyms,Chennai,"New No. 129, Old, No. 55, Medavakkam Tank Rd, near Vijaya Physiotherapy",Open ⋅ Closes 10 pm · 063819 06124,,
Mr Mike Health and Fitness Centre,Gyms,Chennai,"7+ years in business · No. 7, Avadhanam Papier Road",Open ⋅ Closes 9 pm · 097106 27348,,
Universal Fitness Studio,Gyms,Chennai,10+ years in business · Mint St,Open ⋅ Closes 11 pm,,
Aashiq fitness centre,Gyms,Chennai,"3+ years in business · no.12, Shanmugarayan street, Brick Kiln Rd",Open ⋅ Closes 10 pm · 099414 77756,,
EZHIL FITNESS GYM,Gyms,Chennai,"tamil mahal, Erukkenchery High Rd",Open ⋅ Closes 10 pm · 098413 09393,,
Roar Fitness,Gyms,Chennai,"344, Konnur High Rd",Open ⋅ Closes 10 pm · 098400 18019,,
S Ravi's Fitness (Gym in Chintadripet/ Fitness Centre in Chintadripet/ Zumba Dance Classes),Gyms,Chennai,"5+ years in business · No: 7/3A, Near, Dharmaraja Koil St",Open ⋅ Closes 9 pm · 098401 51814,,
FIGHT 2 FIT FITNESS CENTRE PALLIKARANAI / GYM,Gyms,Chennai,"5+ years in business · next building to reliance trends, 46A, Jalladampettai Main Rd",Open ⋅ Closes 9:30 pm · 078711 57555,,
Solid Health & Fitness,Gyms,Chennai,"7+ years in business · Yamuna Tower, 125/1,Yamuna Tower,Porur, Mount Poonamallee Rd",Open ⋅ Closes 10 pm · 080 4806 0860,,
Sri Fitness Zone Gym,Gyms,Chennai,"5+ years in business · jockey exclusive store, No .14/21, kabaleeshwarar Temple 2nd floor, E Mada St",Open ⋅ Closes 9:30 pm · 099404 84442,,
Iron Tribe Fitness,Gyms,Chennai,"3+ years in business · C4/1 4TH FLOOR DR.KAMALA MANOR NO528, TT Krishnamachari Rd",Open ⋅ Closes 9 pm,,
MAP - UNISEX FITNESS STUDIO,Gyms,Chennai,"3+ years in business · 15, 37, Kamaraj Nagar 4th St",Open ⋅ Closes 10 pm,,
Olympia Fitness Centre,Gyms,Chennai,"7+ years in business · #74/2, Demellows Rd",Open 24 hours · 098411 90825,,
Tribe7 fitness studio,Gyms,Chennai,"3rd Floor, Dharmapuram Aadhinam, 158, N Usman Rd",Open ⋅ Closes 10 pm · 097916 47472,,
C3 Fitness Science (Vepery),Gyms,Chennai,"5+ years in business · 11, Ritherdon Rd",Open ⋅ Closes 9:45 pm · 098843 96333,,
Lead Fitness,Gyms,Chennai,"138, Thamirabarani Street",Open ⋅ Closes 10 pm · 097899 49472,,
Anantha Gym & Health Centre,Gyms,Chennai,"10+ years in business · 37WJ+G6W, Nattupilliar Koil St",Open ⋅ Closes 9 pm · 098405 67076,,
Burn & Blast Unisex Fitness Studio,Gyms,Chennai,"NO.16, 1st Floor, E VK Sampath Rd",Open ⋅ Closes 10 pm · 072003 90099,,
Solid Fitness,Gyms,Chennai,"3+ years in business · 29/3, Second Floor, 1st Main road, Taramani Link Rd",Open ⋅ Closes 11 pm · 098405 62133,,
GIRI GYM,Gyms,Chennai,"20+ years in business · 56FV+6CC, Kamaraj Nagar, Mathur, Tamil Nadu 600051",Open ⋅ Closes 9 pm · 093423 93935,,
SO WOMENS FITNESS STUDIO,Gyms,Chennai,"3+ years in business · 22 LAKE VIEW MAIN ROAD AYYAPAN NAGAR MADIPAKKAM Ladmark above woodies electronics, 22, Lake View Rd, opp. to Vijayalakshmi party hall",Open ⋅ Closes 9 pm · 095660 37619,,
Muscle Warriors Gym,Gyms,Chennai,"3+ years in business · Muscle Warriors Gym, Ethiraj Swami Salai",Open ⋅ Closes 11 pm · 096772 26826,,
Fitness Studio,Gyms,Chennai,3+ years in business · 47,Open ⋅ Closes 10 pm,,
Fitness 7 Gym,Gyms,Chennai,5+ years in business · Sundarar St,Open ⋅ Closes 10 pm · 070108 98314,,
Pink Fitness - Ladies Gym RK Salai Mylapore,Gyms,Chennai,"Third floor, Lakshmi Towers, No.27, 7, Dr Radha Krishnan Salai",Open ⋅ Closes 8 pm · 097384 93493,,
Throwback Fitness Studio,Gyms,Chennai,"5+ years in business · #177/90,First Floor, Strahans Road,pattalam, Chennai-600012 Ottery",Open ⋅ Closes 10 pm · 090439 22715,,
Toneez Fitness Centre,Gyms,Chennai,7+ years in business · 42nd Street,Open ⋅ Closes 10 pm · 089396 33322,,
TORQUE ELITE FITNESS STUDIO,Gyms,Chennai,"203, Triplicane High Rd",Open ⋅ Closes 10 pm · 099404 27551,,
Staar Gym,Gyms,Chennai,"7+ years in business · 63, Swamy Naicken St",Open ⋅ Closes 10 pm · 098412 72720,,
Pink Fitness - Ladies Gym Nungambakkam,Gyms,Chennai,"No.20, GKS Annexe- III Floor, Pycrofts Garden Rd",Open ⋅ Closes 8 pm · 090033 76762,,
Ignite 101 Fitness Studio,Gyms,Chennai,"5+ years in business · 73/1 Sterling Road ,1st and 2nd floor, opposite LOYOLA COLLEGE",Open ⋅ Closes 10 pm · 099621 26336,,
Play - Exclusive Fitness Center for Women in Periyar Nagar,Gyms,Chennai,"3+ years in business · Plot No.55, Second Floor, 70 Feet Rd",Open ⋅ Closes 9 pm · 081221 47689,,
Play - Exclusive Fitness Center for Women in Periyar Nagar,Gyms,Chennai,"3+ years in business · Plot No.55, Second Floor, 70 Feet Rd",Open ⋅ Closes 9 pm · 081221 47689,,
Weights Club,Gyms,Chennai,"3+ years in business · Old No:51.New No:4, 3rd Floor, Dr Radha Krishnan Salai",Open ⋅ Closes 10 pm,,
GYM IT - Saidapet,Gyms,Chennai,"3+ years in business · No.26 B, First Floor, E Jones Rd",Open ⋅ Closes 10 pm · 089393 05505,,
Muscle Town Fitness Studio,Gyms,Chennai,"108/221, 2nd Floor, Thambu Chetty St",Open ⋅ Closes 10 pm,,
Abinaya Gym,Gyms,Chennai,"7+ years in business · No.84/A, Second Floor, Arcot Rd, near Ram Theatre",Open ⋅ Closes 9 pm · 098840 96699,,
O2 Health Studio,Gyms,Chennai,"10+ years in business · 18, Khader Nawaz Khan Rd",Open ⋅ Closes 9:30 pm · 090947 91920,,
Versatile Fitness,Gyms,Chennai,"10+ years in business · 163, post office, 164, MS Koil St, opposite to royapuram",Open ⋅ Closes 10 pm · 044 4263 2424,,
Accelerate Fitness,Gyms,Chennai,"No.136/550, Hallmark Towers, 3rd floor, South Street, TT Krishnamachari Rd",· 073054 39996,,
Olive Pink Women's Fitness,Gyms,Chennai,"5+ years in business · 270, Purasawalkam High Rd, above Raajsan Watch Company",Open ⋅ Closes 9 pm · 099520 73434,,
HI-FI FITNESS,Gyms,Chennai,"2nd floor, 108/221, Thambu Chetty St, opp. kaligambal temple",Open ⋅ Closes 11 pm · 080561 71722,,
Zero to one fitness,Gyms,Chennai,"3+ years in business · 9/17, MC Nicholas Rd",Open ⋅ Closes 9 pm · 097871 28787,,
Absense Fitness,Gyms,Chennai,"Land Mark, No:57/34, Perambur High Road, School, opp. Jamalia",Open ⋅ Closes 10 pm · 073390 63390,,
Evolve 360 Fitness Studio,Gyms,Chennai,"180, 210, Bharathi Salai",Open ⋅ Closes 10 pm · 090031 92296,,
Strength System,Gyms,Chennai,"7+ years in business · First Floor, Strength System, MMPDA Towers, Royapettah High Rd",Open ⋅ Closes 8 pm · 098847 17558,,
SLAM Lifestyle and Fitness Studio (Nungambakkam),Gyms,Chennai,"3+ years in business · NO.15/6 FIRST FLOOR, Jaganathan Rd",Open ⋅ Closes 10 pm · 093846 64041,,
"SLAM Lifestyle & Fitness Studio, Velachery",Gyms,Chennai,"5+ years in business · 1st Floor, 52/1, Dandeeshwaram Main Rd",Open ⋅ Closes 10 pm · 07397 404 411,,
Fitness First Studio Ladies Gym,Gyms,Chennai,"7+ years in business · Door No: 110/202, 1st Floor, Gollavar Agraharam Rd, above State Bank",Open ⋅ Closes 8:30 pm · 095008 45121,,
Universal fitness Studio Gym Manady,Gyms,Chennai,"7+ years in business · 47, P V Iyer St",Open ⋅ Closes 9:30 pm · 098844 67689,,
Power Zone Gym,Gyms,Chennai,7+ years in business · Subburayan Main St,Open ⋅ Closes 10:30 pm · 099402 34474,,
A2Z Gym,Gyms,Chennai,"5+ years in business · B-1, Medavakkam Tank Rd",Open ⋅ Closes 9:30 pm · 073585 64782,,
Skale Fitness Anna Nagar,Gyms,Chennai,"H-4 parepalli Tower ,2nd Floor, 3rd Ave",Open ⋅ Closes 10 pm · 095000 06226,,
Fit For Fight Fitness Studio,Gyms,Chennai,"5+ years in business · Old no 15/14, new, no 25, Royapettah High Rd, near Pilot Theatre",Open ⋅ Closes 9 pm · 098402 49848,,
C3 Fitness Science (Kilpauk),Gyms,Chennai,"5+ years in business · 17 Lakshmi Street, New Avadi Rd",Open ⋅ Closes 9:45 pm · 091768 99333,,
Warriors Gym,Gyms,Chennai,"7+ years in business · 109C, Velachery Bypass Rd",Open ⋅ Closes 9 pm · 099411 42172,,
Burn Out Unisex Fitness Studio - Alwarthirunagar,Gyms,Chennai,"285, Arcot Rd",Open ⋅ Closes 10 pm · 076390 20202,,
Giri fitness unisex,Gyms,Chennai,"64, Jermiah Rd",Open ⋅ Closes 10 pm,,
Ateliers - Best Gym in Ramapuram,Gyms,Chennai,"1, Gangaiyamman Kovil St, opp. Ayya super market, near Abirami driving school",Open ⋅ Closes 10 pm · 095512 99855,,
Chennai Fitness Centre & Gym,Gyms,Chennai,"7+ years in business · No 44, Maddox St",097105 78417,,
Our Fitness Gym,Gyms,Chennai,7+ years in business · 3644+HVJ,Open ⋅ Closes 10 pm,,
Sthree Fitness Studio (ladies gym),Gyms,Chennai,5+ years in business · No:58,Open ⋅ Closes 8:30 pm · 044 4861 0478,,
Revive,Gyms,Chennai,"3+ years in business · No: 19/35, Ramanujam Street, near Jain School",Open ⋅ Closes 8:30 pm · 097908 10444,,
PUSH2MAX 3D FITNESS,Gyms,Chennai,"7+ years in business · 42, 178, MS Koil St",Open ⋅ Closes 10 pm · 099401 38919,,
Ateliers - Best Gym in Velachery,Gyms,Chennai,"7+ years in business · 37, Velachery Main Rd",Open ⋅ Closes 10 pm · 095512 99844,,
Pink Fitness - Ladies Gym Royapuram,Gyms,Chennai,"5+ years in business · 184, MS Koil St",Open ⋅ Closes 8 pm · 074490 24902,,
Abinaya Gym & Health Centre,Gyms,Chennai,"10+ years in business · 72, Medavakkam Tank Rd",Open ⋅ Closes 9 pm · 098840 96699,,
lee fitness centre/gym,Gyms,Chennai,"5+ years in business · 473, Erukkenchery High Rd",Open ⋅ Closes 9 pm · 098842 24299,,
POWERPAC GYM AND FITNESS CENTRE,Gyms,Chennai,"7+ years in business · no7/2 no., 27, Kalingarayan Street",Open ⋅ Closes 10 pm · 098845 73703,,
Dimensions Health Club,Gyms,Chennai,"15+ years in business · 2/12, CP Ramaswamy Iyer Rd",Open ⋅ Closes 9:30 pm · 073587 16662,,
Chennai Fitness Centre & Gym,Gyms,Chennai,"10+ years in business · 341, Thiruvottiyur High Rd",Open ⋅ Closes 10 pm · 099621 97269,,
Slam Lifestyle and Fitness Studio - Mint Street,Gyms,Chennai,"3+ years in business · Old No21, New No39 Mint Street, 2nd Floor",Open ⋅ Closes 11 pm · 075500 02202,,
Pase fitness,Gyms,Chennai,"3+ years in business · No 19, 11th St",Open ⋅ Closes 9:30 pm · 091760 46497,,
Skale Fitness - Chinmaya Nagar,Gyms,Chennai,"No: 6,7,& 8 - 3rd Floor, Kaliamman Koil St",Open ⋅ Closes 10 pm · 095000 06226,,
Sri Fitness Studio & Gym,Gyms,Chennai,"7+ years in business · Shop No.206/108, 1st Floor, Gollavar Agraharam Rd",Open ⋅ Closes 10 pm · 044 2595 0525,,
Fitness Factory Express,Gyms,Chennai,42/12,Open ⋅ Closes 10 pm,,
60 Minutes Fitness Studio,Gyms,Chennai,"7+ years in business · No. 281, 2nd Floor, Konnur High Rd",Open ⋅ Closes 10 pm · 095001 20177,,
Rising Fitness Health & Fitness Studio Neelankarai,Gyms,Chennai,3+ years in business · Tamil Nadu,Open ⋅ Closes 10 pm · 063831 77736,,
SPARKLE Fitness Studio Mylapore,Gyms,Chennai,"51, Ramakrishna Mutt Rd",Open ⋅ Closes 10 pm,,
SKALE Fitness Unlimited - Perambur,Gyms,Chennai,"7+ years in business · #14/41, 1st Main Rd, above Bank Of Baroda",Open ⋅ Closes 10 pm · 095000 06226,,
Jack Fitness Studio,Gyms,Chennai,"5+ years in business · 14, Stephenson Rd",Open ⋅ Closes 10 pm · 098409 50999,,
OXY MX FITNESS CENTRE,Gyms,Chennai,"10+ years in business · #69,1st Floor, Teachers Colony,1st Cross Street, Adyar",Open ⋅ Closes 9:30 pm · 098407 32374,,
Skale Fitness Unlimited - Mogappair,Gyms,Chennai,"7+ years in business · NO: 412, 1ST FLOOR, THIRUVALLUVAR SALAI, Paneer Nagar Main Rd",Open ⋅ Closes 10 pm · 095000 06226,,
FITNESS WAY GYM,Gyms,Chennai,"5+ years in business · New no 8/4, old no 103/4, 8th Ave",· 095661 24601,,
Fusil fitness,Gyms,Chennai,"10+ years in business · No: 60, Perambur Barracks Rd",Open ⋅ Closes 11 pm · 044 4230 0023,,
"Cult Alwarpet - Gyms in Alwarpet, Chennai",Gyms,Chennai,"3rd Floor, Plot No, 8A, 33, TT Krishnamachari Rd, above Croma - Alwarpet",Open ⋅ Closes 10 pm · 073059 62539,,
Score,Gyms,Chennai,"10+ years in business · No 296, 265, TT Krishnamachari Rd, above Andhra Bank",Open ⋅ Closes 10 pm · 044 4312 9777,,
THE RAW GYMSPORTS CLUB,Gyms,Chennai,"NEW NO 30 OLD NO 11, SECOND LINE BEACH",Open ⋅ Closes 1 am · 090259 45987,,
BLITE WOMEN'S FITNESS,Gyms,Chennai,"3+ years in business · 20/60, Puram Prakasham St",Open ⋅ Closes 8:30 pm · 077085 29292,,
RocoFit Fitness Studio,Gyms,Chennai,"New No.201,Old No, 99, Big St",Open ⋅ Closes 10:30 pm,,
Corporation govt Gym,Gyms,Chennai,"5+ years in business · 36CX+J87, Vivekananda Rd",Open ⋅ Closes 9 pm,,
S Ravi's Fitness Studio,Gyms,Chennai,"5+ years in business · Harris Complex, New No: 75, Old No: 28, Adithanar Rd",098401 51814,,
S Ravi's Fitness Studio,Gyms,Chennai,"5+ years in business · Harris Complex, New No: 75, Old No: 28, Adithanar Rd",098401 51814,,
Paramaguru Fitness - Weight loss center in Chennai,Gyms,Chennai,"3+ years in business · 9/14, Big St",Open 24 hours · 090808 19942,,
Xhersize,Gyms,Chennai,"3+ years in business · No. 643, 2nd Floor, Above Nilgiris Supermarket, Thiruvottiyur High Rd, opp. to old Ajax Bus Depot",Open ⋅ Closes 9 pm · 094455 03696,,
Aviate Gym,Gyms,Chennai,"1st floor, Emelem Complex, No.1/1, 70 feet scheme",Open ⋅ Closes 11 pm,,
Planet 1 Fitness Studio,Gyms,Chennai,Melpatti Ponnappan St,Open ⋅ Closes 10 pm,,
123fitnezz,Gyms,Chennai,"60, Perambur Barracks Rd",Open ⋅ Closes 10 pm · 044 4230 0023,,
NEOFIT STUDIO,Gyms,Chennai,"5+ years in business · No:99, 1st Floor, Andal Ammal St, Raja Reddy St",Open ⋅ Closes 10 pm · 088074 45636,,
Oxy Mx Fitness Center gym,Gyms,Chennai,"No 26, 2, Habibullah Rd",Open ⋅ Closes 10 pm · 07397 794 952,,
Contours Women's Fitness Studio Chennai,Gyms,Chennai,"10+ years in business · Shop No, 16, 2nd St",Open ⋅ Closes 8 pm · 098406 71782,,
Re-L-fitness studio unisex A/c gym,Gyms,Chennai,"No:5C/7,2nd Floor Amma Nainaa Shopping Corner,Meenambal salai",Open ⋅ Closes 10 pm · 044 3589 1811,,
Max muscle Fitness,Gyms,Chennai,"3+ years in business · 34, W Madha Church St",Open ⋅ Closes 9:30 pm · 099622 46315,,
Anchor Power Gym,Gyms,Chennai,"25+ years in business · No. 223, Suriya Towers, Choolaimedu High Road, Ramanujan Street",Open ⋅ Closes 9 pm · 044 2372 6398,,
SS FITNESS CLUB,Gyms,Chennai,"36WM+G7H, Mettu St",Open ⋅ Closes 10 pm · 091503 03999,,
National Gym,Gyms,Chennai,"10+ years in business · 37X2+6X8, Strahans Rd",· 098402 60085,,
Arun Gym,Gyms,Chennai,"7+ years in business · No.1,2nd floor, 12th West Cross St",Open ⋅ Closes 9:30 pm · 098402 22183,,
New Champions Gym,Gyms,Chennai,"10+ years in business · 375G+CC8, Bharathi Salai",Open ⋅ Closes 10 pm,,
Fitness One Group India Limited,Gyms,Chennai,"10+ years in business · 1, Krishnamma Rd",· 073587 99432,,
Fitness Freaks Unisex Gym,Gyms,Chennai,"50, Masilamani Rd",Open ⋅ Closes 11:30 pm,,
Sk fitness centre,Gyms,Chennai,Main St,Open ⋅ Closes 10 pm · 090944 88444,,
Posh Lifestyle Fitness Studio,Gyms,Chennai,"No 27, SRP Koil St N",Open ⋅ Closes 10 pm · 072996 42864,,
SLAM Lifestyle and Fitness Studio - Pammal,Gyms,Chennai,"1, Pammal Main Rd",Open ⋅ Closes 10 pm · 099902 72791,,
House of Sweat Gym,Gyms,Chennai,"Crocodile showroom, 1st Main Rd E",Open ⋅ Closes 10 pm · 072000 93158,,
Sky Gym,Gyms,Chennai,"10+ years in business · 478M+HG2, Thiruvottiyur High Rd",,,
Barracks Government Gym,Gyms,Chennai,"10+ years in business · 473M+QM8, Portuguese Church Street",,,
The muscle monster fitness centre,Gyms,Chennai,"218/189, Dr Natesan Rd",Open ⋅ Closes 9:30 pm · 098409 71383,,
Stingrays Swimming & Fitness Center,Gyms,Chennai,"3+ years in business · No.5A, Sakthi Nagar, Sriram Nagar Main Rd, near Nolambur Bus Stand",Open ⋅ Closes 10 pm · 090259 55308,,
SLIM & FIT fitness studio and gym,Gyms,Chennai,"5+ years in business · 66, Rajaji Rd",Open ⋅ Closes 10 pm · 091766 92766,,
Miller Gym,Gyms,Chennai,"7+ years in business · 204, Purasawalkam High Rd",Open ⋅ Closes 9:30 pm · 098842 82303,,
SKALE Fitness Unlimited - Nolambur,Gyms,Chennai,"7+ years in business · Plot No.4 1393, Mogappair West Main Rd",Open ⋅ Closes 10 pm · 095000 06226,,
chennai corporation Gym,Gyms,Chennai,"7+ years in business · 26Q7+VC8, 43rd St",Open ⋅ Closes 8 pm,,
NAMMA Training,Gyms,Chennai,"No.11, Ground Floor, Krishna Kuteera Apartments, Harrington Rd",Open ⋅ Closes 9:30 pm · 088845 62662,,
Maxxfit fitness center,Gyms,Chennai,"MaxxFit fitness center, 5, Puzhal Murugesan St",· 085310 50050,,
Strength culture,Gyms,Chennai,"14/6, North madha church square, lane",Open ⋅ Closes 10 pm,,
Body Story Vepery,Gyms,Chennai,"No.71-L, Jermiah Rd",Open ⋅ Closes 9 pm · 090806 38522,,
The Little Gym Of Alwarpet,Gyms,Chennai,"7+ years in business · ST Towers, Old No 122, New, 524, TT Krishnamachari Rd, near Motherhood Hospital",· 073587 07220,,
MMC Gym,Gyms,Chennai,"7+ years in business · Madras Medical College Mens Pg Hostel, Tamil Nadu Public Service Commission Rd",,,
Sweat and gain,Gyms,Chennai,"710, Poonamallee High Rd",· 090947 07010,,
God's Army fitness centre,Gyms,Chennai,"Chennai, Tamil Nadu",Open ⋅ Closes 9:30 pm,,
Bailwaan Gym,Gyms,Chennai,"No:9, Jawahar Rd",Open ⋅ Closes 10 pm · 098848 77009,,
Chennai Corporation Free Gym,Gyms,Chennai,"7+ years in business · Shop No, 121, Singara Thottam 4th Ln",Open ⋅ Closes 10 pm,,
S.S. Trainers,Gyms,Chennai,"7+ years in business · Shop No.49/99, Big St",Open ⋅ Closes 9 pm · 098415 30169,,
Weider Guna Gym,Gyms,Chennai,"5+ years in business · 5, Manikka Vinayagar Kovil St, near Rangasayee Street",Open ⋅ Closes 9:30 pm,,
Flip Style Fitness Studio-Gymnastics Classes|OMR|Chennai,Gyms,Chennai,"Navalur, Tamil Nadu",Open ⋅ Closes 10 pm · 089250 21444,,
Government Gym,Gyms,Chennai,5+ years in business · 37R3+FWH,Open 24 hours,,
Smart fitness & wellness,Gyms,Chennai,"Gopalapuram Cricket Ground, Conron Smith Rd",,,
Abinaya Gym & Health Centre,Gyms,Chennai,"10+ years in business · No 80/81, Opposite To Mannady Police Station, Broadway Rd",Open ⋅ Closes 9 pm · 044 2526 2955,,
The Quad @ Alwarpet,Gyms,Chennai,"5+ years in business · 314, TT Krishnamachari Rd",· 093840 43608,,
Abinaya Gym and Health Centre,Gyms,Chennai,"10+ years in business · Bus Stop, No. 422, Poonamallee High Rd, near NSK Nagar",Open ⋅ Closes 9 pm · 044 2363 4068,,
Talwalkars Inshape - Adyar,Gyms,Chennai,"Bus Depot, Old No.16, New No. 22/1,Above Raymonds showroom and casio watch shop Opp Gandhi Nagar, Sardar Patel Rd",· 044 4331 3100,,
Government Gym,Gyms,Chennai,"No 1A, Model School Rd",,,
Government GYM,Gyms,Chennai,363Q+WCG,Open ⋅ Closes 9 pm,,
Government Gym,Gyms,Chennai,"7+ years in business · No.125, 1st, Dr Radha Krishnan Salai",Open ⋅ Closes 9:30 pm,,
Jungle Gym,Gyms,Chennai,"35, South St",Open ⋅ Closes 10 pm,,
mpowerrr fitness,Gyms,Chennai,"27/28, RK. Salai, Dowlani towers, Mylapore, Chennai 600004 At spin dance studio or, below 27 culinary street",,,
Guna Fitness,Gyms,Chennai,"5+ years in business · 22, BB Rd",Open ⋅ Closes 9 pm · 097109 97717,,
King Gym,Gyms,Chennai,"10+ years in business · 279, Paper Mills Road",Open ⋅ Closes 9 pm · 098408 02307,,
8 Dimension Holistic Fitness,Gyms,Chennai,3+ years in business · Iyya Mudali St,Open ⋅ Closes 10:30 pm · 098401 04248,,
B. Fit Gym,Gyms,Chennai,"2nd Floor, Hameedia Shopping Mall, 108/109, Triplicane High Rd",· 044 4266 3307,,
Indian Power Gym,Gyms,Chennai,"109, Periyar Pathai W",,,
FIT BEAUTY LADIES FITNESS CENTRE,Gyms,Chennai,"2ND FLOOR, NO: 47 MEENAMBAL SALAI",Open ⋅ Closes 9 pm · 044 2554 8819,,
The Quad @ Nungambakkam,Gyms,Chennai,"1, Pycrofts Garden Rd",· 097907 77539,,
A.R Fitness,Gyms,Chennai,"3+ years in business · #28/3, Mettu St",,,
Slam Fitness,Gyms,Chennai,"3+ years in business · No. 6B, Balfour Road",,,
Fitness Centre,Gyms,Chennai,"3+ years in business · Taj Club House, Chennai, Woods Rd",,,
Grater Chennai Corporation Gym,Gyms,Chennai,"51-5, Jaganathan St",,,
99 Degree F Fitness Studio Pvt Ltd,Gyms,Chennai,"No 56, Ormes Rd",,,
Ateliers Fitness,Gyms,Chennai,"3727+8MW, Leonard St",· 095512 99822,,
Chennai Corporation Gym and Playground,Gyms,Chennai,"37Q6+6C3, Narayana Guru Salai",,,
My Health And Fitness Hub,Gyms,Chennai,"Midithepalli, Tamil Nadu",Temporarily closed,,
GRIT FITNESS,Gyms,Kolkata,"5+ years in business · 174, Chittaranjan Ave",Open ⋅ Closes 11 pm · 033 4602 2555,,
LIFE THE FITNESS STUDIO,Gyms,Kolkata,"5+ years in business · 36, 21, Chandra Nath Roy Rd",Open ⋅ Closes 11 pm · 085840 88349,,
Skulpt Gym,Gyms,Kolkata,"7+ years in business · 5th Floor, 57, Jawaharlal Nehru Rd",Open ⋅ Closes 10 pm · 033 4071 6035,,
ABSolute Fitness GYM - Kolkata,Gyms,Kolkata,"5+ years in business · Prantik Palli 205 1A, Bosepukur Purba Para Road",Open ⋅ Closes 9:45 pm · 087770 80798,,
Anytime Fitness,Gyms,Kolkata,"3+ years in business · 138, 6th Flr, Subh Sri, Rash Behari Ave",Open 24 hours · 098301 15665,,
Iron Addict Gym2,Gyms,Kolkata,"3+ years in business · 39, Kustia Rd",Open ⋅ Closes 11:30 pm · 070035 11514,,
ROAR FITNESS,Gyms,Kolkata,"3+ years in business · 83A, Elliot Rd, above IBRAH BANQUET",Open ⋅ Closes 11:30 pm · 074395 23009,,
Karma Fitness Studio,Gyms,Kolkata,"15+ years in business · P-23, Raja Basanta Roy Rd",Open ⋅ Closes 10 pm · 033 4060 3006,,
Oxy Gym,Gyms,Kolkata,"4th and 5th floor, Archade Building, 25 B, Chandni Chowk St",Open ⋅ Closes 10:30 pm · 098313 63981,,
Kick Fitness Gym 3,Gyms,Kolkata,"5+ years in business · 4B, Little Russel St",Open ⋅ Closes 11 pm · 033 4602 0502,,
Fitness Addiction,Gyms,Kolkata,"P-252, 3RD FLOOR, CIT Rd, above IDBI BANK",Open ⋅ Closes 10:30 pm · 089816 47118,,
PERFORMYX GYM & FITNESS STUDIO,Gyms,Kolkata,"5th Floor, Swami Swarupananda's Ashram, P-348, Kabi Sukanta Sarani, beside Pantaloons",Open ⋅ Closes 10 pm · 098316 82029,,
The Calcutta Fitness Studio Plus Park Circus,Gyms,Kolkata,"14, Syed Amir Ali Ave",Open ⋅ Closes 11:30 pm,,
Iron Armour Fitness Studio,Gyms,Kolkata,"1st Floor, 79, Vivekananda Rd",Open ⋅ Closes 11 pm · 078902 32914,,
STARMARK FITNESS STUDIO PRIVATE LIMITED,Gyms,Kolkata,"3+ years in business · City High, FIRST FLOOR, 85, Prince Anwar Shah Rd, near Navina Cinema Hall",Open ⋅ Closes 12:30 am · 098311 30003,,
Zest Fitness Studio,Gyms,Kolkata,"7+ years in business · 71, Karaya Rd",Open ⋅ Closes 8 pm,,
Moksha Gym,Gyms,Kolkata,"3+ years in business · ICICI Bank, 28/ 3A, Convent Rd",Open ⋅ Closes 10 pm · 082406 96885,,
Stark Fitness Studio,Gyms,Kolkata,"5+ years in business · B-77, Sammilani Park Near- Bengal Ambuja 1no. Gate/ Near Highland Park",Open ⋅ Closes 10 pm · 081009 14446,,
Rush Fitness Studio,Gyms,Kolkata,"7+ years in business · 144, Remount Rd, opp. to Toni and Guy Salon",Open ⋅ Closes 10 pm · 098307 73100,,
Rave Fitness Studio,Gyms,Kolkata,"7+ years in business · 220, Acharya Jagdish Chandra Bose Rd",Open ⋅ Closes 10 pm · 033 4004 2500,,
,Gyms,Kolkata,,,,
,Gyms,Kolkata,,,,
Friction Gym,Gyms,Kolkata,"3+ years in business · 88 Shyama Prasad Mukherjee Road Landmark: Above Central Bank of India To The Left of Bhowanipore P. S, next to Ashutosh College, opposite Chittaranjan seva sadan",Open ⋅ Closes 12 am · 082729 89608,,
Amplified Fitness Centre,Gyms,Kolkata,"7+ years in business · 63/1/2B, Sarat Bose Rd, opp. Motor Vehicles",Open 24 hours · 098301 37403,,
Asian Fitness,Gyms,Kolkata,"7+ years in business · Ruby, 33, RR Plot Main Rd, near Rail Vihar",Open ⋅ Closes 9:30 pm · 084209 26009,,
Forza Fitness,Gyms,Kolkata,"5+ years in business · 14/3, North Road",Open 24 hours · 074777 14200,,
Sturdy Fitness - III,Gyms,Kolkata,"18, 2, Vidyasagar St",Open ⋅ Closes 9 pm · 090380 61922,,
One Life Fitness - Gym Center Near Me | Fitness Center Near Me,Gyms,Kolkata,"5th Floor, Rehmatvai nursing home, 36/a, Ganesh Chandra Ave",Open ⋅ Closes 10:30 pm · 098316 24018,,
CROSSFIT FITNESS STUDIO | Best Gym in Garia | Fitness Center in Garia,Gyms,Kolkata,"park, A/1 GARIA Dj vata, Tripura Sundari Rd",Open ⋅ Closes 10:30 pm · 062896 46116,,
Karma - The Fitness Studio,Gyms,Kolkata,"15+ years in business · 19, Lake Ave, near Menoka Cinema",Open ⋅ Closes 10 pm · 098301 22334,,
Muscle Up Gym,Gyms,Kolkata,"3+ years in business · DB-17, First Floor",Open ⋅ Closes 10 pm · 086177 77413,,
Kick Fitness Gym,Gyms,Kolkata,"7+ years in business · 3rd floor, 82, Mother Teresa Sarani",Open ⋅ Closes 10 pm · 090380 13485,,
Road To Fitness,Gyms,Kolkata,"5+ years in business · 70, Beck Bagan Row 1st Floor Opposite Quest Mall (Gate",Open ⋅ Closes 12 am · 033 4603 6800,,
Muscle Up Gym,Gyms,Kolkata,5+ years in business · IB - 20,Open ⋅ Closes 10 pm · 086177 77413,,
Muscle Arena Gym,Gyms,Kolkata,"Momina House, 1W, Sapgachi 1st Ln",Open ⋅ Closes 10:30 pm · 098832 24867,,
Body Basic Gym (G.C.AVENUE),Gyms,Kolkata,"5+ years in business · P-15, Ganesh Chandra Ave",Open ⋅ Closes 11 pm · 098303 22509,,
The Fitness Factory,Gyms,Kolkata,"7+ years in business · 9th floor, About Reliance Digital & Reliance Trends, TFF The Fitness Factory, 26, Gariahat Rd",Open ⋅ Closes 10 pm · 074398 61142,,
"Cult Park Street - Gyms in Park Street Area, Kolkata",Gyms,Kolkata,"3+ years in business · 3rd Floor Bangur Bfl estate east gate, 31, Jawaharlal Nehru Rd",Open ⋅ Closes 10 pm,,
Fitness Xpress Gym 2 | Best Gym in Golf Green |,Gyms,Kolkata,"5+ years in business · Ground Floor, 60/123, H.P, Haripada Dutta Ln, near Old Better High School Shooting Bari",Open ⋅ Closes 10:30 pm · 078902 85711,,
Revive Fitness,Gyms,Kolkata,"2/1/1A, Munshi Bazaar Rd",Open ⋅ Closes 10 pm,,
Endorphins - Corrective Exercise Studio,Gyms,Kolkata,"5+ years in business · Building 7th Floor, Park Centre, 24, Mother Teresa Sarani",Open ⋅ Closes 10 pm · 033 4604 8040,,
The Calcutta Fitness Studio Chain Of Gyms,Gyms,Kolkata,"5+ years in business · 1, Motilal Gupta Rd",Open ⋅ Closes 11 pm · 096740 41906,,
COMBAT FITNESS,Gyms,Kolkata,"5+ years in business · 8/3, Harish Chandra Paul Ln",Open ⋅ Closes 10 pm · 062914 69887,,
Encore Fitness Studio,Gyms,Kolkata,"40, 1, Prince Anwar Shah Rd, near Dhaka Kalibari, opposite Sangit Kala Academy",Open ⋅ Closes 10 pm · 091631 56777,,
The Energy Hub Gym Kolkata,Gyms,Kolkata,"428, Deb Banerjee Rd",Open ⋅ Closes 10:30 pm,,
Power Hour Gym,Gyms,Kolkata,"56, CIT Rd",Open ⋅ Closes 11 pm · 091230 98737,,
Anytime Fitness,Gyms,Kolkata,"No 53, Magnum Aura, Nilani, 371, Nalini Ranjan Ave",Open 24 hours · 093300 27001,,
UFC - Universal Fitness Centre Acharya Prafulla Chandra Road,Gyms,Kolkata,"3+ years in business · 1st Floor, 94 A, Acharya Prafulla Chandra Rd",Open ⋅ Closes 10 pm · 093308 49538,,
Endorphins - Corrective Exercise Studio,Gyms,Kolkata,"7+ years in business · 23/1, Rustamjee St",Open ⋅ Closes 9:30 pm · 033 4073 3696,,
VFA GYM- BurnToShine,Gyms,Kolkata,"3+ years in business · 167A, Vivekananda Rd, near paul dhaba",Open ⋅ Closes 11 pm · 098306 16358,,
The Fitness Zone,Gyms,Kolkata,"59/60, Bagmari Rd",Open ⋅ Closes 10 pm,,
Evergreen Fitness India- Fitness Class |Gym center in South Kolkata,Gyms,Kolkata,"5+ years in business · Raksha Kali Mandir, 82/C, Karunamoyee Ghat Road(Tollygunge Land Mark",Open ⋅ Closes 9:30 pm · 090516 27778,,
Muscle Fitness Gym 2,Gyms,Kolkata,"3+ years in business · 67, Basanta Lal Saha Rd",Open ⋅ Closes 10 pm · 070034 33661,,
Rival Fitness Studio - Jodhpur Park,Gyms,Kolkata,"5+ years in business · 1/280, Jodhpur Park Rd",Open ⋅ Closes 11 pm · 090387 11540,,
The Calcutta Fitness Studio Plus Gariahat,Gyms,Kolkata,"4th Floor, 16, Leela, Jamini Roy Sarani",Open 24 hours · 090739 05215,,
Strength Fitness,Gyms,Kolkata,"2nd Floor, 8/3B, Hatibagan Rd N",Open ⋅ Closes 10 pm · 082408 00927,,
Stamina Unleashed,Gyms,Kolkata,"289D, Darga Rd",Open ⋅ Closes 10 pm · 089101 15782,,
Mettle Fitness Studio,Gyms,Kolkata,"5+ years in business · 15, Lake Place Rd",Open ⋅ Closes 10 pm · 083370 44611,,
Diamond Fitness,Gyms,Kolkata,"5+ years in business · Hotel Diamond Plaza, Basement",Open ⋅ Closes 10:30 pm · 098047 77816,,
BEAST FITNESS GYM,Gyms,Kolkata,"3+ years in business · Kolkata, West Bengal",Open ⋅ Closes 10 pm · 085829 92569,,
Transformation Fitness Studio,Gyms,Kolkata,"3+ years in business · 1st Floor, Satyam Enclave, 174/33A, Netaji Subhash Chandra Bose Rd",Open ⋅ Closes 11 pm · 070036 93573,,
The Flex Fitness,Gyms,Kolkata,"3+ years in business · 25, Bosepukur Rd, near light house, opposite petrol pump",Open ⋅ Closes 10 pm · 099032 77071,,
Slim N Fit Gym & Yoga,Gyms,Kolkata,"30+ years in business · Lala Lajpat Rai Sarini, 6D, Elgin Rd",Open ⋅ Closes 10 pm · 088517 94236,,
BODY LIFE GYM,Gyms,Kolkata,7+ years in business · CA 198,Open ⋅ Closes 9 pm · 080170 83216,,
Fitness Code,Gyms,Kolkata,"7+ years in business · 391, 122, Prince Anwar Shah Rd",Open ⋅ Closes 10:30 pm · 083349 06066,,
Castlewood Gym,Gyms,Kolkata,"7+ years in business · G-1, 725, Salt Lake Bypass",Open ⋅ Closes 10 pm · 098300 92309,,
Fitness Nation Studio | Best GYM In Tollygunge,Gyms,Kolkata,"5+ years in business · 4, Baburam Ghosh Rd, near Technician Studio, near Nanu",Open ⋅ Closes 10 pm · 082403 30838,,
Zest : The Next Level,Gyms,Kolkata,"50, Chowringee Rd",Open ⋅ Closes 10 pm,,
J M FITNESS,Gyms,Kolkata,"3+ years in business · 49, Jatindas Rd",Open ⋅ Closes 10 pm,,
Fitness Point 2,Gyms,Kolkata,"Belal Complex, 26, Topsia Rd, beside myMD Polyclinic",Open ⋅ Closes 11:30 pm,,
Vihan Fitness,Gyms,Kolkata,"7+ years in business · 60 / 128 / 1 Golfgardens, Besides, Golfgarden park, near Madhartala",Open ⋅ Closes 9:30 pm · 098360 16215,,
Gym X Fitness Studio (Kankurgachi) Near kankurgachi,Gyms,Kolkata,5+ years in business · P-252CIT,Open ⋅ Closes 10 pm · 084209 13720,,
Body Kingdom,Gyms,Kolkata,"7+ years in business · Kolkata, West Bengal",Open ⋅ Closes 10 pm · 090382 87130,,
Fitness First,Gyms,Kolkata,"5+ years in business · 90a, Beltala Rd",Open ⋅ Closes 9 pm · 011 4949 7000,,
The Calcutta Fitness Studio Plus Bhowanipore,Gyms,Kolkata,"6, Ramesh Mitra Rd",Open ⋅ Closes 12 am,,
Fitlife Gym,Gyms,Kolkata,"P, 81, CIT Rd Scheme 6M",Open ⋅ Closes 10 pm · 082829 66678,,
Goal Evolution Fitness,Gyms,Kolkata,"3+ years in business · First floor,8/3-A, Hati Bagan Rd, Hatibagan Rd N",Open ⋅ Closes 10 pm · 098361 13535,,
SWEAT & FITNESS,Gyms,Kolkata,"15, Madan Mitra Ln, nr. Ration Office",Open ⋅ Closes 1 am · 096747 64271,,
Pep Fitness,Gyms,Kolkata,"5+ years in business · 59, Balaji Tower, KN Sen Rd",Open ⋅ Closes 10 pm · 087777 25122,,
AP fitness Gym,Gyms,Kolkata,"3+ years in business · 63, Christopher Rd",Open ⋅ Closes 10 pm,,
Mantra Lifestyle Health Club,Gyms,Kolkata,"10+ years in business · Ground Floor, 29F, Barrackpore Trunk Rd",Open ⋅ Closes 10:30 pm · 090077 63533,,
Austere Fitness,Gyms,Kolkata,"5+ years in business · 7, 41, Netaji Nagar Rd",Open ⋅ Closes 2 am · 090518 37728,,
Iron addict gym3,Gyms,Kolkata,"35/3k, Topsia Rd",Open 24 hours · 070035 11514,,
Catalyst Fitness Hub,Gyms,Kolkata,"Just a 2 min walk from Armstrong gym, 40b, Garfa Main Rd",Open ⋅ Closes 11 pm,,
Fast Fitness Health Club,Gyms,Kolkata,"7+ years in business · 68 Bhupen roy road, James long sarani, beside national gems school",Open ⋅ Closes 10 pm · 098312 34454,,
Rival Fitness Studio - Baghajatin,Gyms,Kolkata,"7+ years in business · Ground Floor, 118, Raipur Rd E",Open ⋅ Closes 10:30 pm · 090387 11540,,
Age Fitness,Gyms,Kolkata,"3E, Nandy St, near AC Market",,,
Fit N Fine Multi-gym,Gyms,Kolkata,"5+ years in business · 14, Mansatala Row, near Mohsin School",Open ⋅ Closes 10:30 pm · 089610 38201,,
Ufit Gym,Gyms,Kolkata,"5+ years in business · bata more, 16, Royd Street near Assembly of God church School ( junior section",Open ⋅ Closes 10 pm,,
Samurai Uni Gym,Gyms,Kolkata,08-Apr,Open ⋅ Closes 10 pm,,
Asish & Deb Profitness,Gyms,Kolkata,"7+ years in business · 189, Grey St",Open ⋅ Closes 9 pm · 085840 91007,,
Benefit Fitness,Gyms,Kolkata,"4th Floor, Raikva Building, Eastern Metropolitan Bypass, opposite Salt Lake Stadium Road",Open ⋅ Closes 11 pm,,
BNB Fitness Solutions(Beleghata),Gyms,Kolkata,"7+ years in business · 36/C, Kalimuddin Sarkar Ln",Open ⋅ Closes 10 pm · 099031 13555,,
FITNESS ADDICTION STUDIO - BEST GYM l BEST FITNESS CENTER IN BELEGHATA KOLKATA,Gyms,Kolkata,"GROUND FLOOR, P-49, CIT Rd",Open ⋅ Closes 10 pm · 086974 16184,,
C5 gym,Gyms,Kolkata,"3+ years in business · 2, Jannagar Rd",Open ⋅ Closes 10 pm,,
Fitness Extreme,Gyms,Kolkata,"5+ years in business · 3rd Floor, 36",Open ⋅ Closes 10 pm · 079805 80820,,
X-FIT GYM,Gyms,Kolkata,"5+ years in business · 7, Sachin Mitra Ln",Open ⋅ Closes 9:30 pm,,
Raw Fitness Gym,Gyms,Kolkata,"51/A, Dr Sudhir Bose Rd",Open ⋅ Closes 12 am,,
Tatons Bodywork Gym,Gyms,Kolkata,"5+ years in business · 59/60 Bagmari Road,, 1st Floor of Bagmari Progati Sangha, Near Ultadanga Hudco Police Quarter Bus Stop",Open ⋅ Closes 10 pm · 070037 98676,,
Add Life Fitness & Health Spa,Gyms,Kolkata,"10+ years in business · Block-'A', 5th. Floor, 22, Camac St",Open ⋅ Closes 9 pm · 090511 11778,,
Fitnes2x,Gyms,Kolkata,"28A, Gobinda Ghosal Ln",Open ⋅ Closes 10 pm,,
92 LEO FITNESS,Gyms,Kolkata,"7+ years in business · 1H, Chatu Babu lane, beside SBI ( CIT Road Branch)",Open ⋅ Closes 10:30 pm · 098369 79493,,
Equinox Fitness,Gyms,Kolkata,"33c, Manohar Pukur Rd",Open ⋅ Closes 10:30 pm · 084202 91117,,
ROBUST FITNESS,Gyms,Kolkata,"10+ years in business · Prasad Square Building, 164, Acharya Jagdish Chandra Bose Rd",Open ⋅ Closes 10 pm · 098305 05132,,
Just Fitness,Gyms,Kolkata,"4, Dabur Park, near SBI Branch",Open ⋅ Closes 10 pm · 089109 81331,,
Proportion Gym,Gyms,Kolkata,"3+ years in business · 12/1A, Townshend Rd",Open ⋅ Closes 9 pm,,
Force Gym,Gyms,Kolkata,"7+ years in business · 26/1Z, Prasanna Kumar Tagore St",Open ⋅ Closes 9:30 pm · 090514 23247,,
Roy's Fitness,Gyms,Kolkata,"3+ years in business · South Dumdum, West Bengal",Open ⋅ Closes 10:30 pm · 080136 28907,,
SOLID GYM,Gyms,Kolkata,"5A, 5, Bedia Danga 2nd Ln, near Jahaj Bari or SBI",Open ⋅ Closes 10 pm · 089811 74101,,
Kaushiki Gym | Gym in South Kolkata | Fitness Centre in South Kolkata,Gyms,Kolkata,"5+ years in business · BL- SPD 2nd-FR, P, 630, Baghajatin Station Rd",Open ⋅ Closes 10 pm · 098300 63553,,
Gyms Fitness Studio Chiriamore,Gyms,Kolkata,"3+ years in business · Om Enclave, 59/2, Barrackpore Trunk Rd",Open ⋅ Closes 11 pm · 079801 68603,,
Viva Fitness Zone,Gyms,Kolkata,"3+ years in business · Carnival Cinema, HA-265, Salt Lake City, Sector 3, Near Salt Lake Big Bazaar",Open ⋅ Closes 9:30 pm,,
NCORE FITNESS,Gyms,Kolkata,"5+ years in business · 118, Karl Marx Sarani Rd",Open ⋅ Closes 10 pm,,
RULES GYM,Gyms,Kolkata,"47, Christopher Rd, near Hanuman Mandir",Open ⋅ Closes 10:30 pm · 091239 79057,,
Shakti Sangha Gym,Gyms,Kolkata,"5+ years in business · 16/1/1, Biplabi Barin Ghosh Sarani",Open ⋅ Closes 10 pm · 070037 98676,,
Tarun Fitness - Multi Gym,Gyms,Kolkata,"51/A, Sarkar Ln",Open ⋅ Closes 11 pm · 098309 14485,,
Kt,Gyms,Kolkata,"5+ years in business · 5A, Bidhannagar Rd, near muchibajar bus stop",Open ⋅ Closes 10:30 pm,,
Sweat Out,Gyms,Kolkata,"25+ years in business · 12, Park Street Queens mansion Room # 11, Gate#2 1st floor, opp. Park Hotel",Open ⋅ Closes 10 pm · 079801 40749,,
FLEX PLEX FITNESS,Gyms,Kolkata,"3+ years in business · 2nd floor, 82, Harish Mukherjee Rd",Open ⋅ Closes 10 pm,,
Absolution Fitness Studio,Gyms,Kolkata,"5+ years in business · 10/1, Ghosh Ln",Open ⋅ Closes 10 pm · 089816 53980,,
Health & Fitness Center,Gyms,Kolkata,5+ years in business · GC53+XXQ,Open ⋅ Closes 10 pm,,
Lifestyle & Fitness,Gyms,Kolkata,"20+ years in business · Shivamani Apartment, 47C, Diamond Harbour Rd",Open ⋅ Closes 9 pm · 098303 21169,,
I Feel Fitness - Gym,Gyms,Kolkata,"3+ years in business · 1st Floor, 113J, Matheswartala Road",Open ⋅ Closes 9 pm · 098300 15203,,
F3 fire fit fitness,Gyms,Kolkata,Raja Dinendra St,Open ⋅ Closes 10 pm,,
Fit & Fitness,Gyms,Kolkata,"93/3/9, Hari Ghosh St",Open ⋅ Closes 10:30 pm,,
The Fit Way Gym,Gyms,Kolkata,"51, Nalini Ranjan Ave",Open ⋅ Closes 10 pm,,
NU Apex Fitness Studio,Gyms,Kolkata,"28B, Samsul Huda Rd",Open ⋅ Closes 9 pm · 087778 59498,,
Body basic gym,Gyms,Kolkata,"3+ years in business · 258, 16, SH 1",Open ⋅ Closes 10 pm,,
Xystus,Gyms,Kolkata,"7+ years in business · 105 B, Selimpur Rd",Open ⋅ Closes 10:30 pm · 087682 07029,,
Body Shaper Gym and Fitness Studio,Gyms,Kolkata,"3+ years in business · K Saha House, 63, Becharam Chatterjee Rd, Near B",Open ⋅ Closes 10:30 pm · 098306 16135,,
One2One fitness gym,Gyms,Kolkata,"7+ years in business · 57/1c, Topsia Rd, near Jin Masjid",Open 24 hours · 096745 80826,,
Fitness Track,Gyms,Kolkata,"61B, Matheswartala Road, near Kim Pou Restaurant",Open ⋅ Closes 10 pm,,
Bansdroni Gymkhana Fitness Centre,Gyms,Kolkata,"15+ years in business · 46, Adiganga Rd",Open ⋅ Closes 11 pm · 098316 75830,,
Flash Fitness,Gyms,Kolkata,"7+ years in business · 3rd Floor, 3 A, Camac St",Open ⋅ Closes 8:30 pm · 098300 20888,,
Kolkata Multi Gym And Yoga Centre,Gyms,Kolkata,"10+ years in business · 22, Girish Ave",Open ⋅ Closes 10 pm · 033 2555 3923,,
Pulse Fitness,Gyms,Kolkata,"10+ years in business · 101, Rajdanga Main Rd",Open ⋅ Closes 10 pm · 090510 26635,,
S. S. Fitness Gym,Gyms,Kolkata,"3+ years in business · 126, Acharya Prafulla Chandra Rd, near Manicktalla",Open ⋅ Closes 10 pm · 070035 51090,,
AVIJIT FITNESS CENTRE,Gyms,Kolkata,"232, near BUNDEL BRIDGE",Open 24 hours,,
HEALTH CLUB LADIES FITNESS CENTRE,Gyms,Kolkata,"H/106, 49/5, 1, Karl Marx Sarani Rd",Open ⋅ Closes 9:30 pm,,
FITNESS FACTORY SAHAPUR,Gyms,Kolkata,"5+ years in business · Post Office, 74 A, SN Roy Rd",Open ⋅ Closes 10 pm · 098319 25855,,
Anytime Fitness,Gyms,Kolkata,"3+ years in business · No DD/7, 2nd Floor, Prangan",Open 24 hours · 083369 77572,,
SMFG (GYM) Sanjay murli fitness gym,Gyms,Kolkata,"59B, Chowringee Rd",Open ⋅ Closes 11:30 pm,,
Rival Fitness Studio - Ballygunge,Gyms,Kolkata,"3+ years in business · First Floor, 1B, Panditiya Rd, Hazra Rd",Open ⋅ Closes 11 pm · 090387 11540,,
F1 Gym,Gyms,Kolkata,"7, H/1, Dum Dum Rd",Open ⋅ Closes 11 pm · 084810 07687,,
YA Dumble Complex Unisex AC GYM,Gyms,Kolkata,"South Dumdum, West Bengal",Open ⋅ Closes 10:30 pm · 090881 42711,,
Rival Fitness Studio - Beleghata,Gyms,Kolkata,"14B, Beleghata Main Rd",Open ⋅ Closes 10 pm,,
The Strength Code,Gyms,Kolkata,"44/2, Nimtala Ghat St, Opposite Gyan Bharati school",Open ⋅ Closes 10 pm · 081005 89963,,
Wynn fitness,Gyms,Kolkata,"3rd Floor, Bangur Bfl estate east gate, 31, Jawaharlal Nehru Rd",Open ⋅ Closes 10 pm,,
জিমখানা Gymkhaana,Gyms,Kolkata,"7+ years in business · P, 91/1, Nani Gopal Roy Chowdhury Ave",Open ⋅ Closes 10:30 pm · 094330 44020,,
AweFitness,Gyms,Kolkata,"10+ years in business · 25/1, Dr Rajendra Rd",Open ⋅ Closes 10 pm · 098302 84399,,
Labanya Fitness Centre,Gyms,Kolkata,"5+ years in business · 2 2, Raja Bagan Lane, DumDum Rd",Open ⋅ Closes 9:30 pm · 083349 64408,,
WTF,Gyms,Kolkata,"7+ years in business · 2, Gauri Shankar Ln",Open ⋅ Closes 10 pm · 098311 10333,,
Alpha Training Studio,Gyms,Kolkata,"101L, Karaya Rd, near Karaya",Open ⋅ Closes 10 pm,,
The Fettle Fitness,Gyms,Kolkata,"3+ years in business · P25 Darga Road,Galaxy House,4th Floor, Beside Don Bosco School",Open ⋅ Closes 11 pm · 074391 04901,,
Atma Shakti Byam Samity,Gyms,Kolkata,"10+ years in business · 118, Linton St, near Linton Post office",Open ⋅ Closes 10 pm · 085840 54918,,
The Camp Fitness Studio,Gyms,Kolkata,"2nd floor, 9, Elgin Rd, opp. Anita Dongre",Open ⋅ Closes 10 pm · 062898 74613,,
SB Fitness,Gyms,Kolkata,"148B, Martin Para Rd",Open ⋅ Closes 10:30 pm,,
Dilip Mukherjee Gym Kendro,Gyms,Kolkata,"10+ years in business · Kolkata, West Bengal",Open ⋅ Closes 11 pm,,
Max Fitness Gym,Gyms,Kolkata,42/C,· 079807 98464,,
BioHak Fitness Studio,Gyms,Kolkata,"3rd Floor, 38A, Darga Rd, opposite Mahadevi Birla World Academy",Open ⋅ Closes 9:30 pm · 099035 10741,,
Endorfins- Salt Lake,Gyms,Kolkata,7+ years in business · Plot No.2,Open ⋅ Closes 10 pm · 091632 62499,,
Fight4Fitness,Gyms,Kolkata,"78/2G, 5th Floor Ocean Center building, Mansatala Row, opposite Phalwan Tailors, near Fancy Market",Open ⋅ Closes 11:45 pm · 062896 98172,,
Cuts and Curves Fitness,Gyms,Kolkata,7+ years in business · 4,Open now,,
Federation Gym,Gyms,Kolkata,"10+ years in business · G9MJ+MV5, Topsia Rd",Open ⋅ Closes 11 pm · 093312 37623,,
KOLKATA PHYSICAL FITNESS ACADEMY,Gyms,Kolkata,"3+ years in business · Kolkata, West Bengal",Open ⋅ Closes 10 pm · 089818 75970,,
BURNOUT,Gyms,Kolkata,"7+ years in business · 46, Beck Bagan Row",Open ⋅ Closes 10 pm · 098366 65292,,
YOUNG CORNER GYM,Gyms,Kolkata,"7+ years in business · 10/2, Rai Charan Pal Ln",Open ⋅ Closes 10 pm,,
Glory Gym,Gyms,Kolkata,"56L, Ultadanga Main Rd",Open ⋅ Closes 10 pm · 086975 64739,,
Fitness Today - Kasba,Gyms,Kolkata,"3 Bediadanga Masjidbari Lane, 39",Open ⋅ Closes 11 pm · 078901 03803,,
NXT Fitness,Gyms,Kolkata,"115, Diamond Harbour Rd",Open ⋅ Closes 11 pm · 087770 82727,,
Starke Gym,Gyms,Kolkata,"P89, CIT Rd",Open ⋅ Closes 11 pm,,
Khalsa Gym,Gyms,Kolkata,"5+ years in business · Beleaghata auto stand, CIT building",Open ⋅ Closes 10 pm · 089102 77216,,
Fitness on Fire (Women Fitness Center),Gyms,Kolkata,"3+ years in business · 1st floor, 11, Colootola St",,,
The Park Fitness,Gyms,Kolkata,"Platform no. 1, 58, 3, SN Banerjee Road, beside Godrej Interior, near Aminia Restaurant",Open ⋅ Closes 10 pm · 070037 60060,,
Gold's Gym,Gyms,Kolkata,"10+ years in business · Andromeda Building, 8th Floor",Open ⋅ Closes 10 pm · 070442 01202,,
Crazy Fitness,Gyms,Kolkata,"1/6-B, S Purbachal Hospital Rd, opposite side of Udayan Sangha Club",Open ⋅ Closes 10 pm · 079803 07076,,
Spark Family Fitness Studio,Gyms,Kolkata,"57, Cossipore Rd",Open ⋅ Closes 10 pm · 087775 05299,,
MAM GYM,Gyms,Kolkata,"5+ years in business · 4-66, CIT Rd",Open ⋅ Closes 10 pm,,
Muzl Mania Gym,Gyms,Kolkata,"10+ years in business · P7/8, C.I.T Road, Beside Senco Gold Mega Shop",Open ⋅ Closes 10 pm,,
Maxsan Gym,Gyms,Kolkata,"1a, 4, Prabhu Ram Sarkar Ln",Open ⋅ Closes 10 pm,,
KETUZ GYM - PAIKPARA,Gyms,Kolkata,"7, Uma Kanta, Umakanta Sen Ln, opposite Orbit Subham",Open ⋅ Closes 10 pm,,
Australian Fitness Centre,Gyms,Kolkata,7+ years in business · G97X+66G,Open ⋅ Closes 10 pm · 072784 94057,,
DK Fitness,Gyms,Kolkata,"46a, Topsia Rd",Open ⋅ Closes 11 pm,,
Ketuz Gym-DumDum,Gyms,Kolkata,"3+ years in business · New Market, Dum Dum Rd, near Theism",Open ⋅ Closes 10 pm · 070039 26754,,
Oswal Sports & Health Club,Gyms,Kolkata,"10+ years in business · Between Nopany High School and Sri Chaitanya School, 2B, Nanda Mullick Ln",· 033 2530 6074,,
FITNESS ADDICTION ARENA -BEST GYM l BEST FITNESS CENTER IN GARIAHAT BALLYGUNGE,Gyms,Kolkata,"3 Rd floor, 195, Rashbihari Avenue, Foot Bridge, near Gariahat",Open ⋅ Closes 11 pm · 062911 07589,,
UFC - Universal Fitness Centre Tala Prattoy,Gyms,Kolkata,"Orbit Northview, 3, Khelat Babu Ln",Open ⋅ Closes 10 pm · 087770 79899,,
Fitness Hotspot,Gyms,Kolkata,"1, Tarak Dutta Rd",Open ⋅ Closes 10 pm,,
Strength,Gyms,Kolkata,99/5/8D,Open ⋅ Closes 10 pm · 098367 21507,,
Bagh Bazar Gym,Gyms,Kolkata,"7+ years in business · H9X7+JPX, Sovabazar",Open ⋅ Closes 8:30 pm,,
Physiomax,Gyms,Kolkata,"10+ years in business · CL-236, 2nd FLOOR",Open ⋅ Closes 10 pm · 090515 18213,,
The FITNESS STATION,Gyms,Kolkata,"817/3, Kalikapur Rd, above Avon Cycle Shop, opposite Kolkata Kidney Institute",Open ⋅ Closes 10:30 pm · 070030 97292,,
Vivekananda Fitness,Gyms,Kolkata,"3+ years in business · Shitala Mandir, 43, Dhapa Rd, near Dhapa",Open ⋅ Closes 10 pm,,
Figure Up Workout,Gyms,Kolkata,"7+ years in business · 7/2K, Jamir Lane, (Balligunge)",Open ⋅ Closes 9 pm · 033 2460 0017,,
Rayan's Muscle Unit,Gyms,Kolkata,"5A, Bidhannagar Rd",Open ⋅ Closes 10 pm,,
The best gym - Kolkata,Gyms,Kolkata,3+ years in business · Chittaranjan Ave,Open 24 hours,,
Gold Gym,Gyms,Kolkata,"3+ years in business · No. 57, Jawaharlal Nehru Rd",Open ⋅ Closes 10 pm,,
NUJS Gym,Gyms,Kolkata,5+ years in business · HC65+CX7,Open ⋅ Closes 10 pm,,
Kris Gethin Gyms - Saltlake,Gyms,Kolkata,"3+ years in business · prangan, 9th Floor, DD- 7, Salt Lake Rd",Open 24 hours · 097486 54545,,
"Cult Salt Lake Stadium - Gyms in Beleghata, Kolkata",Gyms,Kolkata,"On, Cult Salt Lake Stadium, 4th Floor, Raikva Building, Eastern Metropolitan Bypass, opp. Salt Lake Stadium Road",,,
RBW Fitness Studio,Gyms,Kolkata,"22, Ashutosh Chowdary Ave",Open ⋅ Closes 9 pm,,
Oorja Fitness,Gyms,Kolkata,"10+ years in business · Sri Vinayak, Umananda Rd",· 098300 70696,,
FitNet Muscle Den | Saltlake | Affordable & best Gym center near in Saltlake,Gyms,Kolkata,"3+ years in business · CF-140, 4th Cross Rd",Open ⋅ Closes 10:30 pm · 083348 72460,,
EDGE Fitness,Gyms,Kolkata,"7+ years in business · 425/1, 206 Foot Bridge, opposite Kolkata",Open ⋅ Closes 10 pm · 098317 89789,,
Soumen_coach,Gyms,Kolkata,5+ years in business · Rani Rashmoni Garden Ln,Open ⋅ Closes 10 pm,,
Flex Fit Gym,Gyms,Kolkata,5+ years in business · 1/3,Open ⋅ Closes 10 pm · 098311 20392,,
Ministry of Fitness,Gyms,Kolkata,"Howrah, West Bengal",Open ⋅ Closes 10 pm,,
"Physiomax Gym, Dum Dum, Kolkata",Gyms,Kolkata,"10+ years in business · North Dumdum, West Bengal",Open ⋅ Closes 10 pm · 090513 58213,,
SAS FITNESS .,Gyms,Kolkata,7+ years in business · AA/22 Lipjit Apartment,Open ⋅ Closes 11 pm · 086974 16184,,
Fit 'N' Fine Salt lake,Gyms,Kolkata,HCQ5+975,· 033 4001 4222,,
Xtreme Cross2 Fitness Studio,Gyms,Kolkata,"7+ years in business · South Dumdum, West Bengal",Open ⋅ Closes 10 pm · 090516 14988,,
The Friend's United Club,Gyms,Kolkata,"213B, Chittaranjan Ave",Open ⋅ Closes 9:30 pm · 093392 09327,,
GEN-X Gym,Gyms,Kolkata,"10+ years in business · bus stand, near 3 no camp",Open ⋅ Closes 10:30 pm · 098749 35180,,
BFF - Bond Fitness Factory,Gyms,Kolkata,"1st Floor, Sundrop Co Operative Society, DC-200, opp. Biswa Bangla Sarani",Open ⋅ Closes 11 pm · 099036 74877,,
AV's Fitness Studio,Gyms,Kolkata,"Tirath, Ground, 122/2",Open ⋅ Closes 10 pm,,
Perfect Gym,Gyms,Kolkata,CK-2,Open ⋅ Closes 9:30 pm,,
BODY BASIC GYM (Maniktala),Gyms,Kolkata,"256, 16, Acharya Prafulla Chandra Rd",Open ⋅ Closes 10 pm,,
Gym X Fitness Studio+,Gyms,Kolkata,"3rd Floor, Block-B, Madhuban Apartment, 48/8, Jessore Rd",Open ⋅ Closes 10 pm · 090073 16666,,
Hyatt Gymnasium,Gyms,Kolkata,SH 1,,,
"The Fitness World, NEWTOWN",Gyms,Kolkata,5+ years in business · Shantiniketan Apartment Mahisgot,Open ⋅ Closes 10 pm · 097759 95300,,
Kolkata Police Open Air Gym,Gyms,Kolkata,HC93+WCR,,,
INDOOR BOXING,Gyms,Kolkata,"THE CRICKET ASSOCIATION OF BENGAL, EDEN GARDEN",080018 68754,,
DELTA FITNESS - BEST GYM I BEST FITNESS CENTER I BEST HEALTH CLUB IN BAGUIATI KOLKATA,Gyms,Kolkata,"1stfloor, No 117/1, Baguihati, VIP Rd",Open ⋅ Closes 11 pm · 097483 94999,,
The Calcutta Fitness Studio,Gyms,Kolkata,"1, Motilal Gupta Rd",Open ⋅ Closes 11 pm,,
Akash Shaw,Gyms,Kolkata,Barik Ln,,,
The Body Gym,Gyms,Kolkata,"25+ years in business · bus stop, Rc/16/6, near exide office",Open ⋅ Closes 9 pm · 092318 91786,,
Hm-16 gym,Gyms,Kolkata,"2nd & 3rd floor, 81g, Topsia Rd, opposite albela biryani",,,
TRIFIT Gym & Yoga Studio,Gyms,Kolkata,"5+ years in business · New Town, West Bengal",Open ⋅ Closes 10 pm · 098825 73869,,
EXCEL FITNESS HUB - Best gym in dumdum,Gyms,Kolkata,"3+ years in business · 31, PK Guha Rd",Open ⋅ Closes 10 pm · 062899 73939,,
GYMS FITNESS STUDIO CHINARPARK,Gyms,Kolkata,"4th floor, Meena Tower, above Aminia Rest aurant",Open ⋅ Closes 11:30 pm · 079801 68603,,
Rebel Fitness Functional Gym,Gyms,Kolkata,"3+ years in business · GROUND FLOOR, 9-G/2, NEW, Panchanantala Rd, beside Shishu Niketan School",Open ⋅ Closes 10 pm · 079806 84996,,
Carbon Fitness Studio,Gyms,Kolkata,"H-1/16,S.L. Sarani, Anuj Complex",Open ⋅ Closes 10 pm · 062904 79604,,
Tiger fitness gym,Gyms,Kolkata,"Howrah, West Bengal",Open ⋅ Closes 10:30 pm · 096746 32401,,
THE SAS FITNESS - BEST GYM l BEST FITNESS CENTER IN BELGHORIA KOLKATA,Gyms,Kolkata,"56, Beharilal Ghosh Rd",Open ⋅ Closes 10 pm · 086974 16184,,
Power Multi Gym,Gyms,Kolkata,"3+ years in business · Howrah, West Bengal",,,
Anytime Fitness,Gyms,Kolkata,"3+ years in business · Unit B, 3rd floor, Newton square",Open ⋅ Closes 12 am · 098301 15664,,
SSR FITNESS,Gyms,Kolkata,"52, H / 10, Chaulpatty Rd",,,
Women Gyms,Gyms,Kolkata,"1/504 Gariahat Road, Gol Park",,,
Bilay's Fitness Plus,Gyms,Kolkata,7+ years in business · 13/2,Open ⋅ Closes 10 pm · 092306 32004,,
A Builder Hut,Gyms,Kolkata,"Budge Budge Trunk Rd, Jagtala, Batanagar, Maheshtala",Open 24 hours · 082769 03867,,
Taponomics Xtreme MMA Gym,Gyms,Kolkata,"3+ years in business · 28, 3A",Closes soon,,
"Weightloss, Fitness, in Kolkata",Gyms,Kolkata,"3+ years in business · Musalman para, Dharmatala panchuria, K LC shout",,,
A Builder Hut,Gyms,Kolkata,"Budge Budge Trunk Rd, Jagtala, Batanagar, Maheshtala",Open 24 hours · 082769 03867,,
Taponomics Xtreme MMA Gym,Gyms,Kolkata,"3+ years in business · 28, 3A",Closes soon,,
"Weightloss, Fitness, in Kolkata",Gyms,Kolkata,"3+ years in business · Musalman para, Dharmatala panchuria, K LC shout",,,
Lifting Hours Gym,Gyms,Kolkata,Rajarhat Main Rd,Open ⋅ Closes 9:30 pm · 070034 06170,,
BARBELL CLUB,Gyms,Kolkata,"1st floor, Rajarhat 211 Main Road Rajarhat kathgola, near hdfc bank",Open ⋅ Closes 10 pm · 062919 11535,,
Suraj wanjari personal trainer and Unisex Gym - Best Gym in Nagpur,Gyms,Nagpur,"3+ years in business · Plot No: 362, Floor No: 3, Wanjari Complex Doctor Ambedkar Road Kamal chowk",Open ⋅ Closes 11 pm · 084462 30863,,
Fhive fitness,Gyms,Nagpur,"5+ years in business · Plot no.04, 2nd floor, shree radhe govind, Ring Rd",Open ⋅ Closes 10 pm · 091457 33453,,
A-light Fitness,Gyms,Nagpur,"3+ years in business · 2nd floor,Mohta apartments, Katol Rd, above sbi bank chhaoni",Open ⋅ Closes 10 pm · 085302 28896,,
BIG FIT,Gyms,Nagpur,"3+ years in business · 3rd floor, 1, RPTS Rd, above Domino's",Open ⋅ Closes 10 pm · 090111 01654,,
Core Fitness,Gyms,Nagpur,3+ years in business · near Shahu Samaj Building,Open ⋅ Closes 11 pm · 090223 95046,,
SPL Fitness Hub,Gyms,Nagpur,"7+ years in business · Pioneer Green Vally, Opp. Afzal Bakery, behind Vayusena Nagar",Open ⋅ Closes 10 pm · 097666 98739,,
ULTRAFIT GYM,Gyms,Nagpur,"5+ years in business · 17, S Ambazari Rd, Madhav Nagar, Nagpur, Maharashtra 440010",Open ⋅ Closes 9 pm · 077448 03819,,
Platinum Gym,Gyms,Nagpur,"7+ years in business · 169, 170, 1st floor, Mokha Tower, Umrer Rd",Open ⋅ Closes 11 pm · 077095 08005,,
The Fitness Aura,Gyms,Nagpur,"5+ years in business · 1st Floor, 12, Jawahar society, Above wardhaman Ele, near Bharat Petrol Pump",Open ⋅ Closes 10:30 pm,,
oxygen gym,Gyms,Nagpur,"5+ years in business · Borgoun, 1, Chowk",Open ⋅ Closes 10 pm · 082081 61085,,
FITNESS CLUB GYM,Gyms,Nagpur,"5+ years in business · 1-4, Beltarodi Rd",Open ⋅ Closes 10 pm · 074474 48030,,
Oxygen Fitness Studio,Gyms,Nagpur,"6th Floor, Natraj Tower, Zenda Square",Open ⋅ Closes 11:30 pm,,
Fitness King Gym,Gyms,Nagpur,3+ years in business · 125/A,Open ⋅ Closes 11 pm · 097676 11113,,
Marvel Fitness,Gyms,Nagpur,5+ years in business · MARVEL FITNESS GYM Laxmi Nagar near water tank plot No100 Opp Pitale Shashtri School,Open ⋅ Closes 10 pm · 098340 07388,,
"FITLIFE Gym | Wardha Rd, Nagpur",Gyms,Nagpur,3+ years in business · Wardha Rd,Open ⋅ Closes 10 pm · 085520 04100,,
Aspire The Fitness Hub,Gyms,Nagpur,"3+ years in business · Sharda squre, 19, near Ayodhya Nagar, opposite smriti hall",Open ⋅ Closes 10 pm · 091757 64732,,
Trans Fitness,Gyms,Nagpur,"10+ years in business · Alankar-Kachipura Sq. road, Below Kutz Salon Near Federal Bank, Opp Firstcry Ramdaspeth Connects Laxminagar Bajaj Nagar Connects",Open ⋅ Closes 10:30 pm · 098603 44777,,
Armor Fitness,Gyms,Nagpur,"5+ years in business · Plot no 183, Ring Rd",Open ⋅ Closes 10 pm · 089834 98082,,
Oneabove Fitness Ramdaspeth,Gyms,Nagpur,"7+ years in business · 401/404 Near Sqaure, Milestone, 12, Wardha Rd",Open ⋅ Closes 10 pm · 090215 98563,,
Bluerock Fitness,Gyms,Nagpur,"3+ years in business · Plot No.183, Super Pride Building, Ring Rd",Open ⋅ Closes 10 pm · 082081 81564,,
Talwalkar's Nagpur (Now FITLIFE),Gyms,Nagpur,"3+ years in business · Hindustan Colony, Aditya building, Wardha Rd, near Ajni square",Open ⋅ Closes 10 pm · 085520 04100,,
Arnold's Gold Gym,Gyms,Nagpur,7+ years in business · Kothi Rd,Open ⋅ Closes 11 pm · 097307 58977,,
Sai Fitness,Gyms,Nagpur,"3+ years in business · R. K. Tower, above Capello Salon",Open ⋅ Closes 10 pm · 077989 33657,,
ULTRAFIT GYM (Ravi Nagar),Gyms,Nagpur,"5+ years in business · University Campus, near University Ground, opposite Panio Cafe",Open ⋅ Closes 9 pm · 090224 11860,,
Surefit Wellness Center,Gyms,Nagpur,"5+ years in business · Santaji Society Balpande Layout, Plot No 16, near Rachanavatika",Open ⋅ Closes 9 pm · 097661 53636,,
Fitness United,Gyms,Nagpur,"3+ years in business · 1st Floor, Govindam Commercial",Open ⋅ Closes 11 pm · 077118 81139,,
"New Olympia fitness planet, Nagpur",Gyms,Nagpur,"3+ years in business · second floor, Indu Yash Complex, Cement Rd",Open ⋅ Closes 11 pm,,
Mr. Deepak Ramteke Muscle And Fitness Gym,Gyms,Nagpur,"7+ years in business · Guru Nanak School, Road",Open ⋅ Closes 10:30 pm · 094236 84495,,
People's Gym,Gyms,Nagpur,"10+ years in business · 96, VIP Rd",Open ⋅ Closes 10:30 pm · 0712 663 9428,,
Oneplus Fitness,Gyms,Nagpur,"3+ years in business · Suhyog 3rd floor above yes bank Telephone exchange square, Central Ave",Open ⋅ Closes 11 pm · 084110 93978,,
The Rock Gym,Gyms,Nagpur,"5+ years in business · Block no.102A, Shanti Park Apartment, Beltarodi Rd, above SBI",Open ⋅ Closes 10 pm · 090218 19018,,
Doc's Fitness,Gyms,Nagpur,"Keshav Dwar, Reshimbag Square",Open ⋅ Closes 10 pm · 079722 40709,,
High Volume Fitness,Gyms,Nagpur,"Shop No. 1, Himalaya Enclave, LAD Square",Open ⋅ Closes 10 pm · 099600 33368,,
Barbarian Power Gym,Gyms,Nagpur,"Jagat towers, Amravati Rd, near law college square",Open ⋅ Closes 10 pm,,
Outraw Training Gym - Fitness Center,Gyms,Nagpur,"5+ years in business · West High Court road, dharampeth",Open ⋅ Closes 10 pm · 089835 36321,,
Fitness Factory gym,Gyms,Nagpur,"10+ years in business · Plot no. 319, 1st floor, Gandhi grain, Chhapru Nagar chowk, Central Ave, near indusland bank",Open ⋅ Closes 10 pm,,
Solid Body Fitness Gym,Gyms,Nagpur,"7+ years in business · 3rd Floor, Jagdamaba Appt, Shyam Talkies Chowk",Open ⋅ Closes 11 pm · 098901 96031,,
MultiFit Nagpur,Gyms,Nagpur,"3+ years in business · 3rd Floor, Imperial Court, Rangole Marg, near Traffic Park",Open ⋅ Closes 10 pm · 077987 00050,,
Fitness Freaks Gym,Gyms,Nagpur,"5+ years in business · Plot No. 182, Beside Vishal Mega Mart Aadarsh Abhyasika, Bhande Plot Square Nandanwan Road",Open ⋅ Closes 10 pm · 087796 82234,,
Prime Fitness Gym - Best Gym In Friends Colony,Gyms,Nagpur,"10+ years in business · Sai Plaza, H.No 551/3, Katol Rd, near Apna Bhandar",Open ⋅ Closes 10:30 pm,,
A S-FITNESS,Gyms,Nagpur,3+ years in business · Plot no u-24 Duchakke mention,Open ⋅ Closes 10 pm · 088889 03545,,
Physique Today Gym,Gyms,Nagpur,"30+ years in business · Mount Road, Rizvi Galli, behind Lemanna Garage",Open ⋅ Closes 10 pm · 090211 92596,,
The Ab's Gym,Gyms,Nagpur,"7+ years in business · Plot No 4, 33QJ+W54, Manohar Arcade, Somalwada Rd",Open ⋅ Closes 10 pm · 090759 35192,,
Gaikwad Fitness Club,Gyms,Nagpur,"Plot no.1060, Ambedkar Marg Cement road, opposite IDBI BANK ATM",Open ⋅ Closes 11 pm · 082082 21618,,
R K Fitness Factory,Gyms,Nagpur,"47, Saw Mills Area Bhoslewadi, Lashkari Bagh Rd",Open ⋅ Closes 11 pm,,
Fitness life gym (Unisex),Gyms,Nagpur,"plot no.140, near panchpaoli police station",Open ⋅ Closes 10 pm,,
WESTERN FITNESS GYM,Gyms,Nagpur,"2nd floor, Bajaj Nagar Rd, above Waman Hari Pethe Jewellers",Open ⋅ Closes 9:30 pm,,
Reshape Fitness Studio,Gyms,Nagpur,House No.18 Golibar Square,Open ⋅ Closes 10 pm,,
JAGUARs FITNESS & Nutritionist,Gyms,Nagpur,"3+ years in business · Plot No 40, Ambazari Rd",Open ⋅ Closes 9 pm · 095618 03885,,
Fitness World Gym (Unisex Gym),Gyms,Nagpur,"10+ years in business · Nagpur, Maharashtra",Open ⋅ Closes 10 pm · 092252 19244,,
Energetic Fitness Gym Shree Ganesh Complex,Gyms,Nagpur,"5+ years in business · Nagpur, Maharashtra",Open ⋅ Closes 9:30 pm · 098230 17367,,
Being Fit Gym,Gyms,Nagpur,"5+ years in business · 53, Rameshwari Rd",Open ⋅ Closes 10:30 pm · 095615 08197,,
CURVES EVOLUTION GYM & FITNESS,Gyms,Nagpur,"2nd Floor, MISSAL LAYOUT, PLOT NO 3, Mangalwari Market Rd",Open ⋅ Closes 10 pm · 089993 27314,,
Sweat 7 Fitness,Gyms,Nagpur,"5+ years in business · House no 465, Raj bhavan, Meghraj Golchha Rd",Open ⋅ Closes 10 pm · 095613 67299,,
Fitness Revolution,Gyms,Nagpur,"7+ years in business · Nilay Murarka Marg, opposite santoshi mata Mandir, Modal Mill Square",Open ⋅ Closes 11 pm · 097669 35508,,
4R Fitness Power House,Gyms,Nagpur,"3+ years in business · Plot no 9, Parmar Building, near chitnavispura bank",Open ⋅ Closes 10 pm · 088886 44438,,
Avi's Fitness Studio,Gyms,Nagpur,"7+ years in business · JK Tower, 254",Open ⋅ Closes 10:45 pm · 093700 00888,,
Endurance Fitness club,Gyms,Nagpur,"5+ years in business · Plot no 2, 4, IT Park Rd",Open ⋅ Closes 10 pm · 099234 31462,,
Black Box Fitness Studio,Gyms,Nagpur,"7+ years in business · Abhinay Sankul, Abhyankar Nagar Rd, above Food Maholla Rest, opposite Tanjoor Rest",Open ⋅ Closes 9 pm · 086688 06214,,
FITNESS CLUB GYM,Gyms,Nagpur,"5+ years in business · 14TH, Ambazari Rd, near NIT SWIMMING POOL",Open ⋅ Closes 10 pm · 098236 13167,,
Oneabove Fitness byramji town,Gyms,Nagpur,15+ years in business · Ground J.P. Heights 4/1 Gondvana Chowk RBI Officer's Colony Byramji Town,Open ⋅ Closes 10 pm · 090217 38978,,
New Muscle Magic Gym,Gyms,Nagpur,"7+ years in business · Ground Floor, YMCA Complex, Khalasi Ln, near St.John's High School",Open ⋅ Closes 11 pm · 097676 11113,,
Arnold's Gold Gym,Gyms,Nagpur,10+ years in business · Mecosabagh Rd,Open ⋅ Closes 11 pm · 098901 11033,,
ad's Fitness World,Gyms,Nagpur,"3+ years in business · 2105, 10B, IT Park Rd",Open ⋅ Closes 9:30 pm · 099604 53519,,
Fitness Courtyard,Gyms,Nagpur,"3+ years in business · Banode square, New shukrawari, near Patil Hospital",Open ⋅ Closes 10:30 pm · 097669 19117,,
Avenger Fitness Hub,Gyms,Nagpur,"3+ years in business · Bus Stop, Nandanvan Last, opposite Rajendra High School",Open ⋅ Closes 11 pm · 093256 88317,,
Universal Gym (Mens & Women's),Gyms,Nagpur,"5+ years in business · Sai-lila niwas, plot no 21, shubhangi society 2 Near Balaji temple",Open ⋅ Closes 10 pm · 091581 06963,,
The Warriors gym,Gyms,Nagpur,"5+ years in business · Plot no 29 A jagrut nagar, Ring Rd, near chandni bar Nari",Open ⋅ Closes 10 pm · 098909 89193,,
Krishna fitness - Gym-Koradi-Nagpur,Gyms,Nagpur,"5+ years in business · KORADI ROAD, BAJRANG NAGAR LANE NO 2 KRISHNA FITNESS GYM KORADI ROAD BAJRANG NAGAR LANE, NO 2, Koradi Rd, near BHARAT PETROL PUMP & SARASWATI HIGH SCHOOL",Open ⋅ Closes 9 pm · 097307 56892,,
"Cult Dharampeth - Gym in Dharampeth, Nagpur",Gyms,Nagpur,"3rd Floor, The West High, Plot 236, W High Ct Rd",Open ⋅ Closes 10 pm · 095038 88398,,
Southern Hill Fitness,Gyms,Nagpur,"3+ years in business · Southern hill fitness, 2'nd floor, Chhaoni Rd, opposite Achraj Tower 2",Open ⋅ Closes 9 pm · 091455 05544,,
Fit Nation Unisex Gym,Gyms,Nagpur,"Ratan Nagar Mankapur, Ring Rd",Open ⋅ Closes 11 pm · 087931 18752,,
The Pulse Fitness,Gyms,Nagpur,"7+ years in business · Sant Jagnade Square, Great Nag Road, Nandanvan",Open ⋅ Closes 10 pm · 099230 23017,,
Big Tech Panther's Gym,Gyms,Nagpur,"3+ years in business · 93c, Manewada Rd, behind Devendra lawn",Open ⋅ Closes 10 pm · 084829 04809,,
Hardcore Fitness Hub - Gym for Ladies & Gents,Gyms,Nagpur,"3+ years in business · Fawara Square, Wade Bhawan, 3rd Floor, Central Ave",Open ⋅ Closes 11 pm · 084120 58556,,
AARON FITNESS STUDIO,Gyms,Nagpur,"3+ years in business · plot no.231, Patankar Chowk Rd",Open ⋅ Closes 11 pm · 072198 89175,,
Muscle Box Gym,Gyms,Nagpur,"3+ years in business · Plot No. 82, 1st Floor, in front of Mayur Mangal Karyalaya",Open ⋅ Closes 9 pm · 095033 44167,,
Dr. Sudhir's Fitness,Gyms,Nagpur,"5+ years in business · Plot no 8 , Matrutirth, Manewada - Besa Rd, behind Vrundavan lawns",Open ⋅ Closes 10 pm · 093736 66905,,
Go gym,Gyms,Nagpur,"5+ years in business · Plot No.864/C, 1 st Floor, Opp.Rahate Hospital, CA Road, near Kolbaswamy Chowk Old",Open ⋅ Closes 11 pm · 099214 42623,,
Terminator Gym,Gyms,Nagpur,"7+ years in business · 44W7+65Q, Ayachit Rd, behind Bhosla Ved Shala, near Sankat Mochan Hanuman Mandir",Open ⋅ Closes 11 pm · 093269 37138,,
Xtreme full fitness hub,Gyms,Nagpur,"Rani durgavati Chawk, opposite to police chawki, near by Gurudwara Road",Open 24 hours · 090674 81706,,
Combat Fitness Club,Gyms,Nagpur,"3+ years in business · Akash mall, Ayachit Rd",Open ⋅ Closes 10 pm · 086249 46706,,
Orange Fitness,Gyms,Nagpur,"3+ years in business · Diamond Tower, Mankapur Rd, near Basera Apartment",Open ⋅ Closes 10 pm · 083295 21579,,
Millennium Health Club - GYM Trimurti Nagar,Gyms,Nagpur,"10+ years in business · Ring Road, 31, Parekh Layout",Open ⋅ Closes 10 pm · 099605 67082,,
Arena Gym & Health Club,Gyms,Nagpur,10+ years in business · Manewada Rd,Open ⋅ Closes 11 pm · 097664 45077,,
Parate's Fitness Club,Gyms,Nagpur,"7+ years in business · Parate Complex, Khamla Rd, opposite Gulmohar hall",Open ⋅ Closes 10 pm · 087889 19539,,
SHREE GYM,Gyms,Nagpur,"5+ years in business · 2nd floor, Balaji Kirana Store, Nandanvan Road, road, opposite ICICI Bank",Open ⋅ Closes 11 pm · 086984 09603,,
Avis Fitness Studio,Gyms,Nagpur,"7+ years in business · Nagpur, Maharashtra",Open ⋅ Closes 12 am · 093705 45566,,
HOUSE OF FITNESS,Gyms,Nagpur,"HOUSE OF FITNESS 136, Ring Rd, behind Shivshankar Lawn",Open ⋅ Closes 10 pm · 093257 23086,,
EVOLVE FITNESS STUDIO,Gyms,Nagpur,"7+ years in business · Nagpur, Maharashtra",Open ⋅ Closes 9:30 pm · 072767 00850,,
Limitless,Gyms,Nagpur,"2nd Floor, sq, The Cennet, Central Ave, above Pizza Hut",Open ⋅ Closes 11 pm · 075075 01176,,
YADAV'S FITNESS FACTORY,Gyms,Nagpur,"3+ years in business · plot no 69, Hudkeshwar Rd",Open ⋅ Closes 10 pm · 093251 64160,,
A-SQUARE FITNESS STUDIO,Gyms,Nagpur,"near Shubhash Putla, beside Dinesh Medical Store",Open ⋅ Closes 10 pm · 074105 70062,,
Body Zone Gym,Gyms,Nagpur,7+ years in business · Nara Rd,Open ⋅ Closes 10 pm · 076203 51035,,
Gladiator gym,Gyms,Nagpur,"5+ years in business · Sakore Complex, Ramna Maroti Rd",Open ⋅ Closes 10 pm,,
Fitness India,Gyms,Nagpur,"7+ years in business · Siddi Vinayak Apartment, Plot No.1, Gajanan Mandir Rd",Open ⋅ Closes 9 pm,,
REVOLVE FITNESS GYM,Gyms,Nagpur,"56 57, Chichbhavan Main Road, near Bhavans School",Open ⋅ Closes 10 pm · 080871 18714,,
Akhaada - The Performance Studio,Gyms,Nagpur,"5+ years in business · Akhaada - The Performance Studio, 19, Red Cross Rd",Open ⋅ Closes 9 pm · 090962 12123,,
STRONG FITNESS,Gyms,Nagpur,"Ingle House, 9, Ring Rd, near Indian Oil",Open ⋅ Closes 10 pm · 096650 48850,,
Power House Gym,Gyms,Nagpur,5+ years in business · 1442,Open ⋅ Closes 10 pm · 088550 61090,,
MB Fitness GYM,Gyms,Nagpur,"5+ years in business · Hingna Rd, near babbus restaurant",Open ⋅ Closes 11 pm · 099700 96063,,
IMPULSE GYM,Gyms,Nagpur,44GH+CC8,Open ⋅ Closes 10 pm · 095031 77274,,
Pohankar's Fitness Studios,Gyms,Nagpur,"5+ years in business · T-Point, Government Press Society, 57, near Ring Road",Open ⋅ Closes 10 pm · 083083 12111,,
360 Functional Fit,Gyms,Nagpur,"7+ years in business · 3A, Mecosabagh Rd",Open ⋅ Closes 11 pm · 099753 21300,,
Pulse on fitness,Gyms,Nagpur,"5+ years in business · Clark town,aanand sai marg,opp jay kranti society,kadbi square",Open ⋅ Closes 11 pm · 097305 79712,,
Fitness For Life - The Ladies Workout Studio,Gyms,Nagpur,"5+ years in business · pankaj trading company, Plot no 108, lane, beside maa bhagwati devi mandir",Open ⋅ Closes 9 pm · 086687 19453,,
Ace Fitness Studio,Gyms,Nagpur,"3+ years in business · 78, Manewada Rd",Open ⋅ Closes 9 pm · 080102 86821,,
Feel The Burn Fitness Nagpur,Gyms,Nagpur,"3+ years in business · Near Kamgar Kalyan Swimming Pool, Sakkardara Rd",Open ⋅ Closes 10 pm · 080877 49466,,
Fitness Garage,Gyms,Nagpur,5+ years in business · p.no 186 behind gurunanak bhavan kamal road ashok nagar,Open ⋅ Closes 10 pm · 089831 16487,,
Narayani FIT & ACTIVE Gym Nagpur,Gyms,Nagpur,"7+ years in business · 3rd & 4th Floor, Vimal Plaza, Plot No. 190, Central Ave, behind INOX Building",Open ⋅ Closes 10 pm,,
HIGH FITNESS GYM,Gyms,Nagpur,5+ years in business · 67,Open ⋅ Closes 10:30 pm · 073850 38383,,
AJJU'S GYM,Gyms,Nagpur,"7+ years in business · Plot no. 15, Gopal Nagar, Road",Open ⋅ Closes 10 pm · 098231 82020,,
NFS-NASRE'S FITNESS STUDIO,Gyms,Nagpur,"Plot Number 2, above Nasre Kirana Store",Open ⋅ Closes 10 pm,,
Avis Fitness Studio,Gyms,Nagpur,"Plot No 27 A Cement Road, beside Jogger Fitness Club",Open ⋅ Closes 11 pm · 090110 01666,,
DP's Fitness,Gyms,Nagpur,"3+ years in business · 57, behind chota tajbag",Open ⋅ Closes 10 pm,,
Fitness World Unisex Gym,Gyms,Nagpur,"3+ years in business · Nagpur, Maharashtra",Open ⋅ Closes 10 pm · 085529 49501,,
Fitlife Gym,Gyms,Nagpur,"5+ years in business · Opposite Paatidar samaj, near Great Nag Road, opposite to Paatidar Bhawan",Open ⋅ Closes 10 pm · 098345 88136,,
Nandanwar's Gym,Gyms,Nagpur,"7+ years in business · Mangalmurti Complex, Ring Rd, Opp. NIT Garden",Open ⋅ Closes 9:30 pm · 093250 08361,,
KRUNAL GYM FITNESS,Gyms,Nagpur,"5+ years in business · Plot No 40 A, Manewada - Besa Rd, near Bhavani Sabhagruha",Open ⋅ Closes 10:30 pm · 089833 99830,,
Mahabali's Fitness First,Gyms,Nagpur,7+ years in business · 3461/A5,Open ⋅ Closes 10 pm · 094221 48292,,
fitness Cyclone,Gyms,Nagpur,"3+ years in business · Byramji Town, Gondwana Sq",Open ⋅ Closes 10 pm · 097667 08910,,
Grunt Fitness,Gyms,Nagpur,ADBA Sports Complex,Open ⋅ Closes 10 pm,,
Pal Fitness,Gyms,Nagpur,"Suyog Nagar Square, p no 47/48 Saket nagar, behind TVS show room",Open ⋅ Closes 10 pm · 090283 80933,,
MARVEL FITNESS MANISH NAGAR BRANCH,Gyms,Nagpur,"Plot no 36, anand enclave, above mahindra first choice",Open ⋅ Closes 10 pm · 077091 71914,,
Fitzmax Fitness,Gyms,Nagpur,5+ years in business · behind Royal celebration,Open ⋅ Closes 10 pm,,
dev health club,Gyms,Nagpur,5+ years in business · 1985/A/103/C,Open ⋅ Closes 10 pm · 090493 35322,,
Kings Fitness Club,Gyms,Nagpur,7+ years in business · MSH 9,Open ⋅ Closes 10 pm,,
Joshi's Exclusive - The Fitness Park,Gyms,Nagpur,"20+ years in business · Plot No. 134, Sita Niwas, Dr, Balraj Marg",Open ⋅ Closes 9 pm · 093723 06180,,
Zumba Fitness Studio & Gym,Gyms,Nagpur,7+ years in business · above HDFC BANK,Open ⋅ Closes 8:30 pm · 094037 80518,,
NOTION FITNESS,Gyms,Nagpur,"House no - 191, Cement Road, near Venu Corner",Open ⋅ Closes 10 pm,,
Fitness DNA,Gyms,Nagpur,"3+ years in business · Block no.201, rawel plaza, above hdfc bank home loan office",Open ⋅ Closes 10:30 pm,,
Pumping Iron Gym,Gyms,Nagpur,7+ years in business · 5484+C3M Vithoba akhada,Open ⋅ Closes 11 pm · 093266 47897,,
J. D FITNESS,Gyms,Nagpur,"J D FITNESS, Great Nag Rd",Open ⋅ Closes 9 pm,,
360 CrossFit Gym,Gyms,Nagpur,5+ years in business · near NIT Complex,Open ⋅ Closes 10 pm · 070665 50360,,
Wellness Gym Nagpur,Gyms,Nagpur,Katol Rd,Open ⋅ Closes 10 pm,,
ABS Fitness,Gyms,Nagpur,10+ years in business · Ring Rd,Open ⋅ Closes 10 pm · 088884 53205,,
The fitness time gym,Gyms,Nagpur,"19, Godhani Road",Open ⋅ Closes 10 pm,,
MAHARANA FITNESS COURT,Gyms,Nagpur,"7+ years in business · 72, Rameshwari Rd",Open ⋅ Closes 10 pm,,
Barbarian Power Gym,Gyms,Nagpur,"3+ years in business · 1st Floor Ganga Kashi Mall Jagnade Square, Great Nag Rd",Open ⋅ Closes 10 pm · 098214 20509,,
Capital Health Club,Gyms,Nagpur,"7+ years in business · 27, Khamla Rd",Open ⋅ Closes 10 pm · 099234 31675,,
AJAZ FITNESS,Gyms,Nagpur,"3+ years in business · 2, Koradi Rd",Open ⋅ Closes 11 pm · 073858 65523,,
CrossXFit - CrossFit & MMA Gym,Gyms,Nagpur,"3rd Floor, Above Union Bank, near Batukbhai Jewellers",Open ⋅ Closes 9 pm,,
Focus Fitness,Gyms,Nagpur,5+ years in business · Gorewada Rd,Open ⋅ Closes 10 pm · 089836 15131,,
UC fitness unisex gym,Gyms,Nagpur,"3+ years in business · plot no. 34, 36",Open ⋅ Closes 11 pm,,
The Muscle Rider,Gyms,Nagpur,"L, 8/18, Ridge Rd, opp. NIT complex",Open ⋅ Closes 10 pm,,
Global Fitness Center(ladies gym),Gyms,Nagpur,5+ years in business · above Aashirvaad Provisions,Open ⋅ Closes 9 pm · 093731 26822,,
Aeon Fitness club,Gyms,Nagpur,"10+ years in business · Ankush-2, 405, model mill square, near Anandam city",Open ⋅ Closes 10 pm · 083790 12498,,
Winners Gym,Gyms,Nagpur,7+ years in business · Beltarodi Rd,Open ⋅ Closes 10 pm · 082080 43155,,
PB's Fitness Studio ( Nari Akhaada),Gyms,Nagpur,"7+ years in business · plot No 4, CMPDI Rd",Open ⋅ Closes 11:30 pm · 082085 59481,,
Addy's Fitness,Gyms,Nagpur,"5+ years in business · Plot no 92 , mahakali nagar",Open ⋅ Closes 11 pm · 095611 55328,,
MW gym,Gyms,Nagpur,"3+ years in business · 202, Amravati Rd",Open ⋅ Closes 8:30 pm,,
Akare fitness gym,Gyms,Nagpur,"7+ years in business · Nagpur, Maharashtra",Open ⋅ Closes 10 pm,,
Ajay Gym,Gyms,Nagpur,"7+ years in business · 135, Near Anil Golhar Hospital, Ramdaspeth",Open ⋅ Closes 10 pm · 097643 25013,,
Barbarian Gym,Gyms,Nagpur,10+ years in business · 5424+795,Open ⋅ Closes 10 pm,,
LALA- G Fitness Club,Gyms,Nagpur,3+ years in business · opposite Indora,Open ⋅ Closes 11:30 pm,,
Indian Iron Gym,Gyms,Nagpur,5+ years in business · 1325/A,Open ⋅ Closes 10 pm,,
Bhosale Gym,Gyms,Nagpur,7+ years in business · Plot no.13,Open 24 hours · 084211 11584,,
TFC (The Fitness Centre) - Best Gym in Nagpur,Gyms,Nagpur,"Jagat Tower, Amravati Rd, near Law College Square",Open ⋅ Closes 10 pm · 070205 95905,,
Officers club GYM,Gyms,Nagpur,5357+32Q,Open ⋅ Closes 10 pm,,
PULSE FITNESS UNISEX GYM,Gyms,Nagpur,"Nagpur, Maharashtra",Open ⋅ Closes 10 pm · 093253 45566,,
PULSE FITNESS UNISEX GYM,Gyms,Nagpur,"Nagpur, Maharashtra",Open ⋅ Closes 10 pm · 093253 45566,,
Red Iron Gym,Gyms,Nagpur,"7+ years in business · Nagpur, Maharashtra",· 092700 50024,,
The Extreme Fitness,Gyms,Nagpur,"5+ years in business · first railway gate, diwate bhawan, Panchpaoli Rd",· 093252 30968,,
Shape-In Gym Fitness Center,Gyms,Nagpur,"15+ years in business · 1st Floor, Upstairs To Punjab National Bank, 506, Nandanvan Main Rd, above Punjab national ban",Open 24 hours,,
FITNESS ADDA The Family Gym,Gyms,Nagpur,"Pothi Ln, near Hanuman Mandir",Open ⋅ Closes 11 pm,,
Flex Fitness Gym,Gyms,Nagpur,Hudkeshwar Rd,Open ⋅ Closes 11 pm · 096651 45564,,
FIT & FAB FITNESS STUDIO,Gyms,Nagpur,"9, Old, near Mateshwari Bichyat Kendra",Open ⋅ Closes 8 pm · 095112 24573,,
Kunda Ladies Fitness Centre,Gyms,Nagpur,"5+ years in business · 15, Godhani Road",Open ⋅ Closes 9:30 pm · 095791 71117,,
FIT HER- Women's Fitness Club,Gyms,Nagpur,"3+ years in business · 3rd Floor, Plot no. 221, Ring Rd, above Balaji Daily needs, opposite ICICI Bank",Open ⋅ Closes 9 pm · 094221 07048,,
The Fitness Park,Gyms,Nagpur,"7+ years in business · Plot # 13, Central Excise Colony, Chattrapati Square, Opp. Snehnagar petrol, pump",Open ⋅ Closes 10 pm · 084465 36031,,
RELOAD FITNESS,Gyms,Nagpur,3+ years in business · W High Ct Rd,Open ⋅ Closes 10 pm · 082083 25396,,
Neofit,Gyms,Nagpur,"5+ years in business · 3rd Floor, Laxmi Krupa, Plot No. 221, N Bazar Rd, above Spot 9",Open ⋅ Closes 10 pm · 086000 01246,,
workout gym,Gyms,Nagpur,"10+ years in business · Swawlambi Nagar, Ring Rd, opposite Padole Hospital",Open ⋅ Closes 10 pm,,
Raw Fitness Gym,Gyms,Nagpur,"Plot No 9, opp. Mahakalkar Celebration Hall",Open ⋅ Closes 10 pm,,
Embassy Fitness Club,Gyms,Nagpur,"3+ years in business · Nara Rd, opposite Canara Bank",086687 43868,,
FitArt - The Fitness App,Gyms,Nagpur,"3+ years in business · 209, F/6, Dharampeth Towers, W High Ct Rd",Open ⋅ Closes 8 pm · 080070 55055,,
THE MUSCLE FACTORY GYM,Gyms,Nagpur,"THE MUSCLE FACTORY GYM, below NIRMAN RESIDENCY",Open ⋅ Closes 11:30 pm,,
The Future Point Gym,Gyms,Nagpur,"Uday Nagar Rd, near Lucky Chikan",,,
Pranalz Fitness Club,Gyms,Nagpur,"53PR+9V5, Nara Rd",099221 33411,,
PROCRUNCH TRAINING ACADEMY,Gyms,Nagpur,"3+ years in business · Shewalkar Arcades Above Patanjali 3rd floor Laxmi bhavan square, W High Ct Rd",Open ⋅ Closes 10 pm,,
OLD SCHOOL GYM,Gyms,Nagpur,"Central Ave, opposite Darshan tower hotel, near afsa traders",Open ⋅ Closes 10 pm · 072767 35368,,
Fitness Revolution,Gyms,Nagpur,"Wasim place, near Sanjubha Highschool, opposite Water Tank",Open ⋅ Closes 10 pm,,
Spartans GYM,Gyms,Nagpur,"7+ years in business · Sarvoday Plaza, gate, opposite Mominpura, in front of mb convent",Open ⋅ Closes 1 am · 087934 19802,,
Paramount GYM,Gyms,Nagpur,"5+ years in business · Nagpur, Maharashtra",Open ⋅ Closes 10 pm,,
Sky Fitness,Gyms,Nagpur,460,,,
Trinity Fitness Club,Gyms,Nagpur,53XM+5Q7,Open ⋅ Closes 10 pm,,
Fitness training,Gyms,Nagpur,7+ years in business · 295,Open 24 hours,,
Xpose Fitness,Gyms,Nagpur,"3+ years in business · First floor hitesh sankul, Jaripatka Police Station Rd",Open ⋅ Closes 11 pm · 070203 41005,,
Rituals Gym,Gyms,Nagpur,"Patrakar Club, 64, opposite Institute of Science",Open ⋅ Closes 11 pm,,
Galaxy gym,Gyms,Nagpur,Nawabpura Rd,Open 24 hours · 098346 42006,,
Being fitness,Gyms,Nagpur,"44R3+PHG, New Shukrawari Rd",Open ⋅ Closes 11 pm,,
DNC college Gym,Gyms,Nagpur,43HJ+PGH,Open ⋅ Closes 9:30 pm,,
Sausthav Gym,Gyms,Nagpur,7+ years in business · 150,Open ⋅ Closes 10:30 pm · 0712 224 2615,,
ASHROH'S ZUMBA FITNESS,Gyms,Nagpur,"3+ years in business · MSEB colony ground, 374 d",Open ⋅ Closes 8 pm,,
Power Zone Gym,Gyms,Nagpur,7+ years in business · 54C3+2H6,· 099234 68549,,
Fitness courtyard,Gyms,Nagpur,"3+ years in business · Nagpur, Maharashtra",Open ⋅ Closes 11 pm · 097667 36612,,
Fitness First Health Center,Gyms,Nagpur,7+ years in business · limsay building road,Open ⋅ Closes 8 pm · 098224 61851,,
Corenergy Fittness,Gyms,Nagpur,"2nd Floor Above Carewell Physiotherapy and Fitness Clinic 51, Vijay Nagar Rd, Chhaoni Rd",Open ⋅ Closes 8:30 pm,,
Sports iungo (Promarc Sports & Fitness Pvt Ltd),Gyms,Nagpur,"Plot no, 57, Central Bazar Road",· 099224 30925,,
Avenger Hi Power Gym,Gyms,Nagpur,10+ years in business · near Chitanvispura Police Chowki,,,
Power Station Gym,Gyms,Nagpur,59,· 072761 20663,,
MUSCLE UP FITNESS,Gyms,Nagpur,"5578+P6H, Bharat wada square, Near MR Lawn Jam nagar krushna kamal colony",Open ⋅ Closes 10 pm,,
New Ladies Health Club,Gyms,Nagpur,"7+ years in business · Plot No, 3/A, Medical College Rd",Open ⋅ Closes 7:30 pm · 090280 58497,,
"Ludus Sports & Fitness ,Ram Nagar",Gyms,Nagpur,"plot no 7, CKP hall, beside Madrasi Temple",Open ⋅ Closes 8 pm · 095189 86917,,
FITNESS STUDIO BY RAFI,Gyms,Nagpur,"IBM road, opposite badi masjid",Open ⋅ Closes 11 pm,,
Rome Fitness Center,Gyms,Nagpur,"Zal Complex, 3rd Floor, Residency Rd, opp. SFS School, above Bharat Stores",· 088881 55696,,
Barracks The Gym,Gyms,Nagpur,"Patrakar Club, 64, opposite Institute of Science",· 092840 52415,,
Dr. Neena's physio to fitness,Gyms,Nagpur,"3+ years in business · Fourth Floor, Shyam Arcade, Gangabai Ghat Rd, opp. Ajmera Tyres",,,
Unique Sales -Dealer of Powermax Fitness,Gyms,Nagpur,"Dhanshri Complex, UNIQUE SALES Shop no 31, 1st Floor, near Hotel Hardeo",Open ⋅ Closes 8 pm · 093263 49918,,
HBT Wellness Center,Gyms,Nagpur,"5+ years in business · Shop No. 10,Opp. Ahbab Community Hall, Square",Open ⋅ Closes 9 pm,,
Friends fitness club,Gyms,Nagpur,"R T COMPLEX, WADDHAMNA, Amravati Rd",Open ⋅ Closes 9 pm · 084848 05154,,
S.S.MUDALIAR THE FAMILY FITNESS CENTRE,Gyms,Nagpur,"5+ years in business · Metro Station, Gaddigodam square Kasturi building, opposite Gaddigodam",Open ⋅ Closes 9:30 pm · 098902 99361,,
Rooftop Fitness Club,Gyms,Nagpur,"plot no-62, 5th floor, k.b. chambers, south, Canal Rd Gokulpeth",· 088302 48449,,
Trinity CrossFit Station Unisex Gym,Gyms,Nagpur,"Sai Galaxy, Gita Nagar, Beside Krushi Mahavidyalay Fharas Chock, Zingabai Takli",,,
Western gym mahal,Gyms,Nagpur,"3+ years in business · 44W5+XG2, Pandit Bachharaj Vyas Square",,,
Sweat Fitness,Gyms,Nagpur,4B,,,
U turn fitness center,Gyms,Nagpur,Dayanand Park Rd,,,
GREEN GYM MISSION,Gyms,Nagpur,"Vidhrbha Premier Building No.3 Flat No.303 Gandhi Sagar, Lake Road",· 082757 76525,,
Harsh Fitness Gym,Gyms,Nagpur,54CC+4Q3,· 099234 45859,,
Dzone Dance & Fitness Studio By Deepti Gogiya,Gyms,Nagpur,3+ years in business · 14,,,
Avi's Fitness Studio,Gyms,Nagpur,"Heera Balaji Tower, Pragati Society, Plot no. 7",Open ⋅ Closes 11 pm · 093700 00888,,
CREATance Dance & Fitness Studio,Gyms,Nagpur,"1st Floor, of Radhey Celebrations, Kolte Layout, Godhani Road",Open ⋅ Closes 9 pm · 093246 07759,,
Jd Fitness Studio,Gyms,Nagpur,"Plot No 4, Nag Raod, Nandanvan Main Rd, near SD Hospital",089754 74321,,
Gyms,Gyms,Nagpur,43WQ+87C,Temporarily closed,,
The Crossone Fitness (CROSSFIT BOX),Gyms,Thane,"7+ years in business · The Crossone fitness, Guru Niwas bldg, Teen Hath Naka Flyover, near Forest Office, off Lal Bahadur Shastri Marg",Open ⋅ Closes 10 pm · 096990 98618,,
"Dare 2 Fit - Available on cult.fit - Gyms in Thane west, Mumbai",Gyms,Thane,"Unit no.3B, 27 Acre, Kothari Compound, opposite Tikkujiniwadi, Road, opp. Tikuji Ni Wadi Road",Open ⋅ Closes 10 pm · 089286 36886,,
V Fitness - Available on Cult.fit | Gyms in Thane,Gyms,Thane,"7+ years in business · VFITNESS, 1st Floor, Vineeta Building, Gokhale Rd, near Malhar Talkies, opp. Vodafone Gallery",· 086898 81111,,
Fun And Fit Gym in Thane,Gyms,Thane,"15+ years in business · B/1, Agrasen Tower Oppsite Fishland Hotel, Comrade Rajaram Vishnu Rawool Marg",Open ⋅ Closes 10 pm · 095942 91976,,
"Body Fitness Zone, Thane West",Gyms,Thane,"5+ years in business · Mari aai Nagar shop no1,kolshet uppar village, Kolshet Rd, near kalpeshwara pinnacle Gloria",Open ⋅ Closes 10:30 pm · 098200 11463,,
Xzert Fitness Club,Gyms,Thane,"Besides Horizon Prime Hospital, Vibgyor, 3rd floor, Patlipada, Ghodbunder Rd, near Hiranandani Estate",Open ⋅ Closes 11 pm · 080808 80064,,
The Alpha Gym And Fitness Centre Thane,Gyms,Thane,"Unit no.3B, 27 Acre Kothari compound, opp. Tikuji ni wadi",Open ⋅ Closes 10:30 pm · 082913 30074,,
Muscle Build Fitness,Gyms,Thane,"5+ years in business · shop no. 2, ESIC Hospital Rd, above maharashtra plywood",Open ⋅ Closes 10:30 pm · 077188 29875,,
Gold's Gym,Gyms,Thane,"7+ years in business · 103, Gaurangi Chamber, Lal Bahadur Shastri Marg, opp. Damani Estate",Open ⋅ Closes 10:30 pm · 077188 69999,,
"T-Rex Fitness Factory Ghod bunder Road-Thane - Your Gym, Your Fitness",Gyms,Thane,"7+ years in business · 22, Bhimashankar Building",Open ⋅ Closes 10 pm · 098335 25050,,
1 Life Gym,Gyms,Thane,"3+ years in business · Grd flr, Ramchandra Nagar, Near Swastik Park Bus Stand, Nxt to Rainbow School",Open ⋅ Closes 11 pm · 098922 81818,,
B Fit 24 Fitness,Gyms,Thane,"5+ years in business · 5th Floor, Teejadeep Mall, Lal Bahadur Shastri Marg, near Vikas Complex",Open ⋅ Closes 11:30 pm · 086573 00153,,
V.S. World Fitness,Gyms,Thane,"7+ years in business · Shop No. 3, Taskar House, Ram Maruti Rd",Open ⋅ Closes 10 pm · 084549 33543,,
Evolution Fitness Thane,Gyms,Thane,"Vartak Nagar, Shree Vinayak Co.So. 5/38 M.H.B. Colony, Vartak Nagar Police Station Rd, near Vithhal Mandir",Open ⋅ Closes 11 pm,,
"Josh Gym, ultimate fitness culture",Gyms,Thane,"20+ years in business · 6W6X+5GF, Shivganga Apt, Sai Mandir Rd",Open ⋅ Closes 11 pm · 098335 73353,,
Body Muscle Gym,Gyms,Thane,"Vardhman Industrial Complex, Unit number 206 , 2 floor, near visava hotel, opp. gokul nagar",Open ⋅ Closes 11 pm · 098194 56240,,
Reps & Sets - Route To Fitness,Gyms,Thane,"5+ years in business · Premises No.5, Ground Floor, Shreeji Arcade, opp. Nitin Company",Open ⋅ Closes 11 pm · 077108 74679,,
Avengers Fitness Club(Gym),Gyms,Thane,"5+ years in business · Shop No. 2, Gate, Pokharan Rd Number 1, opp. Bhukendra Bus Stop, near yeoor Hills",Open ⋅ Closes 10:45 pm · 086554 49988,,
OZONE gym,Gyms,Thane,"10+ years in business · Achalkuti Society, Mahatma Gandhi Rd",Open ⋅ Closes 10 pm,,
Fitness Empire,Gyms,Thane,"3+ years in business · Manorama Nagar Rd, opposite state bank of India",Open ⋅ Closes 10:30 pm · 097733 29211,,
AIM FITNESS STUDIO,Gyms,Thane,"5+ years in business · Ground Floor, Apartment, Pujari House, behind Om Aditya, near Kaushalya Hospital",Open ⋅ Closes 10:30 pm · 077384 54545,,
Red Gym,Gyms,Thane,"7+ years in business · Cecelia House, Dr Moose Marg, opp. Gadkari Rangayatan",Open ⋅ Closes 10 pm · 022 2536 8000,,
The Fitness Factory,Gyms,Thane,"5+ years in business · Lal Bahadur Shastri Marg, nr. Mulund Thane Checknaka, near TIPTOP PLAZA",Open 24 hours · 091670 03762,,
Epic Gym Zone,Gyms,Thane,"5+ years in business · Balaji nivas, Old Bombay Rd, next to biryani darbar",Open ⋅ Closes 11 pm · 088988 51094,,
The Fit Factory Gym,Gyms,Thane,7+ years in business · shop no. 41 Kalpataru industrial estate near sbj school behind R mall,Open ⋅ Closes 11 pm · 080807 22234,,
Meeras Fitness Centre,Gyms,Thane,7+ years in business · Maharashtra,Open ⋅ Closes 10 pm · 098338 33859,,
The Krunch Fitness,Gyms,Thane,"7+ years in business · Gala No. 2 & 3, 1st Floor, Prathmesh Hills Building, Kolshet Rd",Open ⋅ Closes 10 pm · 097699 51035,,
Falcon Body Temple,Gyms,Thane,7+ years in business · Shahid Mangal Pandey Rd,Open ⋅ Closes 10:30 pm · 097736 89997,,
ELITE GYM,Gyms,Thane,"3+ years in business · Shop No. 4/5, 1st Floor, Hill Spring, Ghodbunder Rd",Open ⋅ Closes 11 pm · 090293 07095,,
Shape Your Body gym & fitness center,Gyms,Thane,"5+ years in business · Shop keeper socitey, shop no. 02, nr gouras gruh sweet mart, Sai Baba Mandir Rd",Open ⋅ Closes 10 pm,,
Vitality Fitness,Gyms,Thane,"1st floor, Rosa Vista, Ghodbunder Rd, opposite Suraj Water Park",Open ⋅ Closes 11 pm · 097698 24247,,
R FITNESS OLD SCHOOL,Gyms,Thane,"Purnima apartment 1st floor opposite to Babu Bhai petrol pump thane w),near MTNL office",Open ⋅ Closes 10:30 pm · 091366 00406,,
Empire Fitness Centre,Gyms,Thane,Ghantali rang manch sansthan building Near ghantali maidan,Open ⋅ Closes 11 pm · 086558 66033,,
Fitness League Gym Thane,Gyms,Thane,"Vrindavan Society, Ground floor MadhuMilind society, opposite 75 and Rustomjee building",Open ⋅ Closes 10 pm,,
Fitness Culture Gym,Gyms,Thane,"5+ years in business · 402 &403, 4th floor, Cosmos Jewels, Ghodbunder Rd, beside D-Mart",Open ⋅ Closes 11 pm · 098332 28445,,
Machineless Workout Thane,Gyms,Thane,"5+ years in business · Shop No 1, Sunil Niwas blgd, OPP Balkum Fire Brigade n petrol pump, besides Cha Besides Chabhaiya society, Balkum Rd",Open ⋅ Closes 10 pm · 091677 37571,,
Talwalkars,Gyms,Thane,"7+ years in business · Off No. 2, Chestnut Plaza Shopping Centre Garden Estate Pokhran Road, Opp, Eden Road",Open ⋅ Closes 9 pm,,
Versatile Fitness,Gyms,Thane,"5+ years in business · institute, Central Railway, opposite platform no 1",Open ⋅ Closes 10 pm · 097687 59888,,
90 degree fitness centre,Gyms,Thane,10+ years in business · Nilkant tower basement Opp Ranka Jewellers ram maruti road Thane West 400602 Thame,Open ⋅ Closes 10 pm · 082688 81567,,
Warrior Raw Fitness Gym,Gyms,Thane,"Near Vrindavan society ,Near Shivsena Shakha, (2) Rabodi",Open ⋅ Closes 11:30 pm · 083692 82810,,
R360,Gyms,Thane,"3+ years in business · 2nd Floor, Unique Commercial Complex Above McDonald's, Patlipada Village",Open ⋅ Closes 11 pm · 098043 60360,,
Bull Neck Fitness(thane),Gyms,Thane,"7+ years in business · Wing-A11, 2",Open ⋅ Closes 10 pm,,
"Cult Thane, Ghodbunder Road, Mumbai",Gyms,Thane,"2nd Floor, DOSTI IMPERIA, S2-16, Ghodbunder Rd, above MG Motors India",Open ⋅ Closes 10 pm · 099164 74983,,
Universal Fitness Hub,Gyms,Thane,"Bungalow no.6, Old Mhada, Swami Vivekanand nagar, opposite Ganesh Krupa Society",Open ⋅ Closes 12 am · 099209 95588,,
Gravity Fitness,Gyms,Thane,"10+ years in business · Shop No.1-10, Ground Floor, Crown Building, MH SH 42",Open ⋅ Closes 11 pm · 022 2586 1818,,
Kartik Fitness World,Gyms,Thane,"7+ years in business · Cordelia House Ground Floor, D""Souza Wadi Near Lawrence Church ,Wagle Estate Thane (W",Open ⋅ Closes 10 pm · 086550 05929,,
Maruti Gym,Gyms,Thane,"7+ years in business · aishankar Restaurant & Bar, Fataka Galli, Market, near Deepak Lassi House",Open ⋅ Closes 10:30 pm · 070399 54244,,
Torque Fitness - Vrindavan,Gyms,Thane,"Shop No. 1-4, Sadguru Elegance, Waman Tare Road, behind Rutu Park",Open ⋅ Closes 10:30 pm · 085913 84411,,
Abs Studio,Gyms,Thane,"5+ years in business · C 16, Uttung building, opp TMC school no 19 Vishnu nagar, near to gajanan vada pav",Open ⋅ Closes 10:30 pm · 080822 39595,,
Nitrro Redefining Fitness,Gyms,Thane,"15+ years in business · Flower Valley Complex, Eastern Express Hwy, opposite Viviana Mall",Open ⋅ Closes 10:30 pm · 022 2547 9999,,
Fitness Factory,Gyms,Thane,"3+ years in business · Office no.103, 1st floor, Deep Kiran CHS, Chikla Devi road",Open ⋅ Closes 10:30 pm · 091367 40987,,
The Squad Fitness,Gyms,Thane,"3+ years in business · Acme Ozone Phase 2, Agarwal Arcade, Khewra Cir Marg, Opposite Ashwood Building",Open ⋅ Closes 10 pm · 096191 00568,,
Zero-4 Fitness,Gyms,Thane,"Ground Floor, Pushpakiran Building, society, opp. Gokul Nagar, nr. Union Bank",Open ⋅ Closes 11 pm · 099877 58327,,
Muscle monster gym,Gyms,Thane,"3+ years in business · 10,11,12,13, panchamrut society, waghbil, near suraj water park",Open ⋅ Closes 11 pm · 079000 17766,,
Raw Gym - Where Calisthenics meets Yoga,Gyms,Thane,"Room No. 10, 2nd Floor, Mangla Banquet Hall, Mangla School Building, Near, Thane Station Rd",Open ⋅ Closes 10 pm · 088988 59488,,
The Krunch fitness,Gyms,Thane,6XCG+CWH,Open ⋅ Closes 12 am,,
Pawar Fitnes Unisex Gym,Gyms,Thane,"Rd Number 27, opposite of Saibaba Temple",Open ⋅ Closes 11 pm · 091445 79999,,
PHM Fitness & Spa,Gyms,Thane,"Lalani Residency, 1st Floor, A wing, Ghodbunder Rd",Open ⋅ Closes 10 pm · 070459 15203,,
JK Fitness Center,Gyms,Thane,"5+ years in business · 89, Rd Number 22",Open ⋅ Closes 11:30 pm,,
FOR LIFE FITNESS THANE,Gyms,Thane,"Cosmos Heritage, Complex, Tikuji Ni Wadi Rd",Open ⋅ Closes 11 pm · 084510 63290,,
EMARSUN FAMILY GYM,Gyms,Thane,"Emarsun Unisex Gym, near Manpasand Sweets & Ganesh Hospital",Open ⋅ Closes 11 pm · 086521 83182,,
Body Garage Gym,Gyms,Thane,7+ years in business · Devashree Garden Next To Sheetal Dairy Majiwada,,,
Core 04 Gym in Thane,Gyms,Thane,"Shop no.1, Rosa Vista Annex, opp. Suraj Water Park",Open ⋅ Closes 10:30 pm,,
Energyia fitness centre,Gyms,Thane,"Eden super market, Besides, opp. TMC Garden",Open ⋅ Closes 11 pm · 093205 53553,,
Talwalkars thane,Gyms,Thane,"30+ years in business · Raj Mahal, ravi compound, aradhana theatre lane",Open ⋅ Closes 9:30 pm · 022 2536 6736,,
Performance Enhancement Fitness Academy,Gyms,Thane,"5+ years in business · Raise Gym Panama Planet Opp Amruta, Gokhale Rd, near Bharat and Axis Bank",Open ⋅ Closes 9 pm · 074003 25546,,
The Gym Fitness Center,Gyms,Thane,"Mumbai, Maharashtra",Open ⋅ Closes 10:30 pm,,
Alpha Premium Fitness Centre,Gyms,Thane,"5+ years in business · 3rd floor, The Visava, Gokul Nagar, Maji wada",Open ⋅ Closes 10 pm,,
MONSTER FACTORY GYM,Gyms,Thane,"3+ years in business · Monster Factory Gym, SG Barve Rd, near Maharashtra bank, opp. Opal square",Open ⋅ Closes 10 pm,,
THE GYM TIGER FITNESS,Gyms,Thane,Kamgar Hospital Rd,Open ⋅ Closes 11:30 pm,,
Fitness And Finesse,Gyms,Thane,"3+ years in business · Shop no 2, Jay vasant society, near Subway, opp. Anupam Society",Open ⋅ Closes 10 pm · 079777 76597,,
RK FITNESS ZONE,Gyms,Thane,"3+ years in business · 1st floor, Road No. 33, above Pragati Hospital",· 088280 28810,,
Anand fitness centre kolbad,Gyms,Thane,"ground, Veer savarkar, Comrade Rajaram Vishnu Rawool Marg, opp. Pratap cinema",Open ⋅ Closes 10 pm,,
"Fitness Wynk Studio - Crossfit, MMA & Functional training Gym",Gyms,Thane,"5+ years in business · 7/7, Vijay Garden, Jasmine CHS LTD, Ghodbunder Rd",Open ⋅ Closes 10 pm · 089281 28935,,
Pulse Fitness and Spa,Gyms,Thane,"7+ years in business · Vishramgiri Society, Ground Floor Sector 6, next to Ayyappa Temple",Open ⋅ Closes 10 pm · 099675 57929,,
E-FITTNESS & BEYOOND (Sheetaal Pa Sawnt),Gyms,Thane,"3+ years in business · Rustomjee urbania, Rustomjee Urbania",· 099876 45673,,
The Squad Fitness,Gyms,Thane,"203, 2nd Floor, Rutu Business Park, A wing",Open ⋅ Closes 10 pm,,
The Xtreme Fitness Gym,Gyms,Thane,"ground near ganesh, jainath",Open ⋅ Closes 11 pm,,
FITGOD'S GYM,Gyms,Thane,"Gautam Arcade Cooperative Housing Society, Harishchandra Raut Marg, opp. Shubhdum Chinese Centre",Open ⋅ Closes 11 pm · 084258 47507,,
BRUTE MMA & Fitness,Gyms,Thane,"5+ years in business · 3rd Floor, S K Tower, Hariniwas Cir, above SRL Diagnostics",Open ⋅ Closes 10:30 pm · 070399 95226,,
Javelin The Fitness House,Gyms,Thane,"10+ years in business · Dhobi ali ,agar lane,shop no.5 dharmveer housing CO.society,, Ground Floor ,Tembhi Naka",Open ⋅ Closes 11:30 pm,,
CrossFit Fitness Adda Thane-EFTA,Gyms,Thane,"2nd Floor, above Akshay Fitofusion, opp. St. John School Gate",Open ⋅ Closes 8 pm · 090046 61104,,
Sankalp Body Fitness,Gyms,Thane,"7+ years in business · 5XQ3+933, Shivaji Nagar Rd, near Meenatai Thakse Hospital",Open ⋅ Closes 11 pm · 097027 10546,,
"T-Rex Fitness Factory Kalwa - Your Gym, Your Fitness",Gyms,Thane,3RD & 4TH FLR MILESTONE CORPORATE PARK DUTTA WADI Old Pune Rd,Open ⋅ Closes 10:30 pm,,
Dad's Gym,Gyms,Thane,"5+ years in business · BLOCK-13, SHREE SAI ADARSH CHS, X-10A",Open ⋅ Closes 10 pm · 098330 70677,,
Aim Fitness,Gyms,Thane,"Aim Fitness (W, Infront of TMC School",Open ⋅ Closes 11 pm,,
Ozone Gym,Gyms,Thane,"15+ years in business · shop 1, gupta compound, Shahid Mangal Pandey Rd, behind bakers pride bakery",Open ⋅ Closes 10 pm · 090045 59991,,
BodySculpt The Fitness Studio,Gyms,Thane,"3+ years in business · 6X53+5XC, above Ambaji Medical",Open ⋅ Closes 11 pm · 075068 17272,,
The Field,Gyms,Thane,"1st and 2nd floor, Keshav heights, 90 Feet Rd",Open ⋅ Closes 11:30 pm · 086573 34499,,
DHARMAVEER FITNESS (धर्मवीर जिम),Gyms,Thane,"5+ years in business · Dharamveer Fitness gym building Ganpat Jairam Kharkar Alley Marg, opp. Chitre Tower, nr. N.K.T College",Open ⋅ Closes 10 pm · 074001 38358,,
BodyZone Gym,Gyms,Thane,"10+ years in business · 6XXG+PF2, Rutu Estate Internal Roads",Open ⋅ Closes 11 pm · 092323 23232,,
BRUTE MMA & Fitness,Gyms,Thane,"House No 677, Block No 93, opp. Oscar Hospital",Open ⋅ Closes 10:30 pm · 070399 95212,,
Get Fit With Ganesh Singh,Gyms,Thane,"3+ years in business · 704/ Nandini, Kores Towers",Open ⋅ Closes 8:30 pm,,
AVDHUT HEALTH CENTRE (Unisex),Gyms,Thane,"15+ years in business · Ramdas Apartment, Thane - Belapur Rd",Open ⋅ Closes 10 pm · 098204 02605,,
IFSI Fitness Academy,Gyms,Thane,"5+ years in business · 2nd Floor, 'A' Wing, Shiv Tower, Khopat Rd, above Lifeline Hospital",Open ⋅ Closes 10 pm · 080101 89189,,
OSAAT Fitness,Gyms,Thane,"Sh. No. 16, Ground Floor, Niharika Shopping Complex Near Hiranandani Medows, Pokharan Road No. 2, Thane, Maharashtra 400604",Open ⋅ Closes 9 pm,,
90 degree gym,Gyms,Thane,"5+ years in business · 5XR5+6H2, Rd Number 9",Open ⋅ Closes 10 pm,,
Abhijeet Fitness,Gyms,Thane,"5+ years in business · Room No 904, K Wing, Bhoomi Acres Phase 2",Open ⋅ Closes 10 pm · 090826 57679,,
Samatva fitness studio,Gyms,Thane,"3rd floor, Malhar talkies, Gokhale Rd, above Kohinoor electronics",Open ⋅ Closes 9 pm · 098398 33040,,
Mavi's Gymnasium,Gyms,Thane,"10+ years in business · 5WRW+9F4, Sree Nagar Rd",Open ⋅ Closes 9 pm · 022 2582 3981,,
Uday Gym,Gyms,Thane,5+ years in business · opp. to Hiradevi Mandir,Open ⋅ Closes 10 pm,,
Apollo Gym,Gyms,Thane,"7+ years in business · 2, Cheulkar Rd",Open ⋅ Closes 10 pm · 022 2539 0125,,
Fitgrit Fitness And Brekfast Studio,Gyms,Thane,"5+ years in business · Shop No 17, Dosti Imperia, 1, MH SH 42",,,
Decode Fitness - Codify Your Strength,Gyms,Thane,"Shop No.6, Monalisa, Near, Hariniwas Cir",Open ⋅ Closes 11 pm,,
Azhar Fitness Center,Gyms,Thane,"5+ years in business · AFC GYM, Bhima Venu Apartment, A /3",Open ⋅ Closes 12 am · 088797 41232,,
Hybrid sports performance centre,Gyms,Thane,"b5 acre, 6XQF+5F8 Kothari Compound",Open ⋅ Closes 9:30 pm,,
STAY FIT STAY HIT Fitness Centre,Gyms,Thane,"03, B wing, Ganraj apt, Thane Belapur road, Kalwa",Open ⋅ Closes 10 pm · 093245 85497,,
SS Fitness Training Institute,Gyms,Thane,"Shop No 9, Shree Ram Sadan, opp. Tbz Jewellers",,,
Vulkn Group Fitness,Gyms,Thane,"Urban Sports Turf , Upvan Lake",Open 24 hours · 086575 70391,,
Body Fit Gym,Gyms,Thane,"7+ years in business · w, Manisha Nagar Gate No. 3, opp. Raj hans Bunglow",Open ⋅ Closes 10 pm · 097686 32553,,
Torque Fitness - Dhokali,Gyms,Thane,"Shop no.10, Kalptaru industrial estate, behind R Mall",Open ⋅ Closes 11 pm · 093260 89236,,
Fitness transformation,Gyms,Thane,Lodha Splendora,Open 24 hours · 097689 06119,,
Body Art,Gyms,Thane,"5+ years in business · 6X67+7PX, Jekegram, Pokharan Rd Number 1, Near Singhania School",Open ⋅ Closes 8 pm · 075062 25981,,
Riyansh Fitness Centre,Gyms,Thane,"Sachinam, Almeda Rd",Open ⋅ Closes 10:30 pm,,
Akshay's FitOfusion,Gyms,Thane,"Akshays Fitofusion, Row House 3, Old Bombay Road Opp St John the Baptist School",Open ⋅ Closes 10 pm · 085911 04402,,
The Club04 Gym And Salon,Gyms,Thane,"PURANIK CITY, Ground Plus, One Floor ADMS, Ghodbunder Rd",Open ⋅ Closes 10:30 pm,,
Nitrro Sport & Fitness Center,Gyms,Thane,"10+ years in business · Swantraveer Sawarkar Taran Taloa, Behind Kanhaiyya Nagar, Kopri, Thane East, opposite Kaya",Open ⋅ Closes 10 pm · 091670 52568,,
Jai Bharat Gym,Gyms,Thane,"10+ years in business · 5XVR+5C7, SC Bose Rd",Open ⋅ Closes 10 pm,,
Chhatrapati Shivaji Gym,Gyms,Thane,"7+ years in business · 2, Mahatma Phule Nagar Rd",Open ⋅ Closes 8 pm,,
Muscle Munch Gym,Gyms,Thane,Ground floor Gurukrupa complex Siddhivinayak gate,Open ⋅ Closes 11 pm,,
"The Workout Zone, Unisex Gym",Gyms,Thane,"Chaphekar Compund, Budhaji Nagar Rd, beside TMT depot",Open ⋅ Closes 10 pm,,
Power Zone Fitness,Gyms,Thane,"Ganesh Krupa Building, Sabe Rd",Open ⋅ Closes 10:30 pm · 077770 73791,,
FitCoach Meghna,Gyms,Thane,"5+ years in business · Thane, Maharashtra",Open 24 hours,,
Power Yoga Classes,Gyms,Thane,"7+ years in business · Pure fitness studio ,sector 1 plot 23, 400604, Sector 1, Sree Nagar Rd, behind Shivani hospital",Open ⋅ Closes 9:30 pm · 099204 51076,,
RFIT,Gyms,Thane,"Thane, Maharashtra",Open ⋅ Closes 10 pm,,
18 HOUR FITNESS,Gyms,Thane,"5+ years in business · SHOP NO 4,5 AMIR APT, next to NOORANI RESTAURANT",Open ⋅ Closes 12:30 am,,
Body Shape Fitness Gym,Gyms,Thane,"7+ years in business · Noori Baug, Rehnuma Complex, 458, Mumbai - Pune Rd, opp. Sanjay Nagar",Open ⋅ Closes 11 pm · 092221 02597,,
Dadoji konddev Gym & Fitness Center,Gyms,Thane,"3+ years in business · 5XRH+JW8, Fire Brigade Rd",,,
Fit Adda,Gyms,Thane,"3+ years in business · Shop No. 16, Asha Society, Opp Geeta Society, Edulji Rd",Open ⋅ Closes 10:30 pm · 088798 57111,,
Fit & Flex Gym,Gyms,Thane,"Thane, Maharashtra",Open ⋅ Closes 11 pm · 096196 96667,,
Rabodi Gym,Gyms,Thane,10+ years in business · 6X4P+34G,Open ⋅ Closes 9 pm,,
GET FIT FITNESS STUDIO,Gyms,Thane,"5+ years in business · Shop no-8 , first floor, Sonu aai arcade bldg, above Shree Medical",Open ⋅ Closes 9 pm,,
Lime Light Gym,Gyms,Thane,"7+ years in business · 5WVV+42F, Shantinagar Rd",· 095948 42106,,
ADARSH GYM AND FITNESS CENTER,Gyms,Thane,"20+ years in business · 2nd Floor, center, Railway Reservation Centre, TMC School",Open ⋅ Closes 9 pm,,
RN Dance and fitness,Gyms,Thane,"Mumbai, Maharashtra",Open ⋅ Closes 10 pm · 087798 65600,,
Hardcore Fitness (Gym),Gyms,Thane,"7+ years in business · Phase 2, opp. swami krupa w 400607, Kolshet Rd",Open ⋅ Closes 10:15 pm,,
PrathamFit | CrossFit & Personal Training Studio | Nutrition Hub | Thane,Gyms,Thane,"7+ years in business · Gr. Floor, MH High School, Shivaji Path",Open ⋅ Closes 10 pm · 095941 14582,,
Fit4You Fitness Studio,Gyms,Thane,"Shop No 3, Anunagar Waghbil Thane",Open 24 hours · 088501 18579,,
Zumba and Pilates fitness with vaishnavi,Gyms,Thane,"Cosmos Park, society",Open ⋅ Closes 10 pm · 089765 62493,,
Pure Fitness Studio,Gyms,Thane,3+ years in business · Shree Narayan Mandira Samiti,099204 51076,,
SP FITNESS UNISEX,Gyms,Thane,"3+ years in business · 5XR5+88M, Wagle Estate Rd, Rd Number 9",Open 24 hours,,
Thane Gymkhana Officers Club,Gyms,Thane,"14, Krishna Borker Marg",· 092215 90350,,
Ace Runners Fitness and Marathon Training Center,Gyms,Thane,"5+ years in business · 6XHC+7J9, BMC Garden, Hiranandani Meadows, Manpada, Thane West",Open 24 hours · 099305 64806,,
Nitro Gym Swimming Pool,Gyms,Thane,"Kanhaiyya Nagar, Thane East",Open ⋅ Closes 10 pm,,
"Fit Forever - Weight Loss, Weight Gain & weight management studio Studio",Gyms,Thane,"7+ years in business · 202, Park Plaza C', hiranandani Estate, Arc Lane, Ghod bander road",· 098190 53922,,
Fitness Factory GYM,Gyms,Thane,Nitin Company Junction,· 075064 67399,,
KeepFit Aerobics Centre,Gyms,Thane,"30+ years in business · Shopping Centre, Amarpali Arcade, Pokharan Rd Number 2",· 093243 89679,,
KICKBOXING SRI MA,Gyms,Thane,"Patlipada, Off, Ghodbunder Rd, near Hiranandani Estate",Open 24 hours · 093723 47556,,
7 fitness hub,Gyms,Thane,"3+ years in business · 62P7+699, Kaseli Toll Naka",Open 24 hours · 099605 32749,,
MMA WARRIORS,Gyms,Thane,"7+ years in business · MMA Warriors, Sachin Tendulkar Krida Sankul, Mahatma Phule Nagar Rd",Open ⋅ Closes 10 pm · 090045 38091,,
Maars Gym,Gyms,Thane,"A-WING, Dennis building",· 086554 36381,,
Anatomé Gym,Gyms,Thane,"Unit - A-2, Acre Kothari Ware House, 4 & 2/5 27",Open ⋅ Closes 10:30 pm · 098673 38006,,
Fitness Centre,Gyms,Thane,5+ years in business · 6X6F+VH6,,,
Body Blast Gym,Gyms,Thane,6XQH+C24,,,
Super Fitness Gym,Gyms,Thane,"Super fitness gym, no. 2",Open ⋅ Closes 9:30 pm · 093249 06637,,
World Fitness - Gym In Mulund,Gyms,Thane,"15+ years in business · Mumbai, Maharashtra",Open ⋅ Closes 11:55 pm · 080974 00500,,
The Gym,Gyms,Thane,"89, Rd Number 22",Open ⋅ Closes 10 pm,,
The Squad Fitness,Gyms,Thane,"101 P.K. Shopee, Near IDBI Bank, Opposite Hypercity Mall Big Bazar, Ghodbunder Rd",Open ⋅ Closes 9 pm,,
Yoga N Fitness With Jatin,Gyms,Thane,"7+ years in business · Dosti Imperia, Shop No 227, 2nd floor, opp. Kotak band",Open ⋅ Closes 9 pm · 081088 15805,,
Ashtavinayak Gym,Gyms,Thane,"10+ years in business · 5XJH+VVR, Ashtavinayak Chowk, Ashtavinayak Marg",Open ⋅ Closes 10 pm,,
स्फूर्ती व्यायाम शाळा,Gyms,Thane,"5XW8+9Q6, Arun Kumar Vaidya Rd",,,
Body Zone Gym,Gyms,Thane,"3, Ghodbunder Rd",· 098205 56233,,
S.R anytime fitness gym only for ladies,Gyms,Thane,"landmark janta bakery, 101-102 Gupta palace Dargah road Amritsar nagar",Open ⋅ Closes 11 pm,,
Fitness 45,Gyms,Thane,"15+ years in business · Mumbai, Maharashtra",Open ⋅ Closes 11 pm · 093222 41917,,
Fitcoach Ruchi FitNiwas,Gyms,Thane,"3+ years in business · FitNiwas, Giri Heaven, Ground Floor, Shop - 4 Hari Niwas Circle, Society, next to Giriraj Heights",Open 24 hours · 090493 50707,,
Thane West,Gyms,Thane,6XCQ+6F7,,,
Ratna prabha Vyayamshala,Gyms,Thane,"3+ years in business · 5XRQ+CGC, Opposite TMT Bus Depot",Open ⋅ Closes 10 pm,,
CrossFit box & Fatloss Studio,Gyms,Thane,"maithili pride, Pokharan Rd Number 1",,,
Joints N Motion,Gyms,Thane,"Vega, 4, Ghodbunder Rd",Open ⋅ Closes 9 pm · 085756 00040,,
Mission Fitness,Gyms,Thane,"Hiranandani Turf, Arcadia Cir, near Avila Building",,,
Dharmavir Anand Dighe Gym (DADs),Gyms,Thane,"5, Pune - Mumbai Hwy",,,
Fitness Studio - Fitness And Breakfast Studio - Weight Loss In Thane Mumbai,Gyms,Thane,"Dosti Imperia, building, Gracia B wing , 16 th floor 1607, Near manpada, opp. to R Mall",,,
Karadi's Gym,Gyms,Thane,"741 karadi compound karadi's gym ganesh ngr thane, Ghodbunder Rd",· 076664 56790,,
VK fitness gymnasium (UNISEX),Gyms,Thane,"ground floor, nr. Sai baba mandir, Chitra apartment",Open ⋅ Closes 10 pm,,
"Gym Instructor, Personal Trainer in Thane - Pradeep",Gyms,Thane,Lodha Luxuria Rd,Open ⋅ Closes 9 pm,,
Sagar’s Chasing Aesthetic Fitness,Gyms,Thane,"Thane, Maharashtra",Open ⋅ Closes 10 pm · 098678 54242,,
Sachin's studio,Gyms,Thane,"201, Old Bombay Rd, near Dagdi School",,,
Hurdles Fitness,Gyms,Thane,"Mumbai, Maharashtra",Open ⋅ Closes 10 pm · 088795 62229,,
Pro-SAFE fitness academy,Gyms,Thane,"Mumbai, Maharashtra",Open ⋅ Closes 10 pm,,
Neo Pilates Studio,Gyms,Thane,"Ground floor, Auralis, Hajuri Durga Street",Open ⋅ Closes 8 pm · 081046 57741,,
Anand sphurti Gym.,Gyms,Thane,"Near rail a devi Talao, road no 9,rahungaa nagar,thane 400604.",· 072085 77628,,
Pro-SAFE fitness academy,Gyms,Thane,"Mumbai, Maharashtra",Open ⋅ Closes 10 pm,,
Neo Pilates Studio,Gyms,Thane,"Ground floor, Auralis, Hajuri Durga Street",Open ⋅ Closes 8 pm · 081046 57741,,
Community Gym,Gyms,Thane,"5XR7+J98, Vasudev Balwant Phadke Rd",,,
90 Degree Gym,Gyms,Thane,"09, Road No. 16/Z",Temporarily closed,,
Shree Swami Samarth Gym & Fitness Centre,Gyms,Thane,"Sai Dham Co-Operative Housing Society, Pada No.4",· 098671 39813,,
Pro Fitness Thane - Train with Athletes,Gyms,Thane,"garden, Pokhran road 1, Golden Goal turf, beside Salt N Pepper restaurant",,,
avengers dance & fitness studio,Gyms,Thane,Rustomjee Azziano Rd,,,
The Tiger GYM and Fitness,Gyms,Thane,"Mumbai, Maharashtra",,,
THANEFIT GYM,Gyms,Thane,"Vijay Park, Clubhouse,Sukur Residency, Ghodbunder Rd",,,
Shape up fitness studio Thane West,Gyms,Thane,"Thane, Maharashtra",Temporarily closed,,
R360 gym,Gyms,Thane,7X5M+JQM,Temporarily closed,,
Apollo Gym Body By Design,Gyms,Thane,"No 12, Ghodbunder Rd",Temporarily closed,,
Gym Garden,Gyms,Thane,6X4M+MW3,,,
Open gym,Gyms,Thane,"Kohinoor Society, Vasudev Balwant Phadke Rd",Temporarily closed,,
ABS FITNESS CAMP. PUNE,Gym,Pune,"15+ years in business · Atur Foundation House, 4, Dr Baba Saheb Ambedkar Rd, Above Jawaharlal Nehru Memorial Hall",Open ⋅ Closes 11 pm · 020 4861 3524,,
Pehellwaan gym camp pune,Gym,Pune,"3+ years in business · 3rd Floor, Taboot Street saifi lane Opp oyo town house Oswal building",Open ⋅ Closes 11 pm · 077220 33403,,
Gryt.Fit,Gym,Pune,"5+ years in business · Level 2, Hermes Palazzo, opposite St Anne's School",Open ⋅ Closes 10 pm · 098506 02141,,
"B2B Gym, Best Gym In Aundh & Baner",Gym,Pune,"5+ years in business · 2nd floor, B-wing, Astral Court, Opposite Gaikwad Petrol Pump/Peter Donuts",Open ⋅ Closes 10 pm · 094223 21788,,
Anytime Fitness Pune | Gym Near Me Viman Nagar,Gym,Pune,"4th floor, 10 Biz Park, beside Symbiosis Law School Road",Open 24 hours · 090223 85408,,
"ABS FITNESS- ICC SB ROAD. GYM on SB ROAD. GYM Near model Colony, FC ROAD. DECCAN",Gym,Pune,"15+ years in business · 9th Floor, ICC Tech Park, Tower B, B Wing, Senapati Bapat Rd",Open ⋅ Closes 10 pm · 097632 15051,,
Fitness365 Gym - Committed To Be Fit,Gym,Pune,"7+ years in business · A, Runwal Cornet, Above Women's Pantaloons, 4th Floor Paud Road Runwal Paradize",Open ⋅ Closes 10 pm · 097675 04150,,
THE IRON GYM,Gym,Pune,"5+ years in business · S. No. 50/11, Kanaskar Bldg Mahadeonagar, Old Mundhwa Rd, near Bollywood Cinema",Open ⋅ Closes 10 pm · 096890 48613,,
"Urbounce Gym Law College Road Branch, Powered By Bounce",Gym,Pune,"Law College Rd, near FTII Institute",Open ⋅ Closes 9:30 pm · 080077 10099,,
H2O FITNESS CLUB,Gym,Pune,"1158, GV45+635, near, Subhash Nagar Rd Number 2",Open ⋅ Closes 10 pm · 070303 03076,,
"Iron Sanctuary Gym - Available on cult.fit - Gyms in Kothrud, Pune",Gym,Pune,"Shankar Bhawan, 2nd Floor Shri, Paud Rd",Open ⋅ Closes 10 pm · 070578 06060,,
Raise The Bar Fitness Center,Gym,Pune,"Parmar Gallery, 2nd Floor, Jagtap Chowk, above Axis Bank Branch",Open ⋅ Closes 10 pm · 079722 70054,,
GT Fitness Club,Gym,Pune,"5+ years in business · 1st Floor, GRGV+MCC Gurukrupa Complex, Modern Engineering College Rd, off Fergusson College Road",Open ⋅ Closes 10 pm · 086001 50150,,
Arkfit Arena,Gym,Pune,"7+ years in business · 2nd Floor, Opposite Hotel Central Park, Apte Rd, near HDFC Bank",Open ⋅ Closes 10 pm · 084462 89777,,
The Gym,Gym,Pune,"20+ years in business · Ganga Home, Row House No.1/2, next to Bank of India",Open ⋅ Closes 10 pm · 098813 44635,,
Universal Gym | Best Gym In Camp Pune,Gym,Pune,"Universal Gym & Fitness Club, opp. Chandan Medicals",Open ⋅ Closes 11 pm · 099230 88848,,
Elite Edge Fitness (Gineel N Fitness),Gym,Pune,"GANESH KRIPA HOS SOC, AMEYA ,PLOT NO 2O-C 2,12TH LANE, VANAZ, near Subway",Open ⋅ Closes 10 pm · 096659 62938,,
Quality Fitness Club,Gym,Pune,"15+ years in business · Akshay Complex, Barne Tower, 2nd floor, 156/1-B, Barane Rd",Open ⋅ Closes 9 pm · 020 2612 5251,,
THE FITNESS TOUCH,Gym,Pune,"5+ years in business · Sr. no.48/1 , Icchyatrupti Society, Anand Park",Open ⋅ Closes 10 pm · 098904 21641,,
"Studio Velocity (Baner) - Available on cult.fit - Gyms in Baner, Pune - Maharashtra",Gym,Pune,"3+ years in business · 3rd Floor, Platinum Techno Park Survey No. 52/5/3 Plot No. 9, Pashan - Sus Rd, Behind Audi Showoom",Open ⋅ Closes 10 pm · 072183 11777,,
,Gym,Pune,,,,
,Gym,Pune,,,,
Gold Star Unisex Fitness Club,Gym,Pune,"3+ years in business · Bhagyashree Apartments, near Ajit Hotel",Open ⋅ Closes 10 pm,,
PUNEFITLIFE FUNCTIONAL TRAINING GYM,Gym,Pune,7+ years in business · Yash lawns,Open ⋅ Closes 9 pm,,
Fitranger Gym,Gym,Pune,"3+ years in business · Haribhau Sane Krida Sankul, 17/1B, Late GA Kulkarni Path, near Joshi Museum Of Miniature Railways",Open ⋅ Closes 11 pm · 098230 96431,,
Fitness Fellowship - BT Kawade Road Pune,Gym,Pune,"7+ years in business · Soc, Gran Exito, Fitness Fellowship, 1st Floor, Bhagwan Tatyasaheb Kawade Rd, opp. Palm Groves",Open ⋅ Closes 10 pm · 077220 93637,,
Evolve Fitness & Wellness Club,Gym,Pune,"10+ years in business · Sixth Floor, One Place, Salunke Vihar Rd, above Third Wave Coffee",Open ⋅ Closes 11 pm · 086005 11152,,
Fitnation Club,Gym,Pune,"3+ years in business · 2nd floor, Nikhil Pride Building, Lokmanya Bal Gangadhar Tilak Rd, near Kaka Halwai",Open ⋅ Closes 9:30 pm · 099218 27245,,
Muscle Tone Fitness Club,Gym,Pune,"2nd floor, Lane No. 7, above ICICI bank",Open ⋅ Closes 10 pm · 091291 17171,,
Nitrro Wellness And Fitness Hub,Gym,Pune,"5+ years in business · Waterfront Society, PANCHSHIL WATERFRONT, Vithalrao Vandekar Rd",Open ⋅ Closes 10 pm · 093686 81111,,
Power Fitness Club Pune,Gym,Pune,"5+ years in business · GRHP+X2C, Deep Bunglow Chowk",Open ⋅ Closes 9:30 pm · 099239 63399,,
Definition Gym,Gym,Pune,"10+ years in business · 2nd Floor, 3 D, Destination Ratna Chintamani Building, SUJAY GARDEN",Open ⋅ Closes 10 pm · 098226 00093,,
27 CrossthonFit pune,Gym,Pune,"3+ years in business · Balgandharv Rangamandir Premises, j.m Road, Congress House Rd",Open ⋅ Closes 9 pm · 089567 01103,,
The D’s Dynamic Fitness,Gym,Pune,"573/6, Jangali Maharaj Rd",Open ⋅ Closes 9 pm · 093226 34233,,
QUEEN FITNESS,Gym,Pune,"Kapila Housing Society, opp. Sai Baba Mandir",Open ⋅ Closes 9 pm · 095032 17559,,
Brawn Fiitnness,Gym,Pune,"10+ years in business · 2nd, Premanjali Building, Complex, Pune - Satara Rd, opposite Ellora Palace",Open ⋅ Closes 11 pm · 090961 00016,,
Janorkar's Gym,Gym,Pune,"5+ years in business · 2nd Floor, The Green Roof Restaurant & Popular Hotel Building, Sinhgad Rd",Open ⋅ Closes 12 am · 097674 46744,,
Empire Gym,Gym,Pune,"10+ years in business · Prasad Chambers, Sinhgad Rd",Open ⋅ Closes 10:30 pm · 098502 32146,,
The GYM BUG's,Gym,Pune,"3+ years in business · V B Patil Swimming Pool, Bhau Patil Rd, near Shivaji Maharaj Garden",Open ⋅ Closes 10 pm · 098900 67603,,
MITRA FITNESS CLUB,Gym,Pune,"5+ years in business · Boys Hostel, Sr. No.33/1 Bharati Vidyapeeth, Near Ichapurti Ganesh Mandir, Shree Krupa",Open ⋅ Closes 10 pm · 098813 98812,,
N - Vie Fitness,Gym,Pune,"5+ years in business · E-101, First Floor, Business Court",Open ⋅ Closes 10 pm · 020 2426 6004,,
Asia21 Gym & Fitness Club,Gym,Pune,"Ganagadham Katraj Road S.No.62H, No. 2A/2/20, Office, 12, Mandot Tower Rd, opp. Shanti Nagar Society",Open ⋅ Closes 10 pm · 080074 80123,,
Body Fuel Fitness Club,Gym,Pune,"7+ years in business · survey No 121, स्कोस्सा - द ठीक शेक एंड बाइट्स मिट कॉलेज रोड, 122, Rd Number 1, behind Chaitanya Health Club",Open ⋅ Closes 10 pm · 097640 42350,,
Spa Fitness,Gym,Pune,"10+ years in business · Samaj Mandir (Hanuman nagar Ganapati Mandir), Senapati Bapat Rd",Open ⋅ Closes 10 pm · 020 2565 7522,,
Vikram's Fitness Studio,Gym,Pune,"10+ years in business · Chinar Heights, 33/9, Prabhat Rd Pune, opp. Shri Mahila Griha Udyog Lijjat Papad Factory",Open ⋅ Closes 8 pm · 095277 30493,,
Sammy Fitness Studio,Gym,Pune,7+ years in business · 2100,Open ⋅ Closes 9:30 pm · 095035 13845,,
Niwara Gym by V3 Fitness,Gym,Pune,"25+ years in business · Niwara Campus, 96, Navi Peth",Open ⋅ Closes 9 pm,,
Bhairava Fitness Club,Gym,Pune,"First Floor, Gitanjali Building, near Gajanan Maharaj Math",Open ⋅ Closes 10 pm,,
"The Fitness Temple - Best Gym in Aundh Baner - CrossFit, Functional Studio, Parkour, Yoga Studio",Gym,Pune,3+ years in business · 1st floor D wing Lakshmi Plaza Office No. 3,Open ⋅ Closes 10 pm · 084218 09899,,
"Paradise Fitness Club - - Available on cult.fit - Gyms in Undri, Pune",Gym,Pune,"3+ years in business · Second floor, Aero nest building, near Dynamic Grandeur Wadachi wadi, Rd",Open ⋅ Closes 10 pm · 072729 42222,,
4 Fitness Club,Gym,Pune,7+ years in business · 101,Open ⋅ Closes 11 pm · 088889 77999,,
Hustle Gym,Gym,Pune,"2nd floor wing gold crest, above idbi bank, opposite zensar",Open ⋅ Closes 10 pm · 072762 63946,,
ABS FITNESS,Gym,Pune,"3+ years in business · Pushp Mangal Karyalay Near City Pride, Pune - Satara Rd",Open ⋅ Closes 11 pm · 077966 59190,,
La Fit,Gym,Pune,"5+ years in business · Laxminarayan Building, 270/3, Jawaharlal Nehru Rd",Open ⋅ Closes 12 am · 075177 74884,,
"Cult Magarpatta City - Gyms in Magarpatta City, Pune",Gym,Pune,"3+ years in business · 1st & 2nd Floor, Magarpatta Rd, above Jeep Showroom",Open ⋅ Closes 10 pm · 1800 572 6303,,
Curves Fitness Club,Gym,Pune,"Ganga Nursing Home Road Ganesh Baug Gymnasium Hall Second Floor, Society, near ROHAN ISHITA",Open ⋅ Closes 9 pm,,
Rising Fitness Club Camp Branch,Gym,Pune,"2405 east street camp pune Above Sujata Mastani, Juna Pulgate, near Burger King, next to LIC building",Open ⋅ Closes 11 pm · 088884 12336,,
Planet Gym,Gym,Pune,"10+ years in business · Shop No, 746, Chhatrapati Shivaji Maharaj Rd",Open ⋅ Closes 11 pm · 082377 59722,,
P9 Fitness,Gym,Pune,Suma Paradise,Open ⋅ Closes 10 pm,,
The Gym,Gym,Pune,"7+ years in business · Shri Nagar Society lane no 2, sr, 41, Ganesh Nagar Rd, behind Laxmi creation, near Anand park",Open ⋅ Closes 11 pm · 085529 77867,,
Brahma Fitness,Gym,Pune,"925, B4, Deendayal Hospital Lane, Tukaram Paduka Chowk, Fergusson college campus Rd",Open ⋅ Closes 10 pm,,
Aim Fitness,Gym,Pune,"3+ years in business · Salunke, Above Reliance Fresh, S No 66/67, Lingfield Plaza",Open ⋅ Closes 11:30 pm · 072729 99100,,
Fitness Fort,Gym,Pune,FVJ6+7C7,Open ⋅ Closes 10 pm,,
Active Fitness,Gym,Pune,"5+ years in business · Deep Bunglow, Chowk, Karande Path, opposite DBS Bank",Open ⋅ Closes 9 pm · 087887 78948,,
"Cult Kalyani Nagar - Gyms in Kalyani Nagar, Pune",Gym,Pune,"3+ years in business · Fortaleza Complex, 3rd Floor, S Ave Rd",Open ⋅ Closes 10 pm,,
I Fitness Destiny,Gym,Pune,"7+ years in business · 598, Sachapir St, Above Andhra Bank",Open ⋅ Closes 11 pm · 095451 73949,,
Tranceform Fitness Best Gym in Dhankawadi,Gym,Pune,"7+ years in business · Plot No 11,12 Pushkaraj Society, Behind Bharati Vidyapeeth, Opp RamaKrishna hostel, Dhankawadi,, Chandrabhaga Nagar Rd",Open ⋅ Closes 9:30 pm · 099702 58096,,
Rising Fitness Club Wanowrie Branch,Gym,Pune,"5+ years in business · 2nd Floor, Parmar Galary, Above SBI Bank, near jagtap chowk",Open ⋅ Closes 10 pm · 088884 12337,,
SK FITNESS 4 ALL,Gym,Pune,7+ years in business · Karan Bazar Apartment,Open ⋅ Closes 10 pm · 073870 82244,,
Chakra Fitness Community,Gym,Pune,"7+ years in business · Pingale Farms, Lane No. 7, next to Blossom Boulevard",Open ⋅ Closes 9 pm · 097641 58903,,
SPA Gym,Gym,Pune,"School Ground, near Shivsena Kacheri",Open ⋅ Closes 10 pm · 094223 02824,,
"S3 Fitness Gym & Crossfit, Bibwewadi",Gym,Pune,"1st floor todakar garden, Gangadham - Shatrunjay Rd, opp. Natural ice cream",Open ⋅ Closes 10 pm · 095459 45353,,
Trimurti Gym,Gym,Pune,"7+ years in business · 64, Trimurti Niwas, Sr No 23, Hind Swaraj Chowk",Open ⋅ Closes 10 pm · 098221 13081,,
Maharudraya Hardcore Gym,Gym,Pune,"7+ years in business · Plot No 185, Khatape Complex, In front of Vandevi Temple, Karvenagar, Pune",Open ⋅ Closes 11 pm · 097661 17983,,
SPA Fitness,Gym,Pune,"3+ years in business · Sun City Rd, opp. Parmar Foods",Open ⋅ Closes 10 pm · 094223 02824,,
Elite Fit,Gym,Pune,"5+ years in business · Katraj Bypass (Wonder City), Manik Moti Building, Sugandhatara Reality high way Near, Katraj-Dehu Rd Bypass",Open ⋅ Closes 9:45 pm · 090281 00202,,
URO Fitness Club Best Gym in Gokhale Nagar SB Road,Gym,Pune,10+ years in business · Virbaji Prabru Vidyalay Shal,Open ⋅ Closes 10 pm · 091305 10823,,
Nitrro Fitness - Pune Satara Road,Gym,Pune,"2nd floor, Sharada Arcade, Pune - Satara Rd, opp. to D-Mart",Open ⋅ Closes 10:30 pm,,
Aesthetics Fitness,Gym,Pune,"3rd floor, Picasso Plaza, NIBM Rd",Open ⋅ Closes 10:30 pm · 084848 93494,,
Cross Strength Fitness Club & Elite Personal Training Studio,Gym,Pune,"3+ years in business · Punekar Chowk, Cross Strength Fitness Club Unit 201, 2nd Floor NYATI ETERNITY COMMERCIAL, Mohammed Wadi, Pune, Maharashtra at, near, Godrej Horizon Rd",Open ⋅ Closes 11 pm · 085307 29997,,
Conquer Fitness Center,Gym,Pune,"3+ years in business · Yashogita Building, near, Mhatre Bridge",Open ⋅ Closes 10 pm · 070583 34923,,
Gold's Gym Baner,Gym,Pune,"3+ years in business · Imperial Atria, ABIL House, 4th Floor, ABIL Square, Near, Pan Card Club Rd",Open ⋅ Closes 11 pm · 091122 88282,,
Gold's Gym Kalyani Nagar,Gym,Pune,"10+ years in business · 2nd Floor, Fortaleza Complex, Central Ave, above NM Medical",Open ⋅ Closes 10 pm · 098237 66766,,
Nitrro Gym - Sinhagad Road,Gym,Pune,"3+ years in business · Sinhgad Rd, above Mcdonalds",Open ⋅ Closes 10 pm · 075197 00700,,
Sai Gym,Gym,Pune,FRQ8+MWW,Open ⋅ Closes 9 pm,,
Star Fitness,Gym,Pune,"5+ years in business · 191, Airport Rd",Open ⋅ Closes 10 pm · 078880 44293,,
Nitrro Wellness and Fitness Hub Kothrud,Gym,Pune,"FRXC+PP5 REVOLUTION MALL, 3rd Floor,at S.No 20/2, Plot. No. CC -3, 3rd Ln, above Big Baazar",Open ⋅ Closes 10 pm · 072970 58282,,
Ethos- Republic Of Strength,Gym,Pune,"1214, Road No. 4, near Pabalkar Hospital",Open ⋅ Closes 10 pm · 084598 60591,,
Dotfit Fitness,Gym,Pune,"10+ years in business · HQ7M+JJ8 Srushti Elegance, 136/1, 5th Floor, Old Baner-Balewadi Rd, near Salt Hotel",Open ⋅ Closes 10 pm · 098228 43366,,
Gold's Gym Sinhagad Road,Gym,Pune,"3+ years in business · Mohite Township, Shop no 14/3/4, Sinhgad Rd",Open ⋅ Closes 10 pm · 095950 91091,,
FIT WITH ATHARVA,Gym,Pune,3+ years in business · Giridhar bhawan chowk,Open ⋅ Closes 11 pm · 093706 21469,,
LOUKIK FITNESS AND SPORTS,Gym,Pune,"5+ years in business · Rd, 7, Baner Rd, near Sakalnar",Open ⋅ Closes 10 pm,,
Gym World,Gym,Pune,"3+ years in business · Sr. No. 14/9, Vitthal Nagar, 15 Number, Solapur - Pune Hwy, near Maruti Temple",Open ⋅ Closes 10 pm · 077190 40000,,
The world fitness gym,Gym,Pune,3+ years in business · Shop no 37 to 45 Bizz bay mall Opp- SBI bank,Open ⋅ Closes 11 pm · 073507 00800,,
La Fit lullanagar,Gym,Pune,"3+ years in business · Premdeep building, chowk, opposite Manikchand Malabar Hills Building, above ktm showroom",Open ⋅ Closes 11 pm · 075178 74884,,
Status Health Club,Gym,Pune,"25+ years in business · Shivshakti Building, Bhandarkar Rd, opposite HDFC Bank",Open ⋅ Closes 9 pm · 020 2567 5070,,
Gold's Gym Aundh,Gym,Pune,"3+ years in business · 127/1A, Server Space, A.G.Technology Park, Sarjaa Rd, Sanewadi, Aundh",Open ⋅ Closes 10:30 pm · 090290 02870,,
POWERHOUSE FITNESS CLUB,Gym,Pune,"5+ years in business · Power House by M.S Fitness, 53, Bhagwan Tatyasaheb Kawade Rd",Open ⋅ Closes 10 pm · 096577 51374,,
Reshape Fitness | Gym in Pune Deccan,Gym,Pune,"5+ years in business · Deccan Avenue, Jangali Maharaj Rd, Above Bata Showroom",Open ⋅ Closes 10 pm · 084469 10101,,
Spartah Fitness Clubb (Gym)Deccan,Gym,Pune,"3+ years in business · Mulridhar Veg, Siddharth Chambers, Akshay Shri Co.Op. Society, Sr. No. 216, 216, NC Kelkar Road, near Z Bridge",Open ⋅ Closes 10 pm · 097642 93555,,
Fitness Mantras Marketyard,Gym,Pune,"5+ years in business · 2nd floor, Raviraj, Cru Mall, Bibvewadi road",Open ⋅ Closes 10 pm · 089834 82482,,
Fitness Evogue,Gym,Pune,"KPCT MALL, Office No 413 , 4th Floor, CWing, Vitthalrao, Vitthal Rao Shivarkar Rd",Open ⋅ Closes 11 pm · 096233 86420,,
Fit 7 By M S Dhoni,Gym,Pune,"5+ years in business · Survey No 44 A/1, Shopper Orbit, Office no.216, Above Big Bazar, Near Sathe Biscuit Factory Stop, Alandi Rd",Open ⋅ Closes 10 pm · 089754 57777,,
ARM FITNESS,Gym,Pune,"3+ years in business · Arm Fitness , 2nd floor , office no.3 , above apple salon Lolage corner, opposite ICICI Bank",Open ⋅ Closes 9 pm · 096570 50535,,
Dynamix Fitness,Gym,Pune,"7+ years in business · Maji Sainik Vasahat, Paud Rd",Open ⋅ Closes 10 pm,,
Valeosis Fitness Club,Gym,Pune,"7+ years in business · FRRC+RCC, 1st Floor, Sr.no.29/1",Open ⋅ Closes 10 pm · 096578 11222,,
Ethcure Fitness Club,Gym,Pune,125,Open ⋅ Closes 10 pm · 0788 795 5559,,
HEALTH EDGE - Project Fitness,Gym,Pune,"Concominium, CTS 15/1, PT Gera Center, Shop #9, Bund Garden Rd, opposite Wadia College",,,
Gold's Gym Pimple Saudagar,Gym,Pune,"5th Floor, RK Lunkad Business Center, Kokane Chowk, above Reliance fresh",Open ⋅ Closes 10 pm · 097155 98598,,
A2B Fitness Club,Gym,Pune,"5+ years in business · VCC Vantage 9, First Floor, Pashan Hwy Side Rd, near Renault Showroom",Open ⋅ Closes 10 pm · 096070 50700,,
GYM TOWN,Gym,Pune,"10+ years in business · Tukai Darshan Chawk, Kale Borate Nagar Rd, near YASHRAJ GREEN CASTLE APARTMENTS",Open ⋅ Closes 11 pm · 097302 92128,,
MultiFit Kalyani Nagar,Gym,Pune,"7+ years in business · 4th Floor, Gold Adlabs Mariplex Mall",Open ⋅ Closes 10 pm · 080070 00791,,
Gold's Gym Shaniwar peth,Gym,Pune,"5+ years in business · 333-271, T Saheb KK Marg",Open ⋅ Closes 10 pm · 0788 788 3355,,
Devkar Fitness Club,Gym,Pune,5+ years in business · FVW2+82F,Open ⋅ Closes 10 pm · 099230 96467,,
Arjun Fitness,Gym,Pune,"Sant Gadage Maharaj Vasahat, 42, S Main Rd, near Ambika mata mandir",Open ⋅ Closes 10 pm · 086984 24044,,
CrossFit Monkey Flag,Gym,Pune,"Futsal 5, Pune Central Mall, 25/20",· 097677 55419,,
Primalbase Gyms,Gym,Pune,"3rd Floor, ELITE PREMIO, Near, Balewadi High St",Open ⋅ Closes 8:45 pm · 070470 48187,,
Aayush fitness and slimming centre,Gym,Pune,5+ years in business · Kishor Bhagirath Tapadia Rd,Open ⋅ Closes 10 pm · 092255 10300,,
Universal fitness,Gym,Pune,3+ years in business · GWC4+3H8,Open ⋅ Closes 10 pm,,
i Train Fitness Gym,Gym,Pune,"Parmar Plaza, next to Inamdar Hospital, opposite Cycle World",Open ⋅ Closes 11 pm · 072767 97104,,
Gold's Gym,Gym,Pune,"10+ years in business · BIZZBAY Mall, Shop No.1, 2 & 101, NIBM Rd, Opposite Clover Hills Co-operative housing Society",Open ⋅ Closes 10:30 pm · 082372 90555,,
Life Fitness Club,Gym,Pune,"10+ years in business · 6th Floor, PANDHARINATH COMPLEX BLOCK-C, NDA Rd",Open ⋅ Closes 10 pm,,
Symbiosis Fitness Centre,Gym,Pune,"5+ years in business · GRXQ+QRG, Pune",Open ⋅ Closes 8 pm · 094634 12297,,
Urbounce,Gym,Pune,"7+ years in business · 3rd Floor, HQ2R+5F7 Ven Business Centre, Baner - Pashan Link Rd, near HDFC Bank",Open ⋅ Closes 10 pm · 077679 30066,,
Bodymaster Gym and fitness centre,Gym,Pune,"5+ years in business · shivshankar apartments, Paud Rd",Open ⋅ Closes 9 pm · 098225 38137,,
Apple Fitness (Narhe),Gym,Pune,"7+ years in business · Walhekar Properties, Fourth Floor, Narhe Rd, Above HDFC Bank, Near Pune-Bangalore",Open ⋅ Closes 10 pm · 097679 81903,,
City Point Fitness,Gym,Pune,7+ years in business · Shree Pandharinath Hole Rd,Open ⋅ Closes 10 pm · 070301 77719,,
MetaFit,Gym,Pune,"7+ years in business · Su Casa Housing Society, 301, Behind Shishya School, Datta Mandir Rd",Open ⋅ Closes 10 pm · 090965 90587,,
VGP Fitness Centre श्री वीर गोगादेव प्रतिष्ठान,Gym,Pune,"25+ years in business · 443, Raut Rd",Open ⋅ Closes 10 pm,,
BODYNATION PERSONAL TRAINING STUDIO (GYM),Gym,Pune,"Bodynation Personal Training Studio, Holistic child development India Building, Salunke Vihar Rd, opposite Rosary School",Open ⋅ Closes 10 pm · 078757 26843,,
AB's Fitness Club,Gym,Pune,7+ years in business · Pune - Satara Rd,Open ⋅ Closes 10 pm,,
The Bodyworks Gym and Fitness Center,Gym,Pune,"Firdaus,1,Ground Floor, Vitthal Rao Shivarkar Rd",Open ⋅ Closes 10:30 pm,,
"Cult Wakad - Gyms in Wakad, Pune",Gym,Pune,"3+ years in business · Vantagio, 3rd Floor., Wakad Rd, next to Flechazo",Open ⋅ Closes 10 pm,,
Evolvefitcircle,Gym,Pune,"7+ years in business · Office No-10, Ganga heights, Opp Shabdasneha Library, Samarth Rd, near pegasus",· 098908 99349,,
Swaraj Fitness Club,Gym,Pune,"5+ years in business · Hingne Khurd, Vitthalwadi Tarde Colony, Sinhgad Rd",Open ⋅ Closes 10 pm · 077097 68048,,
OneMoreRep unisex hardcore gym,Gym,Pune,"1st floor, Laxmikant niwas, opposite Balaji Heights",Open ⋅ Closes 10 pm · 072765 05858,,
Pune Fitness Club Kharadi,Gym,Pune,10+ years in business · Mundhwa - Kharadi Rd,Open ⋅ Closes 10 pm · 088065 76088,,
Kettlebell GYM,Gym,Pune,5+ years in business · 66,Open ⋅ Closes 10 pm · 097651 26331,,
Speed Fitness,Gym,Pune,"Nancy Towers, Shop No. 27, Below 3M Car Care, near Kedari Petrol Pump",Open ⋅ Closes 12 am · 020 4126 0251,,
Nitrro Redefining Fitness Gym Wakad,Gym,Pune,"3+ years in business · Austin Plaza, Kasapte Wasti Mhatoba Chauwk, Chatrapati Chowk Rd, opposite Riddhi-Siddhi",Open ⋅ Closes 10 pm · 095707 07028,,
SoulFitness,Gym,Pune,"3+ years in business · 76/81 Araneshwar Padmavti Rd, Sahakarnagar",Open ⋅ Closes 9 pm,,
Bodywizard Fitness Academy,Gym,Pune,"1st Floor, Ganga Sankalp, Aranyeshwar Rd, opp. TVS Shelar Showroom",· 078880 27027,,
Olympia Fitness Unisex Gym NIBM,Gym,Pune,"C/1, Bramha Estate Road",Open ⋅ Closes 10:30 pm · 098907 95768,,
Fitnesss First gym,Gym,Pune,7+ years in business · Kharadi South Main Road,Open ⋅ Closes 10 pm · 098600 34766,,
Endure Fitness Club - Satara Road,Gym,Pune,"5+ years in business · Ground Floor, Endure Fitness Club, City Pride Multiplex 692/693, Pune - Satara Rd",Open ⋅ Closes 10 pm · 090498 20505,,
The Fitness Xplorer,Gym,Pune,"Decision Towers, Swaroopanand Path",Open ⋅ Closes 10 pm,,
Orion Fitness,Gym,Pune,"10+ years in business · Plot no. 17, Gauri Shankar Soc, Canal Road, Damodar Nagar, Hingane, Off sinhagad road, Sinhagad College Road",Open ⋅ Closes 9:30 pm · 094039 83900,,
Sculpt Fitness Centre,Gym,Pune,"15+ years in business · Sec 1, 2, 3, Second Floor Navrang Plaza Tingre Nagar, Airport Rd, Near Sawant Petrol Pump",Open ⋅ Closes 9:45 pm · 072768 68918,,
Vibes The Fitness & learning Studio,Gym,Pune,Dr Baba Saheb Ambedkar Rd,Open ⋅ Closes 8:30 pm · 091756 73124,,
Enduro Fitness Center,Gym,Pune,"10+ years in business · Plot no 82 ,1st Floor, Pacific House , Sahakar Nagar, Aranyeshwar Nagar",Open ⋅ Closes 10 pm · 097638 36211,,
Sevasadan Gym,Gym,Pune,"10+ years in business · 67/2, Karve Rd",Open ⋅ Closes 9 pm · 020 6401 8104,,
FitWorld,Gym,Pune,"2nd Floor, Porwal Rd, above Zudio",Open ⋅ Closes 10 pm · 085588 55847,,
La Fit Satara Road,Gym,Pune,"3+ years in business · Pune, Maharashtra",Open ⋅ Closes 11 pm · 075178 74884,,
Pehellwaan Gym Yerwada Branch,Gym,Pune,"5+ years in business · Pune, Maharashtra",· 074474 91117,,
Solaris Sports World,Gym,Pune,"15+ years in business · 128, 2, JP Naik Rd, off Karve Road",Open ⋅ Closes 11 pm · 020 4140 5060,,
Navyug Health Club,Gym,Pune,3+ years in business · GR2Q+M6J,Open ⋅ Closes 10 pm,,
TY Fitness,Gym,Pune,"5+ years in business · 480/1 B, Mudaliar Rd, next to Shantai hotel, Above Green Finger",Open ⋅ Closes 8 pm,,
Crunch Fitness Club,Gym,Pune,"3+ years in business · 2nd floor, Palash Plus, C Building, opposite Euro School",Open ⋅ Closes 10 pm · 084830 48363,,
Athenova Fit,Gym,Pune,"Seth House Shopping Complex, 21/4B, Bund Garden Rd",Open ⋅ Closes 9 pm,,
Pramod Mahajan Krida Sankul ( boxing club 2 ),Gym,Pune,"7+ years in business · GV44+FWQ, Subhash Nagar Rd Number 2",Open 24 hours,,
"अल्पबचत फिटनेस सेंटर, पुणे",Gym,Pune,"3+ years in business · 7,Queens garden council hall road, near Residency club",Open ⋅ Closes 10 pm,,
Gym personal trainer,Gym,Pune,"sr.no 27, Punit Yash Arcade, near, Kothrud Bus Stand Rd",Open ⋅ Closes 10 pm,,
Gold's Gym,Gym,Pune,"10+ years in business · Survey No.136, 137",Open ⋅ Closes 10 pm · 084118 14778,,
Core Fitness Club,Gym,Pune,"7+ years in business · Sr. No. 161/19B , Opp. Kalyan Bhel , Near Bhosale Garden",Open ⋅ Closes 10 pm · 075072 86059,,
Okinawa Fitness,Gym,Pune,"987, Jawaharlal Nehru Rd",Open ⋅ Closes 8 pm · 096652 36875,,
Atenx Performance Studio,Gym,Pune,"10, Kothrud Industrial Estate, near Oblique Kitchen",Open ⋅ Closes 10 pm · 095767 61010,,
Bialete Fitness Studio In Kothrud,Gym,Pune,"3+ years in business · CHOICE INSTITUTE,GROUND FLOOR DAULAT ESTATE OFF KARVE ROAD, near CHOICE HEALTH CLUB",Open ⋅ Closes 9 pm · 074998 09619,,
"Alpha Fitness, NIBM",Gym,Pune,"2nd floor, heaven hills plaza, main, near Parmar Pavan, above kothari honda showroom",Open ⋅ Closes 10 pm · 084848 86896,,
Solaris Chintamani Pride Kothrud,Gym,Pune,"5+ years in business · Chintamani Pride Building, 301, Kothrud, near City Pride, Above Siya Restaurant",Open ⋅ Closes 10 pm · 083088 38012,,
Fitness freak,Gym,Pune,"5+ years in business · Near, Flying vista, Near Flying Heights, College, DY Patil University Rd",Open ⋅ Closes 9:30 pm,,
KLVSP Boxing Club,Gym,Pune,Arun Kumar Vaidya Stadium,Open ⋅ Closes 8 pm · 093261 53243,,
Shubhangad Fitness Centre (Only For Ladies),Gym,Pune,7+ years in business · Shubhangad 388 Shankarseth Road,· 020 2645 4810,,
fitnessstudiopune,Gym,Pune,"SAHAYASHRAM SOCEITY B-8, SAHAYASHRAM SOCEITY, Dr Baba Saheb Ambedkar Rd, behind NABARD",,,
Vishwalaxmi Gym,Gym,Pune,"15+ years in business · No 6, Sr No 71/1 Ghorpadi Gaon Shravasti Nagar Lane, Pune 1, near Vishwalaxmi Chowk",· 090111 17862,,
Gulshe Talim Gym & Wrestling club,Gym,Pune,"800, Moti Chowk",Open ⋅ Closes 9 pm · 088559 36366,,
Nutraline Fitness Club,Gym,Pune,"7+ years in business · 2009, Lokmanya Bal Gangadhar Tilak Rd",,,
MountainFit Studio,Gym,Pune,"370 Shanivar peth , Murlidhar Apartments 4th floor , paper lane, Prabhune Rd, near Ahilyadevi School",Open ⋅ Closes 8 pm,,
MetaFit,Gym,Pune,5+ years in business · 3rd floor,Open ⋅ Closes 10:30 pm · 088570 93101,,
PYC Hindu Gymkhana Gate 4 Ladies Club,Gym,Pune,"3+ years in business · GR8Q+MFC, Ratnakant Phade Path",Open ⋅ Closes 9 pm,,
"Gokul Vastad Talim, Pune.",Gym,Pune,"7+ years in business · 155, New Timber Market Rd",Open ⋅ Closes 9:30 pm · 098507 45252,,
New Life Fitness A1 Gym,Gym,Pune,"office no 908 9th floor, Platinum Square, next to hotel Hyatt regency, opp. WNS",Open ⋅ Closes 10 pm · 081492 89269,,
Kelkar's Gymnasium And Fitness Centre,Gym,Pune,"10+ years in business · 1428/1, Sadashiv Peth Rd, Near Pune Vidyarthi Gruha",Open ⋅ Closes 9 pm,,
Transform| Fitness Centre| Yoga| Comprehensive Fitness| Women's Fitness| Crossfit,Gym,Pune,"5+ years in business · 1205/8, flat no.5, second floor, Ganga Yamuna Apartment, Apte Rd, next to Allen Institute",· 099756 44200,,
Active People,Gym,Pune,5+ years in business · 127,,,
Crossfit Akhada,Gym,Pune,"347/A, off Balkrishna Sakharam Dhole Patil Road, near hotel mint",Open ⋅ Closes 9 pm · 080070 58007,,
U K Fitness Club,Gym,Pune,"5+ years in business · Bunglow no. 6, Archana Soc. Ganesh Mala, Opp. Phule Ganapati Baugh,, Dattawadi",Open ⋅ Closes 10 pm · 097620 06907,,
Sports Plus - High Performance Studio,Gym,Pune,"Sundarban Society, 999 C/B1",Open ⋅ Closes 9 pm,,
COEP Gym,Gym,Pune,10+ years in business · GVJ4+9HV,,,
Pro Fitness Training,Gym,Pune,5+ years in business · Pro-Fitness training Club,,,
Golden Gym Fitness Club,Gym,Pune,"junwadi, 54, Gokhale Nagar Rd",· 096572 92742,,
All Dimension Fitness,Gym,Pune,"Shivshri Bungalow, Lane No. 2",Open ⋅ Closes 8:30 pm,,
Endure Fitness Club - Wanowrie,Gym,Pune,"2nd Floor, LANDMARK, Endure Fitness Club, SNo. 65/1+3, Bapusaheb Kedari Marg",Open ⋅ Closes 10 pm · 091120 60201,,
Fisher's Gym,Gym,Pune,GV7F+C8V,,,
SM fitness club,Gym,Pune,"3+ years in business · 767 Ganesh peth, near Maharana Pratap school",Open ⋅ Closes 10 pm,,
LifeTime Fitness Gym,Gym,Pune,"732, Chhatrapati Shivaji Maharaj Rd, near rashtrbhushan chawk",Open ⋅ Closes 10 pm,,
Spartan Fitness Private Limited,Gym,Pune,"10+ years in business · 1641, 2nd Floor, Madhav Heritage, Lokmanya Bal Gangadhar Tilak Rd",,,
Yashwant Fitness Centre,Gym,Pune,"7+ years in business · Pune, Maharashtra",Open ⋅ Closes 9 pm · 080871 43399,,
TOAG - The Open Air Gym,Gym,Pune,"Sarosh Mansion, Quarter Gate Chowk",Open ⋅ Closes 9 pm,,
Avengers Fitness Studio,Gym,Pune,"Second Floor, Dr Patil Building, Solapur - Pune Hwy, near Tekawde Petrol Pump",· 090047 97706,,
TerraFit - The Outdoor Gym,Gym,Pune,"5+ years in business · Pune, Maharashtra",,,
Life Fitness,Gym,Pune,"Chhatrapati Shivaji Stadium, 1008, Veer Santaji Ghorpade Rd",· 072639 89965,,
FIT2LIVE,Gym,Pune,"97/820, Divyashakti Society Rd, opp. Soubhagya Mangal Karyalay",Open ⋅ Closes 8 pm,,
Smiths Gym,Gym,Pune,"5th floor, Sukhwani Prestige, Dr. Homi Bhabha Rd, above Union Bank",,,
GetFit Personal Training - online,Gym,Pune,"3rd Floor, 303 Faith Centre, Lane No. 4, near Nexa Showroom",· 083790 66928,,
27 BRICK HOUSE GYM - performance & lifestyle,Gym,Pune,"5+ years in business · House. 4th floor, Seth, Seth House Shopping Complex, Seth House, Bund Garden Rd",Open ⋅ Closes 10 pm · 098230 11333,,
Admark fitness,Gym,Pune,"20+ years in business · Pune, Maharashtra",Open ⋅ Closes 10 pm · 091460 00091,,
The Pilates Studio KP by Namrata Purohit,Gym,Pune,"Phase II, E1, House No 2, Ground Floor, Liberty House, N Main Rd, next to Celio",Open ⋅ Closes 10 pm · 086056 52255,,
Weight Loss Training,Gym,Pune,"Near, K-Block, Nehru Stadium",,,
Mind Gym Pune,Gym,Pune,"5+ years in business · Alpha Bachat Bhawan, behind Council Hall Camp",090119 09653,,
Amol Gadkar Gym,Gym,Pune,"13, Tadiwala Road , Panchil Chowk , Near, Vidya Sagar Society , Tadiwala, Road Pu",· 098220 60020,,
1st Fitness,Gym,Pune,"110, Times Square Building, Pune - Satara Rd, near Saibaba Temple",· 020 2426 9568,,
Mona's Fit & Fine Yoga Class,Gym,Pune,"Society, ADITYA RESIDENCY, Flat No.55, near Mitra Mandal Road",· 096048 64454,,
Active People Gym ShivajiNagar,Gym,Pune,"Modern College Engineering, College Road",· 022 2546 0799,,
Best fitness/gym Club in pune,Gym,Pune,near Navle College,Open 24 hours,,
Doctor's Fitness Zone,Gym,Pune,"Cluster_pune (Cb) 20 Wing-E, Parmar Trade Centre, Sadhu Vaswani Chowk",,,
F2 Fitness Freak,Gym,Pune,"45M BRT Road near Nashik, Fhata flyover back side Khushboo Exotica",Open ⋅ Closes 10 pm · 0788 783 8899,,
Gym Equipment Manufacturer | Syndicate,Gym,Pune,"Pune, Maharashtra",· 0181 461 8232,,
Force - 89 Gym,Gym,Pune,GVH2+CC5,,,
SHIVAJIRAO BHOSALE SWIMMING POOL,Gym,Pune,"BACK SIDE OF PRIDE HOTEL, near Dalvi Hospital",· 099219 99997,,
Poona Club Gym,Gym,Pune,GVFH+JVH,,,
Grace Fitness Center Pune,Gym,Pune,"Office No 2,1st Floor, Triveni Apt, Model Colony (, near Symbiosis Distance Learn",· 096898 48236,,
Kaizens Wellness N Fitness Club,Gym,Pune,"No 504, 505, Paud Rd",,,
Kaizens Wellness N Fitness Club,Gym,Pune,"No 504, 505, Paud Rd",Temporarily closed,,
Gold’s Gym Moshi Pune,Gym,Pune,"3+ years in business · The Goldfields, Moshi High St",Open ⋅ Closes 10 pm · 091072 22777,,
"Pehellwaan Gym, nal stop branch",Gym,Pune,"Uday Housing Cooperative Society, 13/2/4, Late Shrimati Kashibai Amrutrao, Khilare Patil Rd",,,
Vijay Gujar Boxing Academy,Gym,Pune,Arun Kumar Vaidya Stadium,,,
Pune Gym,Gym,Pune,3+ years in business,081775 41628,,
Silver Fitness Club,Gym,Pune,"7+ years in business · Sawatha Mali Temple Rd, near Silver City",Open ⋅ Closes 10 pm · 080070 80903,,
Setu Fitness Studio,Gym,Pune,Sinhgad Rd,,,
