,Name,Sector,City,Address,Phone,Email,Lat-Long
2,Dexterity TechSys,Companies(Private),,"575/4 & 5, Shankar Chatra Apartment, 4th Floor, Opposite Kesari Wada, Shaniwarpeth, Pune 411030, MH","+91-7350000921, +91-20-24499444",,
3,AEO Design Consultants,Companies(Private),,"Unit # 415, Bestech Chambers, B Block, Sushant Lok – 1, Gurgaon 122002,HR",,,
4,MobiTising,Companies(Private),,,,,
5,BYD Hospitality Pvt Ltd,Companies(Private),,,,,
6,"Smart Value Products And Services, Kolkata",Companies(Private),,"76, Incenarator Road, Dum Dum, Kolkata 700028, WB",+91-9874381973,,
7,Bada Business,Companies(Private),,"15, Okhla Phase 3, Okhla, New Delhi 110020, DL",+91-9810544443,,
8,Vestige Marketing Pvt Ltd,Companies(Private),,"94-A, 3, 1st Floor, Okhla Industrial Area, Phase-2, New Delhi 110020, DL","+91-11-43101234, +91-11-41708687",,
9,Digit Insurance,Companies(Private),,"95, Atlantis, 4th B Cross Road, Industrial Layout, 5th Block, Koramangala, Bengaluru 560095, KA",+1-800-258-5956,,
10,Stedman Pharmaceuticals Pvt Ltd,Companies(Private),,"3-A, Adyar Bridge Road, Adyar, Chennai 600020, TN",,,
11,HCL Technologies Ltd,Companies(Private),,"Plot No: 3A Technology Hub Sector 126 SEZ, Noida, 201303, UP",,,
12,Agricultural Development Trust,Companies(Private),,"Post Box No 35, Shardanagar, Malegaon Colony, Baramati 413115, MH",+91-2112-254256,,
13,Square Yards,Companies(Private),,,,,
14,Blue Cross Of India,Companies(Private),,,,,
15,Nav Nirman Formwork Systems Pvt Ltd,Companies(Private),,"6, Road No 7, IDA Nacharam, Hyderabad 500076, TS",+91-40-27150119,,
16,Sri Nachammai Cotton Mills Ltd,Companies(Private),,"30, Sugavaneswara Road, Balaji Nagar, Salem 636004, TN","+91-427-2330847, +91-427-2331879",,
17,Ethinos Digital Marketing,Companies(Private),,,,,
18,Dream To Fame,Companies(Private),,"56/10, Pushpanjali Apartments, Sector 10, Dwarka, New Delhi 110078, DL",+91-9810701669,,
19,Lotus Herbals Ltd,Companies(Private),,"2, Forest Lane, Near Ghitorni Metro Station, Sultanpur, New Delhi 110030, DL",+91-11-26541600,,
20,Indore Colour Organics Ltd,Companies(Private),,"61, Chemical House, Jawahar Marg, Indore 452004, MP","+91-731-2467847, +91-731-2361171",,
21,Kolath & Co,Companies(Private),,"41, 3951-A, ORS Road, Kacheripady, Kochi 682018, KL","+91-484-2397447, +91-9846036863",,
22,Bagalkot Cement & Industries Ltd (BCIL-Kanoria Group),Companies(Private),,"1st Floor, Bagalkot Cement & Industries Limited, Bagalkot 578111, KA",+91-8354-220252,,
23,Technomine HR & Consulting,Companies(Private),,,,,
24,Bajaj Holographics India Pvt Ltd ( Bajaj ),Companies(Private),,"150, Sector-6, Manesar, Gurgaon 122050, HR",+91-124-4367148,,
25,Makson Machinery Pvt Ltd,Companies(Private),,"3, Kumbharpara, Surendranagar 363002, GJ",+91-2752-221940,,
26,WATConsult,Companies(Private),,"1076, Parijat House, 5th Floor, Manjrekar Lane, Off Dr. E Moses Road, Worli, Mumbai 400018, MH",+91-22-67099200,,
27,Upkar Prakashan & Pratiyogita Darpan,Companies(Private),,"2/11-A, Pratiyogita Darpan, Swadeshi Bima Nagar, Agra 282002, UP","+91-562-4053333, +91-562-2530966",,
28,Gayetri Group,Companies(Private),,"2, 6-E, NICCO House, Hare Street, Kolkata 700001, WB",+91-33-22489766,,
29,Lavino Kapur Cotton Pvt Ltd,Companies(Private),,"121/122, Mittal Chamber, Nariman Point, Mumbai 400021, MH","+91-22-66325141, +91-22-25143437",,
30,Net Gully,Companies(Private),,"386/1-A, Jodhpur Park, Kolkata 700068, WB",+91-9836397132,,
31,Sutraa Creations Pvt Ltd,Companies(Private),,"C-21, 2nd Floor, Sector 2, Noida 201301, UP","+91-120-4226258, +91-120-4222863",,
32,EM Shivamani Engineering Pvt Ltd,Companies(Private),,"47-C, Bommasandra Industrial Area, Bengaluru 560099, KA",+91-9845002205,,
33,Jay Industries,Companies(Private),,"48/1, Rocky Industrial Estate, I B Patel Road, Goregaon East, Mumbai 400063, MH",+91-22-26853246,,
34,Deloitte Touche Tohmatsu India Pvt Ltd,Companies(Private),,"India Bulls, Finance Centre, Tower 3, 27th? 32nd Floor, Senapati Bapat Marg, Elphinstone Road West, Mumbai 400013, MH","+91-22-61854000, +91-22-61854400",,
35,Tata Consultancy Services Ltd,Companies(Private),,"Banyan Park, Suren Rd, Gundavali, Andheri East, Mumbai, 400093, MH",+91-2267793838,,
36,Green Mobiles,Companies(Private),,"369, 13th Cross, 30th Main, 2nd Stage, Banashankari, Bangalore 560070, KA",+91-9900205511,,
37,NICE,Companies(Private),,,,,
38,Sreeleathers,Companies(Private),,,,,
39,"Kohinoor Handicrafts, Moradabad",Companies(Private),,"45, Thatera Street, Moradabad 244001, UP",+91-591-9719012,,
40,Persistent Systems Ltd,Companies(Private),,,,,
41,Rapid Care Transcriptions Pvt Ltd,Companies(Private),,"2, 21, 41, VLV Complex, Mount Road, Little Mount, Saidapet, Chennai 600015, TN",,,
46,Azico Pharmaceuticals Pvt Ltd,Companies(Private),,"425, Door No 7-1-621/328, Sanjeeva Reddy Nagar, Hyderabad 500038, TS",,,
47,Sabs Exports,Companies(Private),,"C-103, Sector 63, Noida 201301, UP",+91-120-4029999,,
48,Metro Electronics,Companies(Private),,"25, 109, Sector 24, Shrinagar Society, Gandhinagar 382024, GJ",+91-79-23288929,,
49,Bharat Gas,Companies(Private),,,,,
50,Alacriti Infosystems Pvt Ltd,Companies(Private),,"80, 84, 8, Melange Tower, Madhapur White Fields, Kondapur, Hyderabad 500032, TS",+91-40-42617000,,
51,Shadowfax Technologies Pvt Ltd,Companies(Private),,"M-47, Old DLF Colony, Sector 14, Gurgaon 122001, HR",+91-22-69403666,,
52,Chemline India Ltd,Companies(Private),,"F-1, Sarda Chamber 1, Central Market Prashant Vihar, Rohini, New Delhi 110085, DL",+91-11-27555999,,
53,Success Manpower Services,Companies(Private),,"13-F, Suchita Business Park, Near Station Road, Ghatkoper, Mumbai 400077, MH",+91-9768181111,,
54,Rak Ceramics India Pvt Ltd,Companies(Private),,"325, 1st & 3rd Floor, Dheeraj Heritage, SV Road, Santacruz West, Mumbai 400054, MH",+91-22-26605913,,
55,Swift Global Shipping & Logistics,Companies(Private),,"135/101, Madhav Apartment, Sector 50, New Nerul, Navi Mumbai 400706, MH","+91-22-27563312, +91-22-27563313",,
56,Gateway Techno Solutions,Companies(Private),,,,,
57,Hempel Paints India Pvt Ltd,Companies(Private),,"801, 8th Floor, Vikas Center, C Gidwani Road, Chembur, Mumbai 400074, MH","+91-8046028972, +91-22-61392555",,
58,Tyche Industries Ltd,Companies(Private),,"C21/A, Road No 9, Film Nagar, Jubilee Hills, Hyderabad 500033, TS","+91-40-23541688, +91-40-23540733",,
59,Collegedunia Web Pvt Ltd,Companies(Private),,"A1/17, 1st Floor, Prashant Vihar, Sector 14, New Delhi 110085, DL",+91-11-45588657,,
60,GST Corporation Ltd,Companies(Private),,"B-13, Okhla Phase 2, Okhla Industrial Area, New Delhi 110020, DL",+91-11-48323232,,
61,Urban Ladder,Companies(Private),,"77, 4th Floor, Town Centre, Building, Off HAL Airport Road, West Wing, Yemalur, Bangalore 560037, KA",+91-80-67400200,,
62,Bandhan Bank Ltd,Companies(Private),,"DN 32, Sector 5, Salt Lake City, Kolkata 700091, WB","1800-258-8181, +91-33-66090909, +91-33-66333333",,
63,LinkIntime India Pvt Ltd,Companies(Private),,"C-13, Pannalal Silk, Mills Compound, LBS Marg, Bhandup West, Mumbai 400078, MH","1800-220-878, +91-22-25963838, +91-22-25960320",,
64,Bhayani Plastic India Pvt Ltd,Companies(Private),,"P-33, EOU, The Vyasarpadi Co-Oporetion Industrial Estate, EH Road, Chennai 600039, TN","+91-44-25511228, +91-44-25520447",,
65,Pi Overseas,Companies(Private),,,,,
66,Hindustan Hardy Spicer Ltd,Companies(Private),,"12-C, MIDC, Ambad Industrial Area, Nashik 422010, MH",+91-253-2382018,,
67,Jabbar Travels,Companies(Private),,"19/3, TSP Road, Kalasipalyam, Bangalore 560002, KA",+91-80-26700156,,
68,Jindal Worldwide Ltd,Companies(Private),,"Jindal House, Opposite D Mart, IOC Petrol Pump Lane, Shivranjani, Ahmedabad 380015, GJ",+91-79-71001500,,
69,Associated Advertising Pvt Ltd,Companies(Private),,"550/A-1, 92, Film Nagar, Jubilee Hills, Hyderabad 500034, TS","+91-40-23557235, +91-40-23551095",,
70,Aarti Industries Ltd,Companies(Private),,"2nd Floor, Udyog Kshetra, Mulund Goregaon Link Road, Mulund West, Mumbai 400080, MH",+91-22-67976666,,
71,General Imsubs Pvt Ltd,Companies(Private),,"3711-A, GIDC, Phase 4, Vatva, Ahmedabad 382445, GJ",+91-79-40085985,,
72,Silver Touch Technologies Ltd,Companies(Private),,"Saffron Tower, 2nd Floor, Near Panchwati Circle, Panchwati, Ahmedabad 380015, GJ",+91-79-40022774,,
73,Redbus.in (Ibibo),Companies(Private),,"314/1, 3rd Main, 7th Cross, Domlur Layout, Bangalore 560071, KA","+91-80-30916625, +91-80-30038301",,
74,uFaber Edutech Pvt Ltd,Companies(Private),,,,,
75,Girija Welfare Association,Companies(Private),,,,,
76,RTC Restaurants India Ltd,Companies(Private),,"703 & 705, Chiranjiv Tower 43, Nehru Place, New Delhi 110019, DL","+91-11-26447971, +91-11-26447972",,
77,UFlex Ltd,Companies(Private),,"A-108, Sector 4, Noida 201301, UP","+91-120-4012345, +91-120-3982121",,
78,Royal Migration Solutions,Companies(Private),,"312, Clover Bay Tower, Business Bay, Dubai, UAE 42700 Dubai, United Arab Emirates",+971-4436-5260,,
79,Aditi Technologies Pvt Ltd,Companies(Private),,,,,
80,GST Suvidha Kendra,Companies(Private),,,,,
81,Godrej & Boyce Manufacturing. Co. Ltd.,Companies(Private),,,,,
82,Peoples Prop Solution,Companies(Private),,,,,
83,Holiday Stationstores,Companies(Private),,,,,
84,Elegant Associates,Companies(Private),,"3, Perumpilly Building, Opposite Marajas College, Ground Stop, Ernakulam 682011, KL","+91-484-2350484, +91-484-3040318",,
85,Somatico Pharmacal Pvt Ltd,Companies(Private),,"C-469, MIDC, TTC Industrial Area, Pawane, Navi Mumbai 400705, MH",,,
90,Virupaksha Organics,Companies(Private),,"B-4, IDA Industrial Area, Hyderabad 500037, TS",+91-40-23075816,,
91,Mysore Sales International Ltd (MSIL),Companies(Private),,"36, MSIL House, Cunningham Road, Bangalore 560052, KA",+91-80-22264021,,
92,Orange Foodstuff Equipment Pvt Ltd,Companies(Private),,"29, Kukreja Plaza, Below Hotel K-Star, Sector 11, CBD Belapur, Navi Mumbai 400614, MH",+91-22-41233660,,
93,Wipro Ltd,Companies(Private),,"Kaverappa Industrail Area, Stage 2, BTM Layout 2nd Stage, Bengaluru, 560076, KA",,,
94,Estuate Software Pvt Ltd,Companies(Private),,,,,
95,Shyam Advisory Ltd,Companies(Private),,"Shyam House, Near Ambika Park Society, Hanuman Madhi Chowk, Limda Chowk, Raiya Road, Rajkot 360007, GJ",+91-281-6455555,,
96,GlobalHunt India Pvt Ltd,Companies(Private),,"45-E, 6, Okhla, Phase 2, New Delhi 110020, DL",+91-11-46547700,,
97,XOR Solutions,Companies(Private),,,,,
98,Centre For Science And Environment,Companies(Private),,"41, Tughlakabad Institutional Area, New Delhi 110062, DL","+91-11-40616000, +91-11-29955124",,
99,Kendriya Vidyalaya Sangathan,Companies(Private),,,,,
100,Herbalife International India Pvt Ltd,Companies(Private),,"14, Vaswani Wishire, Commissariat Road, Bengaluru 560025, KA",,,
101,Vanshik Clothing Pvt Ltd,Companies(Private),,"E-11/12, SV Road, Khira Nagar, Santacruz West, Mumbai 400054, MH",+91-22-26614632,,
102,SMC Global Securities Ltd,Companies(Private),,"11/6B, Shanti Chamber, 1st Floor, Main Pusa Road, New Delhi 110005, DL",+91-11-30111000,,
103,Tradebulls,Companies(Private),,,,,
104,National Minorities Development & Finance Corporation ( NMDFC ),Companies(Private),,"Core 1, 1st Floor, Scope Minar, Laxmi Nagar, New Delhi 110092, DL","+91-11-22441444, +91-11-22441442",,
105,Ocean Gateways,Companies(Private),,,,,
106,Yash Engineering Industries,Companies(Private),,"Opposite Bharat Gas Godown, GIDC, Antalia, Bilimora 396325, GJ",+91-9374961774,,
107,Capital Float,Companies(Private),,"222/14, 3rd Floor, 5th Main, Bellary Road, Sadashivnagar, Bangalore 560080, KA",+91-80-67683920,,
108,Comsys Advertising And Internet Marketing Pvt Ltd,Companies(Private),,"2nd Floor, T D Road, Kochi 682011, KL",+91-9895933339,,
109,Dewsoft Overseas Pvt Ltd,Companies(Private),,,,,
110,KaaShiv InfoTech,Companies(Private),,"16/1, Round Building, Near To Chennai Public School, Radial Colony, Anna Nagar, Chennai 600101, TN",+91-7667668009,,
111,Abhinav Immigration,Companies(Private),,"307/6, Devika Tower, 3rd Floor, Nehru Place, New Delhi 110019, DL",+91-8595338595,,
112,Mindteck India Ltd,Companies(Private),,,,,
113,Sony Entertainment Television,Companies(Private),,,,,
114,Fujitsu India Ltd,Companies(Private),,,,,
115,Agilyst Consulting Pvt Ltd,Companies(Private),,"1-B, Rajiv Gandhi Chandigarh Technology Park, Kishangarh, 160101, CH","+91-172-4686666, +91-172-6633600",,
116,Ashapura Forwarders Pvt Ltd (Ashapura),Companies(Private),,"705, CTS No 337/1, Sai Samartha, Deonar Village Road, Govandi East, Mumbai 400088, MH","+91-22-42292151, +91-22-42292157",,
117,Paranjape Schemes,Companies(Private),,"PSC House, Dr.Ketkar Road, Off Prabhat Road, Pune-411 004",+91-9672559666,,
118,IBGrid,Companies(Private),,"63, Prakruti Bungalows, Sterling City,Bopal, Ahmedabad, Gujarat",,,
119,Goloka IT,Companies(Private),,,,,
120,Telesense Digital,Companies(Private),,,,,
121,Vedikar Software,Companies(Private),,"3rd Floor, J-4-A Gali No.6 , Laxmi Nagar - 110092, New Delhi","+91-9334158076, +91-9110099122",,
122,VIP Home,Companies(Private),,"HB – 9, Babu Lalchand Chajlani Rd, Nalanda Parisar, Indore, Madhya Pradesh",+91-9406681963,,
123,Google Ads,Companies(Private),,,,,
124,Rob Tech World,Companies(Private),,"402 4th Floor Trishla Little Peer Muchalla, Zirakpur, Punjab","+91-7876715398, +91-1792528234",,
125,Negocio Technologies,Companies(Private),,,,,
126,Excellence Technology,Companies(Private),,,,,
127,Ampersand Group,Companies(Private),,,,,
128,J K Jain Buildtech India,Companies(Private),,"H. No. 24, Nabin Chandra Boro Path, Katabari, PO/PS Garchuk, Guwahati 781035,AS","+91-9312841756, +91-9311841756",,
129,Alita Infotech,Companies(Private),,"330-335, The Galleria, Near Sanjeevkumar Auditorium, Opp. New RTO, Pal, Adajan, Surat - 395009, Gujarat",+91-9328232522,,
134,Envato Elements Pty Ltd,Companies(Private),,,,,
135,AbsMLM,Companies(Private),,"No. 5/3,1st Floor, 2nd Thiruvengadam Street, , Door No. 1/142, P.H.Road, Sivapootham, Vanagaram, Chennai 600095,TN",+91-9790033633,,
136,Meena Medico Agency,Companies(Private),,"Munger Ghat - Rashidpur Rd, Daniyalpur, Teghra 851133, Bihar",+91-9199802393,,
137,SVS Engineerings,Companies(Private),,"No 10/28 Thirupathi Kudai Road, Kalaivanar Nagar, Athipet Chennai 600058,TN","+91-9080522121, +91-9841075373",,
138,Dimax One,Companies(Private),,,,,
139,Indian Educational Services,Companies(Private),,,,,
140,Cliffguard Cyber Security,Companies(Private),,,,,
141,Otdp,Companies(Private),,"3c, Jamal Fazal Chambers, 26, Greams Road, Chennai,Tamil Nadu",+91-4442176630,,
142,Marketing Cafe,Companies(Private),,"Unit A1 - 506, BHARAT CITY, INDRA PRASTHA YOJANA, GHAZIABAD - 201003",+91-9717687648,,
143,Surya Masterbatches,Companies(Private),,+91-9810006430,,,
144,Modern Veer Rays Security Force,Companies(Private),,,,,
145,Swaraj,Companies(Private),,,,,
146,Digital Upshot,Companies(Private),,,,,
147,Webmite Technologies,Companies(Private),,,,,
148,The Tax Heaven,Companies(Private),,"F-14/15, Orbit Mall, Civil Lines, Jaipur-302006",+91-8209408748,,
149,Tripledots Software Services,Companies(Private),,"Sharda Battery Ln, Kumhartoli, Piska More, Ratu Road, Ranchi, Jharkhand",+91-8797107721,,
150,N R Steels,Companies(Private),,"Opp New R.V. Denim, B/H Ikra Education Narol-Sarkhej Highway, Shahwadi, Ahmedabad, Gujarat","+91-9824090109, +91-9824024295",,
151,Adarsh Stainless,Companies(Private),,"Moti Mansion Building, 5th Floor, Office No. 70, 5th Khetwadi Lane, Mumbai-400004","+91-9920787848 ,+91-2266581690",,
152,Iteshub Technologies,Companies(Private),,"Plot No 38, Near Gita Girls School, Amin Road, Kurukshetra 136118, Haryana","+91-8607224466, +91-7015812890",,
153,Inlogix Infoway,Companies(Private),,"C-329,Siddhivinayak Bussiness Tower, Near Kataria Automobiles, Makarba,Ahmedabad 380051,GJ",+91-9328530271,,
154,WNS Global Services,Companies(Private),,"Plant No. 10/11, Gate No. 4, Godrej & Boyce Complex, Pirojshanagar, Vikhroli (West), Mumbai – 400 079",+91-2268262100,,
155,SKS Tech Solution,Companies(Private),,"A 22, A Block, Sector 4, Noida 201301",,,
156,Amanya RA Softech,Companies(Private),,"SA 13/46 KM ASHOKA ENCLAVE, Sarnath, Varanasi - 221007, Uttar Pradesh",+91-9686391081,,
157,Himgiri Automobiles,Companies(Private),,,,,
158,Zonma Tech,Companies(Private),,,,,
159,Mckbytes Technologies,Companies(Private),,,,,
160,V2Soft,Companies(Private),,,,,
161,Greetcart Digital Agency,Companies(Private),,,,,
162,Futura Kitchen Sinks Ind,Companies(Private),,"2/2, Mandoth Mansion, 1st Main, BTS Main Rd, Lakkasandra Extension, Wilson Garden, Bengaluru 560030,KA",+91-482757575,,
163,Perfex Technologies,Companies(Private),,"3rd Floor, Akshaya Arcade, Plot no.5, Amar society, Madhapur, Hyderabad, Telangana 500033",+91-4066612999,,
164,Volza,Companies(Private),,,,,
165,MariApps Marine Solutions,Companies(Private),,"MariApps House, Plot No A2-09, SmartCity Kochi SEZ, Kakkanad, Ernakulam, Kochi 682042,KL",+97-1559607218,,
166,Robocon CNC,Companies(Private),,"Sr. no.31/1 Khedekar Industrial Estate, Narhe Pune",+91-9823190181,,
167,Robocon Cnc,Companies(Private),,,,,
168,Evon Stone Ceramics,Companies(Private),,,,,
169,ZIIM,Companies(Private),,"ring road i-146 2nd floor ,DSR Tower, Nehru Colony, Dehradun, Uttarakhand 248001, Dehra Dun, Uttarakhand",+91-08979521133,,
170,Business Mantra,Companies(Private),,"A - 104-105, Knox Plaza, Near Vibgyor School, Mindspace Malad West, Mumbai 400064,MH","+91-7043739901, +91-7043449901",,
171,Workfolic Enterprises,Companies(Private),,"Office No. 1606, Tower-S-3, Rishabh Cloud-9, Sector-1, Vaishali, Ghaziabad, U.P",+91-8630851074,,
172,Alrite Infotech,Companies(Private),,"1st floor, Padma Nivas, Second Cross Rd, Hindwadi, Belagavi 590011, Karnataka",+91-088824570,,
173,Think Straight,Companies(Private),,"Unit no. 1227 ,1228, Tower C in Alphathum, Sector 90, Noida, Uttar Pradesh",+91-9958159213,,
178,Spacebucks Advisory,Companies(Private),,"509, V Times Square, Sector 15, CBD Belapur,Navi Mumbai 400614,MH",+91-8793061753,,
179,EIBO Services,Companies(Private),,,,,
180,Swan Group,Companies(Private),,"Plot No. F-453, Phase-8 B, Industrial Area, SAS Nagar, Mohali",+91-8568035998,,
181,Opyra Infotech,Companies(Private),,,,,
182,Sabine Immigration,Companies(Private),,"No. 756, 2nd Floor, Jayanagar 4th Block, Bengaluru 560011,KA",+91-9740245941,,
183,Cloudmonte Technologies,Companies(Private),,"C-31 2nd Floor, C Block, Sector 6, Noida 201301,UP",+91-9310338284,,
184,Rjs Digi,Companies(Private),,,,,
185,Anubhav Advertiser,Companies(Private),,,,,
186,Shield AI Technologies,Companies(Private),,,,,
187,Coders Mind,Companies(Private),,,,,
188,Arti Electrical Consultant and License Contractor,Companies(Private),,,,,
189,Intent Farm Digital Ads and SEO Agency,Companies(Private),,"Omkar Ananta, C206, General Arun Kumar Vaidya Marg, Laxmi Nagar, Municipal Colony, Goregaon, Mumbai, Maharashtra",+91-9552219712,,
190,Landmark Homes,Companies(Private),,+91-9256034567,,,
191,Vaishnavi Packers & Movers,Companies(Private),,"34, Tollygunge Circular Rd, near Anandamayee Kali Mandir, Buroshibtalla, New Alipore, Kolkata, West Bengal 700053",+91-8967154781,,
192,Online Ads Agency,Companies(Private),,,,,
193,Greemus Technologies,Companies(Private),,"Flat no 604 Manjeera Majestic Commerical Beside Manjeera Mall, Kukatpally Housing Board Colony, Kukatpally, Hyderabad 500072, Telangana",+91-4040156759,,
194,Neue Page Service,Companies(Private),,"New No.1, Muneshwara Temple Nadugada, 1, 24th E Cross Rd, Ejipura, Bengaluru 560047, Karnataka",+91-8554349100,,
195,Digisocialmark,Companies(Private),,"Tarnaka, Hyderabad, India",+91-6302159018,,
196,Vishwas Society for Mental Health,Companies(Private),,"203, “Suraj Plaza”, 2nd Floor 196/8, 8th ‘F’ Main, KEB Office Road 3rd Block Jayanagar, Bangalore 560011,KA","+91-6364320707, +91-6364420707",,
197,Manohar Bankers,Companies(Private),,,,,
198,Birla e-bike,Companies(Private),,"C/o Saboo Tor Pvt. Ltd. (Unit IV), Trilokpur Road, Kala Amb, Sirmaur 173030,HP",+91-9882060070,,
199,Truevisory Realty,Companies(Private),,,,,
200,Valueline,Companies(Private),,,,,
201,Device Doctor India,Companies(Private),,"42, Sukhdev, near Maharana Pratap Marriage Garden, Kota 324002,RJ",+91-8114471036,,
202,BM Digital Utilization,Companies(Private),,"B-41 , B Block . Office No. G-04 , Sector- 63 Noida 201301,UP","+91-75994 90885, +91-96673 71301",,
203,Glass Manufacturer,Companies(Private),,,,,
204,Hosting Home,Companies(Private),,,,,
205,Cendrol Constructions,Companies(Private),,"299-288, 3rd floor Outer Ring Rd, Jeewan Griha Colony, 2nd Phase, JP Nagar, Bangalore 560076,KA",+91-974-197-7477,,
206,Transdigital Technology Services,Companies(Private),,"Pranik Chambers, A-213, Saki Vihar Rd, Tunga, Ansa Industrial Estate, Nair Wadi, Asalpha, Mumbai 400072,MH",+91-9987638215,,
207,Designing Mafia,Companies(Private),,"G-62, Near Temple Govindpuram, 201013 Ghaziabad",+91-9818941798,,
208,Kapil Packaging,Companies(Private),,"Plot no. 40, Pocket-C, Sector-4, DSIIDC, Bawana Industrial Area, Delhi",+91-9899292292,,
209,DeveloperBox Innovations,Companies(Private),,,,,
210,Tomar Construction,Companies(Private),,,,,
211,Webesta Solutions,Companies(Private),,+91-6205488859,,,
212,TipTop Planet,Companies(Private),,,,,
213,Jayna Technologies,Companies(Private),,"S-11, Opp. BSNL Telephone Exchange, Near Rajasthani Boutique, Avas Vikas, Roorkee",+91-8791343936,,
214,Avid Brio,Companies(Private),,"Ahmedabad, Gujarat, India",+91-919-300-6224,,
215,Physics Wallah,Companies(Private),,,,,
216,Estrrado Technology Solutions,Companies(Private),,"ACE 07, 3rd Floor, CDAC Building, Technopark Campus Trivandrum – 695581, Kerala",+91-977840817,,
217,Giec Global,Companies(Private),,"1510A, 3rd Floor, Street No. 1, South Extension I, Wazir Nagar, New Delhi, Delhi",+91-8287070528,,
222,Webtech Core,Companies(Private),,+91-9110170824,,,
223,24Bit System,Companies(Private),,"Shop No 4, 1st Floor,Sector 27 Noida",+91-7840002466,,
224,Brand Liaison India,Companies(Private),,"110, Sharma Complex A-2, Guru Nanak Pura, Laxmi Nagar Delhi 110092, DL","+91-8130615678, +91-9250056788, +91-9810363988, +91-1142686678",,
225,Analytical Technologies Limited,Companies(Private),,"67 & 68, Ravi Park Opp.Sainath park Vasna Road, Baroda 390015,GJ",+91-2652253620,,
226,Corefield Technologies,Companies(Private),,,,,
227,Eviig,Companies(Private),,"Dahisar, Mumbai",+91-9082556032,,
228,Digitverse,Companies(Private),,,,,
229,Purple Pro Media,Companies(Private),,,,,
230,Raghuram Pradeep Constructions (India),Companies(Private),,"Raghuram Infrastructure (India) Private Limited, H.No: 8-1-305 & 306, Flat No: 601, Anand Silicon Chip,Toli Chowki, Hyderabad 500008,TL",+91-7070787979,,
231,Agacs Pvt Ltd,Companies(Private),,"501, 5th Floor, Sai Tirumala Towers, Hyderguda – Basheerbagh Main Road, Hyderabad 500029,TL","+91-9505000900, +91-8801571290",,
232,Synergyooh,Companies(Private),,"94/148, Madhyam Marg, Mansarovar Sector 9, SFS, Mansarovar, Jaipur 302020,RJ",+91-9314072430,,
233,Xiimba Ecosystems,Companies(Private),,,,,
234,Digital Script,Companies(Private),,,,,
235,Alpha Sand,Companies(Private),,"Om Sri Annapoorneshwari Devi Complex, No. 2/A, 3rd floor, 6th main, MS Ramaiah Enclave Main Rd, Near IKEA Nagasandra, Nagasandra Post, Bengaluru 560073,KA",+91-6366828282,,
236,Penclusive,Companies(Private),,,,,
237,Web Climbers SEO,Companies(Private),,"New Delhi 5/F, Caddie Commercial Tower, Aerocity, New Delhi, India",,,
238,Legal Responser,Companies(Private),,"Gurugram, India",+91-8744908231,,
239,Coherent Market Insights,Companies(Private),,"203, 2nd Floor, Bremen Business Center, Aundh, Pune, Maharashtra",+91-8482850837,,
240,Netfosys Global,Companies(Private),,,,,
241,SymphonyAI,Companies(Private),,,,,
242,Cheapohosting,Companies(Private),,"aipur, Rajasthan, India",+91-7976232195,,
243,Zealotech,Companies(Private),,"301, Genesis Office, 3rd Floor, Panchasheel Nagar, Mumbai Naka, Nashik 422002, MH",+91-253- 4037442,,
244,Yuvatha Ngo,Companies(Private),,"1-7-139/72/A-1, SRK Nagar, Golconda Cross Roads, Musheerabad, Hyderabad 500020, TS",+91-9704111841,,
245,Yein Udaan,Companies(Private),,"8-B/53, Wellingdon Estate, Commander In Chief Road, Egmore, Chennai 600008, TN",+91-9962281019,,
246,VPRP and Co,Companies(Private),,"B-013, Western Edge-II, Borivali East, Mumbai 400066, MH","+91-22-65074041, +91-9326367265",,
247,VJM and Associates,Companies(Private),,"44, Regal Building, Backary Portion, 2nd Floor, New Delhi 110001, DL","+91-9891576441, +91-9213397070, +91-9911887030",,
248,Vijay R Singh and Co,Companies(Private),,"5-B, Savitri Sadan, Sharma Compound, Opposite Abhyudya Bank, Old Nagardas Road, Andheri East, Mumbai 400069, MH","+91-22-28389228, +91-7700007801, +91-7718904090, +91-7900179494",,
249,Victory Art Foundation,Companies(Private),,"1203, Marathon Icon, Opposite Peninsula Park, Ganpatrao Kadam Marg, Lower Parel West, Mumbai 400013, MH",+91-22-61543000,,
250,Vatsalya Trust,Companies(Private),,"11, Near Oriemtal College, Sector 2, Sanpada, Navi Mumbai 400705, MH","+91-8422883141, +91-8422883148, +91-8591046910",,
251,Vasantha Memorial Trust,Companies(Private),,"A-106, Kailash Industrial Complex, Vikhroli Powai Link Road, Vikhroli West, Mumbai 400079, MH","+91-9791048379, +91-9894089379",,
252,VAP and Associates,Companies(Private),,"01 & 02, Nidhi Mudra Apartments, Ambapeth, Amravati 444601, MH",+91-721-2568078,,
253,Umang foundation,Companies(Private),,"1506, Ruby Building, Nirmal Lifestyles Residency, Phase 2, LBS Marg, Mulund West, Mumbai 400080, MH",+91-9819940222,,
254,Udyogini,Companies(Private),,"D-17, Basement, Saket, New Delhi 110017, DL",+91-9319620533,,
255,Udyogamitra,Companies(Private),,"142, Cabin 5, 1st Floor, 5th Main Road, 6th Sector, HSR Layout, Bengaluru 560102, KA",,,
256,Udaan India Foundation,Companies(Private),,"Unit No 306/2, Kailas Industrial Complex, A Wing, Veer Sawarkar Marg, Parksite, Vikhroli West, Mumbai 400079, MH",+91-9967885468,,
257,Trishul,Companies(Private),,,,,
258,Travancore Aerospace,Companies(Private),,"A-35-D, K Infra International Apparel Park, Block No 10, Menamkulam, Trivandrum 695586, TN","+91-9400332189, +91-9446387498, +91-471-2707979",,
259,Tisa Aerospace,Companies(Private),,"60-A, IDA, Gandhi Nagar, Kukatpally, Hyderabad 500037, TS",,,
260,The Vatsalya Foundation,Companies(Private),,"Anand Niketan, King George V Memorial, Dr. E. Moses Road, Mahalaxmi West, Mumbai 400011, MH",+91-9324989743,,
261,The Kutumb Foundation,Companies(Private),,"322/126, IGNOU Road, Neb Sarai, New Delhi 110068, DL",,,
266,The Indianness,Companies(Private),,,,,
267,The Bombay Community Public Trust,Companies(Private),,"302, Bezzola Complex, 3rd Floor, A wing, Sion-Trombay Road, Chembur, Mumbai 400071, MH",+91-9869024625,,
268,The Aured Charitable Trust,Companies(Private),,"Anand Niketan, King George Vth Memorial, Barrack No 6, Dr. E. Moses Road, Mahalaxmi, Mumbai 400011, MH","+91-22-24926721, +91-9820174677",,
269,The Akshaya Patra Foundation,Companies(Private),,"203, Dheeraj Heritage, S.V. Road, Santacruz West, Mumbai 400064, MH",+91-9820160463,,
270,The Akanksha Foundation,Companies(Private),,"Voltas House, B-Wing, T.B Kadam Marg, Chinchpokli, Mumbai 400038, MH",,,
271,Thales,Companies(Private),,"Tour Carpe Diem, PARIS, FR",,,
272,Team Management Services,Companies(Private),,"1003/04, G-Square Business Park, 10th Floor, Above Kalyan Jewellers, Railway Station, Jawahar Road, Saibaba Nagar, Pant Nagar, Ghatkopar East, Mumbai 400077, MH","+91-224-1498942, +91-224-8967640",,
273,Teach A Class Foundation,Companies(Private),,"4/B-01, Phoenix Paragon Plaza, LBS Marg, Kurla West, Mumbai 400070, MH",+91-8826001460,,
274,Tata Advanced Systems,Companies(Private),,"21, Survey No 1/1, Hardware Park, Imarat Kancha Raviryala Village, Maheshwaram Mandal, Hyderabad 501218, TS",,,
275,Taj Public Service Welfare Trust,Companies(Private),,"Barrister Rajini Patel Marg, Nariman Point, Mumbai 400021, MH",+91-22-61371710,,
276,Tactics Management Services,Companies(Private),,"201, Gulmohar Complex, 2nd Floor, Station Road, Goregaon East, Mumbai 400063, MH","+91-9594521414, +919619666036",,
277,T Nagar and Co,Companies(Private),,"MS-43, Sector D, Aliganj, Lucknow 226024, UP",+91-522-4011830,,
278,Swasti Health Resource Center,Companies(Private),,"25, Raghavendra Nilaya, AECS Layout, Ashwathnagar, Bengaluru 560094, KA",+91-80-23419616,,
279,Sunil Keswani and co,Companies(Private),,"31, Near Banthia Hospital, Ravi Nagar, Rajatalab, Raipur 492001, CG",+91-771-4035683,,
280,Solidarity Foundation,Companies(Private),,"8, Tom Villa, Sweet Water Well Road, RMV 2nd Stage, Nagashettyhalli, Bengaluru 560094, KA",+91-80-40990154,,
281,Smile Foundation,Companies(Private),,"161/B-4, Gulmohar House, 3rd Floor, Community Centre, Yusuf Sarai, New Delhi 110049, DL","+91-11-43123700, +91-11-41354564, , +91-11-41354565, +91-11-41354566",,
282,Sika Interplant Systems,Companies(Private),,"3, Dr. Sharma Building, Gangadhar Chetty Road, Ulsoor Lake, Bengaluru 560042, KA",+91-80-49299144,,
283,Shrimad Rajchandra Love and Care,Companies(Private),,"13, Patel Chambers, 3rd Floor, Mathew Road, Opera House, Mumbai 400004, MH",+91-9820007752,,
284,Shreeram Aerospace and Defence,Companies(Private),,"2320/1-B & 2321, Road No 8-F, Gate No-2, GIDC, Metoda, Rajkot 360021, GJ","+91-2827-297980, +91-2827-297981",,
285,Shraddha Charitable Trust,Companies(Private),,"M.P. MILL Compound, 4th Floor, Next To Imperial Tower, Tardeo, Mumbai 400034, MH","+91-9820904079, +91-22-23513735",,
286,Shilpa Foundation,Companies(Private),,"42, Brigade Software Park, B Block, 27th Cross, 2nd Stage, Banashankari, Bengaluru 560070, KA",+91-9845062227,,
287,Sharp Hrd Service,Companies(Private),,"205/206, New Laxmi Industrial Premises Co-operative Housing Society Limited, Near Dahisar Check Naka, Mira Road East, Thane 401104, MH","+91-7208015061, +91-7777023420",,
288,SGX Minerals,Companies(Private),,"401, Unique Tower, 4th Floor, Off. SV Road, Goregaon West, Mumbai 400062, MH",,,
289,Sevalaya,Companies(Private),,"F-2/12, Pushkarani Apartment, 1st Floor, Ananda Road, Alwarpet, Chennai 600018, TN",+91-9710907675,,
290,Selco Foundation,Companies(Private),,"690, 15th Cross Road, Jeewan Griha Colony, 2nd Phase, J.P Nagar, Bengaluru 560078, KA","+91-80-26493145, +91-9900025660",,
291,Sehgal Foundation,Companies(Private),,"34, Sector 44, Institutional Area, Gurugram 122003, HR",+91-124-4744100,,
292,Score Foundation,Companies(Private),,"17/107, Vikram Vihar, Lajpat Nagar IV,New Delhi 110024, DL",+91-11-41600330,,
293,Save The Children India,Companies(Private),,"SF-9, G Block, Behind Citi Bank, Bandra Kurla Complex, Bandra East, Mumbai 400098, MH",+91-22-26520601,,
294,Savage and Palmer,Companies(Private),,"Popular Press Building, 1st Floor, Opposite Sobo Central Mall, Tardeo, Mumbai 400034, MH",+91-9136398219,,
295,Sapthagiri Aerospace and Defence,Companies(Private),,"939, Kempe Gowda Industrial Estate, 2nd Stage, Kamakshipalya, Main Road, Magadi, Bengaluru 560079, KA",+91-8892830838,,
296,Sappacc,Companies(Private),,"8-BH, Opposite Bandra Railway Station, Nutan Nagar, Bandra West, Mumbai 400050, MH",+91-9594636465,,
297,Sapne Ngo,Companies(Private),,"Rohini, Delhi 110084, DL",+91-8447058009,,
298,Samarth Bharat,Companies(Private),,"4B, District Center, 1st Floor, Tower B, Mayur Vihar Extension, New Delhi 110091, DL",+91-8595887700,,
299,Salaam Baalak Trust,Companies(Private),,"Bal Bhavan, Netaji Subhash Marg, Charni Road West, Mumbai 400004, MH",+91-9820286015,,
300,Sagar Defence Engineering,Companies(Private),,"Triveni Krupa, Opposite Amba Mata Mandir, Carter Road No 3, Borivali East, Mumbai 400066, MH",+91-9034966650,,
301,Sachin Ranbhise and Associates,Companies(Private),,"301, Town Square, Above Dorabjee Mall, Viman Nagar, Pune 411014, MH","+91-9881130172, +91-8484042455",,
302,S K Agrawal and Co,Companies(Private),,"606/08/1865, The Chambers, Opposite Gitanjali Stadium, Main Road, Rajdanga, Kolkata 700107, WB",+91-33-40089902,,
303,RSM India,Companies(Private),,"Technopolis Knowledge Park, 3rd Floor, A-Wing, Mahakali Caves Road, Mumbai 400093, MH",+91-22-61085555,,
304,Rnisarg Foundation,Companies(Private),,"Senses Eye & ENT Hospital, Beauty Arcade, 2nd Floor, Opposite To Pratap Talkies, Khopat, Thane 400601, MH","+91-9323783266, +91-9820012496",,
305,RiverCross,Companies(Private),,"B-104, Sahayog Co-operative Housing Society, 1st Floor, Above Central Bank Of India, S.V. Road, Kandivali West, Mumbai 400067, MH",+91-8082643857,,
310,Rawmin,Companies(Private),,"94-A/224, Mittal Court, Nariman Point, Mumbai 400021, MH","+91-22-22829191, +91-22-22829192",,
311,Randstad India,Companies(Private),,"1, Randstad Towers, Main Guard Cross Road, Tasker Town, Shivajinagar, Bengaluru 560001, KA",,,
312,Ramniklal Zaverbhai Shah Trust,Companies(Private),,,,,
313,Rajput Jain and Associates,Companies(Private),,"303/2, Jolly Bhawn, Ne Marine Lines, Churchgate, Mumbai 400020, MH",+91-9811322785,,
314,R Nanabhoy and Co,Companies(Private),,"221, Sadhana Rayon House, 1st Floor, Dadabhai Naoraji Road, Borabazar Precinct, Ballard Estate, Fort, Mumbai 400001, MH",+91-22-23801307,,
315,Pravaha Foundation,Companies(Private),,"8001, Q-City, 8th Floor, Nanakramguda, Gachibowli, Hyderabad 500032, TS",,,
316,Pratham Education Foundation,Companies(Private),,"Y. B. Chavan Center, 4th Floor, Gen. J. Bhosale Marg, Nariman Point, Mumbai 400021, MH","+91-22-22819561, +91-22-22819562",,
317,Pkf S and S,Companies(Private),,"91/92, 7th Floor, Dr. Radhakrishnan Salai, Mylapore, Chennai 600004, TN","+91-44-28112985, +91-44-28112986, +91-44-28112987, +91-44-28112988",,
318,Patron Accounting,Companies(Private),,"223/14-B, Adarsh Nagar Co-operative Housing Society Limited, Veer Nariman Road, Centuary Bazar, Worli, Mumbai 400030, MH",+91-7217790469,,
319,Pasi India Services,Companies(Private),,"309, Old Mahabalipuram Road, Sholinganallur, Chennai 600119, TN",+91-9270479053,,
320,Parvaha Foundation,Companies(Private),,"8001, Q-City, 8th Floor, Nanakramguda, Gachibowli, Hyderabad 500032, TS",,,
321,Parivartan,Companies(Private),,"Behind Welcome Park, Malewadi, Kherdi, Chiplun, Ratnagiri 415604, MH","+91-2355-256052, +91-2355-254740",,
322,Paras Defence and Space Technologies,Companies(Private),,"D-112, TTC Industrial Area, Nerul, Navi Mumbai 400706, MH",+91-22-69199999,,
323,Paragon Charitable Trust,Companies(Private),,"India Habitat Centre, Zone VA, 1st Floor, Lodhi Road, New Delhi 110003, DL","+91-11-24644006, +91-11-24611324",,
324,P Raj and Co,Companies(Private),,"94-C, Mittal Court, Nariman Point, Mumbai 400021, MH","+91-22-49682075, +91-22-49682074",,
325,P R Bhuta and Co,Companies(Private),,"2-I, Jeevan Sahakar, 2nd Floor, Sir Phirozshah Mehta Road, Fort, Mumbai 400001, MH","+91-22-22660010, +91-22-22663427, +91-22-43471727",,
326,Oxfam India,Companies(Private),,"1, Malhan Business Center, 2nd Floor, Sunlight Colony 2, Ashram, New Delhi 110014, DL",+91-9958992255,,
327,Nudge Foundation,Companies(Private),,"15/19, Near APJ Abdul Kalam Enclave, Aswath Nagar Service Road, Dodda Nekkundi Extension, Marathahalli, Bengaluru 560037, KA",,,
328,Nspire Aerospace,Companies(Private),,"B-250, Royal Palms, ORM Wing B Co-operative Society, Aarey Milk Colony, Goregaon East, Mumbai 400063, MH",+91-9561458959,,
329,NJSR and Co,Companies(Private),,"411, Metro House, 4th Floor, Opposite Conrad Hotel, Koregaon Park, Pune 411001, MH",+91-9623990061,,
330,Nautical Wings Aerospace,Companies(Private),,"35, 1st Floor, Jairam Nagar, Jakkur, Bengaluru 560064, KA",+91-9986972864,,
331,Nature Conservation Foundation,Companies(Private),,"1311, ""Amritha"", 12th Main, 1st Stage, Vijayanagar, Mysuru 570 017, KA",+91-821-2515601,,
332,Nangia and Co,Companies(Private),,"URMI Estate, Iconic Tower, 4th Floor, Ganpat Rao Kadam Marg, Lower Parel 400013, MH","+91-120-2598000, +91-22-61737000",,
333,Nana Nani Foundation,Companies(Private),,"324, A To Z Estate, Ganpatrao Kadam Marg, Lower Parel, Mumbai 400013, MH",+91-22-40358585,,
334,Moinee Foundation,Companies(Private),,"G-36-37, City Star, Central Spine, Vidyadhar Nagar, Jaipur 302039, RJ",+91-9828534060,,
335,Mohan Foundation,Companies(Private),,"35, Trust House, 7th Floor, Hospital Avenue, Dr. E. Borges Road, Parel, Mumbai 400012, MH","+91-22-61331058, +91-22-61331062, +91-9136966260",,
336,Mnny and Associates,Companies(Private),,"B-606, Western Edge II, Behind Metro Mall, Near Western Express Highway, Borivali East, Mumbai 400066, MH",+91-22-49790867,,
337,Mindspore Corporate Services,Companies(Private),,"2, Sarla Camelia, Off. ITI Road, Pushpak Park, Aundh, Pune 411007, MH","+91-9881016100, +91-9922112455, +91-20-79627475",,
338,Mercurius and Associates,Companies(Private),,"A-94/8, Wazirpur Industrial Area, Main Ring Road, New Delhi 110052, DL","+91-11-45596689, +91-810661322",,
339,Merck India Charitable Trust,Companies(Private),,"Godrej One, 8th Floor, Pirojshanagar, Eastern Express Highway, Vikhroli, Mumbai 400079, MH","+91-22-62109000, +91-22-62109800",,
340,Manpower Group,Companies(Private),,"103, Hiranandani Business Park, Spectra Building, Hiranandani Gardens, Mumbai 400076, MH",,,
341,Mahesh Patira and Associates,Companies(Private),,"201/1, Rizvi Chambers, Hill Road, Bandra West, Mumbai 400050, MH","+91-22-26418811, +91-22-26418812",,
342,M R S P and Co,Companies(Private),,"311-A, Powai Plaza, Central Avenue, Hiranandani Gardens, JVLR, Powai, Mumbai 400076, MH","+91-22-41225106, +91-7506271888",,
343,Lok Swasthya Sewa Trust,Companies(Private),,"Chandan Niwas, 3rd Floor, Opposite Karnavati Hospital, Ellisbridge, Ahmedabad 380006, GJ","+91-79-26580437, +91-79-26580530, +91-79-26574460",,
344,Lodha Charitable Trust,Companies(Private),,"Lodha Excelus, Apollo Mills Compound, N M Joshi Marg, Mahalaxmi, Mumbai 400011, MH",+91-22-23024400,,
345,Light of Life Trust,Companies(Private),,"Unit No 1519/C-66, One BKC, C-Wing, G-Block, Bandra Kurla Complex, Bandra East, Mumbai 400051, MH",+91-22-69047470,,
346,Life Trust,Companies(Private),,"B-1, Neelam Centre, Near Glaxo, S.K. Ahire Marg, Worli, Mumbai 400025, MH",+91-22-24910287,,
347,Kripa Foundation,Companies(Private),,"81-A, Chapel Road, St. Carmel Church, Bandra West, Mumbai 400050, MH",+91-9324692520,,
348,Knoc Door Services,Companies(Private),,"002/3, Escape Tower, Ekta Bhoomi Gardens, Food Corporation Of India Warehouse, Borivali East, Mumbai 400066, MH",+91-22-28542525,,
349,Knav,Companies(Private),,"201/202, Naman Centre, G Block, Bandra Kurla Complex, Mumbai 400051, MH",+91-22-61644800,,
354,Khiwani and Co,Companies(Private),,"23/26, 2nd Floor, East Patel Nagar, New Delhi 110008, DL","+91-11-25758388, +91-11-25714542, +91-11-42481591, +91-9811058388, +91-9811014542, +91-9810693963",,
355,Khe Aerospace,Companies(Private),,"1, 2nd Floor, 3rd Main, 2nd Stage, Domlur, Bengaluru 560071, KA",+91-6362281180,,
356,Katha,Companies(Private),,,,,
357,Kamdar Desai and Patel,Companies(Private),,"296, Sumati Smruti Co-operative Housing Society, Cadell Road, Dadar West, Mumbai 400028, MH","+91-7208166450, +91-9833843720",,
358,Kadet Defence Systems,Companies(Private),,"89/2, Rampura, Bidarahalli Hobli, Bengaluru 560049, KA",+91-9110227039,,
359,K.C. Mahindra Education,Companies(Private),,"Cecil Court, Near Regal Cinema, Mahakavi Bhushan Marg, Mumbai 400001, MH",+91-22-22895500,,
360,K S Aiyar and Co,Companies(Private),,"F-7, Laxmi Mills, Shakti Mills Lane, Off. Dr. Elijah Moses Road, Mahalakshmi, Mumbai 400011, MH","+91-22-24932502, +91-22-66551770",,
361,K G Somani and Co,Companies(Private),,"3/15, Asaf Ali Road, New Delhi 110002, DL","+91-11-23252225, +91-11-23277677",,
362,JKNP and Associates,Companies(Private),,"6 & 7, 1st Floor, Naya Bazar, Tura Mandi, Najafgarh, New Delhi 110043, DL",+91-11-25322333,,
363,JC Bhalla and Company,Companies(Private),,"B-5, Sector 6, Noida 201301, UP",+91-120-4241000,,
364,Jaldhaara Foundation,Companies(Private),,"9/7, Survey No 308/1, Nagaram, Keesar Mandal, Hyderabad 500083, TS","+91-6281706237, +91-40-67933392",,
365,Jagadbandhu Seva Ashram,Companies(Private),,"Hyderabad 500007, TS",+91-9866642668,,
366,Ispat Foundation,Companies(Private),,"Nirmal Building, 7th Floor, Mumbai 400021, MH",+91-22-66542222,,
367,Iskcon Food Relief Foundation,Companies(Private),,"19/63, Jaywant Industrial Estate, Tardeo Road, Tardeo, Mumbai 400034, MH",+91-8048250118,,
368,ISHA Education,Companies(Private),,"14-A, C. A.Theyvar Layout, Kannaperan Mills Road, Udayampalayam, Coimbatore 641028, TN","+91-422-4272740, +91-422-4272740",,
369,IREL,Companies(Private),,"1207, ECIL Building, Opposite Siddhivinayak Temple, Veer Savarkar Marg, Prabhadevi, Mumbai 400028, MH","+91-22-24242200, +91-22-24211630, +91-22-24382042",,
370,Ipas Development Foundation,Companies(Private),,"2, 3rd Floor, Paschimi Marg, Vasant Vihar, New Delhi 110057, DL",+91-11-41662006,,
371,Integrated Personnel Services Group,Companies(Private),,"14, Whispering Palms Shopping Complex, Akurli Road, Lokhandwala Township, Kandivali East, Mumbai 400101, MH",+91-22-42300200,,
372,Infinzi,Companies(Private),,"205/207, DBS Business Center, DBS Heritage House, Prescott Road, Fort, Mumbai 400001, MH",+91-9820194559,,
373,Indo-Global Social Service Society,Companies(Private),,"28, Institutional Area, Lodi Road, New Delhi 110003, DL",+91-11-45705001,,
374,India Vision Institute,Companies(Private),,"212, New No 45, Palkalai Nagar, 7th Link Road, Palavakkam, Chennai 600041, TN",+91-44-24515353,,
375,Hinton Investments and Finance,Companies(Private),,"61, Mittal Towers, A Wing, Nariman Point, Mumbai 400021, MH",,,
376,Himanshu Realty,Companies(Private),,"410, Sun Industrial Estate, 4th Floor, Sunmill Compound, S. B Marg, Lower Parel West, Mumbai 400013, MH","+91-9987253611, +91-9820651240, +91-22-24923206, +91-22-66314775",,
377,Highrise Estates,Companies(Private),,"Mumbai 400013, MH",,,
378,HelpAge India,Companies(Private),,"C-14, Qutab Institutional Area, New Delhi 110016, DL","+91-11-41688955, +91-11-41688956",,
379,Help Age India,Companies(Private),,"C-14, Qutab Institutional Area, New Delhi 110016, DL","+91-11-41688955, +91-11-41688956",,
380,Hawk Aerospace,Companies(Private),,"C-20, Enam Sambhav, G Block, Bandra Kurla Complex, Mumbai 400051, MH",,,
381,Halamanee Aerospace,Companies(Private),,"453/845, Site No 364, Nadakerappa Industrial Estate, Peenya 2nd Stage, Hegganahalli, Bengaluru 560091, KA","+91-9900008736, +91-8050068360",,
382,H & B Realty,Companies(Private),,"Senapati Bapat Marg, Dadar West, Mumbai 400028, MH",,,
383,GTL Foundation,Companies(Private),,"2, Electronic Sada, TTC Industrial Area, Mahape, Navi Mumbai 40010, MH",+91-22-27612929,,
384,Grit And Goal Foundation,Companies(Private),,"38, Grit n Goal, 3rd Main Road, Ejipura, Bengaluru 560095, KA",+91-9741963481,,
385,Greentech Foundation,Companies(Private),,"603/2, DDA Tower, District Centre, Janakpuri, New Delhi 110058, DL","+91-9650960482, +91-8527760906",,
386,Goonj,Companies(Private),,"6-B, Raju Industrial Estate Premises Co-Operative Society Limited, Opposite Nike Factory Store, Penkar Pada Road, Dahisar Check Naka, Off. Western Express Highway, Mira Road East, Thane 401104, MH","+91-8287971374, +91-8287969735",,
387,Global Space Research & Administration,Companies(Private),,"605/A-1, Rupa Solitaire, B Wing, Millennium Business Park, Mahape, Navi Mumbai 400710, MH","+91-22-46006568, +91-22-46006567",,
388,Give India Foundation,Companies(Private),,"15/19, Rigel, 2nd Floor, Doddanekkundi, Marathahalli, Outer Ring Road, Bengaluru 560037, KA",,,
389,Girivanvasi Educational Trust,Companies(Private),,"45/47, Somaiya Bhavan, 4th Floor, MG Road, Fort, Mumbai 400001, MH","+91-22-22048272, +91-997549212",,
390,General Aeronautics,Companies(Private),,"F-86, ITI Vinyas Building, 1st Floor, ITI Campus, Doorvaninagar, Krishnarajapuram, Bengaluru 560016, KA",+91-80-29720453,,
391,Federation Of Indian Animal Protection Organizations,Companies(Private),,"A-86, East Of Kailash, New Delhi 110065, DL","+91-8750777701, +91-11-41072945",,
392,Fairdeal Realtors,Companies(Private),,"606/7, Sagartech Plaza, B Wing, Andheri-Kurla Road, Saki Naka, Mumbai 400072, MH",+91-8080400500,,
393,Ethereal X,Companies(Private),,"21, Trifecta Adatto, ITPL Main Road, Garudachar Palya, Mahadevapura, Bengaluru 560048, KA",,,
398,Essar Foundation,Companies(Private),,"11, Essar House Limited, Opposite Mahalaxmi Racecourse, Keshavrao Khadye Marg, Mumbai 400034, MH",,,
399,Epilepsy Foundation,Companies(Private),,"Mumbai 400020, MH",+91-22-22001180,,
400,ENM Global,Companies(Private),,"Midas Chambers, 5th Floor, Fun Republic Multiplex Street, Off New Link Road, Andheri West, Mumbai 400053, MH",+91-22-46026909,,
401,Ebizfiling India,Companies(Private),,"A-1205/1206, Empire Business Hub, Next To Water Tank, Science City Road, Ahmedabad 380060, GJ",+91-9643203209,,
402,Dkms Bmst Foundation India,Companies(Private),,"723, 2nd Floor, Chinmaya Mission Hospital Road, 1st Stage, Indiranagar, Bengaluru 560038, KA",+91-80-68286500,,
403,Dignity Foundation,Companies(Private),,"B-206, Byculla Service Industries Premises, 2nd Floor, Dadoji Konddev Marg, Byculla East, Mumbai 400027, MH",+91-22-61381100,,
404,Deeds Public Charitable Trust,Companies(Private),,"8, Bajaj Onyx, Union Park, Khar West, Mumbai 400052, MH",+91-22-26005076,,
405,Dassault Aviation,Companies(Private),,"78, Quai Marcel Dassault, Saint-Cloud, Ile-de-France 92210, FR",,,
406,Corient Business Solutions,Companies(Private),,"Metro Station, 1st Floor, Mirchandani Business Park, Andheri-Ghatkopar Road, Sakinaka, Andheri East, Mumbai 400072, MH",+91-8655131300,,
407,Concern India Foundation,Companies(Private),,"6, Ador House, 3rd Floor, K. Dubash Marg, Fort, Mumbai 400001, MH","+91-22-22855487, +91-22-35121220",,
408,CohnReznick,Companies(Private),,"SIDCO Industrial Estate, Guindy, Chennai 600032, TN",,,
409,ChildLink India Foundation,Companies(Private),,"B-1101, Ratan Central, 11th Floor, Dr. Babasaheb Ambedkar Road, Parel East, Mumbai 400012, MH",+91-22-68251098,,
410,Childline India Foundation,Companies(Private),,"B-1101, Ratan Central, 11th Floor, Dr. Babasaheb Ambedkar Road, Parel East, Mumbai 400012, MH",+91-22-68251098,,
411,Chhota Cfo,Companies(Private),,"50, Bright Arcade, 12th Main Road, 4th T Block East, KV Layout, Jayanagar, Bengaluru 560011, KA",+91-9739692999,,
412,Care India Welfare Trust,Companies(Private),,"Basti Vikas Kendra, Near Nirankari-Satsang Bhawan, Harijan Basti, Chuna Bhatti, Kirti Nagar, New Delhi 110015, DL",,,
413,Cancer Patients Aid Association,Companies(Private),,"Unit No 6, Dr. Vithaldas Parmar Research & Medical Centre, Sumer Kendra, Behind Mahindra Tower, Shivram Seth Amrutwar Road, Worli, Mumbai 400018, MH","+91-22-24924000, +91-22-24940011",,
414,Bombay Property,Companies(Private),,"23, Poonam, New India Society, N.S 11th Road, Juhu Scheme, Vile Parle West, Mumbai 400049, MH",+91-9819825071,,
415,Bombardier,Companies(Private),,"400 Côte-Vertu Road West, Dorval, Québec, H4S 1Y9, Canada",+1-514-861-9481,,
416,Boeing,Companies(Private),,"3265 160th Ave SE, Bellevue, WA 98008, US",,,
417,Bliss Aerospace,Companies(Private),,"68/1-2, Lakshmi Complex, Industrial Suburb, Yeshwanthpur, Bengaluru 560022, KA",+91- 80-42491033,,
418,Bentoprime Mines and Minerals,Companies(Private),,"2/P-154, Ddhavbag, Junavas, Kotadi, Mandvi, Bhuj, Bharuch 370001, GJ",+91-9664911436,,
419,BDRS and Associates,Companies(Private),,"25, Unique Industrial Estate, Opposite Siddhivinayak Temple, V.S. Marg, Prabhadevi, Mumbai 400025, MH",+91-7400456539,,
420,BDO India,Companies(Private),,"The Ruby, Level 9, North West Wing, Senapati Bapat Marg, Dadar West, Mumbai 400028, MH",+91-22-62280817,,
421,Bashamakh and Co,Companies(Private),,"E-302, Above Sana Medical, Old Nasheman Colony, Kausa, Mumbra, Mumbai 400612, MH",+91-8779526602,,
422,Bal Asha Trust,Companies(Private),,"B-2, Saifee Park, Opposite Isable School, Dr. Mascaranes Road, Mazgaon, Mumbai 400010, MH",+91-9930986400,,
423,Ayngaran Foundation,Companies(Private),,"183/2-A-1, Tamil Nagar, Obulapuram, Ayakudi, Palani, Dindigul 624601, TN",+91-8698846666,,
424,Auroma Accounting Services,Companies(Private),,"1/16, Tardeo Air Conditioned Market, 1st Floor, Tardeo, Mumbai 400034, MH","+91-22-23543445, +91-22-23543446",,
425,Ashok G. Piramal Trust,Companies(Private),,"2, Peninsula Spenta, Mathuradas Mills, Senapati Bapat Marg , Lower Parel, Mumbai 400013, MH","+91-22 66154651, +91-22 66154653",,
426,Aseema Charitable Trust,Companies(Private),,"G-3, Josephine Apartments, Chimbai Road, Bandra West, Mumbai 400050, MH","+91-22-26407248, +91-22-26430185",,
427,Apollo Aerospace,Companies(Private),,"Unit No 405/1, Prestige Atrium, 3rd Floor, Central Street, Bengaluru 560001, KA",+91-80-B14+B1441620101,,
428,Anitaborg India,Companies(Private),,"47, Dickenson Road, Bengaluru 560042, KA",,,
429,Americares India Foundation,Companies(Private),,"B-706, Mittal Commercial, Chimatpada, Off. MV Road, Marol, Andheri East, Mumbai 400059, MH",+91-22-28598748,,
430,Akhil Bhartiya Vidharthi Parishad,Companies(Private),,"03, Marble Arch, Near Western Railway Station, Matunga Road, Senapati Bapat Marg, Mahim, Mumbai 400016, MH",+91-22-24306321,,
431,Aethrone Aerospace,Companies(Private),,"Lane D, Koregaon Park, Pune 411001, MH",+91-7219444226,,
432,Aeramic Aerospace,Companies(Private),,"B-173, 4th Main, 2nd Stage, Peenya Industrial Estate, Bengaluru 560058, KA",+91-816-2959077,,
433,Adani Defence,Companies(Private),,"Adani Corporate House, Shantigram, Near Vaishnodevi Circle, S G Highway, Ahmedabad 382421, GJ",+91-79-26565555,,
434,Abyom,Companies(Private),,"TBI, BITS Pilani, Hyderabad Campus, Jawahar Nagar, Shameerpet, Hyderabad 500078, TS",+91-6262969639,,
435,Abhivyakti Foundation,Companies(Private),,"Himani Bhawan, Besides Barganda Sub Post Office, New Barganda, Giridih 815301, JH","+91-6532250415, +91-9801331700",,
436,Aadyah Aerospace,Companies(Private),,"B-1115, Brigade Signature Towers, Old Madras Road, Katammanallur Gatem, Bengaluru 560049, KA",+91-9353401723,,
437,A N Gawade and Co,Companies(Private),,"2/5-B, Maker Bhavan, 5th Floor, S V Thackersy Marg, New Marine Lines, Mumbai 400020, MH",+91-8983424134,,
442,A M Jain and Co,Companies(Private),,"103/33, Malhotra Chamber, 1st Floor, Near Handloom House, Police Court Lane, Dr. D.N. Road, Fort, Mumbai 40000, MH","+91-22 66355022, +91-22622503",,
443,A and AB Associates,Companies(Private),,"102, Vanguard Rise, 1st Floor, 5th Cross, Old Airport Road, Konena Agrahara, Bengaluru 560017, KA","+91-9620393847, +91-9868468738",,
444,Sociometrik Infer,Companies(Private),,"P-7b S/f Green Park Extn, New Delhi New Delhi-110016,DL",,,
445,HBS Consultancy,Companies(Private),,"Hot Jobs CONTACT INFO ADDRESS Bhubaneswar, Odisha, India",+91-9004852395,,
446,Reports and Insights,Companies(Private),,"APAC delivery center-315,Shopping Center,Kota 324007,RJ",,,
447,HNS Gold,Companies(Private),,"HNS Gold Pvt Ltd #1161/1, 2'nd Floor, Jinan Towers, 24'th Cross, 24'th Main, Sector 2, HSR Layout, Bengaluru 560102,KA",,,
448,TruSens TaxBooks,Companies(Private),,"A207 Adarsh Vihar, 5/1 Bannerghatta Main Road, Bangalore",+91-9966889968,,
449,LiveBird Technologies,Companies(Private),,"1217-1218, Satyamev Eminence, Science City Rd, Sola, Ahmedabad 380060,GJ",+91-7940326055,,
450,Sunpower Luminaire,Companies(Private),,"606, Shilp Zaveri, Shyamal Cross Road, Ahmedabad, Gujarat",+91-8200208625,,
451,Magkraft Integrated,Companies(Private),,"? Plot No. 409, Industrial Area Phase 9, Mohali 160062,PB",+91-9216288466,,
452,Ramagya Group,Companies(Private),,,,,
453,Purpleslate,Companies(Private),,"2nd Floor, No.8, Type 2, Dr. V.S.I Estate, SH 49A, Thiruvanmiyur, Chennai, Chennai, India",,,
454,Senate Marketing,Companies(Private),,"91 springboard, Godrej & Boyce, Gate 2, Lal Bahadur Shastri Marg, Opposite Vikhroli Bus Depot, Vikhroli West, Mumbai, Maharashtra",+91-7045533555,,
455,LinkPlux,Companies(Private),,"No 16/25, Ravi St, Seethapathi 2nd Cross Street, Velachery, next to Buhari Hotel, Chennai 600042,TN",+91-8925065691,,
456,Jewel Webnet,Companies(Private),,"1st Floor, Unit No 18, Nand Ghanshyam Industrial Estate, Off Mahakali Caves Rd, Andheri East, Maharashtra","+91-9930425384, +91-9867783298",,
457,Aaryan Overseas Education Consultent,Companies(Private),,,,,
458,Techflow Engineers,Companies(Private),,"Building 2(A-3), Unit 415, Sector – 1, Millennium Business Park, Mahape, Navi Mumbai",,,
459,Livekeeping Technologies,Companies(Private),,"Plot No.22, 11th floor, Tower 2, Assotech Business Cresterra, Sector 135, Noida, Uttar Pradesh",+91-8047676062,,
460,Buymediaspace,Companies(Private),,,,,
461,Restromark,Companies(Private),,"Level 1, Building 10A, Cyber Hub, DLF Cyber City, Gurugram, Haryana",+91-9315935527,,
462,Think Cmyk Studios,Companies(Private),,"C-26, Sector - 65, Noida, Uttar Pradesh - 201301, India",+91-78273-86988,,
463,Naturis Cosmetics,Companies(Private),,"1, EPIP SIDCO, Industrial Complex, 181133, SICOP Industrial Area, Bari Brahmana, Jammu, Jammu and Kashmir",+91-1923220077,,
464,Soch Films,Companies(Private),,,,,
465,Reports and Data,Companies(Private),,"Kapil Classic, Office No. 401 & 402, Riviresa Society, Baner, Pune 411045,MH",,,
466,NVN Tech Solutions,Companies(Private),,"673-AP 2nd Floor Village Kanhai, Sector 45 Gurugram 122003,HR",+91-9810441474,,
467,Healing Pharma India,Companies(Private),,"B-411, 4th Floor, Western Edge II, Borivali (E), Mumbai 400066, MH",+91-8585852744,,
468,Incedo Inc,Companies(Private),,"Global Technology Park, Tower C, 1st Floor, Outer Ring Road, Devarabeesanahalli, Block C, Bengaluru Bangalore 560103,KA",,,
469,Shethwala Polymers & Plastics Inc,Companies(Private),,"01, Meezan Weigh Bridge Estate, Near Torrent Power Hub, Opposite Waste Sight, Piplaj Pirana Highway, Narol, Ahmedabad 382405, GJ","+91-720-104-8178, +91-910-653-6216",,
470,Zoetic Bpo Services OPC,Companies(Private),,,,,
471,Taknik Incorporation,Companies(Private),,"A-231, Alpha Arcade, Plot No.165/1, GIDC Bholav, Bharuch-Dahej Highway, Bharuch-392012, Gujarat",+91-9725018073,,
472,Translink Express,Companies(Private),,"No.32,23rd Street, P.V.Towers,Part of Thillai Ganga Nagar,Nanganallur, Chennai 600061,TN",+91-9500690690,,
473,Big Edge,Companies(Private),,"71, Hillsborough Street Roseau, Dominica",+1-767-4409009,,
474,Loteych,Companies(Private),,"260/50/31/16, GPA, Prabhavathi Rishab, Bengaluru 560068, KA",+91-6238531245,,
475,Fore Solutions,Companies(Private),,"SCO-365/66, 1st Floor, Sector 35, Chandigarh 160022, CH",+91-172-3500338,,
476,Jk Softtech Solutions,Companies(Private),,"SCO-80-81-82, Top Floor, Sector 17-D, Chandigarh 160017, CH",+91-9878374300,,
477,Seasia,Companies(Private),,"C-136, Industrial Area, Phase 8, Chandigarh 160071, CH",,,
478,DigitalEase IT Solutions,Companies(Private),,"C-738, Gali No 12, Near 39 West Gate, Village Jujhar Nagar, Mohali 160014, PB",,,
479,CamCeleb,Companies(Private),,"Sector 18-D, Chandigarh 160018, CH",,,
480,Whiz Web Tech,Companies(Private),,"733, Cherath, Near Indane Gas Agency, Anupshaher Road, Aligarh 202001, UP","+91-701-7088722, +91-8860280868",,
481,Netlink Business Services,Companies(Private),,"521, level 5, Udhyog Vihar Phase 3, Gurugram 122016, HR",,,
486,The Core Systems,Companies(Private),,"SCO-198-200, 3rd Floor, Sector 34-A, Chandigarh 160022, CH","+91-7888776924, +91-8699633633",,
487,Betasoft Solutions,Companies(Private),,"314, Bestech Business Tower, Level 3, Phase 11, Sahibzada Ajit Singh Nagar, Mohali 160066, PB",+91-6239996544,,
488,MDG Technologies,Companies(Private),,"Sanger, TX, US",,,
489,BoxfyIO,Companies(Private),,"SCO-64-65, 4th Floor, Sector 34-A, Chandigarh 160022, CH",+91-9915006369,,
490,Gruby,Companies(Private),,"Chandigarh 140413, CH",+91-9993076900,,
491,Capteurio,Companies(Private),,"Engineering Technical Unit, Uiet Block 1, Sector 25, Chandigarh 160014, CH",+91-8062245060,,
492,Young Yell,Companies(Private),,"224, Sector 15-A & 16, Chandigarh 160015, CH",+91-8968708844,,
493,Tech Prastish Software Solutions,Companies(Private),,"E-237, 2nd & 5th Floor, Phase 8-B, Industrial Area, Mohali 160071, CH","+91-9989960789, +91-172-5013237",,
494,WebSpyTech,Companies(Private),,"3150, Near Gurudwara, Sector 23, Chandigarh 160023, CH","+91-6239713939, +91-9914007006",,
495,ICS Group,Companies(Private),,"SCO-3017/18, 2nd Floor, Sector 22-D, Chandigarh 160022, CH",+91-9876795015,,
496,iNFIN Software Technologies,Companies(Private),,"20, EDC Tower, 3rd Floor, Rajiv Gandhi Technology Park, Sector 13, Chandigarh 160101, CH",+91-172-4020231,,
497,Signitive Software,Companies(Private),,"SCO-857, Cabin-19, 2nd Floor, Chandigarh 160101, CH",+91-9041023065,,
498,Q3G India,Companies(Private),,"SCO-19, Madhya Marg, Sector 26, Chandigarh 160019, PB",+91-6280882955,,
499,Infoaccords Technologies,Companies(Private),,"SCO-59, 2nd Floor, Sector 20-C, Chandigarh 160020, CH","+91-7626937626, +91-9988990002",,
500,Ashtec Technologies,Companies(Private),,"Chandigarh 140413, CH",+91-8307129648,,
501,DIDR Chandigarh,Companies(Private),,"20-A, Sector 20, Chandigarh 160020, CH",+91-98154 09481,,
502,Chalkpad Technologies,Companies(Private),,"SCO-160-161, Basement, Sector 9-C, Chandigarh 160009, CH",,,
503,Innovantes IT Solutions LLP,Companies(Private),,"B-215, Bestech Business Towers, Sector 66, Mohali, Chandigarh 160066, PB",+91-7710455593,,
504,Conjoinix Total Solutions,Companies(Private),,"SCO-193-194-195, 3rd Floor, Sector 34-A, Chandigarh 160022, CH",+91-172-4642327,,
505,Chandigarh Team Computers,Companies(Private),,"1444, Sector 22-B, Chandigarh 160022, CH","+91-172-2708062, +91-172-5071768, +91-9814013092",,
506,Metaverse Developers,Companies(Private),,,,,
507,PB Infosoft,Companies(Private),,"260, Sector 20-A, Chandigarh 160020, CH",+91-8003635005,,
508,JasThink Softwares,Companies(Private),,"57, Phase 1, Industrial Area, Chandigarh 160002, CH",,,
509,Smartwebrowse,Companies(Private),,"SCO-215/217, 3rd Floor, Near ICICI Bank, Sector 34-A, Chandigarh 160022, CH",+91-7947433501,,
510,Netsoft Informatics,Companies(Private),,"SCO-441-442, Sector 35-C, Chandigarh 160022, CH",+91-172-4322222,,
511,Web3,Companies(Private),,,,,
512,YZTSPC,Companies(Private),,"Gwalior 474011, MP",+91-7974329785,,
513,Compass Technologies,Companies(Private),,"SCO-85-86, 4th-Floor, Sector 34-A, Chandigarh 160022, CH","+91-7888840961, +91-172-4044006",,
514,Appworx IT Solutions,Companies(Private),,"IT–C-6, Sebiz Square, Sector 67, Mohali 160062, PB",+91-8283806888,,
515,The Core Systems,Companies(Private),,"SCO-198-200, 3rd Floor, Sector 34-A, Chandigarh 160022, CH","+91-7888776924, +91-8699633633",,
516,Solutions1313,Companies(Private),,"SCO-54, 3rd Floor, Sector 82, Mohali 160055, PB",+91-9216041313,,
517,Ratchet Infotech,Companies(Private),,"104, Phase 1, Industrial Area, Chandigarh 160001, CH",+91-172-4264444,,
518,InfoNexis Technologies,Companies(Private),,"191, Phase 2, Industrial Area, Chandigarh 160002, CH",,,
519,Green Leap IT Solutions,Companies(Private),,"14, Rajiv Gandhi IT Park, Chandigarh 160101, CH",,,
520,Stackgeeks,Companies(Private),,"SCO-50-51, Sector 34-A, Chandigarh 160022, CH",+91-9988029504,,
521,Netgains,Companies(Private),,"DLF Info City, 3rd Floor, Chandigarh 160101, CH",+91-9878097755,,
522,Codereborn,Companies(Private),,"SCO-144-145, 4th Floor, Sector 34-A, Chandigarh 160022, CH",+91-9023517423,,
523,Netsmartz House,Companies(Private),,"10, Rajiv Gandhi Technology Park, Chandigarh 160101, CH",+91-8886618967,,
524,Optimiser Infotech,Companies(Private),,"203, Sector 21-A, Chandigarh 160017, CH",+91-7696113399,,
525,Infoway IT Solutions,Companies(Private),,"SCO-40, 2nd Floor, Pocket No 1, NAC Road, Chandigarh 160101, CH","+91-172-4667448, +91-9501336744, +91-9501436744",,
530,i-Next Web Technologies,Companies(Private),,"SCO-58-59, Ist Floor, Sector 34-A, Chandigarh 160022, CH",+91-172-4014455,,
531,Hidden Web Solutions,Companies(Private),,"Near Punjabi University, Patiala 147001, PB",+91-9041450617,,
532,Omninos Technologies,Companies(Private),,"SCO-37, TDI City, Business Centre, Sector 118, Mohali 160055, PB",+91-9988863636,,
533,Problab Technologies,Companies(Private),,"5, Near Himachal Bhawan, Madhya Marg, Sector 28-A, Chandigarh 160028, CH",+91-9878873077,,
534,JSR Technologies,Companies(Private),,"JSR Building, Ishmeet Singh Chowk, Ludhiana 141001, PB","+91-8054923303, +91-8054515015",,
535,Kays Harbor Technologies,Companies(Private),,"J-7, Level 3, Rajiv Gandhi Technology Park, Chandigarh 160101, CH",+91-172-4025180,,
536,Webcom Systems,Companies(Private),,"106, Elante Offices, 1st Floor, Phase 1, Industrial Area, Chandigarh 160002, CH",+91-8699701099,,
537,Net Solutions,Companies(Private),,"15, Rajiv Gandhi Technology Park, Chandigarh 160101, CH",+91-172-4315000,,
538,Domazon Website Design,Companies(Private),,,,,
539,eGlobe Solutions,Companies(Private),,"315,Ansal Classique Tower, J-Block,New Delhi 110027,DL","+91-1141717081, +91-1141717082, +91-1141717022",,
540,Mercantile Insurance,Companies(Private),,,,,
541,Mirum India,Companies(Private),,,,,
542,Legalassure.in,Companies(Private),,"Ojas, Row House No. 2, Laxman Nagar, Balewadi High Street, Pune 411045,MH",+91-9881908241,,
543,TechMonarch Infocom LLP,Companies(Private),,"A 1204 Titanium Business Park, near Makarba under bridge, Makarba, Ahmedabad 380051,GJ",+91-7948910222,,
544,Suneeta Carbons,Companies(Private),,"M/s Suneeta Carbons 86, C Wing, Mittal Court, Nariman Point, Mumbai 400021,MH",+91 022 22834041,,
545,TechNboost,Companies(Private),,,,,
546,Infothela,Companies(Private),,"27/C, St. John Baptist Road, steps, near Mount Merry, Bandra West, Mumbai, Maharashtra",+91-9224299999,,
547,The Digital Key,Companies(Private),,"D14-105, Shiva Rd, Pocket 14, Sector 8D, Rohini, Delhi",+91-7827632153,,
548,Scientific Logo,Companies(Private),,"Mumbai, India",+91-9584222000,,
549,360 DigiTech,Companies(Private),,"C-2, 3rd Floor, Sunshine Apartment, Cantonment Rd, Near Odeon Cinema, Phool Bagh, Ghasyari Mandi, Lalbagh, Lucknow 226001, UP",+91-8887568393,,
550,Slideegg,Companies(Private),,,,,
551,Hallmark Hospital Furniture,Companies(Private),,,,,
552,Search Sparkers,Companies(Private),,+91-7011056018,,,
553,Godbms Infotech,Companies(Private),,,,,
554,OS Management Consulting Services,Companies(Private),,"B-1236 Ithum Tower-B, Noida, India",+91-7065044020,,
555,Aditya Joshi Digital Solution,Companies(Private),,"Handewadi Rd, Satav Nagar, Hadapsar, Pune, Maharashtra 411028",+91-1234567890,,
556,Publicis Groupe,Companies(Private),,,,,
557,Victasoft Event Planners,Companies(Private),,"629, RK EMPIRE, NR MAVDI CIRCLE, 150 FT ROAD RAJKOT, Rajkot, Gujarat, India-360005.",,,
558,Aparna RMC,Companies(Private),,,,,
559,Affvertize,Companies(Private),,,,,
560,Tyekon Research,Companies(Private),,,,,
561,Webiopr Tech Solution,Companies(Private),,"Gomti Nagar, Lucknow, Uttar Pradesh",+91-9455605492,,
562,Iquor Solutions,Companies(Private),,"A-140, Sec-63, Noida , UP",,,
563,Synodica Solutions,Companies(Private),,"514-515, Laxmi Enclave-2, Katargam, Surat - 395004, GJ",+91-8866611130,,
564,APSK Kids Modelling Agency,Companies(Private),,,,,
565,P.S. STEEL,Companies(Private),,"Shop No. 58, 1st Floor, Raghu Shree Market, Ajmeri Gate 110006,DL","+91-9819688259, +91-9899412628",,
566,TechnoMark Solutions,Companies(Private),,"Office No- 4, 4th Floor K Raheja Prime, Marol CHS Rd, Marol, Andheri East,Mumbai 400059,MH",+91-2240108510,,
567,Sparkout Tech Solutions,Companies(Private),,"No. 2 C.M.Nagar, Ramakrishnapuram, Coimbatore 641 006.,TN",+91-7708889555,,
568,Pirates BPO,Companies(Private),,,,,
569,Shankar Enterprise,Companies(Private),,"Sunder Market, Near Gurudwara, Station Road, Raipur, Chhattisgarh- 492009, India","+91-9425208528, +91-7222944415",,
574,Armstrong Facilities Security Services,Companies(Private),,,,,
575,Bodoland Security Services,Companies(Private),,"Kajalgaon,Chirang, Btad, Assam",,,
576,Brrandom,Companies(Private),,"Suit No. 807, Aurora Waterfront, GN 34/1, Sector V, Bidhannagar, Kolkata 700091,WB",+91-3348026785,,
577,Beetle Dynamics,Companies(Private),,"23, Santosh Nagar, Mansarover, Jaipur",,,
578,Prapanjan Waterproofing,Companies(Private),,,,,
579,Ananda Dairy,Companies(Private),,"H-112, Sector - 63, Noida 201301, UP",+91-9582775555,,
580,ZestUp,Companies(Private),,"D120, Bank Colony, Murlipura Scheme, Murlipura, Jaipur 302013,RJ",+91-8005604262,,
581,Yamuna Pharmacy,Companies(Private),,"51 Phase 1 Industrial Estate 135001, HR",+91-7988311551,,
582,Maia Estates,Companies(Private),,,,,
583,Helloapps,Companies(Private),,"SVR Nilayam, Opp Shanti Ganapathi Temple, Ramamurthy Nagar, Bangalore, 560016",+91-9739599560,,
584,Neoinfinit,Companies(Private),,"B-602, Kailas Business Park, Park Site Rd, Mumbai, Maharashtra 400079",+91-9152715920,,
585,Piaggio Vehicles,Companies(Private),,"Sky One Corporate Park, Survey Number 239/02 Near Pune Airport, Viman Nagar Pune 4110032, MH",+91-2067492800,,
586,Padilira Websolution,Companies(Private),,,,,
587,Appsquadz,Companies(Private),,,,,
588,Daksh Web Solutions,Companies(Private),,"C/502, Everest Tower, Vasant Nagri II, Vasai East, Dist. Palghar, 401208",+91-9673824073,,
589,VF Web Media,Companies(Private),,,,,
590,Lambda Supply Chain Solutions,Companies(Private),,,,,
591,Digital Udit,Companies(Private),,"178, 1st Floor, Jai Apartment Sector 9, Rohini, New Delhi, 110085",+91-8527874747,,
592,Digital Cappuccino Enterprises,Companies(Private),,+91-9910190071,,,
593,Elettro Electrical Cabinet Accessories,Companies(Private),,"Unit No. B-3/F, Malad Industrial Co-op. Society, Kanchpada, Malad West, Mumbai 400064,MH","+91-9819981795,+91-9714597995",,
594,MyTechRegion,Companies(Private),,,,,
595,GeekyWorks IT Solutions,Companies(Private),,"Shrushti Elegance, 3rd Floor, Behind Salt Hotel, Balewadi Phata, Baner, Pune 411045, MH","+91-8552003232, +91-8669060963",,
596,Entytle,Companies(Private),,"Nucleus Mall, 2nd Floor, AWFIS Space Solutions Private Limited, Opposite Commissioner Office, 1st Church Road, Pune 411045, MH",+91-6506877293,,
597,Cympac Software Solutions,Companies(Private),,"15, Punit Yash Arcade, 1st Floor, Near Kothrud Bus Stand, Karve Road, Kothrud, Pune 411038, MH",+91-20-66204266,,
598,Mplussoft Technologies,Companies(Private),,"201-202, V-9 Landmark, 2nd Floor, Vishrantwadi, Pune 411015, MH",+91-8459630022,,
599,Cygnus Software,Companies(Private),,"568/5-F, Tilakwada, Narayanpeth, Pune 411030, MH",+91-22-28570753,,
600,Netflex Software Technologies,Companies(Private),,"702/1, Siddharth Tower, Behind City Pride Multiplex, Sangam Press Road, Kothrud, Pune 411038, MH",+91-20-64004595,,
601,CodeRize Technologies,Companies(Private),,"A-223/471, Balaji Prasad, Bajirao Road, Shaniwarpeth, Pune 411030, MH",+91-9890232569,,
602,Axis Software,Companies(Private),,"1215/2/13, K.P Kulkarni Marg, Off. Apte Road, Shivaji Nagar, Pune 411004, MH",,,
603,Technicia,Companies(Private),,"Sadguru Enclave, 1st Floor, Near Ganpati Visarjan Ghat, Vishrantwadi, Pune 411015, MH",,,
604,Cloudmatic Technologies,Companies(Private),,"810-A, Bhandarkar Road, Pune 411004, MH",+91-20-41223087,,
605,Wab IT Softwares,Companies(Private),,"101/101-A, Kapil Vastu Building, 1st Floor, Above PDCC Bank & Pankaj Barat Gas, Chondhe Patil Nagar Road, Phase 1, Siddarth Nagar Society, Aundh, Pune 411007, MH",+91-7040010693,,
606,Sprioc Software Technology,Companies(Private),,"3, Shiv Shakti Society, Ganesh Nagar, Wadgaon Sheri, Pune 411014, MH",+91-9011665051,,
607,Qualsoft Services,Companies(Private),,"604, Land Mark Center, Pune Satara Road, Pune 411009, MH",,,
608,Infiniti Infosystems,Companies(Private),,"B-11, Bhale Estate, Rear Building, 1st Floor, Old Mumbai Pune Road, Wakdewadi, Pune 411003, MH","+91-20-48552455, +91-20-48553955",,
609,Pune IT Labs,Companies(Private),,"5, Shivaji Housing Society, Behind ICC, Senapati Bapat Road, Shivaji Nagar, Pune 411016, MH",+91-9371056627,,
610,Magic Software Enterprises,Companies(Private),,"64, Matrix IT Park, 6th Floor, A Wing, Old Mumbai Pune Highway, Sangamvadi, Pune 411005, MH",+91-20-41022022,,
611,Infonox Software,Companies(Private),,"Muttha Towers, 3rd Floor, Don Bosco School Road, Yerwada, Pune 411006, MH",,,
612,Hexagon Manufacturing Intelligence,Companies(Private),,"Unit No 101 & 105, Sai Radhe Complex, 1st Floor, Kenneday Road, Sangamwadi, Pune 411001, MH",,,
613,Sparken IT Solutions,Companies(Private),,"Subodh Heights, Shivprasad Co-operative Housing Society, Near Sarita Nagari Phase 1, Sinhgad Road, Ganesh Mala, Pune 411030., MH",+91-9168798822,,
618,Futops Technologies,Companies(Private),,"17/18, Downtown City Vista, 8th Floor, B Wing, Fountain Road, Ashoka Nagar, Kharadi, Pune 411014, MH",+91-8956421770,,
619,Techmingles Software Solutions,Companies(Private),,"32/3-B, Near Utkarsh Society, Shelar Mala, Pune 411046, MH",+91-8446200088,,
620,Skybiz Info Tech,Companies(Private),,"B-401/1417/18, Sunita Apartment, Kasbapeth, Pune 411011, MH",,,
621,Mithi Software Technologies,Companies(Private),,"103, MayFair Court, Nachiket Park, Dr. Pai Marg, Baner Road, Pune 411045, MH",,,
622,Mindigit Technologies,Companies(Private),,"Tower 3, Marisoft IT Park, 4th Floor, West Wing, Kalyani Nagar, Pune 411014, MH","+91-20-49022041,+91- 9637500287",,
623,Bitla Software,Companies(Private),,"23-A/1/426/106, Evolet Tiera, 1st Floor, Near Narpatgiri Police Chowki, Jawaharlal Nehru Road, Mangalwarpeth, Pune 411011, MH",+91-9606441128,,
624,Priyatech Solutions,Companies(Private),,"005, Amit Court, Behind Mangla Theatre, Shivajinagar, Pune 411005, MH",+91-20-29515288,,
625,Sanganak Software Services,Companies(Private),,"B-1, PushpNagar, New DP Road, Pune 411007, MH",,,
626,Tech Anusaya Software,Companies(Private),,"75/9/Flat No 203, Swapnapoorti Complex, A Wing, Raikar Mala Road, Dhayari, Pune 411041, MH",+91-8421203646,,
627,Webosys Software,Companies(Private),,"P-3/303, Pantagon Tower, Magarpatta City Road, Pune 411028, MH",+91-9822342224,,
628,DemandFarm,Companies(Private),,"100/101-1, The Hive, Behind Sheraton Grand Hotel, Bund Garden Road, Raja Bahadur Mill Road, Sangamvadi, Pune 411001, MH",+91-4157353143,,
629,LTIMindtree,Companies(Private),,"Gate No 5, L & T Infotech Technology Tower, Saki Vihar Road, Powai, Mumbai 400072, MH",,,
630,YouGet Software Solutions,Companies(Private),,"13/A-1, Survey No 130, Swaroop Co-operative Society, Near Mhatre Bridge, Erandawane Gaothan, Pune 411004, MH",+91-8622862275,,
631,Viraj Infosoft Solutions,Companies(Private),,"DO-01/359-D, Vinayak Smruti, Backside Of Parvati Mata, Shaniwarpeth, Pune 411030, MH","+91-7219789783, +91-7219789784, +91-9372267349, +91-9372267348, +91-9372267347, +91-9372267346, +91-9960892705",,
632,PAIS Softwares,Companies(Private),,"231/3-A/4/3-B/Z-1/401, Lunkad Gold Coast, Lohagaon, Viman Nagar, Pune 411014, MH",,,
633,Ranal Software Technologies,Companies(Private),,"Giga Space IT Park, Internal Road, Clover Park, Viman Nagar, Pune 411014, MH",+91-20- 66034002,,
634,YT Softwares LLP,Companies(Private),,"22-1/2-2/5, Opposite Kasegaon College Wadgaon Road, Lohegaon, Pune 411047, MH",+91-6361279579,,
635,ODP Software,Companies(Private),,"15/34/13-C/4, Silver Crystal, Ambegaon Budruk, Pune 411046, MH",,,
636,Foxberry Technologies,Companies(Private),,"82/1-A & 83/1-A, Gate No 1, 4th Floor, Sakal Nagar, Baner Road, Aundh, Pune 411007, MH",+91-20-24252598,,
637,IOWEB3 Technologies,Companies(Private),,"16-A, City Vista, 2nd Floor, Fountain Road, Ashoka Nagar, Kharadi, Pune 411014, MH",+91-8668521368,,
638,KAT Technologies,Companies(Private),,"1185, Laxmi Prasad Complex, 4th Floor, Behind Maharashtra Mandal, Shedge Lane, Sadashivpeth, Pune 411030, MH",+91-9890944379,,
639,Source Code Technology,Companies(Private),,"Near Gurudwara Temple, Akurdi Railway Station, Akurdi, Pune 411035, MH","+91-8149933361, +91-9637921886",,
640,Hexanika,Companies(Private),,"1187/10, Krupa, Shivaji Nagar, Pune 411005, MH",+91-6467336636,,
641,PCVITA Software,Companies(Private),,"504, Marie Gold, Viman Nagar, Pune 411014, MH",+91-11-28084986,,
642,Adinn Digital,Companies(Private),,,,,
643,Ifisys Software And Services,Companies(Private),,"Pearls Omaxe Tower, 402 Tower 1, Netaji Subhash Place, Pitam Pura 110034,DL",+91-7417417024,,
644,Atlas Engineering,Companies(Private),,"885, Pada Pole,Gandhi Rod, Ahmedabad 380001,GJ",+91-9879559725,,
645,Bitinject Software,Companies(Private),,"202, Surekha Apartment, 2nd Floor, Near Bank Of Baroda, Pune Satara Road, Swargate, Pune 411037, MH","+91-20-48611229, +91-8956696552",,
646,Wintek Infotech,Companies(Private),,"G-4/5, Asha Co-operative Housing Society, Near Chinchechi Talim Chowk, White House Road, Shukrawarpeth, Pune 411002, MH","+91-6384493615, +91-9371028777",,
647,Softient Technologies,Companies(Private),,"6 To 11/A-7, Parsvnath Prathishta, Chikhali, Pune 411019, MH",+91-9371700008,,
648,Pentagon Systems & Services,Companies(Private),,"104, Business Guild, 1st Floor, Opposite Ind Search, Law College Road, Erandwane, Pune 411004, MH","+91-8983779066, +91-8976600991",,
649,Varian Software Technologies,Companies(Private),,"Phase 2, Katepuram, Pimple Gurav, Pimpri-Chinchwad, Pune 411036, MH",+91-8888848588,,
650,G3 Technologies,Companies(Private),,,,,
651,SGR Tech software,Companies(Private),,"83/B-302, Sankalp Co-operative Housing Society, Sector 35, Kamothe, Navi Mumbai 410209, MH",+91-8048371993,,
652,Arcanheim Interactive,Companies(Private),,"480/2/304, RK One, Rastapeth, Camp, Pune 411011, MH",+91-9881441155,,
653,Insaas Software,Companies(Private),,"Q-2, State Bank Nagar Housing Society, Bibwewadi, Pune 411037, MH",,,
654,Pearl Infotech,Companies(Private),,"102 & 103, ShivGanga Chambers, 1st Floor, Near Prabhat Theatre, Bajirao Road, Pune 411002, MH",+91-92256 77234,,
655,Enkrish Webtech,Companies(Private),,"P-103, Kupwad MIDC, Sangli 416436, MH",+91-8329262887,,
656,TEETECH IT Solutions,Companies(Private),,"Sai Empire, Near ICICI Bank, Baner Road, Baner, Pune 411045, MH",,,
657,Myindianow,Companies(Private),,"61-H/Hissa No 1/2, Angadevi Laxman Mandal, Near Taru House, Gokulnagar Pathar, Vadgaon Budruk, Pune 411058, MH",+91-8069264723,,
662,Livoso Technologies,Companies(Private),,"EON Free Zone, 2nd Floor, Cluster E, Kharadi, Pune 411014, MH",,,
663,Sungensis Software Solution,Companies(Private),,"B-303, Ajinkyatara Apartments, 3rd Floor, Ganeshmala Corner, Sinhgad Road, Pune 411030, MH",+91-9834701148,,
664,Antargyan Cloudworks,Companies(Private),,"559-C/1184/56, Shreenath Plaza, Commercial Society, C Wing, FC Road, Shivajinagar, Pune 411005, MH",+91-988700756,,
665,Tectigon IT Solutions,Companies(Private),,"6/2, Royal Empress, Near Prabhavee Tech Park, Baner, Pune 411045, MH",+91-7058181478,,
666,Neuro Software Innovations,Companies(Private),,"C-4, Anand Heights, Wadgaon Sheri, Pune 411014, MH",,,
667,Arkin,Companies(Private),,,,,
668,NOTAN Software Solutions,Companies(Private),,"Siddhi Towers, 2nd Floor, Mayfair Eleganza, Above ICICI Bank, Kondhwa Main Road, Guru Nanak Nagar, Phase II, Kondhwa, Pune 411048, MH",,,
669,Microzen Technologies,Companies(Private),,"Pimple Gurav, Pune 411061, MH",+91-7754071717,,
670,PITASYS Softwares,Companies(Private),,"201, Vascon Eco Tower, Baner Pashan Link Road, Baner, Pune 411045, MH",,,
671,Tech Indiana Software Solutions,Companies(Private),,"A Residency, Baner Road, Pune 411045, MH",+91-9767325428,,
672,Webniz Technologies LLP,Companies(Private),,"1 & 2, Amolak Complex, Near Andhra Bank, Pimple Saudagar, Pune 411027, MH",+91-7769849111,,
673,Oriontechsys,Companies(Private),,"509, Speciality Business Center, Balewadi, Pune 411045, MH",+91-8446123555,,
674,Unitglo Solutions,Companies(Private),,"133, Mayur Trade Center, Near Chinchwad Railway Station, Pimpri-Chinchwad, Pune, 411019, MH","+91-20-66350851, +91-7387511539",,
675,iT Amicos,Companies(Private),,"145, Near Shri Ram Dairy, Vitthalrao Kangle Road, Porwal Metallica, Rastapeth, Pune 411011, MH",+91-8080075147,,
676,Init Solutions,Companies(Private),,"Vadgaon Sheri, Pune 411014, MH",,,
677,DelphianLogic Technologies,Companies(Private),,"201, Manikchand Galleria, Phase 1, Model Colony, Shivajinagar, Pune 411016, MH",+91-20-67251400,,
678,ShopWorx,Companies(Private),,"6, Revati Arcade II, Baner Road, Pune 411045, MH",+91-9896168680,,
679,VibrantMinds Technologies,Companies(Private),,"Viva Academy Building, 2nd Floor, Near St. Mary Church, Mumbai-Bengaluru Highway, Warje, Pune 411052, MH",+91-9503579517,,
680,ITFMS Infotech,Companies(Private),,"2, West Avenue, 6th Floor, Above Atithi Hotel, Bremen Chowk, Aundh Road, Aundh, Pune 411007, MH","+91-7888006985, +91-8237895846, +91-20-24469196",,
681,Shipco IT,Companies(Private),,"602 & 604, Sai Radhe Building, Behind Sheraton Hotel, Pune 411001, MH",+91-20-26058881,,
682,Analogic Power Systems,Companies(Private),,"B-3, Mangalmurti Complex, 2nd Floor, Near Deepak Nitrite, Sinhgad Road, Pune 411030, MH",+91-20-24251711,,
683,SRAJ Solutions,Companies(Private),,"124, Mahalaxmi Metro Square, Laxmi Road, Tambadi, Jogeshwari Lane, ABC Chowk, Pune 411002, MH",+91-8888121000,,
684,Bisil,Companies(Private),,"C-102/11/34, Pune IT Park, Aundh Road, Bhau Patil Marg, Pune 411020, MH",+91-9146026032,,
685,Avicsoft IT Solutions,Companies(Private),,"Ganganga Building, Near Bhairavnath Temple, Baner, Pune 411045, MH",+91-9028332951,,
686,Softgenio Technology,Companies(Private),,"68-B, Smriti Vihar, Sector K-1, Ashiyana Colony, Kanpur Road, Lucknow 226012, UP","+91-522-3510038, +91-8188886786",,
687,Red Panda Innovation Labs,Companies(Private),,"B-1/604, Cerebrum IT Park, Kalyani Nagar, Pune 411014, MH",+91-7276066086,,
688,Softhub Technologies,Companies(Private),,"101/108, Yash, Behind Mercedes-Benz, Pashan Sus Road, Off. Mumbai Pune Highway, Baner, Pune 411021, MH","+91-8551899099, +91-8698299099",,
689,VSH Solutions,Companies(Private),,"1087, Nrusinha Sadan Apartments, 1st Floor, Pune 411030, MH",+91-20-24449944,,
690,TM Networks,Companies(Private),,"307, Runwal Arcade, 3rd Floor, Near Runwal Society & Warje Sports Complex, Warje, Pune 411058, MH",+91-9371775771,,
691,NADSOFT,Companies(Private),,"173, Nalin Chambers, 2nd Floor, Dhole Patil Road, Pune 411001, MH",+91-9172632845,,
692,TechInnovia Software,Companies(Private),,"103, Auspicious Building, Behind Platina Society, Pune 411057, MH",+91-9168840494,,
693,Elipsoft Technologies,Companies(Private),,"Hadapsar, Pune 411028, MH",+91-9423806401,,
694,CADEM Softwares,Companies(Private),,"19/SC-1, Kohinoor Estate, Pune Mumbai Road, Wakdewadi, Pune 411003, MH","+91-20-46300036, +91-9370211312, +91-9371011312",,
695,Cupertino Software,Companies(Private),,"A-101, Crystal Avenue, Parkhe Mala Road, Baner, Pune 411045, MH",,,
696,Trading Technologies,Companies(Private),,"The Pavillion Mall, 3rd Floor, Next To JW Marriott Hotel, Senapati Bapat Road, Shivajinagar, Pune 411016, MH",+91-20-66845100,,
697,Zestl Software,Companies(Private),,"3, Sagar Group Of Bungalow, Fatima Nagar, Pune 411013, MH",,,
698,SoftERP,Companies(Private),,"14, Bhosale Shinde Arcade, 5th Floor, Jangali Maharaj Road, Deccan Gymkhana, Pune 411004, MH",+91-8698299099,,
699,MLM Raja,Companies(Private),,,,,
700,OyeBoxes,Companies(Private),,,,,
701,Nimblechapps,Companies(Private),,,,,
706,The Brand Sense,Companies(Private),,"Flat No.303, 4th floor,E Ward,Villament Apartment ,NearBhalaji Pendharkar Sankutik Kendra, Nagala Park, Kolhapur 416003",+91-9730563965,,
707,Surya Click,Companies(Private),,"Plot No.62 - K, Amble Industrial Area, Chikmagalur, Karnataka - 577101",+91-7573983717,,
708,All Stars Digital,Companies(Private),,,,,
709,Tekhne,Companies(Private),,"4-H, Tribhuvan Road, Near Girgaon Court, Mumbai 400004,MH",,,
710,CrossShore Solutions,Companies(Private),,CrossShore Solutions,+91-79-40091152,,
711,Synconics Technologies,Companies(Private),,Synconics Technologies,+91-9426864274,,
712,8DOTS,Companies(Private),,8DOTS,"+91-8155813355, +91-7778882276",,
713,Teclogiq,Companies(Private),,Teclogiq,+91-9979257178,,
714,Apptale Technologies,Companies(Private),,Apptale Technologies,+91-9723527874,,
715,Aspire Software Solutions,Companies(Private),,Aspire Software Solutions,+91-7990073201,,
716,Solvios Technology,Companies(Private),,Solvios Technology,+91-9662035673,,
717,Prishusoft,Companies(Private),,Prishusoft,+91-9537120913,,
718,DigiStretch Solutions,Companies(Private),,DigiStretch Solutions,+91-9998808763,,
719,Intforce Software,Companies(Private),,Intforce Software,+91-79-35333450,,
720,Sabdsoft,Companies(Private),,Sabdsoft,+91-9016606637,,
721,Hupp Technologies,Companies(Private),,Hupp Technologies,"+91-7874515717, +91-9099776641",,
722,Linkgenic Digitech,Companies(Private),,Linkgenic Digitech,+91-7014751846,,
723,Rethinksoft,Companies(Private),,Rethinksoft,+91-9824090726,,
724,CrossShore Solutions,Companies(Private),,CrossShore Solutions,+91-79-40091152,,
725,Technigent Software Solutions,Companies(Private),,Technigent Software Solutions,+91-79-29708383,,
726,Trinisoft Technologies,Companies(Private),,Trinisoft Technologies,+91-8000635393,,
727,Accusol Technologies,Companies(Private),,Accusol Technologies,"+91-79-40037105, +91-9687612255",,
728,5Mindz Technolabs,Companies(Private),,5Mindz Technolabs,+91-9067779777,,
729,Vasa Technologies,Companies(Private),,Vasa Technologies,+91-8140297820,,
730,Add Pearl Info,Companies(Private),,Add Pearl Info,+91-79-26401738,,
731,Aavitech Solutions,Companies(Private),,Aavitech Solutions,+91-8511351515,,
732,Trentium Solution,Companies(Private),,Trentium Solution,+91-9157436435,,
733,CSSI,Companies(Private),,CSSI,+91-7942529292,,
734,Brilworks Software,Companies(Private),,Brilworks Software,+91-9313644148,,
735,Webyot Technologies,Companies(Private),,Webyot Technologies,+91- 9909449666,,
736,Techcrista Technologies,Companies(Private),,Techcrista Technologies,"+91-79-40032447, +91-9157786574",,
737,Einzigartige,Companies(Private),,Einzigartige,+91-9773424748,,
738,Techivies Solutions,Companies(Private),,Techivies Solutions,+91-9879887941,,
739,Questnex Technologies,Companies(Private),,Questnex Technologies,+91-9638142413,,
740,Jia Tech Solution,Companies(Private),,Jia Tech Solution,+91-9726319401,,
741,WayToWeb,Companies(Private),,WayToWeb,+91-9725073855,,
742,Moweb Technologies,Companies(Private),,Moweb Technologies,"+91-79-40087755, +91-8409999995",,
743,Kunsh Technologies,Companies(Private),,Kunsh Technologies,+91-79-40322593,,
744,Quarec IT Solutions,Companies(Private),,Quarec IT Solutions,+91-9699656667,,
745,Citta,Companies(Private),,Citta,+91-79-48991546,,
750,Rosix Technology,Companies(Private),,Rosix Technology,+91-8488897122,,
751,Futuristixhub LLP,Companies(Private),,Futuristixhub LLP,+91-99779758682,,
752,WildTigers Technologies,Companies(Private),,WildTigers Technologies,"+91-7016072891, +91-9328958285, +91-7859817617",,
753,Software Co,Companies(Private),,Software Co,,,
754,Rlogical Techsoft,Companies(Private),,Rlogical Techsoft,+91-79-66621707,,
755,Ignitive IT Solutions,Companies(Private),,Ignitive IT Solutions,+91-8140203543,,
756,Samarpan Infotech,Companies(Private),,Samarpan Infotech,+91-9099500660,,
757,XcelTec Interactive,Companies(Private),,XcelTec Interactive,"+91-9879799459, +91-7940049459",,
758,Texowave,Companies(Private),,Texowave,+91-9429872178,,
759,Gateway,Companies(Private),,,,,
760,Savvient Infotech,Companies(Private),,Savvient Infotech,+91-9879672889,,
761,iFlair Web Technologies,Companies(Private),,iFlair Web Technologies,+91-9558803176,,
762,Zymr Systems,Companies(Private),,Zymr Systems,+91-79-49000500,,
763,Cyblance Technologies,Companies(Private),,Cyblance Technologies,+91-79-29603206,,
764,iGlobsyn Technologies,Companies(Private),,iGlobsyn Technologies,+91-9033921920,,
765,WeblineIndia,Companies(Private),,WeblineIndia,+91-79-26420897,,
766,Whiz Solutions,Companies(Private),,Whiz Solutions,+91-79 4890 0071,,
767,Devstree IT Services,Companies(Private),,Devstree IT Services,+91-9904045044,,
768,CIMCON Digital,Companies(Private),,CIMCON Digital,"+91-79-26578639, +91-79-26578659",,
769,VLogic Info,Companies(Private),,VLogic Info,+91-9428017452,,
770,Tornado Software,Companies(Private),,Tornado Software,"+91-9825032745, +91-8401723159",,
771,ITLION,Companies(Private),,ITLION,+91-8866484190,,
772,iTechNotion,Companies(Private),,iTechNotion,+91-79-48948998,,
773,Virtual Height IT Services,Companies(Private),,Virtual Height IT Services,+91- 9510987700,,
774,Gujarat Infotech,Companies(Private),,Gujarat Infotech,"+91-9558013810, +91-79-27452276, +91-79-27485109, +91-79-27457650",,
775,Xatch Software,Companies(Private),,Xatch Software,+91-9664922081,,
776,Raindrops InfoTech,Companies(Private),,Raindrops InfoTech,+91-9099032177,,
777,Techtic Technolab,Companies(Private),,Techtic Technolab,+91-79-26463590,,
778,Technostacks Infotech,Companies(Private),,Technostacks Infotech,"+91-79 26447035, +91-6351078408",,
779,Concept Infoway,Companies(Private),,Concept Infoway,"+91-9825031415, +91-79-9825031415",,
780,Initfusion,Companies(Private),,Initfusion,+91-8898022639,,
781,The One Technologies,Companies(Private),,The One Technologies,+91-79-40327195,,
782,Intelligent IT Hub,Companies(Private),,Intelligent IT Hub,+91-79-40307259,,
783,Prabhat Door Closer,Companies(Private),,,,,
784,Webzyro,Companies(Private),,,,,
785,Brand Drums,Companies(Private),,"Gulab Bagh Road ,Udaipur, Rajasthan313001",+91-8619995065,,
786,Shit Digital Marketing Agency,Companies(Private),,"D120, Bank Colony, Murlipura Scheme, Murlipura, Jaipur, Rajasthan 302013",+91- 8005604262,,
787,Infolinks,Companies(Private),,,,,
788,Zelio Auto,Companies(Private),,"542, 1st Floor, Auto Market, Hisar 125001,HR","+91-7390040001, +91-9992229874",,
789,Acolad,Companies(Private),,,,,
794,Alphacodez,Companies(Private),,"Baskar Complex, Besant Rd, Chinna Chokikulam, Madurai, India",+91-8122957365,,
795,Keysonrent,Companies(Private),,,,,
796,Projects India,Companies(Private),,,,,
797,Brick and Bolt,Companies(Private),,"Clayworks, 16/2 ,2nd Floor, Sobha Alexander Plaza, Commissariat Rd, Ashok Nagar, Bangalore, India",+91-7505205205,,
798,Beyond Edge Business Solutions,Companies(Private),,+91-8919989136,,,
799,VPlayed,Companies(Private),,,,,
800,DataHorizzon Research,Companies(Private),,"Office-402, Garnets Bay, Next to Four Points by Sheraton, Viman Nagar, Pune-411014, Pune, India",+91-9706720390,,
801,Gruhmela,Companies(Private),,,,,
802,KAP Global Investment Services Pvt Ltd,Companies(Private),,"Office No. 502, 5th Floor, Eldeco Corporate Towers, Pickup Bldg Rd,Vibhuti Khand, Gomti Nagar, Lucknow, India",+91-8299146550,,
803,Emote Threed,Companies(Private),,"Coimbatore, Tamil Nadu",,,
804,Edgelink Technology,Companies(Private),,+91-73787 95378,,,
805,Web Army,Companies(Private),,,,,
806,Jurix Law Associates,Companies(Private),,,,,
807,Metal Tubes India,Companies(Private),,"Shop No. 8, Bhiwandiwala Building, Khetwadi 8th Ln, Pathe Bapurao Marg, Girgaon, Mumbai, Maharashtra 400004",+91-9819948281,,
808,Adenhanseo Online Solutions LLP,Companies(Private),,"Office No. 413, SIMSR Bldg, Somaiya Vidyavihar, Vidyavihar (E), Mumbai - 400077.",+91-7738016829,,
809,LDAM Logo Designer,Companies(Private),,"Office No. 413, Simsr Bldg., Somaiya Vidyavihar, Vidyavihar (E), Mumbai - 400 077.",+91-7738162204,,
810,Asymptotica Software Solutions,Companies(Private),,"30/2-1-205, Road No 3, Venkata Ramana Colony, Nagole, Hyderabad 500068, TS",,,
811,IKarmic Software Solutions,Companies(Private),,"69/8-2-248/1/7/69, Nagarjuna Hills, Nagarjuna CIircle, Banjara Hills, Hyderabad 500082, TS",+91-7419579869,,
812,Yetni Software,Companies(Private),,"Balaji Empire, 5th Floor, Opposite Cyber Gate Way, Patrika Nagar, Hitech City, Hyderabad 500081, TS",,,
813,Tanzanite Software Technologies,Companies(Private),,"Kothapet, Hyderabad 500035, TS",,,
814,iLenSys Technologies,Companies(Private),,"8-2-293/82-L/231-ABC, Near Omega Hospital, Road No 12, MLA Colony, Banjara Hills, Hyderabad 500034, TS",+91-40-66998246,,
815,Innovgate Software Solutions,Companies(Private),,"333/18, G Main Road, 6th Block, Koramangala, Bengaluru 560095, KA",+91-80-41105384,,
816,Zexton IT Solutions,Companies(Private),,"1-7-131/1/1, Zamistanpur, Risalagadda, Hyderabad 500040, TS",,,
817,Osiltec,Companies(Private),,"6-3-652/D-20, Dhruvatara Apartments, Near Errum Manzil Metro Station, Somajiguda, Hyderabad 500082, TS",+91-40-48555141,,
818,Silbury IT Solutions,Companies(Private),,"35, Jayabheri Pine Valley, 3rd Floor, Gachibowli, Hyderabad 500032, TS",,,
819,StaTwig,Companies(Private),,"2.0, T-Hub, Silpa Gram Craft Village, Gachibowli, Hyderabad 500081, TS","+91-9390590319, +91-8448449239",,
820,RishanTech,Companies(Private),,"103, Ace Krishna Tower, Opposite Patidar Bhavan, Kothapet, Hyderabad 500035, TS",+91-7419893141,,
821,f1Studioz,Companies(Private),,"102, Janardhan Hills, Gachibowli, Hyderabad 500032, TS",+91-9866619067,,
822,CADFEM,Companies(Private),,"6-3-902-A, Central Plaza, 2nd Floor, Right Wing, Raj Bhavan Road, Somajiguda, Hyderabad 500082, TS",+91-9849998435,,
823,Thinkbit Technologies,Companies(Private),,"Neredmet, Hyderabad 500056, TS",+91-9861365319,,
824,SB Technologies,Companies(Private),,"102, Smart Brains Technologies, 1st Floor, Kothari Milestone, S V Road, Malad West, Mumbai 400064, TS",+91-9920090075,,
825,Infrability IT Solutions,Companies(Private),,"Hi-Tech City, Madhapur Road, Hyderabad 500084, TS",,,
826,OPTEL India,Companies(Private),,"Raipur, Dehradun 248008, UK",+91-135-2780427,,
827,BizGaze,Companies(Private),,"Signature Towers, 3rd Floor, Opposite Botanical Gardens, Gachibowli Road, Kondapur, Hyderabad 500084, TS",+91-9030019508,,
828,CStoreIQ,Companies(Private),,"CoWork Valley, 5th Floor, Business Square, Jubilee Enclave, Hitech City, Hyderabad 500081, TS",,,
829,Areteans,Companies(Private),,"Survey No 39, Meenakshi Techpark, 12th Floor, Near Mindspace Circle, Gachibowli, Hyderabad 500032, TS",+91-40-40420400,,
830,ADP Softwares,Companies(Private),,"Raj Bhavan Road, Hyderabad 500082, TS",,,
831,Aientasar Software Solutions,Companies(Private),,"60/2, Yeturu Towers, 5th Floor, Khairatabad Road, Lakdikapul, Hyderabad 500004, TS",,,
832,Lnsys Technologies,Companies(Private),,"2/1, TSI Bussiness Parks, 3rd Floor, SEZ, Wave Rock, Nanakramguda, Gachibowli, Hyderabad 500081, TS","+91-558694404, +91-7385594404",,
833,ATFO IT Solutions,Companies(Private),,"Moghalpura, Hyderabad 500002, TS",,,
838,IOTE Technologies,Companies(Private),,"B-1003, The Platina, B-Block, Gachibowli, Hyderbad 500032, TS",,,
839,Syntags IT LLP,Companies(Private),,"NMR'S Padma Avenue, 4th Floor, 3rd Avenue, Road No 1, Patrika Nagar, Madhapur, Hyderabad 500081, TS",+91-40-35993302,,
840,NCPL Inc Hyderabad,Companies(Private),,"702-A, PSR Prime Tower, Beside DLF Cyber City, Gachibowli, Hyderabad 500032, TS",+91-9849033243,,
841,Niyantra Software Services,Companies(Private),,"7/16, Near Geeta Mandiram, Kapileaswarapuram, Pamidimukkala 521246, AP",,,
842,Ratna Global Technologies,Companies(Private),,"CNR Complex, 2nd Floor, Near Chintalkunta Checkpost, Tirumala Colony, LB Nagar, Hyderabad 500074, TS",,,
