,Name,Sector,City,Address,Phone,Email,Lat-Long
1,Bank Of India,Banks,Mumbai, Fountain,,,
2,Bank Of India,Banks,Mumbai, Fort,,,
3,Bank Of INDIA,Banks,Mumbai,Post Box No 1618 Fort,,,
4,Bank Of INDIA,Banks,Mumbai,Near Colaba Causeway Apollo Bunder,,,
5,Bank Of India (NRI Branch),Banks,Mumbai,Near Mumbai Fort,,,
6,IDFC First Bank,Banks,Mumbai,Next Solitaire Corporate Park Opposite Holy Family School Andheri East,,,
7,HDFC Bank (Central Processing Unit),Banks,Mumbai,Off Saki Vihar Road Sakinaka,,,
8,HDFC Bank,Banks,Mumbai,Near Lake Homes Andheri East,,,
9,HDFC Bank (Corporate Office),Banks,Mumbai, Fort,,,
10,HDFC Bank,Banks,Mumbai,Opposite Barista Next to Sterling Cinema Fort,,,
11,HDFC Bank,Banks,Mumbai,Patlipada,,,
12,HDFC Bank,Banks,Mumbai, Crawford Market,,,
13,HDFC Bank,Banks,Mumbai, Fort,,,
14,HDFC Bank,Banks,Mumbai, Apollo Bunder,,,
15,Reserve Bank Of India (Regional Office),Banks,Mumbai,Opposite New Central Office Building Kala Ghoda Fort,,,
16,Reserve Bank Of India,Banks,Mumbai, Fort,,,
17,HDFC Bank,Banks,Mumbai,Opposite Goregaon Sports Club Mumbai Maharashtra In Opposite Infinity Mall Malad West Malad West,,,
18,HDFC Bank,Banks,Mumbai,Opposite Goregaon Sports Club Mumbai Maharashtra In Near Orlem Malad West,,,
19,HDFC Bank,Banks,Mumbai,Sunder Nagar Near Dalmia College Malad West,,,
20,HDFC Bank,Banks,Mumbai,Near Evershine Mall Malad West,,,
21,NKGSB Co-op Bank Ltd (Thane Naupada Branch),Banks,Thane,"Raunak Arcade, 7/8, Ghantali Devi Rd · 022 2537 0920",,,
22,Thane Bharat Sahakari Bank Limited,Banks,Thane,"5XRC+6QQ, Sahayog Mandir Path · 022 2542 9432",,,
23,CANARA BANK - THANE NAUPADA,Banks,Thane,"41A GOKHALE ROAD, NAUPADA NAUPADA S.O · 1800 425 0018",,,
24,Thane Bharat Sahakari Bank Limited,Banks,Thane,"Western India Steel Industries Compound, Pokharan Rd Number 2, opp. Oswal Park · 022 2173 6262",,,
25,"Bharat Co-operative Bank (Mumbai) LTD, Thane Branch",Banks,Thane,"Panama Planet, Gokhale Road, Naupada, opp. Hotel Amruta · 022 2537 6552",,,
26,Bank of India - Thane Corporate Banking Branch,Banks,Thane,"G-5, GR.FL, AKRUTI SMC, OFF LBS MARG, KHOPAT JUNCTION, THANE (WEST) · 1800 22 0229",,,
27,"Thane Bharat Sahakari bank, Rutu Park Branch",Banks,Thane,"D-2, Eastern Express Hwy · 022 2544 2363",,,
28,"NKGSB Co-operative Bank Limited- Vartak Nagar,Thane West Branch",Banks,Thane,"Shop No.S2, 23,24,25, Vedant Commercial Complex, Madrecha Rd · 022 2585 3349",,,
29,Karnataka Bank - Thane Branch & ATM,Banks,Thane,"Shop No.12, VIHANG GARDEN, Pokharan Rd Number 1, opp. raymonds · 1800 425 1444",,,
30,Thane Bharat Sahakari Bank Limited - Chandanwadi Branch,Banks,Thane,"5XXC+PM7, Mahesh Darshan, Near Makhmali Talao, Old Mumbai, Agra Road · 022 2533 5237",,,
31,Punjab National Bank - Thane West Branch,Banks,Thane,"5XQ8+3WP, Satyam Apartment Mahatma Gandhi Rd Near Malhar Cinema · 1800 180 2222",,,
32,The Thane District Central co-op Bank R M Road Branch,Banks,Thane,"x 2, Ram Maruti Rd",,,
33,ICICI BANK LTD,Banks,Thane,"ATM ID-S1CPS152,Icici Bank Atm Rajdeep Society, Gokhale Rd, near Malhar Cinema, opp. Hutch Gallery · 1860 120 7777",,,
34,Thane Bharat Sahakari Bank LTD,Banks,Thane,"6XFV+2F9, Subh Vihar, opp to, Dadlani Rd",,,
35,State Bank Of India,Banks,Thane,"425, Gokhale Rd · 1800 11 2211",,,
36,CENTRAL BANK OF INDIA - THANE (EAST) Branch,Banks,Thane,SARVA SEWA SAMITI TRUST SHIVLEELA HOUSE · 022 2532 6037,,,
37,Bank of Maharashtra,Banks,Thane,"Building No 22, Wing A & B Brinda, No 1 & 2 · 1800 233 4526",,,
38,ICICI BANK LTD,Banks,Thane,"ATM ID-S1CNC192,Icici Bank Atm, Shop No .3 Ganga pachvati CHS, bldg no.12 A, vrindavan, near bus depot · 1860 120 7777",,,
39,Citizens Co-operative Bank Ltd,Banks,Thane,"3/4, Laxmi Palace, M. G. Road, Naupada Thane · 022 2538 1273",,,
40,Bank of Maharashtra,Banks,Thane,"GF, Thane Municipal Corporation Building Panchpakhadi · 1800 233 4526",,,
41,Axis Bank ATM,Banks,Thane,"High Street Mall Bhiwandi Road, Junction, near Big Bazar · 1860 419 5555",,,
42,HDFC Bank,Banks,Thane,"Gr Flr, SN 2&3, Mint, Chitalsar, nr. HIRANANDANI MEADOWS · 094267 92001",,,
43,Axis Bank Branch,Banks,Thane,"Shop No 2, Ground Floor, Sheth Avalon, G Wing, near Viviana Mall · 1860 500 5555",,,
44,Axis Bank Branch,Banks,Thane,"Shop No 13 to 18, GF, Rajdeep Galleria Ponda Madgaon Road, Ponda · 1860 500 5555",,,
45,"ICICI Bank Gokhale Road, Thane-Branch & ATM",Banks,Thane,"Gokhale Road, Pathare Building, Naupada, near Gaondevi Mandir · 1860 120 6699",,,
46,"TJSB Bank, Khopat Branch",Banks,Thane,"Golden Heavens Apartment Near Pratap Talkies Khopat, Pokharan Rd Number 1",,,
47,MAHARASHTRA GRAMIN BANK REGIONAL OFFICE RO,Banks,Thane,3rd FLOOR MTNL EXCHANGE CHARAI OPP GANESH TALKIES,,,
48,Citizen Credit Co-operative Bank,Banks,Thane,"Shop No.2 & 3, Angels’ Paradise, Veer Savarkar Marg, near Dagadi Shala · 022 2542 5447",,,
49,Suryoday Small Finance Bank,Banks,Thane,"Ground Floor, Flower Valley Complex, Eastern Express Hwy, opposite to Viviana Mall · 1800 266 7711",,,
50,"TJSB Bank, Ram Maruti Road Branch",Banks,Thane,"Building, Ground Floor, People Education Society, Ram Maruti Rd · 022 2174 8517",,,
51,G P Parsik Bank,Banks,Thane,"GB-149, Ground Floor, Highland Corporate Center, Near Big Bazar, Majiwade · 022 2542 0359",,,
52,State Bank of India PBB VASANT VIHAR THANE,Banks,Thane,"CHESTNUT PLAZA, Gladys Alwares Rd, opp. Eden Woods Road · 022 2589 3426",,,
53,Axis Bank ATM,Banks,Thane,Survey No 166/1 A Pt · 1860 500 5555,,,
54,Union Bank Of India,Banks,Thane,"1st Floor, Dhanalaxmi, Estate, Navneet Motors, Gokulnagar, Thane West, Kapur Bawdi · 022 2172 1746",,,
55,G.P. Parsik Bank,Banks,Thane,"Green Rd, Opp Anurag Apartment · 022 2545 6500",,,
56,TJSB Bank Manpada Branch,Banks,Thane,"C/603, Gladys Alwares Rd",,,
57,Axis Bank ATM,Banks,Thane,"Shop No 2 to 4, Bhiwadiwala Building, near Thane Court · 1860 500 5555",,,
58,Axis Bank ATM,Banks,Thane,"George Mansion, Lal Bahadur Shastri Marg · 1860 500 5555",,,
59,The Thane District Central Co-Operative Bank Ltd,Banks,Thane,"5XMC+479, Siddharth Nagar, Bara Bungalow Rd · 022 2532 0527",,,
60,Kotak Mahindra Bank,Banks,Thane,"Unit No. 2, Unique Building, Ground and Mezzanine Floor, Hiranandani Estate Rd, opp. TMC Commissioner Bungalow · 1860 266 2666",,,
61,HDFC Bank,Banks,Thane,"Shop No G9, Ground Floor, Lake City Mall, Kapurbawdi · 094267 92001",,,
62,TJSB Sahakari Bank Limited - Patlipada,Banks,Thane,"6XXH+57H, G.B. Road, Hiranandini Road · 1800 22 3466",,,
63,SyndicateBank Thane Gokhale Road (Shivajipet) Branch,Banks,Thane,"Saro - Darshan Towers, Nr.M.H.Highschool, Shivaji Path · 099690 02764",,,
64,The Thane District Co-Operative Bank,Banks,Thane,"7VCH+99F, Abid Patel House, Near Amar Palace Hotel, Near A.P. International School, Miragaon National Highway, Miragaon Rd · 022 2845 7707",,,
65,Parsik Bank Kalwa Naka,Banks,Thane,"1, Thane - Belapur Rd",,,
66,IDFC FIRST Bank ATM,Banks,Thane,"SN 5A, Bldg No 1 & 10, Maithili Pride MHBCol, Vartak Ngr, Pokhran Rd, 1, JK Gramm, near HP Gas Godown · 1800 10888",,,
67,C.K.P. Co-Operative Bank,Banks,Thane,"5XPG+X86, Paranjape Udyog Bhavan, Ambedkar Chowk, Yashodhan, Shivaji Path, TMT Reserved Flyover SATIS · 022 2538 9673",,,
68,Punjab National Bank E Lobby,Banks,Thane,"Shop No.23, Soham Plaza, Manpada Junction, Ghodbunder Road · 1800 180 2222",,,
69,Axis Bank ATM,Banks,Thane,"GF, Vardhman Vatika Chs, SN 49 to 52, Kolshet Rd · 1860 500 5555",,,
70,The Kalyan Janta Sahakri Bank,Banks,Thane,"Shop No.1 , Rajashri Plaza, Ground floor, Lal Bahadur Shastri Marg, near Mhakmali talav · 022 2538 2763",,,
71,Axis Bank ATM,Banks,Thane,"SG 23, Gr Flr, Shoppe, Dosti Imperia, Ghodbunder Rd, opposite R Mall · 1860 500 5555",,,
72,HDFC Bank,Banks,Thane,"Sharad Kunj, Doctor Moose Road · 094267 92001",,,
73,Shree Arihant Co.op Bank,Banks,Thane,"Thane Nagar Vachan Mandir, 1st Floor, Tembi Naka, Thane West · 022 2543 7977",,,
74,Oriental Bank Of Commerce,Banks,Thane,"Shop No.2, Oasis Silver Stone, Ram Maruti Road, Naupada, Thane West, opposite Hotel Shiv Sagar · 022 2537 6084",,,
75,HDFC Bank,Banks,Thane,"Shop No 1 to 3 Vihang Garden, opposite Raymond Factory · 094267 92001",,,
76,CSB Bank Mulund - Mumbai Branch & ATM,Banks,Thane,"Anu Apartment, Lal Bahadur Shastri Marg · 090726 01233",,,
77,ICICI Bank Thane Kalher,Banks,Thane,"Ground Floor, Shop No. 1 & 2 H, Patel Arcade, 827, Thane Rd · 1800 1080",,,
78,IDFC FIRST Bank ATM,Banks,Thane,"No 21, Ground Floor, DOSTI IMPERIA, Bldg, Ghodbunder Rd · 1800 10888",,,
79,HDFC Bank ATM,Banks,Thane,"Shop No 9, Pradhan Building, Station Rd, near Post Office · 094267 92001",,,
80,State Bank Of India,Banks,Thane,"Akruti SMS, Lal Bahadur Shastri Marg, opposite ST Workshop · 1800 11 2211",,,
81,Bandhan Bank ATM,Banks,Thane,"6X6G+6R7, Golden Park, Muktai Nagar, Old Agra, Thane West",,,
82,Thane District C C-op Bank Wagle Estate Branch,Banks,Thane,"5XP4+F9Q, MCED Office,",,,
83,IDBI Bank,Banks,Thane,"Shop No.14,15, Chandan, MAITRI VATIKA, 16 &17, Pune - Mumbai Hwy · 1800 200 1947",,,
84,Bank,Banks,Thane,"Samata Nagar, Sainath Nagar, Majiwada, Thane, Maharashtra 400601",,,
85,Bank of India,Banks,Thane,"Block No, P. O., Tehsil, 8, Mumbai - Agra National Hwy · 2806224",,,
86,Fino Payments Bank,Banks,Thane,"Near Masjid, Room-7882, Indira Nagar Rupadevipada-2, Road-34, Thane, Wagle I E · 081085 17910",,,
87,ICICI Bank ATM,Banks,Thane,"Wing-A, MANCHESTER CHS, 8, Smelting Koros Rd",,,
88,HDFC Bank,Banks,Thane,"Shop No G9, Ground Floor, Lake City Mall, Kapurbawdi · 094267 92001",,,
89,ICICI Bank ATM,Banks,Thane,"Shop no 2 3 4 G Elite buildings Sidhanchal Phase 07 Pokhran road, 02, west · 1860 120 7777",,,
90,CANARA BANK ATM,Banks,Thane,"T M C School, SHOP NO-02, SANGAM · 1800 425 0018",,,
91,New India Co Op Bank ATM,Banks,Thane,"400601, Mahapalika Bhavan Rd",,,
92,Bank of Baroda ATM,Banks,Thane,"16, SARASWATI SADAN, COLONY, Manpada Rd · 1800 258 4455",,,
93,Kotak Mahindra Bank ATM,Banks,Thane,"Jai Commercial Complex, Jai Siddhivinayak Premises Chs, Pokharan Rd Number 1 · 1860 266 2666",,,
94,ATM,Banks,Thane,"Bungalow Number 90, Naka, Madrecha Rd",,,
95,Axis Bank ATM,Banks,Thane,"Shop No.4 Building No.2, Ltd, Sahyog CHS · 1860 500 5555",,,
96,IndusInd Bank ATM,Banks,Thane,"Shop No.1 A Wing, Suryadarshan Tower, Esic Road, off Eastern Express Highway · 1860 267 7777",,,
97,HDFC Bank ATM,Banks,Thane,"Shop No 10, Om Kamal Pushpa Housing Society, opposite Lokmanya Bus Stop · 094267 92001",,,
98,CANARA BANK ATM,Banks,Thane,"SHOP NO-2, OMKAR NIWAS, near THAKUR COLLEGE · 1800 425 0018",,,
99,Bank,Banks,Thane,"Samata Nagar, Sainath Nagar, Majiwada, Thane, Maharashtra 400601",,,
100,IDBI Bank,Banks,Thane,"Shop No.14,15, Chandan, MAITRI VATIKA, 16 &17, Pune - Mumbai Hwy · 1800 200 1947",,,
101,TJSB Sahakari Bank Limited - Patlipada,Banks,Thane,"6XXH+57H, G.B. Road, Hiranandini Road · 1800 22 3466",,,
102,ATM ICICI BANK,Banks,Thane,"6X23+PC9, Road No. 16/Z · 1860 120 7777",,,
103,CANARA BANK ATM,Banks,Thane,"SHOP NO.5, SHIVSADAN APARTMENT · 1800 425 0018",,,
104,Fino Payments Bank,Banks,Thane,"27, Salunkhe Niwas, Rupadevi Pada No.2 Roadno.33, Near Rupadevi Temple, Indira Nagar · 022 6868 1414",,,
105,ICICI BANK ATM,Banks,Thane,6X5C+3FR,,,
106,TJSB Sahakari Bank Atm,Banks,Thane,"Shop No. 5, Ratna Umed Residency , Umed Nagar ,, Pipe Lina Road. Louis Wadi , Thane (W)",,,
107,HDFC Bank ATM,Banks,Thane,"Shop No 1 to 3, Vihang Gardens, Pokharan Rd Number 1 · 094267 92001",,,
108,ICICI Bank Atm,Banks,Thane,"Shop No.1, Star View Apt, Nr Hari Om Traders, Lokmanya & 8232 Nagar, Pada No 4 · 1860 120 7777",,,
109,ICICI Bank Atm,Banks,Thane,"Shop No-07, Swapnavanchs · 1860 120 7777",,,
110,State Bank Of India ATM,Banks,Thane,"5, Dev Daya Nagar Society Rd · 1800 11 2211",,,
111,Union Bank of India ATM,Banks,Thane,"Shop No. 8-12, Ratna Umed Residency, Umed Nagar, Pipeline Road, Louis Wadi, Thane West · 1800 22 2244",,,
112,Kotak Mahindra Bank ATM,Banks,Thane,"463, Khopat Rd · 1860 266 2666",,,
113,ICICI Bank ATM,Banks,Thane,"5XX6+XWR, Surya Darshan Bldg, Kamger Hospital, Thane West, opp. Urekan · 1860 120 7777",,,
114,State Bank Of India ATM,Banks,Thane,"Jai Commercial Complex, Khopat Rd · 1800 11 2211",,,
115,ICICI Bank Atm,Banks,Thane,"Shop No-4, Vhihang Park, near Laxmi Park · 1860 120 7777",,,
116,ICICI Bank ATM,Banks,Thane,"Shop No 2, 3, 4, Plot No. 297, Madhuban CHS Ltd Service Road, West · 1860 120 7777",,,
117,ICICI Bank ATM,Banks,Thane,"15, Neelkanth Heights, Rameswar Tower, Between Pokhran 1 & 2 · 1860 120 7777",,,
118,ICICI Bank - ATM,Banks,Thane,"5XX6+277, Pipeline Rd · 1860 120 7777",,,
119,Bandhan Bank,Banks,Thane,"Shop No.2 (Part), M/s Wood Plaza, Golden Dyes Compound, opp. Navneet Motors · 1800 258 8181",,,
120,ICICI Bank Atm,Banks,Thane,"Chourishya Foot Wear,Road No-34,Nr Shiv Sena Shaka · 1860 120 7777",,,
121,Saraswat Bank ATM,Banks,Thane,"Ground Floor, Nitin Company, Nakshatra Tower, road, opp. Thane Municipal Corporation · 022 2534 8646",,,
122,Tjsb bank atm.,Banks,Thane,"Kishan nagar no,2 Ful Gali pipeline, Rd Number 16",,,
123,"NKGSB Co-operative Bank Limited- Vartak Nagar,Thane West Branch",Banks,Thane,"Shop No.S2, 23,24,25, Vedant Commercial Complex, Madrecha Rd · 022 2585 3349",,,
124,Karnataka Bank - Thane Branch & ATM,Banks,Thane,"Shop No.12, VIHANG GARDEN, Pokharan Rd Number 1, opp. raymonds · 1800 425 1444",,,
125,The Thane District Central Co-Operative Bank Limited-Vartak Nagar,Banks,Thane,"Gitanjali Apartment, Shivaji Path. P. B. No. 19, Near Station Shivaji Path Road, Aai Mata Rd · 022 2536 3042",,,
126,Bank of Maharashtra,Banks,Thane,"1st Floor, Jagdish Industrial Estate, Pokharan Rd Number 1, opposite Telegram Gate · 1800 233 4526",,,
127,State Bank of India SAMTA NAGAR THANE,Banks,Thane,"SHOP NO 8, 9 AND 10, VIHANG GARDEN, Pokharan Rd Number 1 · 022 2537 7941",,,
128,Union Bank of India - Vartak Nagar Branch,Banks,Thane,"6, Acharya Atre Marg · 022 2585 5050",,,
129,Thane Bharat Sahakari Bank Limited,Banks,Thane,"Western India Steel Industries Compound, Pokharan Rd Number 2, opp. Oswal Park · 022 2173 6262",,,
130,NKGSB Co-op Bank Ltd (Thane Naupada Branch),Banks,Thane,"Raunak Arcade, 7/8, Ghantali Devi Rd · 022 2537 0920",,,
131,Thane Bharat Sahakari Bank Limited,Banks,Thane,"Plot No. 78, Near Shivai Nagar Bus Stop, Shivai Nagar, Pokhran Road No. 1, Thane West, Upvan Lake Rd · 022 2173 6262",,,
132,Thane Bharat Sahakari Bank Limited,Banks,Thane,"5XRC+6QQ, Sahayog Mandir Path · 022 2542 9432",,,
133,"ICICI Bank Vartak Nagar, Thane-Branch & ATM",Banks,Thane,"S 1, Vedant Commercial Complex, Vartak Nagar, 0 · 1800 1080",,,
134,State Bank of India,Banks,Thane,Pokharan Rd Number 1 · 1800 425 3800,,,
135,CANARA BANK - THANE NAUPADA,Banks,Thane,"41A GOKHALE ROAD, NAUPADA NAUPADA S.O · 1800 425 0018",,,
136,Punjab National Bank - Thane West Branch,Banks,Thane,"5XQ8+3WP, Satyam Apartment Mahatma Gandhi Rd Near Malhar Cinema · 1800 180 2222",,,
137,Saraswat Bank,Banks,Thane,"5XX8+9M3, Ground Floor, Nakshatra Tower, Almeda Rd, Opp Municipal Corp · 022 2534 8645",,,
138,Ambarnath Jai-Hind Co-Operative Bank Limited- Yashodhan Nagar Branch,Banks,Thane,"Shop.No.2, Ground Floor C-2,Opposite Happy Height’s Telephone Exchange, Sai Prasad Sociman Rd · 022 2581 3882",,,
139,"Thane Bharat Sahakari bank, Rutu Park Branch",Banks,Thane,"D-2, Eastern Express Hwy · 022 2544 2363",,,
140,Thane Bharat Sahakari Bank Limited - Chandanwadi Branch,Banks,Thane,"5XXC+PM7, Mahesh Darshan, Near Makhmali Talao, Old Mumbai, Agra Road · 022 2533 5237",,,
141,"RBL Bank Ltd - Vartak Nagar, Thane Branch & ATM",Banks,Thane,"Shop No. 2D, Ground & First floor, Maithili Pride Building No.1 & 10, MHB Colony, Vartak Nagar, Pokharan Rd Number 1 · 022 2585 3975",,,
142,State Bank of India KHOPAT BRANCH THANE,Banks,Thane,"BUILDING PLOT NO 457, SREEJISWAMINARAYANA NAGAR SREEJI DARSHAN, 1, Pokhran Rd · 022 2538 3699",,,
143,"ICICI Bank Manpada Waghbil, Thane-Branch & ATM",Banks,Thane,"Ghodbunder Road, Suraj House, Near Dongripada Bus Stop, Waghbil Naka · 1800 1080",,,
144,"ICICI Bank Gokhale Road, Thane-Branch & ATM",Banks,Thane,"Gokhale Road, Pathare Building, Naupada, near Gaondevi Mandir · 1860 120 6699",,,
145,State Bank of India,Banks,Thane,"Vakratunda Residency Shree Swami Krupa, Phase 2, Manorama Nagar Rd · 1800 425 1825",,,
146,GP Parsik Bank,Banks,Thane,SWASTIK REGALIA COMPLEX,,,
147,DMK Jaoli BANK,Banks,Thane,5XW6+G9P · 022 2583 5443,,,
148,Axis Bank Branch,Banks,Thane,"Thane, Maharashtra · 1860 500 5555",,,
149,"ICICI Bank LTD, Thane-Siddhachal- Branch & ATM",Banks,Thane,"02, ICICI Bank Ltd., Ground floor, Shop No. 2,3,4, Elite Building, Siddhachal Phase-07, Pokhran Rd · 1800 1080",,,
150,Axis Bank ATM,Banks,Thane,"Arun Industries, near Kalpataru Prime · 1860 500 5555",,,
151,"The National Co op Bank Ltd,Ghodbunder Branch",Banks,Thane,"4, Vijay Garden Rd · 084240 81717",,,
152,ICICI Bank Thane Ghodbunder Road,Banks,Thane,"Shop No. 3, MK Plaza, ICICI Bank Ltd, Ghodbunder Rd · 1800 1080",,,
153,Axis Bank ATM,Banks,Thane,"KORUM MALL 2 (INFORMATION DESK, UPPER GROUND), MANGAL PANDEY ROAD Eastern Express Highway, Junction, near Cadbury · 1860 419 5555",,,
154,icici bank thane west wagle estate,Banks,Thane,"5XX5+26X, Rd Number 16",,,
155,Axis Bank Branch,Banks,Thane,"Ground Floor, Shop No/ 1, 2 & 3, College, near Muchhala Polytechnic · 1860 500 5555",,,
156,Bharat Bank,Banks,Thane,"6XMG+565, Shop No. C, Solitaire Towers, Chitalsa, Khewra Cir Marg · 022 2589 2531",,,
157,IDFC FIRST Bank,Banks,Thane,"Shop No 7 to 10, Ground, MK Plaza, Ghodbunder Rd · 1800 10888",,,
158,Apna Sahakari Bank,Banks,Thane,"Ghodbunder Shop No. 5 & 6 Shree Maa Trust, Ground Floor, S. N. 146 Patlipada, Ghodbunder Rd · 022 2586 2957",,,
159,Axis Bank Branch,Banks,Thane,"Ground Floor, ACCEL HOUSE, SN 7 & 8, Rd Number 22 · 1860 500 5555",,,
160,Oriental Bank of Commerce,Banks,Thane,"Sidhanchal Shopping Centre, Off Pokharan Road 2 Tulshidham · 022 2171 4433",,,
161,Axis Bank ATM,Banks,Thane,"Shop No 2 to 4, Bhiwadiwala Building, near Thane Court · 1860 500 5555",,,
162,TSJB Sahakari Bank Limited - ATM - Patlipada,Banks,Thane,"6XXH+685, Ghodbunder Rd · 022 2586 1497",,,
163,HDFC Bank ATM,Banks,Thane,"Shop No 10, Om Kamal Pushpa Housing Society, opposite Lokmanya Bus Stop · 094267 92001",,,
164,Axis Bank ATM,Banks,Thane,"SN 7 & 8, PN A 125, A 126, Road No 22 MIDC · 1860 500 5555",,,
165,State Bank ATM,Banks,Thane,"Shop No. 2, Gajanan heights, ESIC Road",,,
166,ICICI Bank ATM,Banks,Thane,"Shop no 2 3 4 G Elite buildings Sidhanchal Phase 07 Pokhran road, 02, west · 1860 120 7777",,,
167,Fino Payments Bank,Banks,Thane,"Near Masjid, Room-7882, Indira Nagar Rupadevipada-2, Road-34, Thane, Wagle I E · 081085 17910",,,
168,HDFC Bank ATM,Banks,Thane,"Shop No 1 to 3, Vihang Gardens, Pokharan Rd Number 1 · 094267 92001",,,
169,Bank of Baroda ATM,Banks,Thane,"16, SARASWATI SADAN, COLONY, Manpada Rd · 1800 258 4455",,,
170,New India Co Op Bank ATM,Banks,Thane,"400601, Mahapalika Bhavan Rd",,,
171,Kotak Mahindra Bank ATM,Banks,Thane,"Jai Commercial Complex, Jai Siddhivinayak Premises Chs, Pokharan Rd Number 1 · 1860 266 2666",,,
172,CANARA BANK ATM,Banks,Thane,"SHOP NO-2, OMKAR NIWAS, near THAKUR COLLEGE · 1800 425 0018",,,
173,ICICI BANK ATM,Banks,Thane,6X5C+3FR,,,
174,IndusInd Bank ATM,Banks,Thane,"Shop No.1 A Wing, Suryadarshan Tower, Esic Road, off Eastern Express Highway · 1860 267 7777",,,
175,ATM ICICI BANK,Banks,Thane,"6X23+PC9, Road No. 16/Z · 1860 120 7777",,,
176,CANARA BANK ATM,Banks,Thane,"SHOP NO.5, SHIVSADAN APARTMENT · 1800 425 0018",,,
177,Kotak Mahindra Bank ATM,Banks,Thane,"463, Khopat Rd · 1860 266 2666",,,
178,ICICI Bank Atm,Banks,Thane,"Shop No-07, Swapnavanchs · 1860 120 7777",,,
179,TJSB Sahakari Bank Limited - Patlipada,Banks,Thane,"6XXH+57H, G.B. Road, Hiranandini Road · 1800 22 3466",,,
180,Fino Payments Bank,Banks,Thane,"27, Salunkhe Niwas, Rupadevi Pada No.2 Roadno.33, Near Rupadevi Temple, Indira Nagar · 022 6868 1414",,,
181,Union Bank of India ATM,Banks,Thane,"Shop No. 8-12, Ratna Umed Residency, Umed Nagar, Pipeline Road, Louis Wadi, Thane West · 1800 22 2244",,,
182,ICICI Bank ATM,Banks,Thane,"Shop No 2, 3, 4, Plot No. 297, Madhuban CHS Ltd Service Road, West · 1860 120 7777",,,
183,ICICI Bank Atm,Banks,Thane,"Shop No-4, Vhihang Park, near Laxmi Park · 1860 120 7777",,,
184,Bank,Banks,Thane,"Samata Nagar, Sainath Nagar, Majiwada, Thane, Maharashtra 400601",,,
185,TJSB Sahakari Bank Atm,Banks,Thane,"Shop No. 5, Ratna Umed Residency , Umed Nagar ,, Pipe Lina Road. Louis Wadi , Thane (W)",,,
186,State Bank Of India ATM,Banks,Thane,"5, Dev Daya Nagar Society Rd · 1800 11 2211",,,
187,ICICI Bank - ATM,Banks,Thane,"5XX6+277, Pipeline Rd · 1860 120 7777",,,
188,ICICI Bank Atm,Banks,Thane,"Shop No.1, Star View Apt, Nr Hari Om Traders, Lokmanya & 8232 Nagar, Pada No 4 · 1860 120 7777",,,
189,ICICI Bank ATM,Banks,Thane,"5XX6+XWR, Surya Darshan Bldg, Kamger Hospital, Thane West, opp. Urekan · 1860 120 7777",,,
190,Axis Bank ATM,Banks,Thane,"Thane, Maharashtra · 1860 500 5555",,,
191,State Bank Of India ATM,Banks,Thane,"Jai Commercial Complex, Khopat Rd · 1800 11 2211",,,
192,ICICI Bank ATM,Banks,Thane,"15, Neelkanth Heights, Rameswar Tower, Between Pokhran 1 & 2 · 1860 120 7777",,,
193,HDFC Bank ATM,Banks,Thane,"Shop No 11, Hiramoti Shopping Centre Mulund Check Naka, Shivaji Nagar Rd · 094267 92001",,,
194,Saraswat Bank ATM,Banks,Thane,"Ground Floor, Nitin Company, Nakshatra Tower, road, opp. Thane Municipal Corporation · 022 2534 8646",,,
195,ICICI Bank Atm,Banks,Thane,"Chourishya Foot Wear,Road No-34,Nr Shiv Sena Shaka · 1860 120 7777",,,
196,Icici Bank ATM,Banks,Thane,"A-186, Rd Number 16 · 1860 120 7777",,,
197,ICICI Bank Bhiwandi,Banks,Thane,"ICICI Bank Ltd, Shop No.8, 9 10 B Wing, Dhamankar Naka, Bhiwandi Thane Dist · 1800 1080",,,
198,Tjsb bank atm.,Banks,Thane,"Kishan nagar no,2 Ful Gali pipeline, Rd Number 16",,,
199,State Bank e-Corner,Banks,Thane,"Shop No. 10, Green Road & Off Eastern Express Highway, Sun Magnetica, Louis Wadi, Thane West",,,
200,Karnatka Bank ATM,Banks,Thane,"7/55, Pokharan Rd Number 1",,,
201,Punjab National Bank - Thane (East) Branch,Banks,Thane,"5XMF+587, Behind Bharat English School, Harishchandra Raut Marg, Kopri, Thane East · 1800 180 2222",,,
202,CENTRAL BANK OF INDIA - THANE (EAST) Branch,Banks,Thane,SARVA SEWA SAMITI TRUST SHIVLEELA HOUSE · 022 2532 6037,,,
203,Bank of Maharashtra,Banks,Thane,Renuka Apartment Adarsh Colony · 1800 233 4526,,,
204,Thane Bharat Sahakari Bank-Thane East Branch,Banks,Thane,"5XMG+485, Opposite Karam Ground, Ashirwad Hospital, Nav Aashirvad, Near Daulat Nagar, Harishchandra Raut Marg · 022 2532 3951",,,
205,CANARA BANK - THANE KOPRI COLONY,Banks,Thane,"S.O, 5 STAR BUILDING, GROUND FLOOR · 1800 425 0018",,,
206,The Saraswat Co-Operative Bank Limited Kopri Colony Branch,Banks,Thane,"6-11, Saitirtha, Bara Bungalow Rd · 022 2532 5016",,,
207,Bank of India,Banks,Thane,"5XJF+82W, Raut House, Lokmanya Tilak Road · 25320589",,,
208,ICICI Bank Thane Kopri,Banks,Thane,"No. F, Sai Tirth Tower, ICICI Bank Ltd, Shop No.18 to 21, Ground Floor B wing Bldg · 1800 1080",,,
209,Union Bank of India,Banks,Thane,"5XMF+R45, Dr. Chaithram Gidwani Marg, Kopri Colony, Kishor Nagar, Thane East · 1800 22 2244",,,
210,SVC Bank,Banks,Thane,"Ground Floor, Sri Datta Sai Tower, Vijay Nagar, Hari Om Nagar Road, Thane East · 022 2532 4011",,,
211,State Bank of India THANE.,Banks,Thane,"Sadguru Gardens, Marigold, Mithbunder Rd · 1800 425 3800",,,
212,The Thane District Central Co-Operative Bank Ltd,Banks,Thane,"5XMC+479, Siddharth Nagar, Bara Bungalow Rd · 022 2532 0527",,,
213,The Navjeevan Bank,Banks,Thane,"5XMF+5C6, Krishna Niwas, Chhatrapati Shivaji Society, Harishchandra Raut Marg · 022 2532 3675",,,
214,Axis Bank Branch,Banks,Thane,"Ground Floor, Geeta Construction Company Anand Cinema, Station Rd · 1860 500 5555",,,
215,Bank of Baroda,Banks,Thane,"Ratan House, Ganesh Purushottam Pai Rd · 1800 258 4455",,,
216,Bank Of India - Kopri Colony Branch,Banks,Thane,"5XJF+82W Raut House, Datta Mandir Marg, near Sunita Society · 1800 22 0229",,,
217,HDFC Bank,Banks,Thane,"Shop No 5, Arizona Building, opposite Kishin Leela Tower · 094267 92001",,,
218,"TJSB Bank, Thane East Branch",Banks,Thane,"Bhivra Bhavan, Tilak Nagar · 022 2532 4330",,,
219,Axis Bank ATM,Banks,Thane,"Shop No 1, Building No 25, near Thane · 1860 500 5555",,,
220,Axis Bank ATM,Banks,Thane,"Shop No 2, Ground Floor, Narain Niwas, Railway Station, opposite Thane · 1860 419 5555",,,
221,Kotak Mahindra Bank,Banks,Thane,"Anand Theatre Compound, Station Rd · 1860 266 0811",,,
222,Axis Bank ATM,Banks,Thane,"Ground floor, Geeta Construction Company Anand Cinema, Station Rd · 1860 500 5555",,,
223,ICICI BANK ATM,Banks,Thane,"Shop No. - 1, Room No. - 218, Anand Nagar, Kopri Bridge, near Kamgar Kalyan Kendra · 1800 1080",,,
224,Axis Bank ATM,Banks,Thane,"Shop No 3, Chendani Koliwada · 1860 500 5555",,,
225,YES Bank,Banks,Thane,"Shop No7, 8, 9, Gautam Chs, Harishchandra Raut Marg",,,
226,Thane Janata Sarkari Bank,Banks,Thane,"1, Lokmanya Tilak Path · 022 2583 8538",,,
227,Punjab National Bank - Thane (East) Branch,Banks,Thane,"5XMF+587, Behind Bharat English School, Harishchandra Raut Marg, Kopri, Thane East · 1800 180 2222",,,
228,CENTRAL BANK OF INDIA - THANE (EAST) Branch,Banks,Thane,SARVA SEWA SAMITI TRUST SHIVLEELA HOUSE · 022 2532 6037,,,
229,Bank of Maharashtra,Banks,Thane,Renuka Apartment Adarsh Colony · 1800 233 4526,,,
230,Thane Bharat Sahakari Bank-Thane East Branch,Banks,Thane,"5XMG+485, Opposite Karam Ground, Ashirwad Hospital, Nav Aashirvad, Near Daulat Nagar, Harishchandra Raut Marg · 022 2532 3951",,,
231,CANARA BANK - THANE KOPRI COLONY,Banks,Thane,"S.O, 5 STAR BUILDING, GROUND FLOOR · 1800 425 0018",,,
232,The Saraswat Co-Operative Bank Limited Kopri Colony Branch,Banks,Thane,"6-11, Saitirtha, Bara Bungalow Rd · 022 2532 5016",,,
233,Bank of India,Banks,Thane,"5XJF+82W, Raut House, Lokmanya Tilak Road · 25320589",,,
234,ICICI Bank Thane Kopri,Banks,Thane,"No. F, Sai Tirth Tower, ICICI Bank Ltd, Shop No.18 to 21, Ground Floor B wing Bldg · 1800 1080",,,
235,Union Bank of India,Banks,Thane,"5XMF+R45, Dr. Chaithram Gidwani Marg, Kopri Colony, Kishor Nagar, Thane East · 1800 22 2244",,,
236,SVC Bank,Banks,Thane,"Ground Floor, Sri Datta Sai Tower, Vijay Nagar, Hari Om Nagar Road, Thane East · 022 2532 4011",,,
237,State Bank of India THANE.,Banks,Thane,"Sadguru Gardens, Marigold, Mithbunder Rd · 1800 425 3800",,,
238,The Thane District Central Co-Operative Bank Ltd,Banks,Thane,"5XMC+479, Siddharth Nagar, Bara Bungalow Rd · 022 2532 0527",,,
239,The Navjeevan Bank,Banks,Thane,"5XMF+5C6, Krishna Niwas, Chhatrapati Shivaji Society, Harishchandra Raut Marg · 022 2532 3675",,,
240,Axis Bank Branch,Banks,Thane,"Ground Floor, Geeta Construction Company Anand Cinema, Station Rd · 1860 500 5555",,,
241,Bank of Baroda,Banks,Thane,"Ratan House, Ganesh Purushottam Pai Rd · 1800 258 4455",,,
242,Bank Of India - Kopri Colony Branch,Banks,Thane,"5XJF+82W Raut House, Datta Mandir Marg, near Sunita Society · 1800 22 0229",,,
243,HDFC Bank,Banks,Thane,"Shop No 5, Arizona Building, opposite Kishin Leela Tower · 094267 92001",,,
244,"TJSB Bank, Thane East Branch",Banks,Thane,"Bhivra Bhavan, Tilak Nagar · 022 2532 4330",,,
245,Axis Bank ATM,Banks,Thane,"Shop No 1, Building No 25, near Thane · 1860 500 5555",,,
246,Axis Bank ATM,Banks,Thane,"Shop No 2, Ground Floor, Narain Niwas, Railway Station, opposite Thane · 1860 419 5555",,,
247,NKGSB Co-op Bank Ltd (Thane Naupada Branch),Banks,Mumbai,"Raunak Arcade, 7/8, Ghantali Devi Rd · 022 2537 0920",,,
248,Thane Bharat Sahakari Bank Limited,Banks,Mumbai,"5XRC+6QQ, Sahayog Mandir Path · 022 2542 9432",,,
249,CANARA BANK - THANE NAUPADA,Banks,Mumbai,"41A GOKHALE ROAD, NAUPADA NAUPADA S.O · 1800 425 0018",,,
250,Thane Bharat Sahakari Bank Limited,Banks,Mumbai,"Western India Steel Industries Compound, Pokharan Rd Number 2, opp. Oswal Park · 022 2173 6262",,,
251,"Bharat Co-operative Bank (Mumbai) LTD, Thane Branch",Banks,Mumbai,"Panama Planet, Gokhale Road, Naupada, opp. Hotel Amruta · 022 2537 6552",,,
252,Bank of India - Thane Corporate Banking Branch,Banks,Mumbai,"G-5, GR.FL, AKRUTI SMC, OFF LBS MARG, KHOPAT JUNCTION, THANE (WEST) · 1800 22 0229",,,
253,"Thane Bharat Sahakari bank, Rutu Park Branch",Banks,Mumbai,"D-2, Eastern Express Hwy · 022 2544 2363",,,
254,"NKGSB Co-operative Bank Limited- Vartak Nagar,Thane West Branch",Banks,Mumbai,"Shop No.S2, 23,24,25, Vedant Commercial Complex, Madrecha Rd · 022 2585 3349",,,
255,Karnataka Bank - Thane Branch & ATM,Banks,Mumbai,"Shop No.12, VIHANG GARDEN, Pokharan Rd Number 1, opp. raymonds · 1800 425 1444",,,
256,Thane Bharat Sahakari Bank Limited - Chandanwadi Branch,Banks,Mumbai,"5XXC+PM7, Mahesh Darshan, Near Makhmali Talao, Old Mumbai, Agra Road · 022 2533 5237",,,
257,Punjab National Bank - Thane West Branch,Banks,Mumbai,"5XQ8+3WP, Satyam Apartment Mahatma Gandhi Rd Near Malhar Cinema · 1800 180 2222",,,
258,The Thane District Central co-op Bank R M Road Branch,Banks,Mumbai,"x 2, Ram Maruti Rd",,,
259,ICICI BANK LTD,Banks,Mumbai,"ATM ID-S1CPS152,Icici Bank Atm Rajdeep Society, Gokhale Rd, near Malhar Cinema, opp. Hutch Gallery · 1860 120 7777",,,
260,Thane Bharat Sahakari Bank LTD,Banks,Mumbai,"6XFV+2F9, Subh Vihar, opp to, Dadlani Rd",,,
261,State Bank Of India,Banks,Mumbai,"425, Gokhale Rd · 1800 11 2211",,,
262,CENTRAL BANK OF INDIA - THANE (EAST) Branch,Banks,Mumbai,SARVA SEWA SAMITI TRUST SHIVLEELA HOUSE · 022 2532 6037,,,
263,Bank of Maharashtra,Banks,Mumbai,"Building No 22, Wing A & B Brinda, No 1 & 2 · 1800 233 4526",,,
264,ICICI BANK LTD,Banks,Mumbai,"ATM ID-S1CNC192,Icici Bank Atm, Shop No .3 Ganga pachvati CHS, bldg no.12 A, vrindavan, near bus depot · 1860 120 7777",,,
265,Citizens Co-operative Bank Ltd,Banks,Mumbai,"3/4, Laxmi Palace, M. G. Road, Naupada Thane · 022 2538 1273",,,
266,Bank of Maharashtra,Banks,Mumbai,"GF, Thane Municipal Corporation Building Panchpakhadi · 1800 233 4526",,,
267,Axis Bank ATM,Banks,Mumbai,"High Street Mall Bhiwandi Road, Junction, near Big Bazar · 1860 419 5555",,,
268,HDFC Bank,Banks,Mumbai,"Gr Flr, SN 2&3, Mint, Chitalsar, nr. HIRANANDANI MEADOWS · 094267 92001",,,
269,Axis Bank Branch,Banks,Mumbai,"Shop No 2, Ground Floor, Sheth Avalon, G Wing, near Viviana Mall · 1860 500 5555",,,
270,Axis Bank Branch,Banks,Mumbai,"Shop No 13 to 18, GF, Rajdeep Galleria Ponda Madgaon Road, Ponda · 1860 500 5555",,,
271,"ICICI Bank Gokhale Road, Thane-Branch & ATM",Banks,Mumbai,"Gokhale Road, Pathare Building, Naupada, near Gaondevi Mandir · 1860 120 6699",,,
272,"TJSB Bank, Khopat Branch",Banks,Mumbai,"Golden Heavens Apartment Near Pratap Talkies Khopat, Pokharan Rd Number 1",,,
273,MAHARASHTRA GRAMIN BANK REGIONAL OFFICE RO,Banks,Mumbai,3rd FLOOR MTNL EXCHANGE CHARAI OPP GANESH TALKIES,,,
274,Citizen Credit Co-operative Bank,Banks,Mumbai,"Shop No.2 & 3, Angels’ Paradise, Veer Savarkar Marg, near Dagadi Shala · 022 2542 5447",,,
275,Suryoday Small Finance Bank,Banks,Mumbai,"Ground Floor, Flower Valley Complex, Eastern Express Hwy, opposite to Viviana Mall · 1800 266 7711",,,
276,"TJSB Bank, Ram Maruti Road Branch",Banks,Mumbai,"Building, Ground Floor, People Education Society, Ram Maruti Rd · 022 2174 8517",,,
277,G P Parsik Bank,Banks,Mumbai,"GB-149, Ground Floor, Highland Corporate Center, Near Big Bazar, Majiwade · 022 2542 0359",,,
278,State Bank of India PBB VASANT VIHAR THANE,Banks,Mumbai,"CHESTNUT PLAZA, Gladys Alwares Rd, opp. Eden Woods Road · 022 2589 3426",,,
279,Axis Bank ATM,Banks,Mumbai,Survey No 166/1 A Pt · 1860 500 5555,,,
280,Union Bank Of India,Banks,Mumbai,"1st Floor, Dhanalaxmi, Estate, Navneet Motors, Gokulnagar, Thane West, Kapur Bawdi · 022 2172 1746",,,
281,G.P. Parsik Bank,Banks,Mumbai,"Green Rd, Opp Anurag Apartment · 022 2545 6500",,,
282,TJSB Bank Manpada Branch,Banks,Mumbai,"C/603, Gladys Alwares Rd",,,
283,Axis Bank ATM,Banks,Mumbai,"Shop No 2 to 4, Bhiwadiwala Building, near Thane Court · 1860 500 5555",,,
284,Axis Bank ATM,Banks,Mumbai,"George Mansion, Lal Bahadur Shastri Marg · 1860 500 5555",,,
285,The Thane District Central Co-Operative Bank Ltd,Banks,Mumbai,"5XMC+479, Siddharth Nagar, Bara Bungalow Rd · 022 2532 0527",,,
286,Kotak Mahindra Bank,Banks,Mumbai,"Unit No. 2, Unique Building, Ground and Mezzanine Floor, Hiranandani Estate Rd, opp. TMC Commissioner Bungalow · 1860 266 2666",,,
287,HDFC Bank,Banks,Mumbai,"Shop No G9, Ground Floor, Lake City Mall, Kapurbawdi · 094267 92001",,,
288,TJSB Sahakari Bank Limited - Patlipada,Banks,Mumbai,"6XXH+57H, G.B. Road, Hiranandini Road · 1800 22 3466",,,
289,SyndicateBank Thane Gokhale Road (Shivajipet) Branch,Banks,Mumbai,"Saro - Darshan Towers, Nr.M.H.Highschool, Shivaji Path · 099690 02764",,,
290,The Thane District Co-Operative Bank,Banks,Mumbai,"7VCH+99F, Abid Patel House, Near Amar Palace Hotel, Near A.P. International School, Miragaon National Highway, Miragaon Rd · 022 2845 7707",,,
291,Parsik Bank Kalwa Naka,Banks,Mumbai,"1, Thane - Belapur Rd",,,
292,IDFC FIRST Bank ATM,Banks,Mumbai,"SN 5A, Bldg No 1 & 10, Maithili Pride MHBCol, Vartak Ngr, Pokhran Rd, 1, JK Gramm, near HP Gas Godown · 1800 10888",,,
293,C.K.P. Co-Operative Bank,Banks,Mumbai,"5XPG+X86, Paranjape Udyog Bhavan, Ambedkar Chowk, Yashodhan, Shivaji Path, TMT Reserved Flyover SATIS · 022 2538 9673",,,
294,Punjab National Bank E Lobby,Banks,Mumbai,"Shop No.23, Soham Plaza, Manpada Junction, Ghodbunder Road · 1800 180 2222",,,
295,Axis Bank ATM,Banks,Mumbai,"GF, Vardhman Vatika Chs, SN 49 to 52, Kolshet Rd · 1860 500 5555",,,
296,The Kalyan Janta Sahakri Bank,Banks,Mumbai,"Shop No.1 , Rajashri Plaza, Ground floor, Lal Bahadur Shastri Marg, near Mhakmali talav · 022 2538 2763",,,
297,Axis Bank ATM,Banks,Mumbai,"SG 23, Gr Flr, Shoppe, Dosti Imperia, Ghodbunder Rd, opposite R Mall · 1860 500 5555",,,
298,HDFC Bank,Banks,Mumbai,"Sharad Kunj, Doctor Moose Road · 094267 92001",,,
299,Shree Arihant Co.op Bank,Banks,Mumbai,"Thane Nagar Vachan Mandir, 1st Floor, Tembi Naka, Thane West · 022 2543 7977",,,
300,Oriental Bank Of Commerce,Banks,Mumbai,"Shop No.2, Oasis Silver Stone, Ram Maruti Road, Naupada, Thane West, opposite Hotel Shiv Sagar · 022 2537 6084",,,
301,HDFC Bank,Banks,Mumbai,"Shop No 1 to 3 Vihang Garden, opposite Raymond Factory · 094267 92001",,,
302,CSB Bank Mulund - Mumbai Branch & ATM,Banks,Mumbai,"Anu Apartment, Lal Bahadur Shastri Marg · 090726 01233",,,
303,ICICI Bank Thane Kalher,Banks,Mumbai,"Ground Floor, Shop No. 1 & 2 H, Patel Arcade, 827, Thane Rd · 1800 1080",,,
304,IDFC FIRST Bank ATM,Banks,Mumbai,"No 21, Ground Floor, DOSTI IMPERIA, Bldg, Ghodbunder Rd · 1800 10888",,,
305,HDFC Bank ATM,Banks,Mumbai,"Shop No 9, Pradhan Building, Station Rd, near Post Office · 094267 92001",,,
306,State Bank Of India,Banks,Mumbai,"Akruti SMS, Lal Bahadur Shastri Marg, opposite ST Workshop · 1800 11 2211",,,
307,Bandhan Bank ATM,Banks,Mumbai,"6X6G+6R7, Golden Park, Muktai Nagar, Old Agra, Thane West",,,
308,Thane District C C-op Bank Wagle Estate Branch,Banks,Mumbai,"5XP4+F9Q, MCED Office,",,,
309,IDBI Bank,Banks,Mumbai,"Shop No.14,15, Chandan, MAITRI VATIKA, 16 &17, Pune - Mumbai Hwy · 1800 200 1947",,,
310,Bank,Banks,Mumbai,"Samata Nagar, Sainath Nagar, Majiwada, Thane, Maharashtra 400601",,,
311,Bank of India,Banks,Mumbai,"Block No, P. O., Tehsil, 8, Mumbai - Agra National Hwy · 2806224",,,
312,Fino Payments Bank,Banks,Mumbai,"Near Masjid, Room-7882, Indira Nagar Rupadevipada-2, Road-34, Thane, Wagle I E · 081085 17910",,,
313,ICICI Bank ATM,Banks,Mumbai,"Wing-A, MANCHESTER CHS, 8, Smelting Koros Rd",,,
314,HDFC Bank,Banks,Mumbai,"Shop No G9, Ground Floor, Lake City Mall, Kapurbawdi · 094267 92001",,,
315,ICICI Bank ATM,Banks,Mumbai,"Shop no 2 3 4 G Elite buildings Sidhanchal Phase 07 Pokhran road, 02, west · 1860 120 7777",,,
316,CANARA BANK ATM,Banks,Mumbai,"T M C School, SHOP NO-02, SANGAM · 1800 425 0018",,,
317,New India Co Op Bank ATM,Banks,Mumbai,"400601, Mahapalika Bhavan Rd",,,
318,Bank of Baroda ATM,Banks,Mumbai,"16, SARASWATI SADAN, COLONY, Manpada Rd · 1800 258 4455",,,
319,Kotak Mahindra Bank ATM,Banks,Mumbai,"Jai Commercial Complex, Jai Siddhivinayak Premises Chs, Pokharan Rd Number 1 · 1860 266 2666",,,
320,ATM,Banks,Mumbai,"Bungalow Number 90, Naka, Madrecha Rd",,,
321,Axis Bank ATM,Banks,Mumbai,"Shop No.4 Building No.2, Ltd, Sahyog CHS · 1860 500 5555",,,
322,IndusInd Bank ATM,Banks,Mumbai,"Shop No.1 A Wing, Suryadarshan Tower, Esic Road, off Eastern Express Highway · 1860 267 7777",,,
323,HDFC Bank ATM,Banks,Mumbai,"Shop No 10, Om Kamal Pushpa Housing Society, opposite Lokmanya Bus Stop · 094267 92001",,,
324,CANARA BANK ATM,Banks,Mumbai,"SHOP NO-2, OMKAR NIWAS, near THAKUR COLLEGE · 1800 425 0018",,,
325,Bank,Banks,Mumbai,"Samata Nagar, Sainath Nagar, Majiwada, Thane, Maharashtra 400601",,,
326,IDBI Bank,Banks,Mumbai,"Shop No.14,15, Chandan, MAITRI VATIKA, 16 &17, Pune - Mumbai Hwy · 1800 200 1947",,,
327,TJSB Sahakari Bank Limited - Patlipada,Banks,Mumbai,"6XXH+57H, G.B. Road, Hiranandini Road · 1800 22 3466",,,
328,ATM ICICI BANK,Banks,Mumbai,"6X23+PC9, Road No. 16/Z · 1860 120 7777",,,
329,CANARA BANK ATM,Banks,Mumbai,"SHOP NO.5, SHIVSADAN APARTMENT · 1800 425 0018",,,
330,Fino Payments Bank,Banks,Mumbai,"27, Salunkhe Niwas, Rupadevi Pada No.2 Roadno.33, Near Rupadevi Temple, Indira Nagar · 022 6868 1414",,,
331,ICICI BANK ATM,Banks,Mumbai,6X5C+3FR,,,
332,TJSB Sahakari Bank Atm,Banks,Mumbai,"Shop No. 5, Ratna Umed Residency , Umed Nagar ,, Pipe Lina Road. Louis Wadi , Thane (W)",,,
333,HDFC Bank ATM,Banks,Mumbai,"Shop No 1 to 3, Vihang Gardens, Pokharan Rd Number 1 · 094267 92001",,,
334,ICICI Bank Atm,Banks,Mumbai,"Shop No.1, Star View Apt, Nr Hari Om Traders, Lokmanya & 8232 Nagar, Pada No 4 · 1860 120 7777",,,
335,ICICI Bank Atm,Banks,Mumbai,"Shop No-07, Swapnavanchs · 1860 120 7777",,,
336,State Bank Of India ATM,Banks,Mumbai,"5, Dev Daya Nagar Society Rd · 1800 11 2211",,,
337,Union Bank of India ATM,Banks,Mumbai,"Shop No. 8-12, Ratna Umed Residency, Umed Nagar, Pipeline Road, Louis Wadi, Thane West · 1800 22 2244",,,
338,Kotak Mahindra Bank ATM,Banks,Mumbai,"463, Khopat Rd · 1860 266 2666",,,
339,ICICI Bank ATM,Banks,Mumbai,"5XX6+XWR, Surya Darshan Bldg, Kamger Hospital, Thane West, opp. Urekan · 1860 120 7777",,,
340,State Bank Of India ATM,Banks,Mumbai,"Jai Commercial Complex, Khopat Rd · 1800 11 2211",,,
341,ICICI Bank Atm,Banks,Mumbai,"Shop No-4, Vhihang Park, near Laxmi Park · 1860 120 7777",,,
342,ICICI Bank ATM,Banks,Mumbai,"Shop No 2, 3, 4, Plot No. 297, Madhuban CHS Ltd Service Road, West · 1860 120 7777",,,
343,ICICI Bank ATM,Banks,Mumbai,"15, Neelkanth Heights, Rameswar Tower, Between Pokhran 1 & 2 · 1860 120 7777",,,
344,ICICI Bank - ATM,Banks,Mumbai,"5XX6+277, Pipeline Rd · 1860 120 7777",,,
345,Bandhan Bank,Banks,Mumbai,"Shop No.2 (Part), M/s Wood Plaza, Golden Dyes Compound, opp. Navneet Motors · 1800 258 8181",,,
346,ICICI Bank Atm,Banks,Mumbai,"Chourishya Foot Wear,Road No-34,Nr Shiv Sena Shaka · 1860 120 7777",,,
347,Saraswat Bank ATM,Banks,Mumbai,"Ground Floor, Nitin Company, Nakshatra Tower, road, opp. Thane Municipal Corporation · 022 2534 8646",,,
348,Tjsb bank atm.,Banks,Mumbai,"Kishan nagar no,2 Ful Gali pipeline, Rd Number 16",,,
349,"NKGSB Co-operative Bank Limited- Vartak Nagar,Thane West Branch",Banks,Mumbai,"Shop No.S2, 23,24,25, Vedant Commercial Complex, Madrecha Rd · 022 2585 3349",,,
350,Karnataka Bank - Thane Branch & ATM,Banks,Mumbai,"Shop No.12, VIHANG GARDEN, Pokharan Rd Number 1, opp. raymonds · 1800 425 1444",,,
351,The Thane District Central Co-Operative Bank Limited-Vartak Nagar,Banks,Mumbai,"Gitanjali Apartment, Shivaji Path. P. B. No. 19, Near Station Shivaji Path Road, Aai Mata Rd · 022 2536 3042",,,
352,Bank of Maharashtra,Banks,Mumbai,"1st Floor, Jagdish Industrial Estate, Pokharan Rd Number 1, opposite Telegram Gate · 1800 233 4526",,,
353,State Bank of India SAMTA NAGAR THANE,Banks,Mumbai,"SHOP NO 8, 9 AND 10, VIHANG GARDEN, Pokharan Rd Number 1 · 022 2537 7941",,,
354,Union Bank of India - Vartak Nagar Branch,Banks,Mumbai,"6, Acharya Atre Marg · 022 2585 5050",,,
355,Thane Bharat Sahakari Bank Limited,Banks,Mumbai,"Western India Steel Industries Compound, Pokharan Rd Number 2, opp. Oswal Park · 022 2173 6262",,,
356,NKGSB Co-op Bank Ltd (Thane Naupada Branch),Banks,Mumbai,"Raunak Arcade, 7/8, Ghantali Devi Rd · 022 2537 0920",,,
357,Thane Bharat Sahakari Bank Limited,Banks,Mumbai,"Plot No. 78, Near Shivai Nagar Bus Stop, Shivai Nagar, Pokhran Road No. 1, Thane West, Upvan Lake Rd · 022 2173 6262",,,
358,Thane Bharat Sahakari Bank Limited,Banks,Mumbai,"5XRC+6QQ, Sahayog Mandir Path · 022 2542 9432",,,
359,"ICICI Bank Vartak Nagar, Thane-Branch & ATM",Banks,Mumbai,"S 1, Vedant Commercial Complex, Vartak Nagar, 0 · 1800 1080",,,
360,State Bank of India,Banks,Mumbai,Pokharan Rd Number 1 · 1800 425 3800,,,
361,CANARA BANK - THANE NAUPADA,Banks,Mumbai,"41A GOKHALE ROAD, NAUPADA NAUPADA S.O · 1800 425 0018",,,
362,Punjab National Bank - Thane West Branch,Banks,Mumbai,"5XQ8+3WP, Satyam Apartment Mahatma Gandhi Rd Near Malhar Cinema · 1800 180 2222",,,
363,Saraswat Bank,Banks,Mumbai,"5XX8+9M3, Ground Floor, Nakshatra Tower, Almeda Rd, Opp Municipal Corp · 022 2534 8645",,,
364,Ambarnath Jai-Hind Co-Operative Bank Limited- Yashodhan Nagar Branch,Banks,Mumbai,"Shop.No.2, Ground Floor C-2,Opposite Happy Height’s Telephone Exchange, Sai Prasad Sociman Rd · 022 2581 3882",,,
365,"Thane Bharat Sahakari bank, Rutu Park Branch",Banks,Mumbai,"D-2, Eastern Express Hwy · 022 2544 2363",,,
366,Thane Bharat Sahakari Bank Limited - Chandanwadi Branch,Banks,Mumbai,"5XXC+PM7, Mahesh Darshan, Near Makhmali Talao, Old Mumbai, Agra Road · 022 2533 5237",,,
367,"RBL Bank Ltd - Vartak Nagar, Thane Branch & ATM",Banks,Mumbai,"Shop No. 2D, Ground & First floor, Maithili Pride Building No.1 & 10, MHB Colony, Vartak Nagar, Pokharan Rd Number 1 · 022 2585 3975",,,
368,State Bank of India KHOPAT BRANCH THANE,Banks,Mumbai,"BUILDING PLOT NO 457, SREEJISWAMINARAYANA NAGAR SREEJI DARSHAN, 1, Pokhran Rd · 022 2538 3699",,,
369,"ICICI Bank Manpada Waghbil, Thane-Branch & ATM",Banks,Mumbai,"Ghodbunder Road, Suraj House, Near Dongripada Bus Stop, Waghbil Naka · 1800 1080",,,
370,"ICICI Bank Gokhale Road, Thane-Branch & ATM",Banks,Mumbai,"Gokhale Road, Pathare Building, Naupada, near Gaondevi Mandir · 1860 120 6699",,,
371,State Bank of India,Banks,Mumbai,"Vakratunda Residency Shree Swami Krupa, Phase 2, Manorama Nagar Rd · 1800 425 1825",,,
372,GP Parsik Bank,Banks,Mumbai,SWASTIK REGALIA COMPLEX,,,
373,DMK Jaoli BANK,Banks,Mumbai,5XW6+G9P · 022 2583 5443,,,
374,Axis Bank Branch,Banks,Mumbai,"Thane, Maharashtra · 1860 500 5555",,,
375,"ICICI Bank LTD, Thane-Siddhachal- Branch & ATM",Banks,Mumbai,"02, ICICI Bank Ltd., Ground floor, Shop No. 2,3,4, Elite Building, Siddhachal Phase-07, Pokhran Rd · 1800 1080",,,
376,Axis Bank ATM,Banks,Mumbai,"Arun Industries, near Kalpataru Prime · 1860 500 5555",,,
377,"The National Co op Bank Ltd,Ghodbunder Branch",Banks,Mumbai,"4, Vijay Garden Rd · 084240 81717",,,
378,ICICI Bank Thane Ghodbunder Road,Banks,Mumbai,"Shop No. 3, MK Plaza, ICICI Bank Ltd, Ghodbunder Rd · 1800 1080",,,
379,Axis Bank ATM,Banks,Mumbai,"KORUM MALL 2 (INFORMATION DESK, UPPER GROUND), MANGAL PANDEY ROAD Eastern Express Highway, Junction, near Cadbury · 1860 419 5555",,,
380,icici bank thane west wagle estate,Banks,Mumbai,"5XX5+26X, Rd Number 16",,,
381,Axis Bank Branch,Banks,Mumbai,"Ground Floor, Shop No/ 1, 2 & 3, College, near Muchhala Polytechnic · 1860 500 5555",,,
382,Bharat Bank,Banks,Mumbai,"6XMG+565, Shop No. C, Solitaire Towers, Chitalsa, Khewra Cir Marg · 022 2589 2531",,,
383,IDFC FIRST Bank,Banks,Mumbai,"Shop No 7 to 10, Ground, MK Plaza, Ghodbunder Rd · 1800 10888",,,
384,Apna Sahakari Bank,Banks,Mumbai,"Ghodbunder Shop No. 5 & 6 Shree Maa Trust, Ground Floor, S. N. 146 Patlipada, Ghodbunder Rd · 022 2586 2957",,,
385,Axis Bank Branch,Banks,Mumbai,"Ground Floor, ACCEL HOUSE, SN 7 & 8, Rd Number 22 · 1860 500 5555",,,
386,Oriental Bank of Commerce,Banks,Mumbai,"Sidhanchal Shopping Centre, Off Pokharan Road 2 Tulshidham · 022 2171 4433",,,
387,Axis Bank ATM,Banks,Mumbai,"Shop No 2 to 4, Bhiwadiwala Building, near Thane Court · 1860 500 5555",,,
388,TSJB Sahakari Bank Limited - ATM - Patlipada,Banks,Mumbai,"6XXH+685, Ghodbunder Rd · 022 2586 1497",,,
389,HDFC Bank ATM,Banks,Mumbai,"Shop No 10, Om Kamal Pushpa Housing Society, opposite Lokmanya Bus Stop · 094267 92001",,,
390,Axis Bank ATM,Banks,Mumbai,"SN 7 & 8, PN A 125, A 126, Road No 22 MIDC · 1860 500 5555",,,
391,State Bank ATM,Banks,Mumbai,"Shop No. 2, Gajanan heights, ESIC Road",,,
392,ICICI Bank ATM,Banks,Mumbai,"Shop no 2 3 4 G Elite buildings Sidhanchal Phase 07 Pokhran road, 02, west · 1860 120 7777",,,
393,Fino Payments Bank,Banks,Mumbai,"Near Masjid, Room-7882, Indira Nagar Rupadevipada-2, Road-34, Thane, Wagle I E · 081085 17910",,,
394,HDFC Bank ATM,Banks,Mumbai,"Shop No 1 to 3, Vihang Gardens, Pokharan Rd Number 1 · 094267 92001",,,
395,Bank of Baroda ATM,Banks,Mumbai,"16, SARASWATI SADAN, COLONY, Manpada Rd · 1800 258 4455",,,
396,New India Co Op Bank ATM,Banks,Mumbai,"400601, Mahapalika Bhavan Rd",,,
397,Kotak Mahindra Bank ATM,Banks,Mumbai,"Jai Commercial Complex, Jai Siddhivinayak Premises Chs, Pokharan Rd Number 1 · 1860 266 2666",,,
398,CANARA BANK ATM,Banks,Mumbai,"SHOP NO-2, OMKAR NIWAS, near THAKUR COLLEGE · 1800 425 0018",,,
399,ICICI BANK ATM,Banks,Mumbai,6X5C+3FR,,,
400,IndusInd Bank ATM,Banks,Mumbai,"Shop No.1 A Wing, Suryadarshan Tower, Esic Road, off Eastern Express Highway · 1860 267 7777",,,
401,ATM ICICI BANK,Banks,Mumbai,"6X23+PC9, Road No. 16/Z · 1860 120 7777",,,
402,CANARA BANK ATM,Banks,Mumbai,"SHOP NO.5, SHIVSADAN APARTMENT · 1800 425 0018",,,
403,Kotak Mahindra Bank ATM,Banks,Mumbai,"463, Khopat Rd · 1860 266 2666",,,
404,ICICI Bank Atm,Banks,Mumbai,"Shop No-07, Swapnavanchs · 1860 120 7777",,,
405,TJSB Sahakari Bank Limited - Patlipada,Banks,Mumbai,"6XXH+57H, G.B. Road, Hiranandini Road · 1800 22 3466",,,
406,Fino Payments Bank,Banks,Mumbai,"27, Salunkhe Niwas, Rupadevi Pada No.2 Roadno.33, Near Rupadevi Temple, Indira Nagar · 022 6868 1414",,,
407,Union Bank of India ATM,Banks,Mumbai,"Shop No. 8-12, Ratna Umed Residency, Umed Nagar, Pipeline Road, Louis Wadi, Thane West · 1800 22 2244",,,
408,ICICI Bank ATM,Banks,Mumbai,"Shop No 2, 3, 4, Plot No. 297, Madhuban CHS Ltd Service Road, West · 1860 120 7777",,,
409,ICICI Bank Atm,Banks,Mumbai,"Shop No-4, Vhihang Park, near Laxmi Park · 1860 120 7777",,,
410,Bank,Banks,Mumbai,"Samata Nagar, Sainath Nagar, Majiwada, Thane, Maharashtra 400601",,,
411,TJSB Sahakari Bank Atm,Banks,Mumbai,"Shop No. 5, Ratna Umed Residency , Umed Nagar ,, Pipe Lina Road. Louis Wadi , Thane (W)",,,
412,State Bank Of India ATM,Banks,Mumbai,"5, Dev Daya Nagar Society Rd · 1800 11 2211",,,
413,ICICI Bank - ATM,Banks,Mumbai,"5XX6+277, Pipeline Rd · 1860 120 7777",,,
414,ICICI Bank Atm,Banks,Mumbai,"Shop No.1, Star View Apt, Nr Hari Om Traders, Lokmanya & 8232 Nagar, Pada No 4 · 1860 120 7777",,,
415,ICICI Bank ATM,Banks,Mumbai,"5XX6+XWR, Surya Darshan Bldg, Kamger Hospital, Thane West, opp. Urekan · 1860 120 7777",,,
416,Axis Bank ATM,Banks,Mumbai,"Thane, Maharashtra · 1860 500 5555",,,
417,State Bank Of India ATM,Banks,Mumbai,"Jai Commercial Complex, Khopat Rd · 1800 11 2211",,,
418,ICICI Bank ATM,Banks,Mumbai,"15, Neelkanth Heights, Rameswar Tower, Between Pokhran 1 & 2 · 1860 120 7777",,,
419,HDFC Bank ATM,Banks,Mumbai,"Shop No 11, Hiramoti Shopping Centre Mulund Check Naka, Shivaji Nagar Rd · 094267 92001",,,
420,Saraswat Bank ATM,Banks,Mumbai,"Ground Floor, Nitin Company, Nakshatra Tower, road, opp. Thane Municipal Corporation · 022 2534 8646",,,
421,ICICI Bank Atm,Banks,Mumbai,"Chourishya Foot Wear,Road No-34,Nr Shiv Sena Shaka · 1860 120 7777",,,
422,Icici Bank ATM,Banks,Mumbai,"A-186, Rd Number 16 · 1860 120 7777",,,
423,ICICI Bank Bhiwandi,Banks,Mumbai,"ICICI Bank Ltd, Shop No.8, 9 10 B Wing, Dhamankar Naka, Bhiwandi Thane Dist · 1800 1080",,,
424,Tjsb bank atm.,Banks,Mumbai,"Kishan nagar no,2 Ful Gali pipeline, Rd Number 16",,,
425,State Bank e-Corner,Banks,Mumbai,"Shop No. 10, Green Road & Off Eastern Express Highway, Sun Magnetica, Louis Wadi, Thane West",,,
426,Karnatka Bank ATM,Banks,Mumbai,"7/55, Pokharan Rd Number 1",,,
427,Punjab National Bank - Thane (East) Branch,Banks,Mumbai,"5XMF+587, Behind Bharat English School, Harishchandra Raut Marg, Kopri, Thane East · 1800 180 2222",,,
428,CENTRAL BANK OF INDIA - THANE (EAST) Branch,Banks,Mumbai,SARVA SEWA SAMITI TRUST SHIVLEELA HOUSE · 022 2532 6037,,,
429,Bank of Maharashtra,Banks,Mumbai,Renuka Apartment Adarsh Colony · 1800 233 4526,,,
430,Thane Bharat Sahakari Bank-Thane East Branch,Banks,Mumbai,"5XMG+485, Opposite Karam Ground, Ashirwad Hospital, Nav Aashirvad, Near Daulat Nagar, Harishchandra Raut Marg · 022 2532 3951",,,
431,CANARA BANK - THANE KOPRI COLONY,Banks,Mumbai,"S.O, 5 STAR BUILDING, GROUND FLOOR · 1800 425 0018",,,
432,The Saraswat Co-Operative Bank Limited Kopri Colony Branch,Banks,Mumbai,"6-11, Saitirtha, Bara Bungalow Rd · 022 2532 5016",,,
433,Bank of India,Banks,Mumbai,"5XJF+82W, Raut House, Lokmanya Tilak Road · 25320589",,,
434,ICICI Bank Thane Kopri,Banks,Mumbai,"No. F, Sai Tirth Tower, ICICI Bank Ltd, Shop No.18 to 21, Ground Floor B wing Bldg · 1800 1080",,,
435,Union Bank of India,Banks,Mumbai,"5XMF+R45, Dr. Chaithram Gidwani Marg, Kopri Colony, Kishor Nagar, Thane East · 1800 22 2244",,,
436,SVC Bank,Banks,Mumbai,"Ground Floor, Sri Datta Sai Tower, Vijay Nagar, Hari Om Nagar Road, Thane East · 022 2532 4011",,,
437,State Bank of India THANE.,Banks,Mumbai,"Sadguru Gardens, Marigold, Mithbunder Rd · 1800 425 3800",,,
438,The Thane District Central Co-Operative Bank Ltd,Banks,Mumbai,"5XMC+479, Siddharth Nagar, Bara Bungalow Rd · 022 2532 0527",,,
439,The Navjeevan Bank,Banks,Mumbai,"5XMF+5C6, Krishna Niwas, Chhatrapati Shivaji Society, Harishchandra Raut Marg · 022 2532 3675",,,
440,Axis Bank Branch,Banks,Mumbai,"Ground Floor, Geeta Construction Company Anand Cinema, Station Rd · 1860 500 5555",,,
441,Bank of Baroda,Banks,Mumbai,"Ratan House, Ganesh Purushottam Pai Rd · 1800 258 4455",,,
442,Bank Of India - Kopri Colony Branch,Banks,Mumbai,"5XJF+82W Raut House, Datta Mandir Marg, near Sunita Society · 1800 22 0229",,,
443,HDFC Bank,Banks,Mumbai,"Shop No 5, Arizona Building, opposite Kishin Leela Tower · 094267 92001",,,
444,"TJSB Bank, Thane East Branch",Banks,Mumbai,"Bhivra Bhavan, Tilak Nagar · 022 2532 4330",,,
445,Axis Bank ATM,Banks,Mumbai,"Shop No 1, Building No 25, near Thane · 1860 500 5555",,,
446,Axis Bank ATM,Banks,Mumbai,"Shop No 2, Ground Floor, Narain Niwas, Railway Station, opposite Thane · 1860 419 5555",,,
447,Kotak Mahindra Bank,Banks,Mumbai,"Anand Theatre Compound, Station Rd · 1860 266 0811",,,
448,Axis Bank ATM,Banks,Mumbai,"Ground floor, Geeta Construction Company Anand Cinema, Station Rd · 1860 500 5555",,,
449,ICICI BANK ATM,Banks,Mumbai,"Shop No. - 1, Room No. - 218, Anand Nagar, Kopri Bridge, near Kamgar Kalyan Kendra · 1800 1080",,,
450,Axis Bank ATM,Banks,Mumbai,"Shop No 3, Chendani Koliwada · 1860 500 5555",,,
451,YES Bank,Banks,Mumbai,"Shop No7, 8, 9, Gautam Chs, Harishchandra Raut Marg",,,
452,Thane Janata Sarkari Bank,Banks,Mumbai,"1, Lokmanya Tilak Path · 022 2583 8538",,,
453,Punjab National Bank - Thane (East) Branch,Banks,Mumbai,"5XMF+587, Behind Bharat English School, Harishchandra Raut Marg, Kopri, Thane East · 1800 180 2222",,,
454,CENTRAL BANK OF INDIA - THANE (EAST) Branch,Banks,Mumbai,SARVA SEWA SAMITI TRUST SHIVLEELA HOUSE · 022 2532 6037,,,
455,Bank of Maharashtra,Banks,Mumbai,Renuka Apartment Adarsh Colony · 1800 233 4526,,,
456,Thane Bharat Sahakari Bank-Thane East Branch,Banks,Mumbai,"5XMG+485, Opposite Karam Ground, Ashirwad Hospital, Nav Aashirvad, Near Daulat Nagar, Harishchandra Raut Marg · 022 2532 3951",,,
457,CANARA BANK - THANE KOPRI COLONY,Banks,Mumbai,"S.O, 5 STAR BUILDING, GROUND FLOOR · 1800 425 0018",,,
458,The Saraswat Co-Operative Bank Limited Kopri Colony Branch,Banks,Mumbai,"6-11, Saitirtha, Bara Bungalow Rd · 022 2532 5016",,,
459,Bank of India,Banks,Mumbai,"5XJF+82W, Raut House, Lokmanya Tilak Road · 25320589",,,
460,ICICI Bank Thane Kopri,Banks,Mumbai,"No. F, Sai Tirth Tower, ICICI Bank Ltd, Shop No.18 to 21, Ground Floor B wing Bldg · 1800 1080",,,
461,Union Bank of India,Banks,Mumbai,"5XMF+R45, Dr. Chaithram Gidwani Marg, Kopri Colony, Kishor Nagar, Thane East · 1800 22 2244",,,
462,SVC Bank,Banks,Mumbai,"Ground Floor, Sri Datta Sai Tower, Vijay Nagar, Hari Om Nagar Road, Thane East · 022 2532 4011",,,
463,State Bank of India THANE.,Banks,Mumbai,"Sadguru Gardens, Marigold, Mithbunder Rd · 1800 425 3800",,,
464,The Thane District Central Co-Operative Bank Ltd,Banks,Mumbai,"5XMC+479, Siddharth Nagar, Bara Bungalow Rd · 022 2532 0527",,,
465,The Navjeevan Bank,Banks,Mumbai,"5XMF+5C6, Krishna Niwas, Chhatrapati Shivaji Society, Harishchandra Raut Marg · 022 2532 3675",,,
466,Axis Bank Branch,Banks,Mumbai,"Ground Floor, Geeta Construction Company Anand Cinema, Station Rd · 1860 500 5555",,,
467,Bank of Baroda,Banks,Mumbai,"Ratan House, Ganesh Purushottam Pai Rd · 1800 258 4455",,,
468,Bank Of India - Kopri Colony Branch,Banks,Mumbai,"5XJF+82W Raut House, Datta Mandir Marg, near Sunita Society · 1800 22 0229",,,
469,HDFC Bank,Banks,Mumbai,"Shop No 5, Arizona Building, opposite Kishin Leela Tower · 094267 92001",,,
470,"TJSB Bank, Thane East Branch",Banks,Mumbai,"Bhivra Bhavan, Tilak Nagar · 022 2532 4330",,,
471,Axis Bank ATM,Banks,Mumbai,"Shop No 1, Building No 25, near Thane · 1860 500 5555",,,
472,Axis Bank ATM,Banks,Mumbai,"Shop No 2, Ground Floor, Narain Niwas, Railway Station, opposite Thane · 1860 419 5555",,,
