,Name,Sector,City,Address,Phone,Email,Lat-Long
20209,Viva Bakes and Restaurant,Retail,Kerala,Opposite Panchayath Office Chungathara,8401884780.0,,"11.3368321,76.2766697"
20210,Farsa Restaurant,Retail,Kerala,Near Sree Sumo Auditorium Manjeri Kla,,,"11.1236636,76.1147933"
20211,Spunge Cakes and Cafe,Retail,Kerala,Near IDBI Bank Tirur,,,"10.9207183,75.9280516"
20212,Ritzy Restaurant Kuttippuram,Retail,Kerala,Near Signal Junction Kuttippuram Kuttippuram,,,"10.8431243,76.0303983"
20213,Nutmeg Biriyani Darbar,Retail,Kerala,NEAR My G Building Kondotti Malappuram,,,"11.1487733,75.9602616"
20214,Albaik Restaurant,Retail,Kerala,Near HP Petrol Pump Manjeri Kla,8485922748.0,,"11.120954,76.116664"
20215,Airlines Celestial Restaurant And Caterers,Retail,Kerala, Kizhakkethala,,,"11.050583,76.0713885"
20216,Inbare Indian Bakes & Restaurant,Retail,Kerala, Wandoor,8971298671.0,,"11.192989,76.246645"
20217,Bonfire,Retail,Kerala,Near Kendra Vidhyalayam Civil Station,,,"11.0429994,76.0766208"
20218,City Park Restaurant,Retail,Kerala,Near Kadheeja Auditorium Tirur,7947174432.0,,"10.91589729624,75.92398072014"
20219,Hotel Royal Food,Retail,Kerala,,,,"11.0701711,75.9182023"
20220,D Factory S Roll On Shawarma Spot,Retail,Kerala,Near Manu Store Othukkungal,,,"11.0266763,76.0306494"
20221,Hotel Fast N Fast,Retail,Kerala,Jumma Masjid Edavanna,,,"11.2125495,76.1391324"
20222,KFC,Retail,Kerala,Near Byepass Junction perintalmanna,,,"10.9771732,76.2185249"
20223,Brown Beans Cafe,Retail,Kerala,Near AMHonda Showroom Manjeri Bazar,,,"11.119368,76.111673"
20224,Omkar Pure Veg Restaurant and Residency,Retail,Kerala, Perintalmanna,,,"10.9888323,76.2261421"
20225,Delicia Hotel,Retail,Kerala,Near Municipal Bus Stand Downhill,,,"11.0445239,76.075963"
20226,Olene Canto Bakes & Restaurant,Retail,Kerala,Opposite New Bus Stand Manjeri,,,"11.1201655,76.1225205"
20227,Crumbz,Retail,Kerala, Edappal,,,"10.7826197,76.007904"
20228,Malabar White House Restaurant,Retail,Kerala,Near Police Station Ponnani,,,"10.7573201,75.9289406"
20229,Hotel Kailash,Retail,Kerala, Elappara Road,,,"9.6877501,76.9059062"
20230,Vagaland Restaurant,Retail,Kerala, Vagamon,,,"9.6878531,76.9055938"
20231,Periyar Tiger Cafe Restaurant,Retail,Kerala,Near Periyar Tiger Reserve Entrance Gate Kumily,7411652050.0,,"9.5996781,77.1713831"
20232,Al-Safa Hotel & Restaurant,Retail,Kerala, Elappara Road,,,"9.6885086,76.906328"
20233,Hotel Chinnus,Retail,Kerala, Vagamon,,,"9.6861852,76.9051243"
20234,Babus Kitchen,Retail,Kerala,,,,"9.6905065,76.9094002"
20235,Hotel Crown Plaza,Retail,Kerala, Vagamon,,,"9.687073,76.905322"
20236,Abhilash Hotel,Retail,Kerala,Near Vagamon Central Bus Stop Elappara Road,,,"9.688111,76.906136"
20237,Vaikom Kanji Kada,Retail,Kerala, Vagamon,,,"9.6772664,76.9113991"
20238,Sabu'S Hotel,Retail,Kerala, Vagamon,,,"9.7010919,76.9536874"
20239,Hotel Veettil Oonu,Retail,Kerala, Upputhara,,,"9.718591,76.952305"
20240,Alsafa Hotel,Retail,Kerala,,,,"9.6884929,76.9061093"
20241,Palette People Artists Residency,Retail,Kerala,Ulupponni Kottamala,,,"9.7281804,76.8980926"
20242,Mallikayil Hotel,Retail,Kerala, Vagamon,,,"9.6883813,76.9062941"
20243,Golden Arabic Food,Retail,Kerala,,,,"9.6878895,76.9060316"
20244,Chinnus Restaurant,Retail,Kerala,,,,"9.7174170576,76.9316712883"
20245,Palette Multi-Cuisine Restaurant,Retail,Kerala,Opposite Moon MalaPalette Hill View Resort,,,"9.706789,76.936523"
20246,Hotel Vagaland,Retail,Kerala, Pullikkanam,,,"9.6878443,76.9057396"
20247,Anoki Restaurant,Retail,Kerala, Elappara Road,,,"9.673503,76.913691"
20248,Vagamon Hill Valley,Retail,Kerala,Opposite Arapucad Tunnel Idukki,,,"9.678697,76.92245"
20249,Punjabhi Dhaba Family Restaurant,Retail,Kerala, Kovalam Beach,,,"8.4003661,76.9801256"
20250,Apna Punjabi Dhaba,Retail,Kerala,,,,"8.3984579,76.9818319"
20251,Taste Of Kerala,Retail,Kerala,Near State Bank Of India ATM and Kovalam Junction Kovalam Beach,,,"8.3939688,76.9786436"
20252,Bait (Taj Green Cove Resort & Spa),Retail,Kerala, Kovalam Beach,,,"8.403961,76.973953"
20253,Vintage Punjabi Dhaba,Retail,Kerala,Kovalam Beach Road Kovalam Beach,,,"8.3957681,76.9799694"
20254,Sanjeevini Restaurant,Retail,Kerala,Samudra Beach Near Country Spa Country Spa Rd hhhb,,,"8.399206,76.973506"
20255,The Pantry,Retail,Kerala,Opposite Apsara Threatre Kovalam Beach,,,"8.3988802,76.9818171"
20256,Kingfisher restaurant & SEA FOOD CORNER,Retail,Kerala,Near Hawa Beach Kovalam HO,,,"8.3869717,76.9769157"
20257,Coconut Grove,Retail,Kerala, Kovalam Ho,,,"8.3861484644,76.9783915579"
20258,Swiss Cafe,Retail,Kerala,Near Shivas Tours Travels Kovalam Ho,,,"8.3869064,76.9770873"
20259,The Curry Pot Restaurant,Retail,Kerala, Kovalam Beach,,,"8.4021041,76.9737338"
20260,The Courtyard International (Uday Samudra Leisure Beach Hotel & Spa),Retail,Kerala,Near Samudra Beach Kovalam Beach,,,"8.4018822,76.9724991"
20261,The Chef's Studio,Retail,Kerala, Vazhamuttom,,,"8.4105197,76.9768161"
20262,Emaar Kitchen,Retail,Kerala,,,,"8.3990119,76.9820342"
20263,Molly's Retreat Restaurant,Retail,Kerala, Kovalam Beach,,,"8.402257,76.974027"
20264,Roof Top,Retail,Kerala, Kovalam HO,,,"8.3851935241,76.9796605781"
20265,Sanjeevni Restaurant,Retail,Kerala,Behind Ktdc Hotel Koval Beach Kovalam HO,,,"8.3990355,76.9737186"
20266,Catamaran (Turtle On The Beach Hotel),Retail,Kerala, Kovalam Beach,,,"8.3903957,76.9762042"
20267,Sea View Restaurant,Retail,Kerala,Near Bus Stop,,,"8.3902489,76.975066"
20268,Leo Restaurant,Retail,Kerala,Near Pappukutty Beach Resort Kovalam HO,,,"8.3863983,76.9780143"
20269,Ali Baba & 41 Dishes,Retail,Kerala,Opposite to Veekay Tower Kuruppam Road,8123380725.0,,"10.518934694444,76.211155388889"
20270,Thomason's Casa Restaurant,Retail,Kerala, Ikkanda Warrior Road Thrissur HO,7383545727.0,,"10.521169638889,76.224288916667"
20271,Alzaki Restaurant,Retail,Kerala,Near Ansar Hospital Perumpilavu,8401585619.0,,"10.701734,76.090217"
20272,Indian Palace Restaurant,Retail,Kerala,Near Old Police Station Pudukad,8485956917.0,,"10.437262527778,76.253707861111"
20273,Blue Star Biryani Hut,Retail,Kerala,Near Jubilee Mission Hospital Thrissur East,9054440662.0,,"10.519985,76.2257018"
20274,Keif Restaurant,Retail,Kerala,Near Salafi Masjid Vadakkekad,8485953405.0,,"10.6491101,76.0101791"
20275,Moosas Biriyani House,Retail,Kerala,Near By Mosque,8460484798.0,,"10.5164823,76.2126947"
20276,Kerala Inn Foodcourt,Retail,Kerala,Near Bypass Bus Stop Athani,,,"10.625544444444,76.223944444444"
20277,Leo Desserts,Retail,Kerala,Near National Highway Triprayar,,,"10.4096252,76.1093002"
20278,Kallada Restaurant,Retail,Kerala, Mannuthy,,,"10.5294325,76.2595367"
20279,Charcoal Delights,Retail,Kerala,Near Mathews Auditorium Kunnamkulam,,,"10.662898,76.099108"
20280,Grill Inn Restaurant,Retail,Kerala,Near Koorkenchery Thrissur East,,,"10.503498,76.211596"
20281,Ikku Bhais Kuzhimanthi Kada,Retail,Kerala, irinjalakuda,,,"10.343030828099,76.216058052972"
20282,Hao Ming Chinese Restaurant,Retail,Kerala,Near St Thomas College Thrissur Ho,,,"10.524901944444,76.220152"
20283,Balaji Restaurant Veg & Non Veg,Retail,Kerala,Opposite Ksrtc Bus Station Guruvayur,,,"10.595783924,76.0369080305"
20284,Tonico Cafe,Retail,Kerala,Near Mutingoor Signal Muringoor Vadakkummuri,,,"10.278876,76.3443522"
20285,Monks Inn,Retail,Kerala,Near Kalyan Hero Opposite Brand Factory kottappuram,,,"10.5237558,76.2092857"
20286,Mody Live Food Court,Retail,Kerala,Opposite Municipal Town Hall Potta,,,"10.3355835225,76.3381123915"
20287,Soul Kitchen Co,Retail,Kerala,Christ College Junction irinjalakuda north,,,"10.3543723,76.2182775"
20288,Hotel Akshaya,Retail,Kerala, Guruvayur,,,"10.60416096,76.04425397"
20289,Le Lumiere Restaurant,Retail,Kerala,Opp Law College PMG Vanchiyor,,,"8.508390972222,76.943961"
20290,Varnam Sea Food Restaurant,Retail,Kerala,Opposite to Dcc Office Palayam,7022321086.0,,"8.5029834,76.953754"
20291,Velvet Dawn Cafe & Restaurant,Retail,Kerala,Opposite Aham Boutique Sasthamangalam,7947162511.0,,"8.511783694444,76.969393638889"
20292,Mothers Veg Plaza,Retail,Kerala, Palayam,8487031810.0,,"8.5003097,76.9531832"
20293,Krishna Hotel Kattachalkuzhi,Retail,Kerala,Opposite Coconut Research Centre Balaramapuram,8401289123.0,,"8.4046391,77.024826"
20294,Than'eem Family Restaurant,Retail,Kerala,Near G G Hospital and Cosmo Hospital,,,"8.515664,76.934577"
20295,The Yellow Chilli,Retail,Kerala,Near Narmada Shopping Complex Kowdiar,8460529934.0,,"8.5137123,76.9524661"
20296,Caffe Italiano,Retail,Kerala,Near Helipad Varkala,9725473748.0,,"8.7382888,76.700056"
20297,Hotel Annapoorna,Retail,Kerala,Opposite PRS Hospital Killipalam,7487958235.0,,"8.4816323,76.958802"
20298,Marhaba Restaurant,Retail,Kerala,Opposite Nss Karayogam Sasthamangalam,,,"8.513695694444,76.978988888889"
20299,Zeit Resturant,Retail,Kerala,Opposite Reliance Trends Varkala,9054767593.0,,"8.737643055556,76.701843055556"
20300,Al Haja Vazhiyorakkada,Retail,Kerala,Near Poovanpara Bridge Alamcode,,,"8.7128958,76.8118867"
20301,Lafolei Clicks,Retail,Kerala,Near Alamcode Juma Masjid Alamcode,9054775312.0,,"8.7238894,76.8124237"
20302,Sree Vinayaka Hotel,Retail,Kerala,Opposite Indian Oil Office Enjakkal,7383618039.0,,"8.4786631,76.9354513"
20303,THE AFC (AMERICAN FRIED CHICKEN),Retail,Kerala,Inchakkal Junction Vallakkadavu,9035679070.0,,"8.478651916667,76.93544"
20304,Opr Family Restaurant,Retail,Kerala,Near Shivas Sports Hub Pallichal,8735029398.0,,"8.4386571,77.0181053"
20305,Irani Fast Food and Caterers,Retail,Kerala, Manikandeswaram,9724820368.0,,"8.54292958,76.98206421"
20306,The AFC(American Fried Chicken),Retail,Kerala,Mar Ivanios College Nalanchira,7947463286.0,,"8.5488101,76.940597"
20307,GRANDEUR MULTI CUISINE RESTAURANT BAKES & SUPERMARKET,Retail,Kerala,Near Lekshmi Restaurant Bar Mukkada,,,"8.807344,76.762154"
20308,Zam Zam Restaurant,Retail,Kerala,Opposite to MLA Hostel Palayam,,,"8.5035931,76.9497251"
20309,Sree Krishna M G Hotel,Retail,Kerala,Near Sujata Inn Munnar Ho,,,"10.081457,77.061617"
20310,Saravana Bhavan,Retail,Kerala,Munnar Market Munnar Colony,,,"10.0872906,77.0597034"
20311,Alibaba & 41 Dishes,Retail,Kerala,Near KSRTC Bus Stand,,,"10.0738864,77.0613661"
20312,Bala Restaurant,Retail,Kerala, Moolakadai,,,"10.0739071,77.0622461"
20313,Annapoorna Restaurant,Retail,Kerala,Fghfg,,,"10.091065,77.05965"
20314,Hotel Srinivas Veg Restaurant,Retail,Kerala, Munnar Colony,,,"10.0886774,77.059398"
20315,Hotel Gurubhavan ,Retail,Kerala,Near KTDC Tea County Ikka Nagar,,,"10.0877749,77.0649531"
20316,The Wind Munnar Restaurant,Retail,Kerala, Munnar HO,,,"10.017192,77.162085"
20317,Annapurna Veg Restaurant,Retail,Kerala,Near Old British Church Near Mankulammunnar Trail Moolakadai Moolakadai,,,"10.0798176,77.0620155"
20318,Guru's Hotel & Spices,Retail,Kerala, Munnar Colony,,,"10.0876251,77.064407"
20319,Rapsy Restaurant,Retail,Kerala, Pothamedu,,,"10.0880585,77.0603454"
20320,Guru's Restaurant & Spices,Retail,Kerala,Near KTDC Hotel Ikka Nagar,,,"10.0878021,77.0642721"
20321,Pizza Max,Retail,Kerala,Opposite To Silver Tips Hotel Munnar HO,,,"10.0786543,77.0628349"
20322,Sree Krishna Marwadi Gujarati Restaurant Pure Veg,Retail,Kerala, Moolakadai,,,"10.081412,77.061798"
20323,Mummy's Kitchen,Retail,Kerala, munnar ho,,,"10.07851835,77.06294654"
20324,Hotel Sangeetha,Retail,Kerala, Munnar Colony,,,"10.0875812,77.0659096"
20325,Purohit Restaurant,Retail,Kerala,Near Ikka Nagar Tea County Road,,,"10.0876323,77.0650199"
20326,Chennai Star Biryani,Retail,Kerala,Near Palathottam Colony Road ikka nagar,,,"10.08763,77.067072"
20327,Sree Krishna Restaurant,Retail,Kerala, munnar ho,,,"10.0816278,77.06161835"
20328,Maharani Hotel,Retail,Kerala,Opposite to Elanjikkal Building Munnar Ho,,,"10.0868124,77.0605637"
20329,Poomaram Ram's Kitchen,Retail,Kerala,Opposite Lulu Mal Anayara,,,"8.515775,76.898772"
20330,Bungalow 47,Retail,Kerala,Opp Chithari Juma Masjid Kanhangad,8734917852.0,,"12.3556033,75.0697685"
20331,Oryx Village,Retail,Kerala,Near Kanhangad South Jn Kanhangad South,8488918253.0,,"12.2967941,75.1021772"
20332,Quality Restaurant and Bakes,Retail,Kerala,Opposite State Bank Of India Opposite Ambika School Bekal,,,"12.4226609,75.02256"
20333,Udupi Sree Krishna Veg Restaurant,Retail,Kerala,Opposite O Ranjees Theatre,,,"12.4279893,75.0232938"
20334,Latitude (Taj Bekal Resort & Spa),Retail,Kerala,Near Kappil Beach Bekal,,,"12.42284,75.014074"
20335,Royal Casino,Retail,Kerala, Periyattadukkam,,,"12.4301498,75.0729942"
20336,Vijay Dhaba,Retail,Kerala, Poinachi,,,"12.4587232,75.0589981"
20337,By The Bay (Taj Bekal Resort & Spa),Retail,Kerala,Near Kappil Beach Malankunnu,,,"12.4233859,75.0151127"
20338,BBQ By The Pool (Taj Bekal Resort & Spa),Retail,Kerala,Near Kappil Beach Bekal,,,"12.422453,75.013917"
20339,New Oyster Restaurant,Retail,Kerala,Near Bus Stop,,,"12.4696977,75.0468946"
20340,Al Madeena Restaurant And Catering Service,Retail,Kerala,Near Periyattadukkam Town Periyattadukkam,,,"12.4289283,75.07384"
20341,Mexican Hot N Spicy Restaurant,Retail,Kerala, Periyattadukkam,,,"12.4292814,75.0732014"
20342,Hotel Kanmani,Retail,Kerala, Periyattadukkam,,,"12.4291626,75.0724608"
20343,Ferrero Cafe,Retail,Kerala,,,,"12.4240227,75.0225425"
20344,Md Rockzz,Retail,Kerala,,,,"12.4347131,75.069608"
20345,Janakiya Hotel,Retail,Kerala,,,,"12.4283598,75.0755624"
20346,Hotel Milan Chattanchal,Retail,Kerala, Chattanchal,,,"12.480161,75.057665"
20347,Hotel Century,Retail,Kerala,Cantral Medical Clg Poinachi,,,"12.4640817,75.0583128"
20348,Indian Coffee House Uduma,Retail,Kerala, Udma,,,"12.4406671,75.0248092"
20349,Mariya Family Restaurant,Retail,Kerala,Pullupara,,,"9.529316,77.228193"
20350,Toddy Parlour,Retail,Kerala, Periyar Lake,,,"9.529316,77.228193"
20351,Kripa Multi Cuisine Restaurant,Retail,Kerala,Lake Road Next to Ambadi Jn Thekkady,,,"9.5917599,77.1742404"
20352,Pizza Spot,Retail,Kerala,Thekkady,,,"9.5992565,77.1713029"
20353,Spice Haven,Retail,Kerala, Thekkady,,,"9.460967889,77.25543876"
20354,Anna's Homely Food,Retail,Kerala,Near Coffee Inn Periyar Lake,,,"9.460967889,77.25543876"
20355,Kunjar Reastaurant,Retail,Kerala,Near Entrance Gate Periyar Lake,,,"9.460967889,77.25543876"
20356,Eves Kitchen Restaurant,Retail,Kerala, Kumily,,,"9.5981475,77.1718096"
20357,Thekkady Cafe,Retail,Kerala, Thekkady,,,"9.6053479,77.1668037"
20358,Sora Grill & Gossip Thekkady,Retail,Kerala, Kumily,,,"9.61453,77.1539215"
20359,Hotel Arya Bhavan,Retail,Kerala, Amalambika Road Thekkady,,,"9.6063463,77.1672288"
20360,Vasant Vihar Veg,Retail,Kerala, Kumily,,,"9.6067057,77.164549"
20361,Gokul Pure Veg Restaurant,Retail,Kerala,Near Highrange Drug Main Street Kumily,,,"9.60777,77.1683854"
20362,Sri Ganapathi Bhojanalaya,Retail,Kerala, Thekkady,,,"9.606138222222,77.16885375"
20363,Ambadi Restaurant,Retail,Kerala, Thekkady,,,"9.60296,77.171454"
20364,Barbque Restaurant,Retail,Kerala,Near Periyar Hospital Kumily,,,"9.609205,77.168768"
20365,Laxmi Pure Veg,Retail,Kerala, Kumily,,,"9.606102,77.1674404"
20366,Bodhi Vihar Bhojanalaya,Retail,Kerala, Kumily,,,"9.6064398,77.1674809"
20367,Hotel Royal Treat,Retail,Kerala,Near Victoria College Road Tharekkad,7947173415.0,,"10.782253,76.653368"
20368,FARZI KUZHIMANTHI,Retail,Kerala,Near Town Hall Palakkad Fort,,,"10.767348972222,76.655613"
20369,London Bakes N Grills,Retail,Kerala,Near Ksrtc Stand Noorani,,,"10.767505972222,76.648162972222"
20370,Red Chillies,Retail,Kerala,Opposite Sudharma Clinical Laboratory Palakkad Fort,8460398003.0,,"10.767277972222,76.655383"
20371,Arabian grill & fry ( Idam restaurant),Retail,Kerala,Near Chennai Mobile Stadium Bypass Road,8401046599.0,,"10.769795416667,76.661666861111"
20372,Kadal Restaurant,Retail,Kerala,Near Trinity Hospital Palakkad Ho,9725533997.0,,"10.7768891,76.6701423"
20373,Aryas Sree Haran Aryas,Retail,Kerala,Near Block Office Palakkad Fort,8460481214.0,,"10.766151999722,76.658564999722"
20374,Hotel Nalanda,Retail,Kerala, Sultanpet,,,"10.7766312,76.6577043"
20375,D 9 Navaratna,Retail,Kerala, Stadium Bypass Road,,,"10.7672403,76.6603094"
20376,Pizza Hut,Retail,Kerala,Opposite Noor Jehan Grill Above KFC Stadium Bypass Road,,,"10.769358,76.6616179"
20377,Flavours Restaurant,Retail,Kerala,Near Trinity Eye Hospital Stadium Bypass Road,,,"10.7672334,76.6602658"
20378,Mulberry Chappathi Company,Retail,Kerala, Sekharipuram,,,"10.785602590511,76.656364548731"
20379,Malabar Restaurant,Retail,Kerala,Near Saravana Bhavan Erimayur,,,"10.6698955,76.5749065"
20380,Hotel Sreelakshmi,Retail,Kerala,Opposite Bus Stand Near SBI Bnk Ottapalam,,,"10.773197166667,76.376594527778"
20381,NMRS Uptown Fine Dine Restaurant,Retail,Kerala,Near Bharathmatha Hss Chandranagar Chandranagar,,,"10.772745699722,76.674930299722"
20382,Domino's Pizza,Retail,Kerala,,,,"10.7837138,76.6527938"
20383,Farzi Kuzhimanthi,Retail,Kerala,,,,"10.7673774,76.6555906"
20384,Hotel Green Star,Retail,Kerala, Pirayiri,,,"10.7744939951,76.6114335135"
20385,Shawarma Street,Retail,Kerala,Pattambi Pattambi,,,"10.8064915,76.1980551"
20386,Curryleaf Restaurant,Retail,Kerala,Kovalam Near Leela Hotel Kovalam Beach,,,"8.3984543,76.973573"
20387,Sea Rock Restaurant,Retail,Kerala, Kovalam Ho,,,"8.3878197,76.9764996"
20388,Abc Cafe & Restaurant,Retail,Kerala, Kovalam HO,,,"8.3852758,76.9794349"
20389,Lonely Planet Pure Veg Restaurant,Retail,Kerala,Behind Jeevan Beach Resort Kovalam Ho,,,"8.3869519,76.9786934"
20390,Village Kichen,Retail,Kerala, Kovalam HO,,,"8.3955348,76.9846244"
20391,Butter Fry,Retail,Kerala,,,,"8.3914585,76.9751639"
20392,The Terrace (The Leela Kovalam A Raviz Hotel),Retail,Kerala,Opposite Infinity Pool Kovalam Beach,,,"8.3937157,76.971777"
20393,The Sky Bar (The Leela Kovalam A Raviz Hotel),Retail,Kerala,Below The Main Pooldeck Area Kovalam Beach,,,"8.393606,76.971826"
20394,Kairali Restraurant,Retail,Kerala,Near Indhira Park Varkala,7947234345.0,,"8.7353845014,76.7172608813"
20395,Lekshmi Edibles Gourmet Restaurant,Retail,Kerala,Near Sngc School Ezhukone,8128139562.0,,"8.982355,76.724130833333"
20396,Grandeur Multi Cuisine Restaurant Bakes & Supermarket,Retail,Kerala,Near Lekshmi Restaurant Bar Parippally,8128398483.0,,"8.812555305556,76.758422833333"
20397,City Events & Hotels,Retail,Kerala,Near Wolkswagon Showroom Kilikollur,,,"8.920945,76.638383"
20398,Lekshmi Edibles,Retail,Kerala,Muslim Street Kottarakara,7487866477.0,,"8.98111191114,76.7764179424"
20399,Spicy Food Court,Retail,Kerala, Ayur,8128437557.0,,"8.8955736,76.8617718"
20400,Arakallu Restaurant,Retail,Kerala,Near D Life Interiors Kollam Bazar,8460456533.0,,"8.902925,76.563386"
20401,Al Fidhan Buffet Restaurant,Retail,Kerala, Polayathodu,,,"8.8786145,76.6081726"
20402,Arabian Chickens,Retail,Kerala,Near Kollam Circle Andamukkam,,,"8.8835174218,76.5912250802"
20403,Hajees Biryani House,Retail,Kerala, thirumullavaram,,,"8.900676,76.56403"
20404,Spicy Garage,Retail,Kerala,Nearby Lekshmi Bar Hotel Parippally,,,"8.8141764,76.7572991"
20405,Mughal Dharbar,Retail,Kerala, Nilamel,,,"8.8120805,76.8830655"
20406,All Spice Restaurant,Retail,Kerala,Near Post Office Chinnakada,,,"8.8864705,76.5903983"
20407,Calimiro Restaurant,Retail,Kerala,Nearkmml Panmana,,,"9.0147409,76.5365155"
20408,Soorya,Retail,Kerala, Kottiyam,,,"8.8704293,76.6715138"
20409,Ramees Restaurant,Retail,Kerala,Nr Lic Building Chinnakada,,,"8.8880973,76.5912502"
20410,Lakshmi resturent,Retail,Kerala,Opposite Madathara Busstop Parippally,,,"8.8123124,76.7601344"
20411,Fayalwan Hotel,Retail,Kerala,Near to Veliyakada Market Chinnakada,,,"8.884956,76.585101"
20412,Zaitoon Restaurant And Bakery,Retail,Kerala, kilikollur,,,"8.9282,76.64048"
20413,Ciscilla Heritage,Retail,Kerala,Nelliyampathi Seethargundu,,,"10.5072705,76.7063239"
20414,Spring Valley Restaurant,Retail,Kerala, Pulayanpara,,,"10.5349175,76.6932231"
20415,Hot Lunch Multi Cuisine Restaurant,Retail,Kerala, Pulayanpara,,,"10.5351985,76.6937397"
20416,AYYAPPANs HOMELY MEALS,Retail,Kerala,,,,"10.5992268,76.7242596"
20417,Hotel Taste And Taste,Retail,Kerala, Kollengode,,,"10.6125112,76.6833685"
20418,Sree Ganesh Bhavan,Retail,Kerala, Kollengode West,,,"10.6118414,76.7064254"
20419,Light House Shawarma,Retail,Kerala, Kollengode,,,"10.6167463,76.6966569"
20420,Blueberry Cafe & Resturant,Retail,Kerala, Kollengode,,,"10.6152798,76.6966403"
20421,Hotel Vysag Restaurant,Retail,Kerala, Kollengode,,,"10.6132566,76.6914859"
20422,Hotel Kalavara,Retail,Kerala,Kollengode Kollengode,,,"10.6120209,76.7064313"
20423,Sulu's Homely Mess,Retail,Kerala,Near Ganesh Driving School Kollengode,,,"10.6119044,76.6975471"
20424,Rayan Hotel,Retail,Kerala, Kollengode,,,"10.6125177,76.7024326"
20425,Dining Delight Restaurant,Retail,Kerala,,,,"10.6090715,76.7333765"
20426,Hotel Haneefa,Retail,Kerala, Kollengode,,,"10.6128869,76.7015976"
20427,Hotel Krishna Bhavan,Retail,Kerala, Kollengode,,,"10.6128339,76.6937535"
20428,Kilikkoodu Toddy Shop,Retail,Kerala, Kumarakom North,,,"9.6181878,76.4319816"
20429,Tharavadu Hotel And Restaurant,Retail,Kerala, Kumarakom North,,,"9.6300692,76.4298441"
20430,Vembanad The Seafood Restaurant & Bar (Taj Kumarakom Resort & Spa),Retail,Kerala, Kumarakom North,,,"9.6121559,76.4306926"
20431,Kushini Restaurant,Retail,Kerala,Opposite Indair Rubber Factory,,,"9.5911785,76.4288308"
20432,Kumarakom Toddy Parlour,Retail,Kerala, Chakrampady,,,"9.6181668,76.4320712"
20433,Menani Restaurant,Retail,Kerala,Near Trivandrum Bypass Kumarakom North,,,"9.6302003,76.4302073"
20434,The Kumarakom Kitchen,Retail,Kerala, Cheepunkal,,,"9.6359099,76.4303623"
20435,Brindhavan Pure Vegetarian Restaurant,Retail,Kerala,Near Kumarakom Town Dubai HotelOpposite St Johns Attamangalam Church Kumarakom HO,,,"9.5923184,76.4411555"
20436,Dubai Restaurant,Retail,Kerala,Opposite Attamangalam Church,,,"9.6175449,76.430095"
20437,Ponmanthuruthu Toddy Shop,Retail,Kerala, Kumarakom North,,,"9.5810812,76.4286641"
20438,Ettukettu Restaurant (Kumarakom Lake Resort),Retail,Kerala, Kumarakom North,,,"9.612583,76.430892"
20439,Greenland Family Restaurant,Retail,Kerala, Cheepunkal,,,"9.6356624,76.4303609"
20440,Pimento Multi Cuisine Restaurant,Retail,Kerala,,,,"9.5911785,76.4288308"
20441,The Curry Leaf- Kumarakom Kitchen,Retail,Kerala, Kumarakom North,,,"9.5935199,76.432724"
20442,Kumarakom Bbq,Retail,Kerala, Kavanattinkara,,,"9.6304021,76.4301637"
20443,Lime Tree (The Zuri Kumarakom ),Retail,Kerala,Karottukayal Kumarakom South,,,"9.5923683,76.4246701"
20444,Currymeen (Taj Kumarakom Resort & Spa),Retail,Kerala, Kumarakom North,,,"9.626444,76.426434"
20445,Cocco Thottam,Retail,Kerala, Athikkalam,,,"9.60144,76.4324306"
20446,Nishant'S Restaurant,Retail,Kerala,,,,"9.551193,76.4347541"
20447,Hashe's Hotel,Retail,Kerala,Chakrampadi Kumarakom chakrampady,,,"9.6145439,76.4328429"
20448,Winter Heaven Cottage,Retail,Kerala, Pattaline,,,"10.0880875,77.0669309"
20449,Hotel Sn,Retail,Kerala, Aluva Munnar Road,,,"10.0877481,77.0641631"
20450,Hotel Mugal Palace,Retail,Kerala, Moolakadai,,,"10.0782404,77.0628221"
20451,Arabian Grills,Retail,Kerala, Nullatanni,,,"10.085742,77.059911"
20452,New York Fried Chicken,Retail,Kerala,Near Dtpc Parking Ground,,,"10.0762248,77.0632278"
20453,Green Leaf Restaurant,Retail,Kerala,Near Csi Church Munnar Ho,,,"10.0799569,77.0617606"
20454,Winter Yard,Retail,Kerala, Munnar HO,,,"10.0746257,77.0617694"
20455,Shree Mahaveer Restaurant,Retail,Kerala, Munnar Colony,,,"10.0872729,77.0628664"
20456,Surya Soma Restaurant,Retail,Kerala, Nullatanni,,,"10.0855524,77.060149"
20457,Mirchis Restaurant,Retail,Kerala, munnar ho,,,"10.07562836,77.06319498"
20458,Bellmount Restaurant,Retail,Kerala,Opposite Govt High School Moolakadai,,,"10.0802566,77.0616068"
20459,Blackberry Hills Munnar Resorts Hornbill Restaurant,Retail,Kerala, Pothamedu,,,"10.0537706,77.0671134"
20460,Rochas Restaurant,Retail,Kerala, Ikka Nagar,,,"10.0876284,77.0646169"
20461,S N Restaurant,Retail,Kerala,Opposite To KDHP Store Munnar HO,,,"10.0747858,77.0633572"
20462,Brothers Kitchen,Retail,Kerala, Aluva Munnar Road,,,"10.0762705,77.0632464"
20463,Hornbill,Retail,Kerala, Pothamedu,,,"10.0537706,77.0671134"
20464,Mathai's Restocafe,Retail,Kerala,Near Kacheri Honda Sulthan Bathery,7411579419.0,,"11.664833055556,76.262351972222"
20465,Ruchipura Restaurant,Retail,Kerala,Opposite 7Days Hypermarket Sulthan Bathery,8401226908.0,,"11.658577916667,76.246696472222"
20466,Royal Restaurant,Retail,Kerala,Near Govt HSS School Ambalavayal Ambalavayal,9054492518.0,,"11.6158335,76.2110903"
20467,Jubilee Restaurant,Retail,Kerala,Near Post Office Sulthan Bathery,,,"11.662127777778,76.254505555556"
20468,Wilton Restaurant,Retail,Kerala,Near Wayanad Gateway Lakkidi,,,"11.5150653,76.0218578"
20469,Naduvath Kitchen,Retail,Kerala, Meppadi,,,"11.5555912,76.1307582"
20470,Golden Ivory Restaurant,Retail,Kerala, Muttil,,,"11.6459285,76.1146925"
20471,Holiday Hill Family Restaurant,Retail,Kerala,Opposite To Kartikulam,,,"11.8483328,76.0649459"
20472,Poozhikuth Biriyani Hut,Retail,Kerala,Near D N Stores and Opposite Axis Bank Sulthan Bathery,,,"11.6596246,76.2569692"
20473,India Gate,Retail,Kerala, Vythiri,,,"11.5585579,76.0404556"
20474,Udupi Pure Vegetarian Restaurant,Retail,Kerala,Near Indian Bank Atm Near New Bus Stand Green Land Nagar Kalpetta,,,"11.6065901,76.0832444"
20475,BEYCHO RESTO CAFE,Retail,Kerala,Kalpetta,,,"11.6123383,76.0880447"
20476,Thoufeeque Restaurant,Retail,Kerala,Near Juma Mazjid Meenangadi Wayanad Meenangadi Near Salafi Masjid Kalpetta,,,"11.6155656,76.0831862"
20477,Rayan Arabic Restaurant,Retail,Kerala,Opposite Maharani Silks Kalpetta,,,"11.6196159,76.0849749"
20478,Kuruva Family Restaurant,Retail,Kerala, Panamaram,,,"11.7515986,76.0680438"
20479,Kalpaka Vegetarian Restaurant,Retail,Kerala,Near Maha Ganapathi Temple Sulthan Bathery,,,"11.6631137,76.2574376"
20480,Nice Restaurant,Retail,Kerala, mananthavady,,,"11.82013,75.98678"
20481,Hotel Udupi,Retail,Kerala,Near Kanyaka Sarees Sulthan Bathery,,,"11.664860888889,76.264023694444"
20482,Hotel Foodland,Retail,Kerala,Vellarimala Vallarmala,,,"11.5073443,76.1578014"
20483,Cafe Manara,Retail,Kerala,Ikka Nagar Ikka Nagar,,,"10.0877737,77.064848"
20484,Royal Retreat,Retail,Kerala, Munnar Ho,,,"10.07279,77.06172"
20485,Salt & Pepper,Retail,Kerala,Near Kerela Cultural Center Munnar Ho,,,"10.0736166,77.0646028"
20486,King Food Corner,Retail,Kerala,Near Spinn Mill Kareelakulangara,8971543312.0,,"9.1998211,76.4844504"
20487,Onion Food Mall,Retail,Kerala,Near Ksrtc Bus Stand Cherthala,8490920536.0,,"9.6860654,76.3429787"
20488,Cochin Majlis,Retail,Kerala,St Josephs Girls Higher Secondary School Alappuzha Collectorate,,,"9.4993732,76.3305798"
20489,Uduppi Saravana Bhavan,Retail,Kerala,District Court Road Thathampally,7411762498.0,,"9.5051309555,76.340773556"
20490,Halais Family Restaurant,Retail,Kerala,Near South Police Station Thiruvambady Junction,,,"9.494653,76.331439"
20491,Asoka Bakers,Retail,Kerala,Near District Court Bridge Mullakkal,8488910966.0,,"9.5004966,76.3424958"
20492,Hilltop Events and Caterers,Retail,Kerala,Near Arthunkal Bypass Cherthala,,,"9.687249,76.335408"
20493,Cake Hut And Resturant,Retail,Kerala,Esaf Bank Ambalapuzha,7411834638.0,,"9.383452,76.361136"
20494,Heavenly Hills Restaurant,Retail,Kerala,Shanthivanam Junction Cherukol,8485976029.0,,"9.2673791405,76.5357592499"
20495,Biriyani Palace,Retail,Kerala,Near Water Works Punnapra,,,"9.4476288,76.3418575"
20496,Ayodhya Hotel & Restaurant,Retail,Kerala, Kainakary,,,"9.52798,76.406275"
20497,Marari Edens Restaurant,Retail,Kerala,Near Karnosti Ayrvedha and Well Resort Mararikulam,,,"9.4584907,76.3347838"
20498,Kalavara Cloud Kitchen,Retail,Kerala,Near Palace Ward chungam,,,"9.4920313861,76.3466757675"
20499,Lake Paradise Restaurant,Retail,Kerala, Avalukkunnu,,,"9.5019203,76.3660067"
20500,Hotel Aryas,Retail,Kerala, Thekkekara,,,"9.2068,76.571547"
20501,The Smoky Shack,Retail,Kerala,Near Christian Collage angadical south,,,"9.304982,76.625607"
20502,Aryaas Vegetarian Hotel And Restaurant,Retail,Kerala, Chengannur,,,"9.3195917,76.6117567"
20503,Biju's Foodcourt & Thattukada,Retail,Kerala, Cherthala,,,"9.6871833,76.33051085"
20504,The Casserole Restaurant & Bakes,Retail,Kerala,Near Kseb Junction Poochackal,,,"9.7981042,76.3538093"
20505,Harikrishnans Vegetarian Restaurant,Retail,Kerala,Oppposite KSRTC Bus Stand Mavelikara,,,"9.2475326,76.5401892"
20506,Lucamo Resto Cafe,Retail,Kerala,Opposite Aster Medcity South Chittoor,9725453463.0,,"10.035024,76.27812699989"
20507,Seagull Restaurant,Retail,Kerala,Near Cost Guard Kochi Fort,,,"9.9691128,76.24997"
20508,Kayees Rahmathulla Hotel,Retail,Kerala, Mattancherry,,,"9.9627537,76.2548934"
20509,David Hall,Retail,Kerala,Opposite Parade Ground Kochi Fort,,,"9.9652292,76.2395344"
20510,Hoy Punjab,Retail,Kerala,Kacheripady Hotel Garden Inn Kochi,,,"9.987093,76.285226"
20511,Fusion Bay Restaurant,Retail,Kerala,Near Santa Cruz Basilica Church Fort Road,,,"9.9655819,76.2436455"
20512,Old Harbour Hotel,Retail,Kerala,Opposite Nehru Park Fort Police Station Kochi,,,"9.9672767,76.2422243"
20513,Palaaram Restaurants,Retail,Kerala, Kochi,,,"9.952662,76.245015"
20514,Loafers Corner,Retail,Kerala,Opposite Park Avenue Hotel Fort Road,,,"9.9658571,76.2420556"
20515,Kaasa Kitchen,Retail,Kerala,Near Village Office Fort Kochi Kochi Fort,,,"9.9633787,76.242009"
20516,Balan Chettande Kada,Retail,Kerala, Mattancherry,,,"9.9627082,76.2533258"
20517,Mocha Art Cafe,Retail,Kerala,Opposite Jew Synagogue Mattancherry,,,"9.9573239,76.2595545"
20518,Santhilal Mitaiwallah,Retail,Kerala, Mattancherry,,,"9.9597049,76.2552425"
20519,Shantilal S Mithaiwala,Retail,Kerala,Near Gujarati High School Opposite Gujarathi School Mattancherry,,,"9.959655,76.255266"
20520,Rinoos Coolbar,Retail,Kerala,Near Pullu Palam Kochi Fort,,,"9.963253,76.2504592"
20521,Rasoi,Retail,Kerala,Near St Francis Church Kochi,,,"9.9661534,76.2415572"
20522,Bristows Bistro,Retail,Kerala,Next to INS Dronacharya Kochi Fort,,,"9.96292,76.237862"
20523,Tibetan Chefs Restaurant,Retail,Kerala,Opposite Kerala Kathakali Centre Kochi,,,"9.964008,76.2428527"
20524,The Asian Kitchen By Tokyo Bay,Retail,Kerala,Near Folk Lore Museum Opposite Parade Ground Kochi Fort,,,"9.965567,76.239973"
20525,Ginger House Restaurant,Retail,Kerala, Mattancherry,,,"9.956835,76.260769"
20526,Hotel Cochin,Retail,Kerala,Opposite Tata Sports Ground Munnar H O,,,"10.0804088,77.0620483"
20527,The Spice Village,Retail,Kerala,Near Green Valley Cottage Kovalam Beach,,,"8.386785,76.977498"
20528,Oyster Restaurant,Retail,Kerala,Samudra Beach,,,"8.402731,76.982241"
20529,Crab Club,Retail,Kerala,,,,"8.3847709,76.979868"
20530,Bethel Vegetarian Restaurant,Retail,Kerala,Near to Light House Beach Kovalam Beach,,,"8.387299,76.9772889"
20531,Waves On The Beach (Uday Samudra Leisure Beach Hotel & Spa),Retail,Kerala,Near Samudra Beach Kovalam Beach,,,"8.401413,76.971861"
20532,Om Pure veg North Indian Food,Retail,Kerala,behind jeevan beach resort Kovalam Beach,,,"8.3860052,76.9785186"
20533,Punnamada Family Restaurant,Retail,Kerala,Near St Marys Catholic Church Valakom,,,"8.9490512,76.8461955"
20534,Malabar Fried Chicken,Retail,Kerala, Ezhukone,,,"8.9839382,76.7310285"
20535,Green Park Family Restaurant,Retail,Kerala, Amrithapuri,,,"9.0913893,76.4915411"
20536,Hotel Aarya Nivaas Vegetarian Restaurant,Retail,Kerala, Kottarakara,,,"8.9951738,76.7859276"
20537,Mother's Kitchen,Retail,Kerala, Karunagappally,,,"9.06305867025,76.534719988694"
20538,Malappuram Kuzhimandi,Retail,Kerala,Near Bsnl Exchange Behind The BSNL Office Anchal,,,"8.9275926,76.911994"
20539,Lake View Restaurant,Retail,Kerala, Thirumullavaram,,,"8.8956437,76.5712842"
20540,Bharat Cafe,Retail,Kerala, Karunagappally,,,"9.077717,76.531626"
20541,Turkish Food,Retail,Kerala,Near Locality uliyakovil,,,"8.9003428,76.6138375"
20542,Spicy Villa Family Restaurant,Retail,Kerala, Amrithapuri,,,"9.0936601,76.4937355"
20543,Rahmaniya Kethels Chicken,Retail,Kerala, Mayyanad,,,"8.833959849,76.64671362"
20544,Cool Land,Retail,Kerala, Kannur Ho,8490008820.0,,"11.8727388,75.3646871"
20545,IGLOO Restaurant & Ice Cream Parlour,Retail,Kerala,Near New Bus Stand Thavakkara,9054644245.0,,"11.8665923,75.3718811"
20546,BARKA RESTAURANT,Retail,Kerala, Thavakkara,9054935608.0,,"11.868973083333,75.369452777778"
20547,Hotel Green Park,Retail,Kerala, Cherupuzha,,,"12.2720947,75.361051"
20548,WESTIND BURGERS,Retail,Kerala,Opposite Blue Nile Hotel Kannur Ho,9725134816.0,,"11.8701945,75.3597488"
20549,Afc American Fried Chicken Restaurant,Retail,Kerala,Near Kothayimukku Junction Payyanur,9725627931.0,,"12.133097,75.216176"
20550,Hotel Muthazham,Retail,Kerala,Near Malabar Soda Factory Payyanur,,,"12.103714,75.210528899722"
20551,Steak House Restaurant,Retail,Kerala,Near KSRTC Bus Stand Payyanur,,,"12.113007502032,75.217877158159"
20552,Ramans cafe,Retail,Kerala,Near Kalyan Silks Kannothumchal,,,"11.874017583333,75.388753583333"
20553,Broad Bean Hotel,Retail,Kerala, Thavakkara,,,"11.866618,75.372364"
20554,Raravies Family Restaurant,Retail,Kerala,Opposite Federal Bank Mattannur,,,"11.9309045,75.5688363"
20555,Casa Rasa Taliparamba,Retail,Kerala,Near Jfc Fruits Centre Velapuram,,,"12.0417839,75.3633682"
20556,Shareef Ka Restaurant,Retail,Kerala, Talap,,,"11.8869515,75.365251"
20557,Naaz Arabia,Retail,Kerala,,,,"11.8131247,75.5545513"
20558,The Bamboo Restaurant,Retail,Kerala,Near Bheema Jewellery Civil Station Kannur,,,"11.8748773,75.3798416"
20559,Bamboo Fresh,Retail,Kerala, Sreekandapuram,,,"12.044819,75.505768"
20560,Raandhal Restaurant,Retail,Kerala,Near AKG Hospital Talap,,,"11.883676,75.372464"
20561,Cita Pani Family Restaurant,Retail,Kerala, payyambalam,,,"11.86952,75.35942"
20562,Cafe Ghazal,Retail,Kerala,Opposite Hotel Savoy Payyambalam,,,"11.868707638889,75.3587265"
20563,P V S Tourist Home,Retail,Kerala, Kannur Ho,,,"11.8717705,75.3624817"
20564,Hotel Woodlands And Sweets,Retail,Kerala,Near Zenora Home Essentials Thodupuzha,8123862773.0,,"9.917467,76.68748"
20565,La La Land Cakeshop,Retail,Kerala,Near Private Bus Stand Thodupuzha,,,"9.8942777,76.7062921"
20566,New Hi-range Hotels,Retail,Kerala,Near Private Bus Stand Thodupuzha,7487848402.0,,"9.8940757,76.707251799722"
20567,Hotel New A-One,Retail,Kerala,Near Katappana ATM Thankamony,7947259916.0,,"9.840239,77.0358622"
20568,Chickfest Restaurants,Retail,Kerala,Near Block Panchayat Office Kattappana,8734070519.0,,"9.7610621,77.1197444"
20569,Betsy Hotel,Retail,Kerala, Peermade,,,"9.5719953,76.9946359"
20570,Edassery Farmyard Restaurant,Retail,Kerala,Chattupara Adimali,,,"10.0196731,76.9342187"
20571,Salkara Hotel,Retail,Kerala, Anachal,,,"10.0232393,77.0386762"
20572,The Fuel,Retail,Kerala, Kattappana,,,"9.7610615,77.1120912"
20573,Parakkat Spice Merchant Restaurant - Munnar,Retail,Kerala,,,,"10.0403377,77.0368399"
20574,Thekkady Food Court,Retail,Kerala, Chottupara Periyar,,,"9.6029671,77.1385805"
20575,Cafe Malabar,Retail,Kerala,Adjacent To Bharath Petroleum Pump Thodupuzha,,,"9.9005650974,76.7123559863"
20576,Jannah Bakery And Food Court,Retail,Kerala, Adimali,,,"10.0157142,76.9530669"
20577,Sree Krishna Marwadi Gujarati Restaurant,Retail,Kerala,Near Kumily Busstop Kumily,,,"9.6062055,77.1670541"
20578,Hotel Maharani,Retail,Kerala, Thodupuzha,,,"9.845564,76.960158"
20579,Lassibay,Retail,Kerala, Kattappana,,,"9.748775,77.1145311"
20580,Pappens Restaurant,Retail,Kerala, Idukki,,,"9.858544,76.962061"
20581,Cee Bee Food Palace,Retail,Kerala, Muttom Ek,,,"9.8389282,76.7457307"
20582,Taste Of Punjab By Ahc,Retail,Kerala, Pengattiri,,,"10.8503202574,76.2706951797"
20583,Nmr Biriyani House,Retail,Kerala, Sultanpet,,,"10.7711578,76.6552685"
20584,Hotel Sangamam,Retail,Kerala,Near Sanil Workshop Kalapatti,,,"10.6969854,76.5894778"
20585,Malabar Hotel Restaurant,Retail,Kerala, Alathur Palakkad,,,"10.6462267,76.544672"
20586,Hotel Malabari,Retail,Kerala,Near Mangalam Bridge Vadakkancherry Mbr,,,"10.602303499722,76.491493599722"
20587,Star Night,Retail,Kerala, Vallapuzha,,,"10.8385958,76.2499774"
20588,Top In Town Family Restaurant,Retail,Kerala,Near U Circle Vidyut Nagar Sultanpet,,,"10.7707665,76.6572949"
20589,Sandalwood Restaurant And Caterers,Retail,Kerala, Lakkidi,,,"10.7736501,76.4317234"
20590,Adhi Bhavan,Retail,Kerala,Near Lg Showroom Sultanpet,,,"10.7675377,76.6604901"
20591,Malabar Kitchen Restaurant,Retail,Kerala,Near Vellekkulam Elapulli,,,"10.7603316,76.7330204"
20592,Clock Tower Restaurant,Retail,Kerala, Karapparambu,8401686359.0,,"11.2870784,75.781336"
20593,The Light House,Retail,Kerala,Opposit Metro Hospital Thondayad Byepass,9054476709.0,,"11.245596,75.83709"
20594,White House Restaurant,Retail,Kerala,Near Odugakkad Makham Puthuppady,,,"11.4808328,75.977004"
20595,Garlic Routes,Retail,Kerala,4th Gate Y M C A Calicut Fort Gate,,,"11.243083087823,75.780627128479"
20596,Kanjipanthal,Retail,Kerala, Calicut Beach,9054355702.0,,"11.253842333333,75.77430725"
20597,Star Bakes And Restaurant,Retail,Kerala,PC Junction Mukkam Mukkam,8487862073.0,,"11.320833333333,75.995555555556"
20598,Hotel Gopika,Retail,Kerala,Near Sbk Hospital Chelavoor,8485904057.0,,"11.298155555556,75.849977777778"
20599,Grains Resturant,Retail,Kerala,Near Palora Shiva Temple Thalakolathoor,,,"11.3466155,75.7551375"
20600,Cita Pani,Retail,Kerala,Bombay Hotel Cherooty Road,,,"11.2514849,75.7732073"
20601,Cafe Pizza Corner,Retail,Kerala,Near IIMK Campus Kunnamangalam,8460551427.0,,"11.304154,75.875687"
20602,Makaw Grill Nd Galato,Retail,Kerala, VADAKARA,,,"11.596894563,75.5888852477"
20603,Todays Restaurant,Retail,Kerala, Thamarassery,,,"11.4244313,75.9383222"
20604,Nasar And Nissar Foods And Catering,Retail,Kerala,Near Moitheen Palli Palayam,9054560576.0,,"11.221717833333,75.792808527778"
20605,Hotel River View,Retail,Kerala,Near By Federal Baank Koorachundu,9054486026.0,,"11.5379535,75.8402643"
20606,A T Foods,Retail,Kerala,juinction Chelavoor,,,"11.287000472222,75.837543388889"
20607,Hotel City,Retail,Kerala,Near Bypass Junction Meenchanda,,,"11.2141941,75.8018727"
20608,Nahdi Kuzhimandhi,Retail,Kerala, Puthuppady,,,"11.4633527,75.9693337"
20609,Ullas Family Hotel,Retail,Kerala, Vellimadukunnu,,,"11.2929698,75.823995"
20610,Leaf Restaurant,Retail,Kerala,Opposite Ansari Silks Koduvalli,,,"11.3590223,75.9113786"
20611,Le ARABIA Restaurant,Retail,Kerala,Opposite Bismi Hypermarket Nadakkavu,,,"11.2734382,75.7754041"
20612,Upper Crust Bakery,Retail,Kerala, Jawaharnagar,,,"8.5228212185,76.9511654601"
