Name,Sector,City,Address,Phone,Email,Lat-Long
Cushman & Wakefield,Companies(Private),Pune,"Ganeshkhind Road Office 301/302 3rd floor,Vikram Monarch, Modibaug, Model Colony, Pune, Maharashtra 411001",020 6686 5555,,"18.5326348,73.8392909"
Bloom Combustion INDIA Pvt Ltd,Companies(Private),Pune,,,",cs@nexdigm.com,u003ecs@nexdigm.com,info.bloomchina@bloomeng.com,",
Cassiopae,Companies(Private),Pune,"4th Floor A wing, WING-B, Senapati Bapat Rd, Chattushringi, Gokhalenagar, Pune, Maharashtra 411016",020 6723 3604,"last@cassiopae.com,cassol.dr@cassiopae.com,,","18.539388,73.8263741"
Ashapura Forwarders Pvt Ltd (Ashapura),Companies(Private),Pune,"705, CTS No 337/1, Sai Samartha, Deonar Village Road, Govandi East, Mumbai 400088, MH","+91-22-42292151, +91-22-42292157",",info@ashapura.in,",
MariApps Marine Solutions,Companies(Private),Pune,"MariApps House, Plot No A2-09, SmartCity Kochi SEZ, Kakkanad, Ernakulam, Kochi 682042,KL",+97-1559607218,",harikrishnan.mundanchery@mariapps.com,careers@mariapps.com,",
Legal Responser,Companies(Private),Pune,"Gurugram, India",+91-8744908231,,
Mnny and Associates,Companies(Private),Pune,"B-606, Western Edge II, Behind Metro Mall, Near Western Express Highway, Borivali East, Mumbai 400066, MH",+91-22-49790867,",email@obhans.com,",
Soch Films,Companies(Private),Pune,,,",j.doe@sochfilms.com,n.projects@listenlights.com,projects@listenlights.com,",
GeekyWorks IT Solutions,Companies(Private),Pune,"Shrushti Elegance, 3rd Floor, Behind Salt Hotel, Balewadi Phata, Baner, Pune 411045, MH","+91-8552003232, +91-8669060963",",anant@geekyworks.com,kashish.kshirsagar@gmail.com,jane@geekyworks.com,",
Entytle,Companies(Private),Pune,"Nucleus Mall, 2nd Floor, AWFIS Space Solutions Private Limited, Opposite Commissioner Office, 1st Church Road, Pune 411045, MH",+91-6506877293,",varada.gupta@entytle.com,u003einfo@entytle.com,amay.jhaveri@entytle.com,info@entytle.com,",
Cympac Software Solutions,Companies(Private),Pune,"15, Punit Yash Arcade, 1st Floor, Near Kothrud Bus Stand, Karve Road, Kothrud, Pune 411038, MH",+91-20-66204266,",chetan.bhalerao@cympac.com,",
Mplussoft Technologies,Companies(Private),Pune,"201-202, V-9 Landmark, 2nd Floor, Vishrantwadi, Pune 411015, MH",+91-8459630022,",manohar@mplussoft.com,first@mplussoft.com,",
Cygnus Software,Companies(Private),Pune,"568/5-F, Tilakwada, Narayanpeth, Pune 411030, MH",+91-22-28570753,",santoshr@cygnussolutions.co.in,sachin@cygnus-soft.com,x3esantoshr@cygnussolutions.co.in,info@cygnus-soft.com,amit.bari@armeka.co.in,",
Netflex Software Technologies,Companies(Private),Pune,"702/1, Siddharth Tower, Behind City Pride Multiplex, Sangam Press Road, Kothrud, Pune 411038, MH",+91-20-64004595,"u003eapex_consultants123@yahoo.co.in,cs@oxymoney.com,x22SANJEEV08G@GMAIL.COM,,SANJEEV08G@GMAIL.COM,x3eSANJEEV08G@GMAIL.COM,x3ecs@oxymoney.com,apex_consultants123@yahoo.co.in,",
Axis Software,Companies(Private),Pune,"1215/2/13, K.P Kulkarni Marg, Off. Apte Road, Shivaji Nagar, Pune 411004, MH",,"csrsk786@gmail.com,,JohnS@axistech.com,x3esanjib.khemka@algonomy.com,x3ecsrsk786@gmail.com,sanjib.khemka@algonomy.com,",
Technicia,Companies(Private),Pune,"Sadguru Enclave, 1st Floor, Near Ganpati Visarjan Ghat, Vishrantwadi, Pune 411015, MH",,"hr@gsourcedata.com,,anshumantech@yahoo.in,",
Sprioc Software Technology,Companies(Private),Pune,"3, Shiv Shakti Society, Ganesh Nagar, Wadgaon Sheri, Pune 411014, MH",+91-9011665051,",ganeshyadavbackup@gmail.com,",
Magic Software Enterprises,Companies(Private),Pune,"64, Matrix IT Park, 6th Floor, A Wing, Old Mumbai Pune Highway, Sangamvadi, Pune 411005, MH",+91-20-41022022,"ashutosh_mashruwala@magicsoftware.com,,srinivas_reddy@magicsoftware.com,x3eashutosh_mashruwala@magicsoftware.com,",
Infonox Software,Companies(Private),Pune,"Muttha Towers, 3rd Floor, Don Bosco School Road, Yerwada, Pune 411006, MH",,"x3eranjan.baisak@gmail.com,,tarun@tja-ca.com,x3eshashikamal26@gmail.com,x3eabhimanyu@livehealth.in,x3esghiya@modeln.com,x22abhimanyu@livehealth.in,x22sghiya@modeln.com,",
Futops Technologies,Companies(Private),Pune,"17/18, Downtown City Vista, 8th Floor, B Wing, Fountain Road, Ashoka Nagar, Kharadi, Pune 411014, MH",+91-8956421770,",info@futopstech.com,nxxxc@futopstech.com,u003ebiz@ftilab.com,biz@ftilab.com,",
Techmingles Software Solutions,Companies(Private),Pune,"32/3-B, Near Utkarsh Society, Shelar Mala, Pune 411046, MH",+91-8446200088,"x22SANJEEV08G@GMAIL.COM,,abhimanyu@livehealth.in,SANJEEV08G@GMAIL.COM,x3eSANJEEV08G@GMAIL.COM,info@companydetails.in,x22abhimanyu@livehealth.in,poonampawar2597@gmail.com,x3eabhimanyu@livehealth.in,",
Skybiz Info Tech,Companies(Private),Pune,"B-401/1417/18, Sunita Apartment, Kasbapeth, Pune 411011, MH",,",boruleknath@gmail.com,u003eboruleknath@gmail.com,wisdommaterials2019@gmail.com,shree854827@gmail.com,",
Mindigit Technologies,Companies(Private),Pune,"Tower 3, Marisoft IT Park, 4th Floor, West Wing, Kalyani Nagar, Pune 411014, MH","+91-20-49022041,+91- 9637500287","x22SANJEEV08G@GMAIL.COM,cs@oxymoney.com,rajeshdubey@yahoo.com,sourav.daga@met-technologies.com,bhuvan@lendbox.in,x22bhuvan@lendbox.in,,info@mastersindia.co,SANJEEV08G@GMAIL.COM,x3ebhuvan@lendbox.in,x3eSANJEEV08G@GMAIL.COM,x3esourav.daga@met-technologies.com,x3ecs@oxymoney.com,u003erajeshdubey@yahoo.com,",
Bitla Software,Companies(Private),Pune,"23-A/1/426/106, Evolet Tiera, 1st Floor, Near Narpatgiri Police Chowki, Jawaharlal Nehru Road, Mangalwarpeth, Pune 411011, MH",+91-9606441128,",last@bitlasoft.com,social@bitlasoft.com,",
Sanganak Software Services,Companies(Private),Pune,"B-1, PushpNagar, New DP Road, Pune 411007, MH",,",hyddins@gmail.com,",
Tech Anusaya Software,Companies(Private),Pune,"75/9/Flat No 203, Swapnapoorti Complex, A Wing, Raikar Mala Road, Dhayari, Pune 411041, MH",+91-8421203646,",hannunet@gmail.com,iut@eth.net,",
Webosys Software,Companies(Private),Pune,"P-3/303, Pantagon Tower, Magarpatta City Road, Pune 411028, MH",+91-9822342224,"u003einfo@webosys.com,,info@webosys.com,",
LTIMindtree,Companies(Private),Pune,"Gate No 5, L & T Infotech Technology Tower, Saki Vihar Road, Powai, Mumbai 400072, MH",,",vxxxxxxxxa@ltimindtree.com,Investor@ltimindtree.com,",
YouGet Software Solutions,Companies(Private),Pune,"13/A-1, Survey No 130, Swaroop Co-operative Society, Near Mhatre Bridge, Erandawane Gaothan, Pune 411004, MH",+91-8622862275,",janedoe@youget.co.in,info@youget.co.in,",
Ranal Software Technologies,Companies(Private),Pune,"Giga Space IT Park, Internal Road, Clover Park, Viman Nagar, Pune 411014, MH",+91-20- 66034002,"x22SANJEEV08G@GMAIL.COM,,SANJEEV08G@GMAIL.COM,x3eSANJEEV08G@GMAIL.COM,ramesh.chandra@ranal.com,",
YT Softwares LLP,Companies(Private),Pune,"22-1/2-2/5, Opposite Kasegaon College Wadgaon Road, Lohegaon, Pune 411047, MH",+91-6361279579,",shwethashetty276@gmail.com,",
IOWEB3 Technologies,Companies(Private),Pune,"16-A, City Vista, 2nd Floor, Fountain Road, Ashoka Nagar, Kharadi, Pune 411014, MH",+91-8668521368,"x22SANJEEV08G@GMAIL.COM,,info@mastersindia.co,x3eSANJEEV08G@GMAIL.COM,nehag0383@gmail.com,x3etaxes@saigun.com,x3eadarsh@gyanapp.in,x3ena@cirrius.com,",
KAT Technologies,Companies(Private),Pune,"1185, Laxmi Prasad Complex, 4th Floor, Behind Maharashtra Mandal, Shedge Lane, Sadashivpeth, Pune 411030, MH",+91-9890944379,",kiran@kattechnologies.com,mca@arkscs.com,",
Atlas Engineering,Companies(Private),Pune,"885, Pada Pole,Gandhi Rod, Ahmedabad 380001,GJ",+91-9879559725,",hrd.pune@in.atlascopco.com,mail@atlasengineers.in,national9725@gmail.com,jayant1885@gmail.com,",
Bitinject Software,Companies(Private),Pune,"202, Surekha Apartment, 2nd Floor, Near Bank Of Baroda, Pune Satara Road, Swargate, Pune 411037, MH","+91-20-48611229, +91-8956696552",",hr@bitinjectsoftware.in,anilshinde0151@gmail.com,",
Wintek Infotech,Companies(Private),Pune,"G-4/5, Asha Co-operative Housing Society, Near Chinchechi Talim Chowk, White House Road, Shukrawarpeth, Pune 411002, MH","+91-6384493615, +91-9371028777","x3eramyinfotechprivatelimited@gmail.com,,ramyinfotechprivatelimited@gmail.com,x3einfo@fivesplash.in,ceo@impact-infotech.com,x22ceo@impact-infotech.com,u003evinalonline@yahoo.com,winteksalesonline@gmail.com,vinalonline@yahoo.com,info@makshiinfotech.co.in,x3eceo@impact-infotech.com,p_chhajed@yahoo.com,x22ramyinfotechprivatelimited@gmail.com,x3einfo@makshiinfotech.co.in,info@fivesplash.in,",
Softient Technologies,Companies(Private),Pune,"6 To 11/A-7, Parsvnath Prathishta, Chikhali, Pune 411019, MH",+91-9371700008,"x22SANJEEV08G@GMAIL.COM,,accounts@transtechprojects.com,vish.borade@gmail.com,SANJEEV08G@GMAIL.COM,x3eSANJEEV08G@GMAIL.COM,hr@softient.com,",
SGR Tech software,Companies(Private),Pune,"83/B-302, Sankalp Co-operative Housing Society, Sector 35, Kamothe, Navi Mumbai 410209, MH",+91-8048371993,,
Insaas Software,Companies(Private),Pune,"Q-2, State Bank Nagar Housing Society, Bibwewadi, Pune 411037, MH",,",x3eamit@usindia.com,u003esujit@interviewmocha.com,x3eabhimanyu@livehealth.in,x22abhimanyu@livehealth.in,sujit@interviewmocha.com,",
Enkrish Webtech,Companies(Private),Pune,"P-103, Kupwad MIDC, Sangli 416436, MH",+91-8329262887,",u003edeepalis.yantrik@gmail.com,lanant143@gmail.com,deepalis.yantrik@gmail.com,pxxxxxxh@enkrish.com,",
TEETECH IT Solutions,Companies(Private),Pune,"Sai Empire, Near ICICI Bank, Baner Road, Baner, Pune 411045, MH",,",ashwini.mali@kirloskar.com,",
Myindianow,Companies(Private),Pune,"61-H/Hissa No 1/2, Angadevi Laxman Mandal, Near Taru House, Gokulnagar Pathar, Vadgaon Budruk, Pune 411058, MH",+91-8069264723,,
Livoso Technologies,Companies(Private),Pune,"EON Free Zone, 2nd Floor, Cluster E, Kharadi, Pune 411014, MH",,",kalirath@kalirath.com,accounts@transtechprojects.com,",
Sungensis Software Solution,Companies(Private),Pune,"B-303, Ajinkyatara Apartments, 3rd Floor, Ganeshmala Corner, Sinhgad Road, Pune 411030, MH",+91-9834701148,"legal@pharmeasy.in,x3eramprasad@inubesolutions.com,,sungensissoftware@gmail.com,ramprasad@inubesolutions.com,x3elegal@pharmeasy.in,u003esungensissoftware@gmail.com,ersandeeptanpure@gmail.com,ap-team@compassitesinc.com,accounts@idmindia.com,x3eap-team@compassitesinc.com,x3eaccounts@idmindia.com,",
Antargyan Cloudworks,Companies(Private),Pune,"559-C/1184/56, Shreenath Plaza, Commercial Society, C Wing, FC Road, Shivajinagar, Pune 411005, MH",+91-988700756,,
NOTAN Software Solutions,Companies(Private),Pune,"Siddhi Towers, 2nd Floor, Mayfair Eleganza, Above ICICI Bank, Kondhwa Main Road, Guru Nanak Nagar, Phase II, Kondhwa, Pune 411048, MH",,",gl@nutanwarehousing.com,",
Microzen Technologies,Companies(Private),Pune,"Pimple Gurav, Pune 411061, MH",+91-7754071717,",support@addressadda.com,",
PITASYS Softwares,Companies(Private),Pune,"201, Vascon Eco Tower, Baner Pashan Link Road, Baner, Pune 411045, MH",,"dabhade@pitasys.com,,",
Tech Indiana Software Solutions,Companies(Private),Pune,"A Residency, Baner Road, Pune 411045, MH",+91-9767325428,,
Webniz Technologies LLP,Companies(Private),Pune,"1 & 2, Amolak Complex, Near Andhra Bank, Pimple Saudagar, Pune 411027, MH",+91-7769849111,",AKASH.PETHE@GMAIL.COM,",
Unitglo Solutions,Companies(Private),Pune,"133, Mayur Trade Center, Near Chinchwad Railway Station, Pimpri-Chinchwad, Pune, 411019, MH","+91-20-66350851, +91-7387511539",",info@unitglo.com,u003einfo@unitglo.com,help@unitglo.com,suraj@unitglo.com,sandeeprahane@gmail.com,unitglosolutions12@gmail.com,",
iT Amicos,Companies(Private),Pune,"145, Near Shri Ram Dairy, Vitthalrao Kangle Road, Porwal Metallica, Rastapeth, Pune 411011, MH",+91-8080075147,",sales@amicooutline.com,info@companydetails.in,",
Init Solutions,Companies(Private),Pune,"Vadgaon Sheri, Pune 411014, MH",,",info@initsolutions.in,",
DelphianLogic Technologies,Companies(Private),Pune,"201, Manikchand Galleria, Phase 1, Model Colony, Shivajinagar, Pune 411016, MH",+91-20-67251400,",cs@knavcpa.com,ACCOUNTS@DELPHIANLOGIC.COM,IN_-_cs@knavcpa.com,",
VibrantMinds Technologies,Companies(Private),Pune,"Viva Academy Building, 2nd Floor, Near St. Mary Church, Mumbai-Bengaluru Highway, Warje, Pune 411052, MH",+91-9503579517,"contact@vibrantmindstech.com,,asif@caasifshaikh.com,",
ITFMS Infotech,Companies(Private),Pune,"2, West Avenue, 6th Floor, Above Atithi Hotel, Bremen Chowk, Aundh Road, Aundh, Pune 411007, MH","+91-7888006985, +91-8237895846, +91-20-24469196","info@itfms.com,,u003einfo@itfms.com,",
Shipco IT,Companies(Private),Pune,"602 & 604, Sai Radhe Building, Behind Sheraton Hotel, Pune 411001, MH",+91-20-26058881,",cs@nexdigm.com,u003ecs@nexdigm.com,",
Analogic Power Systems,Companies(Private),Pune,"B-3, Mangalmurti Complex, 2nd Floor, Near Deepak Nitrite, Sinhgad Road, Pune 411030, MH",+91-20-24251711,",last@analogic.co.in,careers@3edge.in,campus.recruitment@accenture.com,laxmi.g@foxindia.net,freshers@infosys.com,padmco36@gmail.com,acil@analogiccontrols.com,",
SRAJ Solutions,Companies(Private),Pune,"124, Mahalaxmi Metro Square, Laxmi Road, Tambadi, Jogeshwari Lane, ABC Chowk, Pune 411002, MH",+91-8888121000,",bmk.asso@gmail.com,lokhande9325@gmail.com,x3elegal@pharmeasy.in,",
Bisil,Companies(Private),Pune,"C-102/11/34, Pune IT Park, Aundh Road, Bhau Patil Marg, Pune 411020, MH",+91-9146026032,"asamaddar@bisil.net,,idc@bisil.com,",
Softhub Technologies,Companies(Private),Pune,"101/108, Yash, Behind Mercedes-Benz, Pashan Sus Road, Off. Mumbai Pune Highway, Baner, Pune 411021, MH","+91-8551899099, +91-8698299099","info@softhubtechno.com,,",
VSH Solutions,Companies(Private),Pune,"1087, Nrusinha Sadan Apartments, 1st Floor, Pune 411030, MH",+91-20-24449944,",babajinighot@rediffmail.com,last@vshsolutions.com,hrishikesh@vshsolutions.com,info@vshsolutions.com,",
TM Networks,Companies(Private),Pune,"307, Runwal Arcade, 3rd Floor, Near Runwal Society & Warje Sports Complex, Warje, Pune 411058, MH",+91-9371775771,",info@tmnetworx.com,maheshkud@gmail.com,",
NADSOFT,Companies(Private),Pune,"173, Nalin Chambers, 2nd Floor, Dhole Patil Road, Pune 411001, MH",+91-9172632845,",info@nadsoftdev.com,",
TechInnovia Software,Companies(Private),Pune,"103, Auspicious Building, Behind Platina Society, Pune 411057, MH",+91-9168840494,"info@techinnovia.com,,",
CADEM Softwares,Companies(Private),Pune,"19/SC-1, Kohinoor Estate, Pune Mumbai Road, Wakdewadi, Pune 411003, MH","+91-20-46300036, +91-9370211312, +91-9371011312",",partyatoj@gmail.com,info.mcalaw@gmail.com,cadem@vsnl.com,",
Cupertino Software,Companies(Private),Pune,"A-101, Crystal Avenue, Parkhe Mala Road, Baner, Pune 411045, MH",,"priyanka@cupertinosoft.com,IN_-_priyanka@cupertinosoft.com,info@indx.ai,,",
Zestl Software,Companies(Private),Pune,"3, Sagar Group Of Bungalow, Fatima Nagar, Pune 411013, MH",,"u003ehardik@zestl.com,,x3eranjan.baisak@gmail.com,abhimanyu@livehealth.in,sghiya@modeln.com,hello@zestl.com,hardik@zestl.com,x22sghiya@modeln.com,x3esghiya@modeln.com,x22abhimanyu@livehealth.in,ranjan.baisak@gmail.com,sujoy@zestl.com,x3eabhimanyu@livehealth.in,",
Rexton Steel Alloys,Companies(Private),Pune,"GRD C, Shop 10 Block C, Allahrakha, Khetwad 9th, Girgain, Mumbai, India",+91-96192 91607,",sales@rextonsteel.com,",
Magitt,Companies(Private),Pune,"503, Ghanshyam Enclave, 5th Floor, New Lalji Pada Police Chowki, New Link Road, Kandivali West, Mumbai 400067, MH",+91-9819838390,,
Manglam Electricals,Companies(Private),Pune,"1826, 2, 23, New Amarnath Building Bhagirath Palace, Chandni Chowk, New Delhi 110006, DL",+91-11-23864086,"Info@mangals.com,,harshraj.sankhla@careratings.com,first@manglamelectricals.com,",
Maa Shakti Wires Pvt Ltd,Companies(Private),Pune,"134-H, Old Bagru Industrial Area, Near Bazri Mandi, Bagru, Jaipur 303007, RJ",+91-141-2864173,",dsfurnitureworks@yahoo.in,maashaktiwires@yahoo.com,",
Litura Electrical Technologies Pvt Ltd,Companies(Private),Pune,"29, 30, B, Ambika Towers, Opposite Agadi Nagar, Rajmata Jijabai Road, Pump House, Mumbai 400093, MH",+91-22-28390380,"projecthead@techpacs.com,,",
Litex Electricals Pvt Ltd,Companies(Private),Pune,"134-W, S, Midc, Bhosari, Pune 411026, MH",+91-20-66301073,"skarkarey@hotmail.com,,finance@litexelectricals.com,sales@litexelectricals.com,",
Leeds Electronic Industry Inc,Companies(Private),Pune,"55, 4th Cross, R.K Colony, Phase 2, Jp Nagar, Bangalore 560078, KA",+91-80-65790758,",sales@deepseaelectronics.com,sales@leedsind.net,",
Kudamm Corporation Pvt Ltd,Companies(Private),Pune,"25-Y, Okhla Industrial Area, Phase-2, New Delhi 110019, DL",+91-11-41011111,",contact@pratititech.com,",
Kerala State Electronics Development Corporation Ltd (KELTRON),Companies(Private),Pune,"Keltron House, Vellayamabalam, Thiruvananthapuram 695033, KL",+91-471-4094444,",cskeltron@gmail.com,iteg@keltron.org,keltron.enquiry@gmail.com,keltron@keltron.org,last@keltron.org,enquiry@gmail.com,harishkumar@renaissance-it.com,x3ekeltron@keltron.org,",
KEC International Ltd (Cable Division) (RPG),Companies(Private),Pune,"6, 463, Rpg House, Dr. Annie Besant Road, Worli, Mumbai 400025, MH",+91-22-66670385,",raoj@kecrpg.com,punecables@kecrpg.com,x3eraoj@kecrpg.com,",
Kavcon Engineers Pvt Ltd,Companies(Private),Pune,"20, Mysore Road, Bangalore 560074, KA",+91-80-28437250,",kavcon@vsnl.com,marketing@vascon.com,compliance.officer@vascon.com,kavkon@vsnl.com,",
Jaykrishna Magnetics Pvt Ltd,Companies(Private),Pune,"330-B, Oppositenew Water Tank Odhav Gidc, Ahmedabad 382415, GJ",+91-79-22870071,",jayeshvaghela02@gmail.com,jane@jkmagnetics.com,",
Intercode Solutions,Companies(Private),Pune,"112, Ravi Indl Estate, Andheri, Mumbai 400093, MH",+91-22-26873939,",mumbai@intercodesolutions.com,",
Instapower Ltd,Companies(Private),Pune,"457, Udyog Vihar, Phase-5, Gurgaon 122016, HR",+91-124-4124000,",info@instapower.com,",
Innovlite India Pvt Ltd,Companies(Private),Pune,"3, 24-A, 4, Karesandra Bsk 2 Stage, KR Road, Bangalore 560070, KA",+91-80-32920984,",ishanp@sunbrio.com,raghav@innovindia.com,",
Indo-National Ltd,Companies(Private),Pune,"77, 4, Pottipati Plaza, Nungambakkam High Road, Chennai 600034, TN",+91-44-28272711,",bxxxxxxxxxr@nippo.in,jsrinivasan@nippo.in,md@nippo.in,last@nippobatteries.com,feedback@nippobatteries.com,x3efeedback@nippobatteries.com,",
Indo Asian Electric Pvt Ltd,Companies(Private),Pune,"24-B, Phase 2, Noida 201305, UP",+91-120-3853000,",shalimarelectric@gmail.com,in-cochin-office@indoasian.com,",
Indian Seah Precision Metal Pvt Ltd,Companies(Private),Pune,"39-A, Sector-80, Phase-2, Noida 201305, UP",+91-120-4728806,",info@mastersindia.co,deepakdhingra@indiaseah.com,satishwalia@indiaseah.com,arvindchauhan@indiaseah.com,",
HVM Technologies,Companies(Private),Pune,"503-504, Sai Sannidhi Complex, Vasna, Ahmedabad 380007, GJ",+91-79-9879733932,"last@hvmtech.com,,dpaulos@hvmtech.com,sales@hvmtech.com,",
Hongfa Electroacoustic Co Ltd,Companies(Private),Pune,"100,1, Archana Mansion, 3rd Main, B.S.K 3rd Stage Hoskerehalli, Bangalore 560085, KA",+91-80-26422583,",j.doe@hongfa.com,marketing@hongfa.com,sales@hongfaamerica.com,intl@hongfa.com,",
General Power Company Pvt Ltd,Companies(Private),Pune,"406-E, 4, International Trade Towers Intercontinental Eros, Nehru Place, New Delhi 110019, DL",+91-11-41608945,",sumitjoge@sprngenergy.com,einward.ris@kfintech.com,sangolafan@gmail.com,avinashmirajkar@sprngenergy.com,pradeepta.puhan@ge.com,x3epradeepta.puhan@ge.com,ZFservices.Pune@zf.com,",
Esco Audio Visual India Pvt Ltd,Companies(Private),Pune,"509-D, 5, Crystal Plaza New Link Raod, Andheri 400053, MH",+91-22-40149676,",santosh.kala@gmail.com,",
Enpro Industrial Automation Pvt Ltd,Companies(Private),Pune,"18-F, Ambattur Industrial Estate, Chennai 600058, TN",+91-44-26244860,",projects@enproautomation.com,company.secretary@enproindia.com,chitra@enhanceandexcel.com,accounts@enproautomation.com,enpro@enproautomation.com,",
Electronics & Controls Power Systems Pvt Ltd,Companies(Private),Pune,"29-A, Peenya Industrial Area, Phase2, Bangalore 560058, KA",+91-80-28371974,,
Elcon India,Companies(Private),Pune,"1-F, 6, Okhla Industrial Area, Phase 1, New Delhi 110020, DL",+91-11-26812036,"contact@elcon.co.in,dinesh@elconpune.com,info@elconglobal.com,,",
Eakcon Systems Pvt Ltd,Companies(Private),Pune,"123, Kothavalchavadi Street, Saidapet, Chennai 600015, TN",+91-44-24716252,",admin@eakcon.com,eakcon@yahoo.co.in,",
DSA Electro Controls Pvt Ltd,Companies(Private),Pune,"20-A, Cross Road-B, Midc, Andheri 400093, MH",+91-22-09619893319,"marketing@dsaquality.com,,doe_jane@gmail.com,aarti@dsaquality.com,",
Detriv Instrumentation & Electronics Ltd,Companies(Private),Pune,"320, T.V. Industrial Estate, Dr. A Besant Road, Behind Glaxo, Worli 400030, MH",+91-22-24934125,,
Danish Pvt Ltd,Companies(Private),Pune,"679-F, 680, Sitapura Industrial Area, Jaipur 302022, RJ",+91-141-5164500,",xxxx@danish.co.in,deodharms@scandic-food.in,info@icraindia.com,doe.jane@gmail.com,danish.gufran@siemens.com,gufran@siemens.com,",
D B Electricals Pvt Ltd,Companies(Private),Pune,"3-D/6/33-A/34-A, Tuem Industrial Estate, Tuem, Pernem, Goa 403512, GA",+91-832-2201957,",precifab@gmail.com,",
Curvo Transformers Pvt Ltd,Companies(Private),Pune,"123-A, Harivarthan Street, Santhosh Nagar Kandhanchavadi, Chennai 600096, TN",+91-44-7299944485,",arkcaclient@gmail.com,",
CPL Electricals India Pvt Ltd,Companies(Private),Pune,"3, Madhuban Inddustrial Estate, Mahakali Caves Road, Mumbai 400093, MH",+91-22-66916165,",menon_rajesh@controlprint.com,sales@cploriginal.com,jdcindialtd@satyam.net.in,u003esales@cploriginal.com,",
Control Infotech Pvt Ltd,Companies(Private),Pune,"426, Peenya Industrial Area, Phase 4, Bangalore 560058, KA",+91-80-28362527,",chalapathi.j@control-infotech.com,",
Consortium of Electronic Industries of Karnataka (Click India),Companies(Private),Pune,"21, 3, Ramachandra Arcade, MSREC Road, Mathikere, Bangalore 560054, KA",+91-80-42061421,,
Comet Brass Product,Companies(Private),Pune,"Nutan Chemical Compound, Walbhat Road, Goregaon 400063, MH",+91-22-26852961,"comet@cometgland.com,,",
Classic Fibreglass Industries,Companies(Private),Pune,"898, 1, 5, Near Purohit Restaurant, G.I.D.C. Estate, Makarpura, Vadodara 390010, GJ",+91-265-9428819744,",jigarpublicity@gmail.com,birdviewofindustries@gmail.com,",
CHINO Corporation India Pvt Ltd,Companies(Private),Pune,"235-240, PAP-A, South Central Road, TTC Industrial Area, MIDC Mahape, Mumbai 400710, MH",+91-22-41293000,",jane@chino.co.jp,accounts@chinoindia.com,u003eaccounts@chinoindia.com,info@chinoindia.com,",
Chanakya Electronics,Companies(Private),Pune,"4583, 13, Jai Mata Market, Tri Nagar, New Delhi 110035, DL",+91-11-27391836,",sales@chanakyasoft.com,office@chanakyamandal.org,",
Bioline India,Companies(Private),Pune,"84, Electronic Complex, Pardeshipur, Indore 452009, MP",+91-731-4042140,",office@bioline-implants.fr,rajeev@biolineindia.com,info@biolinelab.com,",
BC Power Controls Ltd,Companies(Private),Pune,"7-A, 39, W.E.A Channa Market, Karol Bagh, New Delhi 110005, DL",+91-11-47532791,",info@bonlongroup.com,",
Asian Scales & Engineering Corporation,Companies(Private),Pune,"27, Nityadhan Mukherjee Road, Howrah, Kolkata 711101, WB",+91-33-22487342,,
Arrow Electronics India Pvt Ltd,Companies(Private),Pune,"174, Fortune Summit, HSR Layout Roopena Agrahara, Bangalore 560068, KA",+91-80-41353800,",sales.india@arrowasia.com,xxxx@arrowasia.com,jdoe@arrow.com,x3ejdoe@arrow.com,x3eSOURABH.MAHESHWARI@arrowasia.com,SOURABH.MAHESHWARI@arrowasia.com,",
APT Electronics Pvt Ltd,Companies(Private),Pune,"70, B, 35, Opposite Kirti Nagar Metro Station, Rama Road, Industrial Area, New Delhi 110015, DL",+91-11-25457577,"aaepl@sangkaj.com,,jdoe@aptindia.net,ajayjain2k@yahoo.com,sales@aptindia.net,enquiry@autolineind.com,x3eajayjain2k@yahoo.com,janedoe@gmail.com,",
Allied Electronics Corporation,Companies(Private),Pune,"12-D, 106, Vikas Centre, S.V.Road, Santa Cruz, Mumbai 400054, MH",+91-22-61953636,"alliedchn@aecconnectors.com,,x3efacebook@alliedelec.com,alliedelectricals@gmail.com,customercareallied@gmail.com,alliedpune30@gmail.com,help@alliedmarketresearch.com,facebook@alliedelec.com,",
Alfredkim Systems & Solutions Pvt Ltd,Companies(Private),Pune,"14, 3, Bolton Compound, Mathura Road, Faridabad 121003, HR",+91-129-4158603,,
Aeronics eMaROh Pvt Ltd,Companies(Private),Pune,"85-N, Industrial Suburb II Stage, Yeshwanthpur, Bangalore 560022, KA",+91-80-23379043,",renu@threesixtyenergy.in,i..m.Ilorts@iiserpune.ac,",
Advance Cable Technologies Pvt Ltd,Companies(Private),Pune,"1-G, Sunrise Serenity, M.R.Garden Gedallahalli, Aswanthnagar, Bangalore 560094, KA",+91-80-23516733,"info@glostercable.com,praveen@glostercable.com,office@advancecable.in,,",
A&D Instruments India Pvt Ltd,Companies(Private),Pune,"509, Udyog Vihar, Phase 5, Gurgaon 122016, HR",+91-124-4715555,,
Spice Islands Apparels Ltd,Companies(Private),Pune,"125/A, 210, 12th Floor, Mittal Towers, Nariman Point, Mumbai 400021, MH","+91-22-22823128, +91-22-22823432","sales@spiceislandsindia.com,,jayantac@icraindia.com,narayan@spiceislandsindia.com,SALES@SPICEISLANDSINDIA.COM,",
Solomon Industries Ltd,Companies(Private),Pune,"94/16, Mukhmail Pur Road, Jindpur, Alipur, New Delhi 110036, DL",+91-11-27203162,",john@mahindralogistics.com,solomon.john@mahindralogistics.com,",
Roopkala,Companies(Private),Pune,"89, Queens Chambers, Maharshi Karve Marg, Marine Lines, Mumbai 400020, MH",+91-22-22095511,",jainchopra.company@gmail.com,roopkalakendro@yahoo.com,jainchopra.company@yahoo.com,",
Laxmi Industries,Companies(Private),Pune,"29, Laxmi Tiles Compound, Near Umiya Chawk, AK Road, Surat 395002, GJ",+91-261-2556281,",gxxxxxxxxxxxxxxxxxxxt@gmail.com,info@laxmi.com,x3eaniket.hirpara@laxmi.com,slimahtk@gmail.com,sameerg75@gmail.com,aniket.hirpara@laxmi.com,",
Gimatex Industries Pvt Ltd,Companies(Private),Pune,"Ram Mandir Ward, Hinganaghat 442301, MH",+91-7153-244958,",cs@agindus.com,jdoe@gimatex.co.in,x3ecs@agindus.com,",
Extraweave Pvt Ltd,Companies(Private),Pune,"1/264-B, Saktheeswaram Junction, Shertallai 688524, KL","+91-478-2812528, +91-9895834618",,
Diamond Silks,Companies(Private),Pune,"E-202, LGF, Lajpat Nagar? 1, New Delhi 110024, DL","+91-11-41063399, +91-9873348428",",care@Internaciaindia.com,yashwinee@primeinsights.in,",
Bros India Group,Companies(Private),Pune,"3, Post Bag, Muhamma Post, Alappuzha, Shertallai 688525, KL","+91-478-2862344, +91-478-2862344",",info@brother.in,brosindia@brosindia.com,",
Spectrum Wood,Companies(Private),Pune,"838/6, Main Market, Anaj Mandi, Mehrauli, New Delhi 110030, DL","+91-11-26642222, +91-11-65801588","shankar.bajaj@spectraco.in,x3eshankar.bajaj@spectraco.in,,",
Sainath Packaging,Companies(Private),Pune,"95/1/1, Landage Nagar, MIDC, Bhosari, Pune 411039, MH",+91-20-64103055,"rexware.sd@gmail.com,,sainathsolar@gmail.com,sainathpackm13@gmail.com,sainath.packing@gmail.com,sainathenter@gmail.com,info@companydetails.in,",
Rawji Industrial Corporation,Companies(Private),Pune,"144, Ashok Silk Mills Compound, Sion Bandra Link Road, Mumbai 400017, MH","+91-22-24091339, +91-22-24024725",",info@rawji.com,salesfg@rawji.com,",
Quality Automations,Companies(Private),Pune,"351-352, Kempegowda Layout, Laggere, Outer Ring Road, Bengaluru 560058, KA",+91-80-28397671,"x3ehaider@seimitsu.in,,career@patilautomation.com,haider@seimitsu.in,",
Kodar Industries,Companies(Private),Pune,"53, SSI Industrial Estate, G. T Karnal Road, New Delhi 110033, DL","+91-11-27693078, +91-11-27696799","steamline@airtelbroadband.in,,styleaqua@vsnl.net,divesh@gmail.com,",
Hardwyn,Companies(Private),Pune,"B-101, Mayapuri Industrial Area, Phase 1, New Delhi 110064, DL",+91-9212373715,",support@5paisa.com,jane.d@hardwyn.com,",
EURO Decor Pvt Ltd,Companies(Private),Pune,"101/102, Shreya House, 1st Floor, Opposite Guru Nanak Petrol Pump, Periera Hill Road, Andheri East, Mumbai 400099, MH",+91-22-71605000,",avlindia.mkt.info@avl.com,info@eurodecor.in,rbisht@selec.com,accounts@eurodecor.co.in,",
Damro Furniture Pvt Ltd,Companies(Private),Pune,"691, 4th Floor, 21st Main, 100 Feet Ring Road, J P Nagar, 2nd Phase, Bangalore 560078, KA",+91-80-26580125,",cs@nexdigm.com,support@thekidslocal.com,",
Chrishall Agency,Companies(Private),Pune,"Maruti Kunj, Near KIIT College, Bhondsi Village, Sohna Road, Gurgaon 122001, HR","+91-124-4238565, +91-9911756551",,
Adithya Agencies,Companies(Private),Pune,"398, Anna Salai, Nandanam, Chennai 600035, TN","+91-44-24330770, +91-44-24330880",",archana@adityapackaging.com,aepl@vsnl.net,planning@adityapackaging.com,office@iuthakurcs.com,sales@amitenterprises.com,amitkchoudhary7@gmail.com,x3esales@amitenterprises.com,rvsgroup01@gmail.com,",
Sravanthi Infratech Pvt Ltd,Companies(Private),Pune,"136, Basement, Rider House, Sector 44, Gurgaon 122002, HR",+91-124-4787000,",info@sravanthigroup.com,",
Shakti Sustainable Energy Foundation,Companies(Private),Pune,"104-B, 2, 4, Capital Court, Munirka, Phase 3, New Delhi 110067, DL",+91-11-47474000,"koyel@shaktifoundation.in,,shaktiiprabha@gmail.com,vatsala@shaktifoundation.in,",
SAVVAK Systems Pvt Ltd,Companies(Private),Pune,"81-C,? HSIDC Industrial Estate, Sector 31, Faridabad 121003, HR",+91-129-4042382,",account@savvak.in,",
Prolite Engineers Pvt Ltd,Companies(Private),Pune,"41-A, B, Sipcot Industrial Growth Centre, Oragadam Sriperumbudhur, Kancheepuram, Chennai 603109, TN",+91-44-71018134,",sales@proilte.in,gk@capeindia.net,powerhighengineers@gmail.com,x3epowerhighengineers@gmail.com,jaidev.sanda@prolite.in,sales@prolite.in,jocelyn.vigreux@tomtom.com,x3ejaidev.sanda@prolite.in,proliteepl@gmail.com,",
Panama Wind Energy Pvt Ltd,Companies(Private),Pune,"204, 206, 1, Lunkad Towers, Viman Nagar, Pune 411014, MH",+91-20-67287420,",shivakumar@icraindia.com,cm.sabarinath@vertivco.com,x3ecm.sabarinath@vertivco.com,u003ecs@panamarenewable.com,nvitekar@panamawind.co.in,cs@panamarenewable.com,",
MG Rama Energy Pvt Ltd,Companies(Private),Pune,"204, Ajanta Complex, Opposite Bombay Hotel Gondal Road, Rajkot 360001, GJ",+91-281-2467675,",mgramaenergy@gmail.com,praveen@konzentenergy.com,ceo@kores-foundry.com,",
Kirti Solar Ltd,Companies(Private),Pune,"56-D, 2, Mirza Galib Street, Kolkata 700016, WB",+91-33-40646077,",bhoo.thirumalai@aspirationenergy.com,general@keerthiindustries.com,kilinvestorservices@gmail.com,dparanjape@gmail.com,",
KCP Solar Industry,Companies(Private),Pune,"5, 228-A, Aurumugapilla Garden Annadanapatti, Salem 636002, TN",+91-427-2272359,"resmisolar@gmail.com,tc@kcpsolar.com,sooryaolisolar@gmail.com,,",
Global Energy Pvt Ltd,Companies(Private),Pune,"6, Le Meridien Commercial Tower, Raisina Road, New Delhi 110001, DL",+91-11-43734444,",doe.j@globalenergy.co.in,Email-id-tushara.nair@in.bosch.co,amit.kumar_4@signify.com,amolshirkepatil@gmail.com,id-tushara.nair@in.bosch.co,",
Entegra Ltd,Companies(Private),Pune,"4, Harchandrai House, Marine Lines, Maharshi Karve Road, Mumbai 400002, MH",+91-22-66044242,",wak@mwcorp.co.in,",
Enerzea Power Solution Pvt Ltd,Companies(Private),Pune,"1304, 2, 3, Near Chikka Bommasandra Cross, Yelahanka New Town, Bangalore 560065, KA",+91-80-28562066,"anu@enerzea.com,,prem@enerzea.com,",
Cybermotion Technologies Pvt Ltd,Companies(Private),Pune,"10-B, APIIC Type-1, Prasanthi Nagar, Industrial Estate, Kukatpally, Hyderabad 500072, TS",+91-40-23721212,",first@cybermotionind.com,anand@cybermotionind.com,",
Curvo Transformers Pvt Ltd,Companies(Private),Pune,"123-A, Harivarthan Street, Santhosh Nagar, Kandhanchavadi, Chennai 600096, TN",+91-44-7299944485,",arkcaclient@gmail.com,",
Consul Neowatt Power Solutions Pvt Ltd,Companies(Private),Pune,"119, 120, 120-A, Electrical And Electronics Industrial Estate, Perungudi, Chennai 600096, TN",+91-44-40004200,,
Clique Solar Pvt Ltd,Companies(Private),Pune,"601-A, Opposite Kalyan Jewellers, Lancelot CHS, S.V.Road, Borivli, Mumbai 400092, MH",+91-22-28609011,",sales@cliquesolar.com,email@jjjoffice.com,info@cliquesolar.com,",
BGR Energy Systems Ltd,Companies(Private),Pune,"443, Anna Salai Teynampet, Chennai 600018, TN",+91-44-24301000,",jayantac@icraindia.com,afc@bgrenergy.com,last@bgrenergy.com,bgrb@bgrenergy.com,",
Ambison Industries,Companies(Private),Pune,"4, 2, Techno Estate, C.T.M. Highway Road, Amraiwadi, Ahmedabad 380026, GJ",+91-79-9825010369,",dinesh@sksm.co.in,info@aurionpro.com,",
Airport Global Technical Solutions Pvt Ltd,Companies(Private),Pune,"202, 2, 172, Raahat Plaza, Arcot Road, Vadapalani, Chennai 600026, TN",+91-44-43069941,",airport.agts@gmail.com,agts@gmail.com,admin@haroldindustries.com,",
Aerotech Energy Pvt Ltd,Companies(Private),Pune,"10, Laxmi Industrial Estate, Dahisar Check Naka, Mira Road, Thane, Mumbai 401104, MH",+91-22-28962344,",sales@aeroteche.com,aerotechg@gmail.com,info@aeroteche.com,ceo@aeroteche.com,",
Advance Metering Technology Ltd,Companies(Private),Pune,"189-B, Gautam Budh Nagar, Phase 2, Noida 201305, UP",+91-120-3011300,"x3ecorporate@pkrgroup.in,corporate@pkrgroup.in,last@pkrgroup.in,,",
Ananta Accessories,Companies(Private),Pune,"127, Udyog Vihar, Phase lV, Gurgaon 122016, HR","+91-124-4108890, +91-124-4017021",",ulhas@aurocontrols.com,",
Zytex India Pvt Ltd,Companies(Private),Pune,"Polaris, 6th Floor, Behind Sangeet Plaza, Off Marol Maroshi Road, Marol, Andheri East, Mumbai 400059, MH",,",veeral.parekh@zytex.com,biolinx@gmail.com,x3eveeral.parekh@zytex.com,chirag@zytex.com,",
Vysali Pharmaceuticals Ltd,Companies(Private),Pune,"9/639, Edathala, Kochi 683561, KL",,",vysalipharma80@gmail.com,n@md3.vsnl.net,",
Themis Medicare Ltd,Companies(Private),Pune,"11/12, Udyog Nagar, S V Road, Goregaon West, Mumbai 400014, MH",,",info@themismedicare.com,Themis@themismedicare.com,x22themis@themismedicare.com,last@themismedicare.com,themis@themismedicare.com,x3ethemis@themismedicare.com,",
Solace Biotech Ltd,Companies(Private),Pune,"80, 1st Floor, HSIDC, Industrial Estate, Ambala 133001, HR",,",admin@solacebiotech.co.in,doe.j@solacebiotech.in,x3eca_manojjain@yahoo.co.in,ca_manojjain@yahoo.co.in,",
Sharon Bio Medicine Ltd,Companies(Private),Pune,"C-312, BSEL Tech Park, Sector 30-A, Vashi, Navi Mumbai 400703, MH",,",Investor_complaints@sharonbio.com,x3efinance@sharonbio.com,finance@sharonbio.com,",
SGPharma Pvt Ltd,Companies(Private),Pune,"542, 3/10, Bhuta Niwas, Dr. Ambedkar Road, Matunga East, Mumbai 400019, MH",,",x3elist.india@list-group.com,info@sgpharma.com,atul.jewalikar@nouryon.com,bhagat@sgpharma.com,ashish.kambli@careratings.com,md@vancehealth.in,list.india@list-group.com,x3einfo@sgpharma.com,",
Rajasthan Antibiotics Ltd,Companies(Private),Pune,"M-134, 2nd Floor, Opposite Super Bazar, Connaught Place, New Delhi 110001, DL",,",x3esecretarial99@gmail.com,secretarial99@gmail.com,info@jaipuragencies.com,rxx@rallife.com,sxx@rallife.com,",
R K Laboratories Pvt Ltd,Companies(Private),Pune,"218, Sector 9-C, Chandigarh 160022, CH",,",x3egovindlab@gmail.com,govindlab@gmail.com,formulation@msnlabs.com,vickyvishal@rediffmail.com,",
Pharmaids Pharmaceuticals Ltd,Companies(Private),Pune,"4-4-211/212/3, 1st Floor, Sultan Bazar, Inder Bagh, Hyderabad 500095, TS",,",compliance@pharmaids.com,pharmaids125@gmail.com,mini@pharmaids.com,investor.relations@vccipl.com,",
Mapra Laboratories Pvt Ltd,Companies(Private),Pune,"231, Adhyaru Industrial Estate, Sun Mill Compound, Lower Parel, Mumbai 400013, MH",,"info@mapra.com,madhu@mapra.com,,jane@mapra.com,x3einfo@mapra.com,u003einfo@mapra.com,",
Leo Formulations Pvt Ltd,Companies(Private),Pune,"604, Sears Tower, 6th Floor, Off C G Road, Gulbai Tekra, Ambawadi, Ahmedabad 380006, GJ",,",adamasleogroup@gmail.com,leoformulations@gmail.com,u003eleoformulations@gmail.com,",
Infinium Pharmachem Pvt Ltd,Companies(Private),Pune,"Suite 205, Sigma Prime, 2nd Floor, Near Sardar Patel Statue, V U Nagar, GIDC Road, Vallabh, Anand 388121, GJ",,",cs@sapharmachem.com,x3eexport@infiniumpharmachem.com,export@infiniumpharmachem.com,x3ecs@sapharmachem.com,",
Gland Pharma Ltd,Companies(Private),Pune,"6-3-865/1/2, 201, Green Land Apartment, Ameerpet, Hyderabad 500016, TS",,",x3einvestors@glandpharma.com,investors@glandpharma.com,devang.mehta@linkintime.co.in,rnt.helpdesk@linkintime.co.in,smcpharma@gmail.com,",
Emerald Alchymicus Pvt Ltd,Companies(Private),Pune,"705, The Corporate Centre, Nirmal Lifestyle, LBS Marg, Mulund West, Mumbai 400080, MH",,",pnachane@emeraldalchy.com,jayantac@icraindia.com,sales@emeraldalchy.com,",
Elation Pharma,Companies(Private),Pune,"Near Sherpur Byepass, Kaliash Nagar, Ludhiana 141010, PB",,",info@eisenpharma.com,hr@eisenpharma.com,info@bataviapharma.com,",
Dr. Goyal Medical Pvt Ltd,Companies(Private),Pune,"206, Signature 1, S G Highway, Ahmedabad 380051, GJ",,",goyalmedical@gmail.com,export@goyalmedical.com,",
Bipha Drug Laboratories,Companies(Private),Pune,"13/804-D, Pallipurathukavu Junction, Kottayam 686039, KL",,",info@bipha.com,enquiry@bipha.com,online@bipha.com,",
Ayurvet Ltd,Companies(Private),Pune,"H-3, K M Trade Tower, 1st Floor, Sector 14, Kaushambi, Ghaziabad 201010, UP",,",x3eshilpi.ojha@ayurvet.com,shilpi.ojha@ayurvet.com,info@ayurvet.com,A.Saha@birlacorp.com,aviral.mathur@mytrah.com,",
Ayurveda Rasayani,Companies(Private),Pune,"B-1, Amruthkumbh, Laxmipark Society, Opposite Sargam Hotel, Navipeth, Pune 411030, MH",,",sales@ayurvedrasayani.com,",
Ajanta Pharma Ltd,Companies(Private),Pune,"98, Ajanta House, Charkop, Kandivali West, Mumbai 400067, MH",,",x3egaurang.shah@ajantapharma.com,gaurang.shah@ajantapharma.com,investorgrievance@ajantapharma.com,axxxxn@ajantapharma.com,",
VST Industries Ltd,Companies(Private),Pune,"1-7-1063/1065, Azamabad, Hyderabad 500020, TS",+91-40-27610460,",investors@vstind.com,Corporate@vstind.com,x3einvestors@vstind.com,",
VET Helpline India Pvt Ltd,Companies(Private),Pune,"31/32, Chandmari Milanpur, Guwahati 781021, AS",+91-9435558835,,
Valbe Foods India Pvt Ltd,Companies(Private),Pune,"64B, 1st Floor, PL Arcade, Krishnapuri Colony, West Marredpally, Secunderabad 500026, TS",+91-40-40266650,",valbefoods@yahoo.in,cs@vintagecoffee.in,info@valbefoods.in,inoxpa.in@inoxpa.com,accounts@valbefoods.in,",
VaishVik Foods Pvt Ltd,Companies(Private),Pune,"166, Pune Sinhgad Road, Nanded Phata, Pune 411001, MH","+91-20-24391881, +91-20-24392372",",secretarial@himeshfoods.com,x3eviren@deepkiran.co.in,x3esecretarial@himeshfoods.com,vidula@eatwell.co.in,vidula@svispm.com,u003evidula@eatwell.co.in,viren@deepkiran.co.in,jane@eatwell.co.in,",
Uttarakhand Seeds And Tarai Development Corporation Ltd,Companies(Private),Pune,"Haldi, Udham Singh Nagar 263146, UK","+91-5944-230222, +91-5944-230225",,
Thamanian Agro Foods,Companies(Private),Pune,"7-8-9, Mithravayal Road, Sakkottai, Karaikudy 620108, TN",+91-4565-282215,",paragsugar@gmail.com,info@modernagrofoods.com,SHABARI_01@HOTMAIL.COM,x3ealimento36@gmail.com,x3ecompliance@aovgroup.in,",
Tasty Dairy Specialities Ltd,Companies(Private),Pune,"D-3, UPSIDC Industrial Area. Jainpur Kanpur Dehat, Kanpur 209311, UP","+91-512-7107777, +91-512-2551643",",info@tastydairy.com,Info@tastydairy.com,cs@tastydairy.com,",
Synergy Agro-Tech Pvt Ltd,Companies(Private),Pune,"A-305 To 308, Shapath Hexa, Near Gujarat High Court, Sola, S.G. Highway, Ahmedabad 380060, GJ","+91-79-40052900, +91-8980009691",",mcciaweb@gmail.com,harshal@synergyagrotech.com,gauri.belgi@freedom.in,nsynergyagrotech@hotmail.com,",
Sams Fruit Products Pvt Ltd,Companies(Private),Pune,"3B, Mapkhan Compound, Mapkhan Nagar, Marol, Andheri East, Mumbai 400059, MH","+91-22-29251213, +91-22-29251217",",sams35@hotmail.com,info@samssauces.com,",
Sahuwala Flour Mills (Sahuwala),Companies(Private),Pune,"173-B, Sivasakthi Colony, Ganapathy, Coimbatore 641006, TN",+91-422-2532225,,
S. S. Milling And Engineering Co.,Companies(Private),Pune,"C-173, Sector 63, Noida 201301, UP",+91-120-4324837,"dhruv@khandelwalmilling.com,info@khandelwalmilling.com,sales@ssengineers.com,,",
RNK Agro & Chemicals Ltd,Companies(Private),Pune,"5-9-191, 1st Floor, Brindavan Commercial Complex, Chirag Ali Lane, Abids, Hyderabad 500001, TS","+91-40-66630651, +91-40-66630650",,
Rising Sun Aromas & Spiritual Pvt Ltd,Companies(Private),Pune,"C-109, Sector 63, Noida 201301, UP","+91-120-4324589, +91-9899289000",,
Revakripa Sugars Pvt Ltd,Companies(Private),Pune,"Paudi Phatak, Shahpura, Bhitouni, Jabalpur 483119, MP","+91-761-230222, +91-761-230233",",revakripasugarmill.po@gmail.com,revakripasugarmill@gmail.com,",
Radha Exim Pvt Ltd,Companies(Private),Pune,"455, Radha Kunj, P. K. Guha Road, Airport, Gate No 1, Kolkata 700028, WB",+91-33-25116656,"mbworldexim@gmail.com,,x22mbworldexim@gmail.com,x3enspradhan2003@yahoo.com,newera.mohan@gmail.com,sanjum@mahimaexim.com,x3ekanwal@banox.in,kanwal@banox.in,nspradhan2003@yahoo.com,x3esanjum@mahimaexim.com,x3embworldexim@gmail.com,",
Qais Enterprises,Companies(Private),Pune,"Godown No 26, Aboobakar Furniturewala Chawl, Chamda Bazaar, Mumbai 400017, MH","+91-22-24074786, +91-9323878666",",qaqufoodsind@gmail.com,pvsons@gmail.com,",
Prime Hortiagro Projects Ltd,Companies(Private),Pune,"32A, Tribhuvan Complex, Friends Colony West, Mathura Road, New Delhi 110065, DL",+91-11-26916226,",itv_sharma@sify.com,info@primehorti.in,",
Prem Sagar Dosa Plaza Pvt Ltd,Companies(Private),Pune,"Plot No 41/4, Doctor's Plaza, Beside Hope & Care Center, Sector 30A, Vashi, Navi Mumbai 400703, MH",+91-22-27830707,"Franchise@dosaplaza.com,,info@dosaplaza.com,dhrumil.cs@gmail.com,Vaishali.paradkar@ucb.com,u003eteam@dmshah.in,team@dmshah.in,x3eVaishali.paradkar@ucb.com,",
Prano Flax India Pvt Ltd,Companies(Private),Pune,"D-93-A, 2nd Floor, Acharya Kriplani Marg, Jaipur 302004, RJ","+91-141-3239421, +91-141-4025628","flaxindia@gmail.com,,atulgautam@onecert.net,",
Pou Chong Brothers Pvt Ltd,Companies(Private),Pune,"11, Lu Shun Sarani, 2 Peter Lane, Near Tiretti Bazar Telephone Exchange, Kolkata 700073, WB",+91-33-22370870,",pouchongbrothers@gmail.com,pouchongfood@gmail.com,deepakgupta@billionbrothers.co.in,BESTCONSULTANTS@REDIFFMAIL.COM,",
Poonawalla Stud Farms,Companies(Private),Pune,"212/2, Off Soli Poonawalla Road, Gadital, Hadapsar, Pune 411028, MH","+91-20-26993900, +91-20-26602248",",pesa.private@gmail.com,u003esecretarial@poonawallagroup.com,secretarial@poonawallagroup.com,psf@poonawallagroup.com,",
Polyform Industries,Companies(Private),Pune,"D-80/A, M. I. D. C, Wai 412803, MH",+91-9049577706,",Imports@Manjushreeindia.Com,",
PL Agro Technologies Ltd,Companies(Private),Pune,"5/3, Wheat Croft Road, Nungambakkam, Chennai 600034, TN",+91-44-28272063,"admin@vaidikagroup.com,asha@plagro.in,vupl.pune@gmail.com,,",
PHI Seeds Ltd (Dupont),Companies(Private),Pune,"6-3-1099/1100, 3rd Floor, Babukhan Millenium Centre, Raj Bhavan Road, Somajiguda, Hyderabad 500082, TS",+91-40-30434400,,
Param Dairy Ltd,Companies(Private),Pune,"11/5B, Param Tower, Pussa Road, New Delhi 110005, DL","+91-11-25820074, +91-11-25820071",",param@paramdairy.com,",
Parakh Agro Industries Ltd,Companies(Private),Pune,"Parakh House, 01 Boat Club Road, Pune 411001, MH",+91-20-66296100,",shivakumar@icraindia.com,cs@parakhagro.com,last@parakhagro.com,CS@PARAKHAGRO.COM,",
Orange Sorting Machines India Pvt Ltd,Companies(Private),Pune,"SF No 90/3, Adavan Industrial Area, Chinnavedampatt Athipalayam Road, Coimbatore 641049, TN",+91-422-4528888,,
Nimbus Foods Industries Ltd,Companies(Private),Pune,"Plot No B-13/14, Phase 2, Naroda, G. I. D. C Industrial Area, Ahmedabad 382330, GJ","+91-79-22813445, +91-79-22813446",",nimbus_foods@yahoo.co.in,nimbusfoods@gmail.com,info@nimbusfoods.in,x3eaccounts.mgr@memoms.co.in,",
Navneet Impex,Companies(Private),Pune,"411-A, City Centre, 570, M. G Road, Indore 452001, MP","+91-731-2434311, +91-731-4084311",",rakesh.shejwal@aartigroup.cominfo,chetankoli000007@gmail.com,",
National Seafood Corporation,Companies(Private),Pune,"Godown No 9, Scheme No 57, Suleman Compound, Sewri Cross Road, Sewri West, Mumbai 400015, MH",+91-22-24184014,",praveshseafood@gmail.com,juned.bhawra@nationalseafood.in,adregn@mpeda.gov.in,info@nationalseafood.in,",
Mira Sea Foods,Companies(Private),Pune,"Plot No 1008, G. I. D. C Estate, Somnath Road, Veraval 362269, GJ",+91-9824222045,",cs@nekkantiseafoods.com,everestseafoodsexports@gmail.com,companysecretarial@zensar.com,x22cs@nekkantiseafoods.com,x3ecs@nekkantiseafoods.com,",
Manjilas Group of Companies,Companies(Private),Pune,"TC-16-1382, Sasthri Road, Nellikkunnu, Thrissur 680001, KL","+91-487-2428125, +91-487-2425160",",customercare@manjilas.com,corporate@manjilas.com,x3ecorporate@manjilas.com,",
Mahakali Foods Pvt Ltd,Companies(Private),Pune,"48, Bengali Colony, Kanadia Road, Indore 452016, MP","+91-731-2591801, +91-731-2591486",",x3eaccts@vkmfoods.com,x3eviren@deepkiran.co.in,info@mahakalifoods.com,suhasini@yogabars.in,manoj.devadhe25@gmail.com,x3esuhasini@yogabars.in,viren@deepkiran.co.in,soumen.das@careratings.com,accts@vkmfoods.com,",
Luxmi Group of Companies,Companies(Private),Pune,"17, R.N. Mukherjee Road, Kishore Bhavan, Kolkata 700001, WB","+91-33-22489091, +91-33-22484437",",x3eabafna@luxmigroup.in,shivakumar@icraindia.com,info@luxmigroup.in,abafna@luxmigroup.in,laxminarayanind@gmail.com,",
Longulf Trading India Pvt Ltd,Companies(Private),Pune,"Times Square, A Wing, 5th Floor, Unit No 1-B, Marol, Andheri Kurla Road, Andheri East, Mumbai 400059, MH",+91-22-67600900,",jane@longulfindia.com,parimit@jetsynthesys.com,farooq@longulfindia.com,",
KV Marine Exports,Companies(Private),Pune,"61, Venkatesa Street, Chintaripet, Chennai 600002, TN",+91-44-28452246,",x3ekvmarine@hotmail.com,viileamarine@gmail.com,kvmarine@hotmail.com,razban.seafood@gmail.com,",
Koeleman India Pvt Ltd,Companies(Private),Pune,"376, 6th Cross, 8th Main, ST Bed Layout, 4th Block, Koramangala, Bangalore 560034, KA","+91-80-25522010, +91-80-25522012",",koeleman@bgl.vsnl.net.in,koeleman@koelemanindia.net,",
King Fish Products Pvt Ltd,Companies(Private),Pune,"A-22, Kamla Nagar, New Delhi 110007, DL",+91-11-40000400,",mail@kingfishgroup.com,anshul_1984@yahoo.com,",
KGN Enterprises Ltd,Companies(Private),Pune,"23, Vaswani Mansion, 4th Floor, Opposite K. C. College, Dinshaw Vaccha Road, Churchagte, Mumbai 400020, MH",+91-22-66541101,",agroinfomart@gmail.com,INFO@KGNENTERPRISES.COM,info@kgnenterprises.com,x3eINFO@KGNENTERPRISES.COM,",
Kay Kay Exports,Companies(Private),Pune,"39/116, Mullassery Canal Road, Allepy, Ernakulam 682011, KL",+91-484-4082777,"SHEETAL.TANDON@PROEXFASHION.CO.IN,,",
Kamlesh Overseas Pvt Ltd,Companies(Private),Pune,"57/305, Manjusha, Nehru Place, New Delhi 110019, DL",+91-11-26233058,"info@motigarden.com,,accounts@pkoverseas.com,x3eaccounts@pkoverseas.com,",
Kaapi Machines India Pvt Ltd,Companies(Private),Pune,"3320, 7th Cross, 12th A Main, HAL 2nd Stage, Near ESI Hospital Indiranagar, Bangalore 560008, KA",+91-80-41724151,",kaapi.machines2006@gmail.com,machines2006@gmail.com,support@kaapimachines.com,",
John Distilleries Pvt Ltd,Companies(Private),Pune,"110, Pantharapalya, Mysore Road, Bangalore 560039, KA",+91-33-33723000,",jane@jdl.in,manish.kumar@careratings.com,x3ecompanysecretary@jdl.in,companysecretary@jdl.in,",
John Deere Equipment Pvt Ltd,Companies(Private),Pune,"John Deere Technology Center, Cybercity, Magarpatta City, Hadapsar, Pune 411028, MH",+91-20-66425000,",x3eJainAjit@JohnDeere.com,MehtaDhanesh@JohnDeere.com,MehtaDhanesh@johndeere.com,JainAjit@JohnDeere.com,WakankarGautamV@johndeere.com,",
Jai Bharat Rice Mills,Companies(Private),Pune,"Lalyani Road, Taraori, Karnal, Nilokheri 132001, HR",+91-9215542431,",swati.agrawal@careratings.com,pradeep.kumar@careratings.com,",
Intron Life Sciences,Companies(Private),Pune,"302 & 303, Classic Court Apartment, Erramanzil, Taj Deccan Road, Hyderabad 500082, TS",+91-40-32999059,",info.vietnam@intronlifesciences.com,info@intronlifesciences.com,info@mastersindia.co,",
Hari Darshan Sevashram Pvt Ltd,Companies(Private),Pune,"519, Industrial Estate, Patpargunj, New Delhi 110092, DL","+91-11-22151999, +91-11-22152999",",info@haridarshan.com,accounts1@haridarshan.com,",
Griffith Laboratories Pvt Ltd,Companies(Private),Pune,"Griffith House, Site 3 & 4, KHB Colony, Yelahanka, Bangalore 560064, KA",+91-80-49414300,"ntlpatna@yahoo.co.in,,vstestlabs@gmail.com,admin1@worldspicecongress.com,jdoe@griffithfoods.com,x3ejdoe@griffithfoods.com,compliance@griffithfoods.com,GLUSCustomerService@griffithfoods.com,","18.5243307,73.5332878"
Gitwako Farms India Pvt Ltd,Companies(Private),Pune,"42, Birbal Road, Jangpura Extension, New Delhi 110014, DL",+91-11-24316207,",gitwako@gmail.com,info@thegoodnessgrocery.com,","27.8190844,76.9528265"
Gill Agricultural Implements Pvt Ltd,Companies(Private),Pune,"G.T. Road, Danewala, Malout 152107, PB","+91-1637-263352, +91-1637263353",",amitgoyal2512@gmail.com,cakuljitsingh@yahoo.com,u003ecakuljitsingh@yahoo.com,gilgalinst@vsnl.net,mail@kamcoindia.com,","30.1689586,74.5050372"
Gate Foods Pvt Ltd,Companies(Private),Pune,"Plot No 2D/23, D/34, Hind Co-Operative Housing Society, Sion, Mumbai 400022, MH",+91-22-24011143,",gateserve@gmail.com,pbthube@mmm.com,rohan@orbitstar.com,","18.4830199,73.8621288"
G Das & Company Pvt Ltd,Companies(Private),Pune,"37, Old No 110, 6th Floor, Chateu 'D' AMPA Building, Nelson Manickam Road, Aminjikarai, Chennai 600029, TN",+91-44-49348888,,"18.5037909,73.8419983"
Fishfa World Trade Ltd,Companies(Private),Pune,"Plot No 1359/1360, Lodhika GIDC, Kotdasangani 360021, GJ",+91-2827-287564,",shridhar@aamselimpex.com,","18.5528048,73.9385391"
FineWinesnMore India Pvt Ltd,Companies(Private),Pune,"21-LM, Laxmi Industrial Estate, Off New Link Road, Andheri West, Mumbai 400053, MH","+91-22-40330000, +91-22-42686666","gaurav@fengyuangroup.in,contact@algorhythmtech.com,x3einfo.in@transsion.com,,x3eprasad@fengyuangroup.in,x3egururaj.kashi@givaudan.com,soza@finewinesnmore.com,x3egaurav@fengyuangroup.in,x3eshyam.mahadik@omya.com,prasad@fengyuangroup.in,info.in@transsion.com,shyam.mahadik@omya.com,gururaj.kashi@givaudan.com,","18.5243307,73.5332878"
Esmario Export Enterprises Pvt Ltd,Companies(Private),Pune,"F-1, 3rd Floor, Surya Towers, S. P. Road, Secunderabad 500003, TS",+91-40-44450000,",Contact@esmario.com,u003econtact@esmario.com,contact@esmario.com,","19.0634494,72.8512467"
DSM Nutritional Products India Pvt Ltd,Companies(Private),Pune,"401, 4th Floor, Windsor House, CST Road, Kalina, Santacruz East, Mumbai 400098, MH","+91-22-40349100, +91-22-40349101","rupali.jadhav@dsm.com,,hema.rani@dsm.com,Hema.Rani@dsm.com,x3eSabiha.Niyazi@dsm.com,info@LawyerServices.in,Sabiha.Niyazi@dsm.com,","20.4552986,70.7031204"
Desai Fruits and Vegetables,Companies(Private),Pune,"Plot No 49, Amadpore, National Highway 8, Navsari 396445, GJ",+91-9824121574,",x3elegal@innoterra.com,legal@innoterra.com,last@desaifv.com,sundeep.priyadarshi@desaifv.com,pxxxxxxp@desaifruits.com,","18.4757774,73.5813287"
Delhi Milk Scheme,Companies(Private),Pune,"Patel Nagar West, New Delhi 110008, DL","+91-11-25872455, +91-11- 25872466",",lk-cdl@nic.in,jane.doe@dms.nic.in,Email-lk-cdl@nic.in,bhushan.gyan@gov.in,","18.4760447,73.8286054"
Daksh Foods Pvt Ltd,Companies(Private),Pune,"B-32, Marketing yard, Chitra, Bhavnagar 364004, GJ",+91-278-2445178,",info@dakshfoods.com,dakshfoods@gmail.com,rohan@orbitstar.com,","18.4913934,73.807978"
Choudhery Cheese Bazar Pvt Ltd,Companies(Private),Pune,"E-38, Site?B, Surajpur Industrial Area, Greater Noida 201308, UP","+91-120-2561011, +91-120-2561111",",u003echoudherycheesebazar@yahoo.co.in,choudherycheesebazar@yahoo.co.in,","28.453203,77.51868"
Chitale Group (Chitale),Companies(Private),Pune,"Bhilwadi Station, Palus, Sangli 416303, MH",+91-2346-233112,",info@chitaledairy.com,shoponline@chitalebandhu.in,last@chitalegroup.com,x3eshoponline@chitalebandhu.in,","18.4760447,73.8286054"
Calibre Chemicals Pvt Ltd,Companies(Private),Pune,"703, Dalamal House, 206, Nariman Point, Mumbai 400021, MH",+91-22-22823148,",doe-jane@calibrechem.com,calsales@calibrechem.com,jnch-dmc@gov.in,mail@calibrechem.com,last@calibrechem.com,akapoor@rishiroop.com,","19.0098718,72.8262932"
BOS Natural Flavors Pvt Ltd,Companies(Private),Pune,"Asian House, P. P Road, Pathipalam Allapra, Kochi 683553, KL",+91-9249444474,",hrd@bosnatural.com,info@bosnatural.com,","10.1072372,76.4656421"
Bishan Saroop Ram Kishan Agro Pvt Ltd,Companies(Private),Pune,"5584, 1st Floor, Naya Bazar, New Delhi 110006, DL","+91-11-23951011, +91-11-23947448",",u003ejoshi280@gmail.com,joshi280@gmail.com,","18.464807,73.8240212"
Bioseed Research India Pvt Ltd,Companies(Private),Pune,"Plot No 234, B Block, Phase II, Kavuri Hills, Hyderabad 500033, TS",+91-40-67066666,",blsachdeva@dscl.com,bioseedindia@shrirambioseed.com,roopesh.sharma@syngenta.com,","18.5109537,73.8092319"
Ajinomoto India Pvt Ltd,Companies(Private),Pune,"Plot No 14, One Hub Chennai, Panchanthiruthi Village, Manambathi Post, Kancheepuram 603105, TN","+91-44-71900900, +91-9840011769","ajicare@ajinomotoindia.com,,janedoe@ajinomoto.co.in,info@ajinomotoindia.com,","18.4757774,73.5813287"
Advanced LifeSciences Pvt Ltd,Companies(Private),Pune,"D-22, Okhla Industrial Area, Phase I, New Delhi 110020, DL","+91-11-26371127, +91-11-26812108","janice.goveas@merckgroup.com,,kedar@rosslifescience.com,quality@vimta.com,raggarwal@alspl.com,x3egopal.krishan.7395@gmail.com,gopal.krishan.7395@gmail.com,mdoffice@vimta.com,","18.4914149,73.847455"
Aditi Oil Ltd,Companies(Private),Pune,"4, Chowringhee Lane, Diamond Chambers, Block III, Suite 6E, Kolkata 700016, WB",+91-33-22521863,",exports@aditifoods.com,investorrelations@kirloskar.com,u003eaditioilkolkata@gmail.com,aditioilkolkata@gmail.com,soumen.das@careratings.com,aditifoodsmktg@gmail.com,","18.4760447,73.8286054"
Ace Foods Pvt Ltd,Companies(Private),Pune,"C-30, Industrieal Estate, Yeyyadi, Mangalore 575008, KA","+91-824-2211578, +91-824-2211265",",accounts@acefeeds.net,info@acefoodspl.com,","18.5410122,73.8778632"
Vipin Print Services Pvt Ltd,Companies(Private),Pune,"15-A, 1, Nariana Industrial Area, New Delhi 110028, DL",+91-11-41424230,",vps.varunk@gmail.com,","18.4833871,73.8394565"
Samarth Paper Machines Pvt Ltd,Companies(Private),Pune,"53-C, MIDC Waluj, Aurangabad 431136, MH",+91-240-2555412,",info@samarthpapermachines.com,account.samarthpaper@gmail.com,u003eaccount.samarthpaper@gmail.com,","18.5599502,73.6730904"
Punya Publishing Pvt Ltd,Companies(Private),Pune,"191, Banashankari 2nd Stage, Bangalore 560070, KA",+91-80-26710803,"info@punyapublishing.com,,rohit@gera.in,","18.4759913,73.7461912"
Pudumjee Industries Ltd,Companies(Private),Pune,"60, Jatia Chambers, Dr. V.B. Gandhi Marg, Fort, Mumbai 400023, MH",+91-22-30213333,",sk@pune.pudumjee.com,u003ekn@pune.pudumjee.com,info@pudumjee.com,einward.ris@karvy.com,kn@pune.pudumjee.com,last@pudumjee.com,jagdish.patil@pudumjee.com,vinay.jadhav@pudumjee.com,","18.4757774,73.5813287"
Precision Bar Codes International Pvt Ltd,Companies(Private),Pune,"394, Phase-4, Udyog Vihar, Gurgaon 122015, HR",+91-124-4014541,",ssr@pbc.net.in,","18.5155273,73.8407994"
Mudrika Labels Pvt Ltd,Companies(Private),Pune,"18, 20, Nirman Indlustrial Estate, Chincholi Bunder, Link Road, Malad West, Mumbai 400064, MH",+91-22-67294500,",info@msd.org.in,accounts@mudrikalabels.com,","18.4945631,73.8427406"
Mit X Print,Companies(Private),Pune,"347, 1st Floor, N.R.Tower, Opposite Suguna Store, Anna Nagar, Madurai 625001, TN",+91-9842533999,,"18.4759913,73.7461912"
Menaka Prakashan,Companies(Private),Pune,"2117, Menaka Prakashan, Sadashiv Peth, Vijaya Nagar, Pune 411030, MH",+91-20-24336960,",sales@menakaprakashan.com,kamaltanejaco@yahoo.co,","18.496378,73.8176935"
Macmillan Publishers India Pvt Ltd,Companies(Private),Pune,"3-A, 5th Floor, DLF Corporate Park, MG Road, Phase-3, Gurgaon 122002, HR",+91-124-3079600,",bharti.taneja@macmillan.co.in,mkbooksd@gmail.com,info@macmillaneducation.com,ditsha.gupta@macmillan.co.in,x3eSalesoperations@macmillanusa.com,pansales@macmillan.co.in,customer.service@macmillan.co.in,Salesoperations@macmillanusa.com,webqueries@macmillan.co.uk,paninfo@macmillan.co.in,paneditorial@macmillan.co.in,","18.4759913,73.7461912"
Kailash Publications,Companies(Private),Pune,"4623, 18, Ansari Road, Darya Ganj, New Delhi 110002, DL",+91-11-23282316,",padam.porwal@gmail.com,info@icraindia.com,","18.4759913,73.7461912"
K. U. Sodalamuthu And Co Pvt Ltd,Companies(Private),Pune,"428, Mettupalayam Road, Coimbatore 641043, TN",+91-422-4242100,"sales@sodaltech.net,accounts@sodaltech.com,,","18.4897473,73.8512726"
Dorling Kindersley Publishing Pvt Ltd,Companies(Private),Pune,"24-A, 3rd Floor, Mindmill Corporate Tower, Sector 16-A, Film City, Noida 201301, UP",+91-120-4689600,",finance.department@dk.com,rohit@gera.in,ecustomerservice@randomhouse.com,last@dk.com,","18.5243307,73.5332878"
Bodhi Professional Solution Pvt Ltd,Companies(Private),Pune,"77, 78, Sudhindhra Building, 8th Cross, Malleshwaram, Bangalore 560003, KA",+91-80-23563369,"jochen.landes@ask-chemicals.com,,ganapathi@bodhi-pro.com,info@bodhi-pro.com,","18.4878685,73.8037013"
B&R Industrial Automation Pvt Ltd,Companies(Private),Pune,"8, Tara Heights, Mumbai-Pune Road, Wakdewadi, Pune 411003, MH",+91-20-41478999,,"18.4757774,73.5813287"
Universal Industrial Plants Manufacturing Co. Pvt Ltd,Companies(Private),Pune,"R-19, Hauz Khas Enclave, New Delhi 110016, DL",+91-11-41021294,",accounts@universalboschi.net,mohan.ashwani@gmail.com,","18.4197938,73.5236124"
Unicon Engineers,Companies(Private),Pune,"Bharathi Road, Chinnavedampatty Ganapathy, Coimbatore 641006, TN","+91-422-2362100, +91-422-2362164",",connect@unicornengineers.com,marketing@uniconinter.com,acnt.uniquegroup@gmail.com,hr@uniconinter.com,info@uniconinter.com,kumarnohria_chd@rediffmail.com,x3ehr@uniconinter.com,","18.5770957,73.7560937"
Sparkle Clean Tech Pvt Ltd,Companies(Private),Pune,"89, Gautam Complex, Sector 11, CBD Belapur, Navi Mumbai 400614, MH",+91-22-40619000,",jane@sparklecleantech.com,sumeet@sparklecleantech.com,","18.67229,72.8801998"
Roots Metrology Laboratory (Roots),Companies(Private),Pune,"R. K. G. Industrial Estate, Ganapathy, Coimbatore 641006, TN",+91-422-4330330,",x3egs@roots.co.in,sales@rootsanalysis.com,sales@rootsbiotech.com,info@rootsbiotech.com,gs@roots.co.in,recruitment@roots.co.in,","18.5067072,73.9154035"
Pioneer Water Solutions,Companies(Private),Pune,"1/426/455, Multi Industrial Nagar, Gerugambakkam, Chennai 600122, TN",+91-44-23820040,",contact@toshiba-water.com,rohit@beyondbooks.in,Office_NewDelhi@waters.com,","18.4955447,73.7064697"
Naroda Enviro Projects Ltd (NEPL),Companies(Private),Pune,"Plot No 512- 515, Phase I, GIDC, Naroda, Ahmedabad 382330, GJ","+91-79-22816311, +91-79-22818391","nepl10@hotmail.com,,","23.0822597,72.6581165"
Nalco Water India Ltd (Ecolab),Companies(Private),Pune,"3rd Floor, Kumar Planet IT, Quadra I Panchshil, Magarpatta City Road, Hadapsar, Taluka Haveli, Pune 411028, MH",+91-20-39394000,",ssen@ecolab.com,simson.Devassy@ecolab.com,india.po@ecolab.com,u003esimson.Devassy@ecolab.com,","18.5122481,73.9231599"
Multi Mantech International Pvt Ltd (MMIPL),Companies(Private),Pune,"M-Square, Millenium Plaza, Judges Bungalow Road, Vastrapur, Ahmedabad 380015, GJ",+91-79-26750515,",career@mmipl.in,last@mmipl.in,info@mmipl.in,business@mmipl.in,Department__career@mmipl.in,Email-business@mmipl.in,","18.5322786,73.8865727"
Meiko Asia Techcentre Pvt Ltd,Companies(Private),Pune,"65/8, 1st Floor, Agara Sarjapur Ring Road, Bangalore 560034, KA",+91-80-42010014,",info@meiko.in,nitin.gupta@in.lafarge.com,","18.5614255,73.9293169"
Marcuras Water Treatment India Pvt Ltd,Companies(Private),Pune,"W-194B, Block-S, MIDC, Bhosari, Pune 411026, MH","+91-20-65110104, +91-20-65110106",",milind@marcuras.com,xavier@marcuras.com,u003efinance@marcuras.com,finance@marcuras.com,","18.636537,73.8273638"
Forevision Instruments India Pvt Ltd,Companies(Private),Pune,"1-90/12, 2nd Floor, Beside Suprabhat Hotel Lane, Habsiguda, Hyderabad 500007, TS",+91-40-40123686,",fipl@forevision.in,","17.3691283,78.5292816"
Effwa Infra and Research Pvt Ltd,Companies(Private),Pune,"07, Vardhaman Complex, LBS Marg, Gokul Nagar, Thane 400601, MH",+91-22-41842800,",u003einfo@effwa.co.in,varsha.kamal@effwa.co.in,janedoe@effwa.co.in,info@effwa.co.in,","19.2081077,72.9673532"
Delta India Electronics Pvt Ltd,Companies(Private),Pune,"1, 8, 6, 101, 105, 107, 112, 29, Sanghavi Industrial Estate, Navghar, Vasai, Bassein 401202, MH",+91-250-2393708,"x3esanjay.gupta@deltaww.com,,sanjay.gupta@deltaww.com,info@deltaelectronicsindia.com,","18.5685411,73.7574984"
Aromen Engineering Company Pvt Ltd,Companies(Private),Pune,"167, Ettimadai Pirivu, Kaliyapuram Road, Thirumalayampalayam, Coimbatore 641105, TN",+91-8144914482,",mail2aromen@gmail.com,aromenengg@sify.com,","18.3622766,73.8419735"
Arbutus Consultants Pvt Ltd,Companies(Private),Pune,"J-507-11, West Wing, Mega Center, Magarpatta, Hadapsar, Pune 411028, MH","+91-20-26890141, +91-20-30484004","arbutus@gmail.co.in,,","18.5685622,73.8981377"
Apurva Water Management System,Companies(Private),Pune,"403/A, Sahjanand Shopping Centre, Shahibaug, Ahmedabad 380004, GJ",+91-79-25624472,",marmikgshah@gmail.com,x3emarmikgshah@gmail.com,","18.557895,73.7824448"
Aguapuro Equipments Pvt Ltd,Companies(Private),Pune,"Building No 9, Jogani Industrial Complex, Near ATI, V. N Purav Marg, Sion, Chunabhatti, Mumbai 400052, MH","+91-22-24052814, +91-22-24052816",",John@aguapuro.com,accounts@aguapuro.org,jcr@aguapurosystems.com,xxxx@aguapuro.com,John.Smith@aguapuro.com,","18.8785493,73.155789"
Y Cook India Pvt Ltd,Companies(Private),Pune,"Kaveri Ave, State Bank Colony, Meyyanur, Salem 636004, TN",+91-427-4043663,",sales@ycook.in,enquiry@ycook.in,hr@ycook.in,swahar@ycook.in,","18.4760447,73.8286054"
Wolters Kluwer India Pvt Ltd (CCH),Companies(Private),Pune,"10, 10th Floor, Tower C, Phase 2, DLF Cyber City, Gurgaon 122002, HR",+91-124-4960999,",Nikhil.Chopra@wolterskluwer.com,jane.doe@wolterskluwer.com,FRC-Pune-Facilities@wolterskluwer.com,indiasubs@wolterskluwer.com,x3eNikhil.Chopra@wolterskluwer.com,","18.5486949,73.8799949"
V & S Publishers,Companies(Private),Pune,"F-2/16, Ansari Road, Darya Ganj, New Delhi 110002, DL","+91-11-23240026, +91-11-23240027",,"18.4612763,73.8630416"
Upsinverter.com,Companies(Private),Pune,"53-A, 6, Rama Road, Industrial Area, Satguru Ramsingh Marg, Metro Steet, New Delhi 110035, DL",+91-11-65168534,",sales@utlups.com,service@utlups.com,cgbm@spanpump.com,","18.4760447,73.8286054"
Touch Net India Pvt Ltd,Companies(Private),Pune,"85, 1st Floor, HUDA Market, Sector 17, Gurgaon 122001, HR",+91-124-4019695,",customercare@nilons.net,","18.5216445,73.8463997"
Resultrix Media Pvt Ltd,Companies(Private),Pune,"16th Floor, Tower A, Urmi Estate, Ganpatrao Kadam Marg, Lower Parel West, Mumbai 400013, MH",+91-22-30419922,",venkatesh.bangera@resources-in.com,","18.9980877,72.8178892"
Renewbuy.com,Companies(Private),Pune,"4th Floor, Plot No- 21, Sector 32, Near Medanta Hospital, Sector 32, Gurugram 122001, HR",1800-419-7852,",n@cioins.co.in,customersupport@renewbuy.com,bimalokpal.pune@gbic.co.in,bimalokpal.pune@cioins.co.in,grievances@renewbuy.com,","18.4901516,73.8572711"
Rediff.com India Ltd,Companies(Private),Pune,"1st Floor, Mahalaxmi Engineering Estate, LJ Road, Mahim West, Mumbai 400016, MH","+91-22-61820000, +91-22-24449144",",customersupport@rediff.co.in,","19.0420138,72.8326023"
Red Door Online Pvt Ltd,Companies(Private),Pune,"R-69, Opposite Juhu Beach, Tara Road, Juhu, Mumbai 400049, MH",+91-22-26110088,"ricky.bhatia@bitfang.com,,rickyb@bitfang.in,","18.5996391,73.8975366"
Reasoning Global eApplications Pvt Ltd,Companies(Private),Pune,"1244, Road No 36, Jubilee Hills, Hyderabad 500033, TS","+91-40-23542937, +91-40-44430000",,"18.4759913,73.7461912"
Rara Avis Publishers Distributors,Companies(Private),Pune,"G-100, Jail Road, Hari Nagar, New Delhi 110058, DL","+91-9811130113, +91-11-25502345",,"18.5168558,73.8438302"
Parragon Publishing India Pvt Ltd,Companies(Private),Pune,"G-90, Sector 63, Noida 201301, UP",+91-120-4612900,",parralegal@parragonpublishing.co.in,","18.5726051,73.8679082"
Orosilber Joaillerie Pvt Ltd,Companies(Private),Pune,"B-14, Bawana Industrial Area, Sector 3, New Delhi 110039, DL",+91-11-27762529,"mktg@orosilber.com,,jessicasharkfin@gmail.com,","18.4759913,73.7461912"
Mantis Technologies Pvt Ltd,Companies(Private),Pune,"305-A, Block B, Shivalik Corporate Park, IOC Petrol Pump, 132 Ring Road, Satellite, Ahmedabad 380015, GJ",+91-79-44820000,",info@mastersindia.co,compliance@mantistechnologies.com,compliance@mantistechservices.com,xxxxx@gmail.com,","18.5563779,73.8840271"
ManageMySpa,Companies(Private),Pune,"8-2-268/R/5, Road 2, Banjara Hills, Hyderabad 500034, TS",+91-40-40254441,,"18.4757774,73.5813287"
Investopad,Companies(Private),Pune,"18, Institutional Area, Sector 32, Gurgaon 122018, HR","+91-8800396934, +91-8377977926",",jane_d@investopad.com,",
IntraSoft Technologies Ltd (123Greetings.com),Companies(Private),Pune,"145, 3rd Floor, Avenue, Rash Behari, Kolkata 700029, WB",-24643248,",business@e-nxt.com,intrasoft@itlindia.com,",
Indix Internet India Pvt Ltd,Companies(Private),Pune,"A-4, 2nd Floor, Ramanujan IT City, Neville Tower, Rajiv Gandhi Salai OMR, Taramani, Chennai 600113, TN",-69000909,",pranesh@indix.com,",
FSN Ecommerce Ventures Pvt Ltd,Companies(Private),Pune,"104, Vasan Udyog Bhavan, Sun Mills Compound, Lower Parel, Mumbai 400013, MH",-9222200919,",nykaacompanysecretary@nykaa.com,Office_India_400013_66149696_Nykaacompanysecretary@nykaa.com,rnt.helpdesk@linkintime.co.in,x3enykaacompanysecretary@nykaa.com,companysecretary@nykaa.com,Nykaacompanysecretary@nykaa.com,",
FareHawker Online Services LLP,Companies(Private),Pune,"414, Jyoti Shikhar Tower, District Centre, Janakpuri, New Delhi 110058, DL",-8010663343,",info@blueskyholiday.in,support@farehawker.com,",
Brand Story,Companies(Private),Pune,"5, 3rd Floor, 1st Cross, Krishna Reddy Colony, Domlur Layout, Bangalore 560071, KA",-9008504730,",rajeev@makemybrandstory.com,",
ALVStore,Companies(Private),Pune,"2, 229, Alok School Road, Sector 11, Udaipur 313001, RJ",-6509091,,
2mpower Health Management Services Pvt Ltd ( GetActive ),Companies(Private),Pune,"614, 1st Floor, 3rd Block, 3rd Cross, Koramangala, Bangalore 560095, KA",-41435590,"mohammed@getactive.co,,getactive-kWCE--621x414@LiveMint.JPG,u003emohammed@getactive.co,",
Vijay Jewellers,Companies(Private),Pune,"160, Main Market, Nangal Township, Ropar, Nangal 140124, PB",-225691,"info@vijaygems.in,vijayjewellers.accounts@gmail.com,,",
P Rajesh & Co,Companies(Private),Pune,"EW-1160, Bharat Diamond Bourse, 1st Floor, Bandra Kurla Complex, Bandra East, Mumbai 400051, MH",-9323200624,,
Ornamentations India Pvt Ltd,Companies(Private),Pune,"G-31/3, Gem & Jewellery Complex, SEEPZ, Andheri East, Mumbai 400096, MH","+91-22-28292790, +91-22-28292791",",sales@ornamentations.com,",
Asian Star Company Ltd,Companies(Private),Pune,"114, Mittal Court C, Nariman Point, Mumbai 400021, MH","+91-22-22813489, +91-22-22811371","jane@asianstargroup.com,,secretarial@asianstargroup.com,info@asianstargroup.com,",
AARYA 24KT ( INDIA ) Pvt Ltd,Companies(Private),Pune,"7-A, National Silk Mill Compound, Near Dahisar HP Petrol Pump, S.V. Road, Dahisar East, Mumbai 400068, MH",-9820190997,",info@aarya24kt.com,",
Vista Packaging Pvt Ltd,Companies(Private),Pune,"A-10, Prasad Industrial Estate, Kaman Road, Sativali, Vasai East, Thane 401208, MH","+91-250-2480003, +91-250-2480004","accounts@vistapackagings.com,,gxxxxxxxxxxxi@vistapackagings.com,last@vistapackagings.com,",
Vcorr Packsys Pvt Ltd,Companies(Private),Pune,"19, Mahamane, Chincholi Bunder Road, Malad West, Mumbai 400064, MH",-9820221262,",anaygogte@gmail.com,",
Ujjwal Poly Pack India Pvt Ltd,Companies(Private),Pune,"B-4, KSSIDC Kumbalagodu Industrial Estate, Kengeri Hobli, Bangalore 560074, KA",-9845089861,",chandru@ujjwals.com,",
Trinity Express Cargo Pvt Ltd,Companies(Private),Pune,"L-156, 1st Floor, Road No 7, Street No 5-B, Mahipalpur Extension, New Delhi 110037, DL","+91-11-65432008, +91-9811396169",",aakash.kumar@globerider.in,LAXMI@TRINITYEXPRESSCARGO.COM,terajkot@gmail.com,laxmi@trinitygroupusa.com,ABHISHEKMATHUR9@YAHOO.COM,u003eLAXMI@TRINITYEXPRESSCARGO.COM,",
Speciality Tapes Industry,Companies(Private),Pune,"5, 8 & 9, Manish Industrial Estate, avghar, Bassein, Vasai East, Thane 401208, MH","+91-250-6455102, +91-250-6455106",",marketing@ajitindustries.com,",
Seashell Logistics Pvt Ltd,Companies(Private),Pune,"56/211 & 212, Monarch Plaza, Sector 11, CBD Belapur, Navi Mumbai 400614, MH","+91-22-27565546, +91-22-27565547",",sxxxxxxxxxxxxxxh@seashellgroup.in,vsp.mktg@seashellgroup.in,",
Seamax Logistics Ltd,Companies(Private),Pune,"D-610, Crystal Plaza, Opposite Fame Adlabs, New Link Road, Andheri West, Mumbai 400053, MH","+91-22-40429600, +91-22-40429698","acctut@seamaxshippingindia.com,,info@seamaxshipping.com,manoharan@srishunmugashipping.com,",
Scan Holdings Pvt Ltd,Companies(Private),Pune,"F-4, Shopping Complex, A-Block, Meera Bagh, New Delhi 110087, DL",-25278920,",RAJIV@SCANHOLDINGS.COM,",
Santrans Express,Companies(Private),Pune,"27-37, Balaji Tower, Opposite Sanpada Railway Station, Sector 30-A, Vashi, Navi Mumbai, 400705, MH",-65330454,",mmehra@pglindia.com,info@santrans.co.in,",
Sahara Domestic & International Packers and Movers Pvt Ltd,Companies(Private),Pune,"15, Sahara House, 8th Cross, H Siddaiah Road, Bangalore 560027, KA",-41145901,,
Reliable Insupacks Pvt Ltd,Companies(Private),Pune,"B-2/7, UPSIDC Industrial Area, Site B, Surajpur, Greater Noida 201306, UP",-9810266293,",88.goel@gmail.com,",
PDS International Pvt Ltd,Companies(Private),Pune,"A-44-B/2, 2nd Floor, Mahipalpur Extension, New Delhi 110037, DL","+91-11-26787249, +91-11-26787250","raman@taurusforwarders.com,,careers@pdsinternational.in,",
Pack Leader Machine Inc,Companies(Private),Pune,"141/5, Subhash, Above Goa State Co-operative Bank, Murdi Cansaulim, Salcete, Goa 403712, GA",-3222279,",marketing@nichrome.com,",
Nirmal Group,Companies(Private),Pune,"Akik Building, 1st Floor, Near Mithakhali Six Road?s, Ahmedabad 380006, GJ","+91-79-26461131, +91-79-264611312",",roc@nirmallifestyle.com,",
Nikhil Logistics Pvt Ltd,Companies(Private),Pune,"83/85/107, Vindhya Complex, Sector 11 CBD Belapur, Navi Mumbai 400614, MH",-27566133,"pratapsurve@nikhillogistics.com,info@nikhillogistics.com,,ashish.sonthalia@globalpsa.com,x3eashish.sonthalia@globalpsa.com,",
MBR Flexibles Ltd,Companies(Private),Pune,"79/80, Near Chacharwadi Temple, Sarkhej Bavla highway, Vasna, Sanand 382213, GJ",-658131,",info@mbrflexibles.com,doej@mbrflexibles.com,finance@mbrflexibles.com,",
Masspacksols Pvt Ltd,Companies(Private),Pune,"Kalapi Avenue, 1st Floor, Opposite Vaccine Institute, Malhar Point, Old Padra Road, Vadodara 390015, GJ",-6622685,",andamanfiart.private@gmail.com,",
Laxmi Freight Carriers Pvt Ltd,Companies(Private),Pune,"31, Hirabhai Market, Diwanballu Bhai Road, Kankaria, Ahmedabad 380022, GJ","+91-79-22179180, +91-79-25464981",",VIKRAM_GARG@omtrans.in,",
Kuwer Industries Ltd,Companies(Private),Pune,"A-71/72, Sector 58, Noida 201301, UP","+91-120-2580088, +91-9810128955",",info@kuwer.com,",
J K Overseas,Companies(Private),Pune,"77/83, J. K.Chambers, Nagdevi Street, Mumbai 400001, MH",-40231157,",albatrossmrn@gmail.com,entrytax@yahoo.co.in,equiry@overseasadvisers.com,jktraddersindia@gmail.com,",
Expeditors International India Pvt Ltd,Companies(Private),Pune,"59 To 62, Chimes Building, 5th Floor, Block A & D, Sector 44, Gurgaon 122003, HR",-4978533,",anamika.sharma@expeditors.com,x3eanamika.sharma@expeditors.com,",
Ecom Express Pvt Ltd,Companies(Private),Pune,"14/12/2, Samalka, Old Delhi Gurgaon Road, New Delhi 110037, DL",-30211920,",x3egrievance@ecomexpress.in,employeeverification@ecomexpress.in,grievance@ecomexpress.in,x3eemployeeverification@ecomexpress.in,x3epr@ecomexpress.in,pr@ecomexpress.in,bxxxxxxxxxxxi@ecomexpress.in,",
Ebullient Packaging Pvt Ltd,Companies(Private),Pune,"304, So Lucky Corner, Opposite Holy Family Church, Off Andheri Kurla Road, Chakala, Andheri East, Mumbai 400099, MH","+91-22-40569100, +91-22-40569144",",accounts@ebullientpack.com,u003eaccounts@ebullientpack.com,enquiry@ebullientpack.com,marketing@ebullientpack.com,",
Dynamic Parcels Pvt Ltd,Companies(Private),Pune,"2-A/170/182, Agboat House, S V P Road, Mumbai 400009, MH",-8956110019,",saif@dynamicparcel.com,hello@shadowfax.in,",
Corrupack India,Companies(Private),Pune,"624, Udyog Nagar, Suraj Bhan Ki Bagicha, Sikandra, Agra 282997, UP","+91-562-3295294, +91-562-2601335",",creative.corrupack@gmail.com,naresh.duseja@gmail.com,rohanpack@gmail.com,wicma@wicma.com,",
Bindal Logistics Pvt Ltd,Companies(Private),Pune,"14, Sector 27-C, Faridabad 121003, HR","+91-129-2258930, +91-129-2258931","vishnu.gahlaut@bindallogistics.com,,businessinquiry@bindallogistics.com,",
Billion Flex India Pvt Ltd,Companies(Private),Pune,"54/1-B, 54/1-C, Yashkamal Industrial Estate, Baska Tajpura Road, Panelav, Halol, Panchmahal, Halol 389350, GJ","+91-2676-247005, +91-9898090012",",x3egururaj.kashi@givaudan.com,accounts@kflex.in,tulesh.chandra@selp.in,info@billionflex.com,x3etulesh.chandra@selp.in,clifford.pinto@roquette.com,x3eclifford.pinto@roquette.com,gururaj.kashi@givaudan.com,",
Ashoka International,Companies(Private),Pune,"21, DDA Market, 1st Floor, Munirka Vihar, Nelson Mandela Marg, New Delhi 110067, DL","+91-11-26177214, +91-11-26177215",",pradeep.kumar@careratings.com,atttransport@itdc.co.in,",
Almi Shipping & Logistics,Companies(Private),Pune,"Kinship Building, Willingdon Island, Marar Road, Kochi 682003, KL",-2667305,,
Aggarwal Transhift Movers and Packers Pvt Ltd,Companies(Private),Pune,"G-10, Sai Ganesh Co-operative Housing Society Limited, Vijay Nagar, MIDC, Andheri East, Mumbai 400093, MH","+91-9699647222, +91-9321198555","Sales@agarwalpackers.com,agarwalpackersandmovers206@gmail.com,info@Agarwalpackersmovers.co.in,,",
ACG Pharmapack Pvt Ltd (ACG Worldwide),Companies(Private),Pune,"Dalamal House, Nariman Point, Mumbai 400021, MH","+91-22-22872557, +91-22-22880461",",rashmi.mishra@acg-world.com,x3erashmi.mishra@acg-world.com,",
Abhinav Industries,Companies(Private),Pune,"3-B, Pil Court, M K Road, Mumbai 400020, MH","+91-22-32425491, +91-22-32414209",",alpl@patilgroup.co.in,",
Special Ceramics Pvt Ltd,Companies(Private),Pune,"906, Gopal Heights, NSP Pitampura, New Delhi 110034, DL","+91-11-47701151, +91-11-27521174","x3eglobal@glocera.com,,sales@specialceramics.in,global@glocera.com,",
OAK SuPer Block Industries,Companies(Private),Pune,"Plot No 28, 34, 35 & 43, Industrial Focal Point, Naya Nangal 140126, PB",-8872400910,",suyog222bhagwan@gmail.com,architectoak@gmail.com,",
Chariot International Pvt ltd,Companies(Private),Pune,"97, Hosur Main Road, Malur, Chudagondanahalli, Kolar, Bangalore 563130, KA",-28040377,",finance@chariotinternational.com,sweetchariot@rediffmail.com,",
Bhavya Craft,Companies(Private),Pune,"S-2, Airport Side Marble Market, Western Express Highway, Vile Parle East, Mumbai 400099, MH",-26177620,,
Aakash Universal Ltd,Companies(Private),Pune,"411/13, Charat Singh Colony, AG Link Road, Chakala, Andheri East, Mumbai 400093, MH","+91-22-28356004, +91-22-28356005",,
Xentrix Studios Pvt Ltd,Companies(Private),Pune,"3, BWTC, Level 9, Block B, Outer Ring Road, K R Puram, Bangalore 560048, KA",-67351223,,
Xenia Consulting,Companies(Private),Pune,"302, Raj Vilas Heights, NDA Pashan Road, Bavdhan, Pune 411021, MH",-65292976,",sales@xenia-consulting.com,",
Xebec Communications Pvt Ltd,Companies(Private),Pune,"399, Cybernex, 1st Floor, North Wing, Shankar Sheth Road, Pune 411037, MH","+91-20-26446856, +91-20-26450184",",anilbhat@xebecindia.com,surabhi@xebecindia.com,kiranbhat@xebecindia.com,",
Vision Next India Pvt Ltd,Companies(Private),Pune,"25/11, 1st Floor, Ramanujam Street, Off Venkatnarayana Road, Chennai 600017, TN","+91-44-43546551, +91-44-43546552",",reachus@vispl.co.in,accounts@vnmspl.com,marketing@psipl.co.in,x3ereachus@vispl.co.in,enquiry@manpowergroup.com,sales@psipl.co.in,",
Vision Kraft Media Works Pvt Ltd,Companies(Private),Pune,"121-C, Pune IT Park, Bhau Patil Road, Pune 411020, MH",-9850555704,",info@VisionKraft.com,u003einfo@VisionKraft.com,info@visionkraft.com,",
Vinod Chopra Films Pvt Ltd,Companies(Private),Pune,"RH-1, 16-C, Dattatray Road, Santacruz West, Mumbai 400054, MH",-26614990,",accounts@vinodchopra.com,u003eaccounts@vinodchopra.com,pravin@acm.org,John@vinodchopra.com,vcp@vinodchopra.com,",
Valuepitch E Technologies Pvt Ltd,Companies(Private),Pune,"71, Mittal Chambers, Nariman Point, Mumbai 400021, MH",-32605057,",venkat@valuepitch.com,info@valuepitch.com,",
ValueNotes Strategic Intelligence Pvt Ltd,Companies(Private),Pune,"Kapil Classic, 4th Floor, Baner Road, Pune 411045, MH","+91-20-25881164, +91-20-66231700",",u003esangeeta@valuenotes.co.in,sangeeta@valuenotes.co.in,",
Turner International India Pvt Ltd,Companies(Private),Pune,"Radisson Commercial Plaza, 5th Floor, National Highway 8, Mahipalpur, New Delhi 110037, DL","+91-11-41699199, +91-11-41699100",",rdembla@tcco.com,",
Travel Newsgram (email newsletter),Companies(Private),Pune,"J-27-A, Jangpura Extension, New Delhi 110014, DL",-24311346,,
Thomson Reuters India Pvt Ltd,Companies(Private),Pune,"4th Floor, Nicholas Piramal, B Wing, Peninsula Corporate, Ganpatrao Kadam Marg, Lower Parel, Mumbai 400013, MH","+91-22-61807001, +91-22-61807000",",x3eprashanth.madhavan@thomsonreuters.com,prashanth.madhavan@thomsonreuters.com,",
Swarp Films Pvt Ltd,Companies(Private),Pune,"602, Reviera Apartment, Gandhigram Road, Juhu, Mumbai 400049, MH",-26719273,"x3evindi@saachiprocessor.com,mfplcompliances@maddockfilms.com,,swarphe@rediffmail.com,prernawadhawan@swarpfilms.com,vindi@saachiprocessor.com,x3emfplcompliances@maddockfilms.com,",
Suresh Productions Pvt Ltd,Companies(Private),Pune,"Ramanaidu Studios, Film Nagar, Road 79, Jubilee Hills, Hyderabad 500033, TS",-9885577701,",legal@sureshproductions.com,contact@sureshproductions.com,jane@sureshproductions.com,u003elegal@sureshproductions.com,",
Sree Lakshmi Prasanna Pictures,Companies(Private),Pune,"6, Road 1, Jubilee Hills, Hyderabad 500033, TS",-23544392,,
Soft Line Media Ltd,Companies(Private),Pune,"38, Rani Jhansi Road, Jhandewalan, New Delhi 110055, DL",-23552547,",sharad@shriinfratech.in,",
Showtime Events India Pvt Ltd,Companies(Private),Pune,"Tower 4-B, DLF Corporate Park, Gurgaon 122002, HR",-9899411020,"avikprabhu@showtimegroup.in,,",
Seva Marketing,Companies(Private),Pune,"510, Royal Trade Centre, Opposite Star Bazaar, Pal Hazira Road, Adajan, Surat 395009, GJ","+91-261-2786800, +91-9825165192",",lorencosmetic@yahoo.com,hr@mos-world.com,",
Security Today - 1st Academy of Security Science Education & Training Pvt Ltd,Companies(Private),Pune,"24-B, Udyog Vihar, Phase V, Gurgaon 122016, HR","+91-124-4001111, +91-124-2346100",,
Search Media Solution,Companies(Private),Pune,"C-81, Near Nirula's Hotel, 1st Floor, Noida 201301, UP",-4273319,,
Saltmarch Media India Pvt Ltd,Companies(Private),Pune,"3-A, Raintree Hall, Rhenius Street, Richmond Town, Bangalore 560025, KA",-42644253,",info@saltmarch.com,accounts@saltmarch.com,last_initial@saltmarch.com,",
RocSearch India Pvt Ltd,Companies(Private),Pune,"A-16, Sector 16, Noida 201301, UP",-4017129,",waali.iqbal@rocsearch.com,d-j@rocsearch.com,x3ewaali.iqbal@rocsearch.com,",
Reviva Business Promotios India,Companies(Private),Pune,"13/50, 1st Floor, Yeshwant Nagar, Goregaon West, Mumbai 400062, MH","+91-22-28730995, +91-22-28767739",,
Red Baron Integrated Services Pvt Ltd,Companies(Private),Pune,"329, 5th Main, 1st Block, Koramangala, Bangalore 560034, KA",-69000289,"sandeep@redbaron.in,,",
Push Plug Play Productions Pvt Ltd,Companies(Private),Pune,"16, Langford Garden, Cornwell Road, Bangalore 560025, KA",-9880544073,",leosevents@gmail.com,",
Pudhari Publications Pvt Ltd,Companies(Private),Pune,"2318, Pudhari Bhavan, C Ward, Bhausingji Road, Kolhapur 416002, MH","+91-231-3051300, +91-231-2543111",",publicationspvtltd@gmail.com,mumbaiadvt@pudhari.co.in,u003epudharipublicationspvtltd@gmail.com,pudharipublicationspvtltd@gmail.com,hemant.tarte@pudhari.co.in,pravin.talathi@pudhari.co.in,tarzan.mule@pudhari.co.in,vxxxxxxxxk@pudhari.com,",
Procam International Pvt Ltd,Companies(Private),Pune,"14, ST James Court, Marine Drive, Mumbai 400020, MH",-22020215,"info@procam.in,,djane@procam.in,jane@procam.in,",
Praxis Media Pvt Ltd,Companies(Private),Pune,"34, 1st Floor, Left Wing, Maharishi Dayanand Marg, Malviya Nagar, New Delhi 110017, DL",-65006540,"jd@praxis-media.com,,patel.swagateeka@gmail.com,pravi@pn2.vsnl.net.in,",
Popcorn Entertainment Pvt Ltd,Companies(Private),Pune,"Aaram Nagar, Part 2, Yari Road, Versova, Andheri West, Mumbai 400061, MH","+91-22-26373034, +91-22-26373033","abshetty@s2rd.com,,shenazzn@popcornentertainmentpl.com,",
Paramin Advertising and Marketing Associates,Companies(Private),Pune,"4-A, Botawala Chambers, 1st Floor, Sir P M Road, Fort, Mumbai 400001, MH","+91-22-22703333, +91-22-22703334","csparam@gmail.com,,csparam@paramindia.com,",
Oxygen Communications Pvt Ltd,Companies(Private),Pune,"19-B/1, 1st Floor, Begumpur, Malviya Nagar, New Delhi 110017, DL",-26692339,",ghkumbhar04@yahoo.co.in,bosch.bgroad@gmail.com,rakesh.shejwal@aartigroup.cominfo,jocelyn.vigreux@tomtom.com,sales@globallogic.com,info@globallogic.com,pdombe@gmail.com,",
Nutan Savera,Companies(Private),Pune,"Nutan Savera, Mantri Corner, 1st Floor, Gokhale Road, Dadar West, Mumbai 400025, MH",-24374621,",shamspowersystems@gmail.com,companysecretarial@zensar.com,suyog222bhagwan@gmail.com,cooamn@maalaimalar.com,",
National Film Development Corporation Ltd,Companies(Private),Pune,"Discovery of India Building, Nehru Centre, 6th Floor, Dr. A B Road, Worli, Mumbai 400018, MH","+91-22-66288288, +91-22-24355069","info@tendersontime.com,,skillindia@nfdcindia.com,first@nfdcindia.com,",
Mindworks Global Media Services,Companies(Private),Pune,"C-56/47, 5th Floor, Sector 62, Noida 201306, UP",-4723179,",nitin.srivastava@mindworksglobal.com,hr@mindworksglobal.com,sales@mindworksglobal.com,",
Million Global Leads Pvt Ltd,Companies(Private),Pune,"S A Extension, New Delhi 110002, DL",-8375068630,"khandpursuresh@yahoo.com,,",
Mega TV,Companies(Private),Pune,"24, 6th Main Road, Kasthuriba Nagar, Adyar, Chennai 600020, TN","+91-44-24421888, +91-44-24437777",",last@megatv.com,mithil@mega.tc,info@sgcorporates.com,hr@avianwe.com,info@avianwe.com,",
Media Theorem Pvt Ltd,Companies(Private),Pune,"Wing House, KA Abbas Lane, Juhu Tara Road, Juhu, Mumbai 400049, MH",-9835155454,",x3einfo@theoreminc.net,info@theoreminc.net,",
Marry Me The Wedding Planners Pvt Ltd,Companies(Private),Pune,"5-AA, Near Learners Academy, Pali Hill, Bandra West, Mumbai 400050, MH",-9769682232,",vendors@marrymeweddings.in,jky2511@gmail.com,",
Malabar Pandal Works,Companies(Private),Pune,"Opposite Government Hospital, Malappuram Dist, Perinthalmanna? 679322, KL",-2430695,",info@mtckerala.com,vishalrk9@yahoo.co.in,",
Maiden Marketing India Pvt Ltd (Pokkt),Companies(Private),Pune,"301, Jai Krishna Complex, 3rd floor, Fun Republic theatre Lane, Andheri ? West, Mumbai 400053, MH",-66715824,"rohit.sharma@pokkt.com,,",
Lookad India Pvt Ltd,Companies(Private),Pune,"17/6, Paul Mansions, Bishop Lefroy Road, Kolkata 700020, WB",-40047517,",manoj@lookadindia.com,info@iresearchservices.com,",
Knowledge and News Network (KNN),Companies(Private),Pune,"B-4/161, Safdarjung Enclave, New Delhi 110029, DL","+91-11-26712064, +91-11-26187948",,
Just About Sportz and Showbiz Pvt Ltd,Companies(Private),Pune,"B-304, Royal Sand, Shastri Nagar, Andheri West, Mumbai 400053, MH",-42956880,",jennifer@justaboutsportz.com,",
J N Media & Advertising,Companies(Private),Pune,"Ichapur Sasthibagan, Santragachi, Howrah 711104, WB",-9836169224,,
Indian Military Review Media Pvt Ltd,Companies(Private),Pune,"8-A, Ashok Marg, Silokhra, Gurgaon 122001, HR",-9582649571,",events@imrmedia.in,",
Hiveminds Innovative Market Solutions Pvt Ltd,Companies(Private),Pune,"3, Silver Palms, 1st Floor, Victoria Layout, Palm Grove Road, Bangalore 560047, KA",-41261049,",neha@madisonindia.com,",
Grade One Events Pvt Ltd,Companies(Private),Pune,"752, Mathura Road, Bhogal, New Delhi 110014, DL",-45793279,"sachin@gradeoneevents.com,,rajesh@marrquee.com,",
Geopreneur Group,Companies(Private),Pune,"13-A, Agarwal Golden Chambers, 5th Floor, Behind Balaji Telefilms, Off New Link Road, Fun Republic Road, Andheri West, Mumbai 400053, MH",-61479931,"kiran.shah@geopreneur.in,,tax@malpani.com,",
Evercoast Communications Design Pvt Ltd,Companies(Private),Pune,"28, 3rd Main, R T Nagar, Bangalore 560032, KA",-8095409911,,
EVENTFAQS Media Pvt Ltd,Companies(Private),Pune,"35/151, Laxmi Industrial Estate, New Link Road, Andheri West, Mumbai 400053, MH","+91-22-26300673, +91-22-26330674","accounts@eventfaqs.com,,",
Districon Ideaas,Companies(Private),Pune,"B-402, Crystal Plaza, Andheri Link Road, Andheri West, Mumbai 400053, MH",-67252449,,
Crew4events Pvt Ltd,Companies(Private),Pune,"E-10, South Ex Part II, New Delhi 110049, DL",-46595418,"accounts@crew4events.com,,info@crew4events.com,",
Branding Display,Companies(Private),Pune,"7/2, 701, Shalini Complex, 2nd Floor, Karve Nagar, Pune 411052, MH",-9325127704,,
Bloomberg TV India (ADAG),Companies(Private),Pune,"1076, Parijaat House, Dr E Moses Road, Worli, Mumbai 400018, MH",-40986931,,
BIG ND Studio (ADAG),Companies(Private),Pune,"201-A, Ventura Shopping Center, 2nd Floor, Central Avenue, Opposite HSBC bank, Powai, Mumbai 400076, MH","+91-22-61415800, +91-22-61415900",,
Avalon Global Research,Companies(Private),Pune,"11, 1st Floor, Kalpataru Point, Near Cinemax Theatre, Kamani Marg, Sion East, Mumbai 400022, MH","+91-22-66132600, +91-22-24376711",",info@avalonglobalresearch.com,last_initial@avalonglobalresearch.com,",
Arack,Companies(Private),Pune,"574, Door No 78, Congress Building, 1st Floor, Anna Salai, Teynampet, Chennai 600006, TN","+91-44-24341613, +91-44-45507000",",andamanfiart.private@gmail.com,",
Anacra Merchandise Pvt Ltd,Companies(Private),Pune,"54, West Patel Nagar, New Delhi 110008, DL",-25060985,",doe-j@anacra.in,info@anacra.in,",
Academy Newspapers Pvt Ltd,Companies(Private),Pune,"15-C, Industrial 'A' Layout, Bannimantap, Mysore 570015, KA","+91-821-2496520, +91-821-2496521",",finance@starofmysore.com,",
Unisoft Datatech,Companies(Private),Pune,"405-B, J B Tower, Opposite Doordarshan Kendra, Drive-In Road, Ahmedabad 380059, GJ",,"info@vindhyainfo.com,last_initial@vindhyainfo.com,info@vindhyainfo.com,last_initial@vindhyainfo.com,",
Tt Consultants,Companies(Private),Pune,"413, 413-A, 4, Bestech Business Tower, Sector 66, 160055, CH",,"info@verity.co.in,info@verity.co.in,",
Talisman Consultants Pvt Ltd,Companies(Private),Pune,"2, 2, Mehra Estate, LBS Marg, Vikhroli, Mumbai 400079, MH",,"info@telradsol.com,info@telradsol.com,info@telradsol.com,info@telradsol.com,",
Shaster Technologies Pvt Ltd,Companies(Private),Pune,"3-S, Technocrats Industrial Estate, Balanagar, Hyderabad 500037, TS",,"mumbaidacs.private@gmail.com,mumbaidacs.private@gmail.com,",
Provestment Services Ltd,Companies(Private),Pune,"5, 1, Pusa Road, Karol Bagh, New 110005, DL",,"anix@riverstonetech.com,u003eanix@riverstonetech.com,anix@riverstonetech.com,anix@riverstonetech.com,anix@riverstonetech.com,anix@riverstonetech.com,vxx@riverstonetech.com,u003eanix@riverstonetech.com,anix@riverstonetech.com,anix@riverstonetech.com,anix@riverstonetech.com,anix@riverstonetech.com,vxx@riverstonetech.com,",
Meditrans Infotech Pvt Ltd,Companies(Private),Pune,"7, 8, Meditrans House, Road RSC 10, Sector ?2, Charkop, Kandivali, Mumbai 400067, MH",,"naushad09@ymail.com,naushad09@ymail.com,contact@eternoinfotech.com,",
Lexplosion Solutions Pvt Ltd,Companies(Private),Pune,"6, 1, Infinity Benchmark, EP, GP, Sector 5, Salt Lake, Kolkata 700052, WB",,"accounts.hyderabad@markettools.com,",
Delsat Infotech Pvt Ltd,Companies(Private),Pune,"366-B, Near South City Mall, Lake Gardens, Kolkata 700045, WB",,"roc.chennai@mca.gov.in,roc.chennai@mca.gov.in,info@idealfastener.com.hk,roc.chennai@mca.gov.in,roc.chennai@mca.gov.in,info@idealfastener.com.hk,",
Callistus Offshore Services Pvt Ltd,Companies(Private),Pune,"20, 2, 11-A, Millers Road, Vasanth Nagar Queens Road Cross, Bangalore 560052, KA","+91-80-22200446, +91-80-65783699","care@choiceindia.com,care@choiceindia.com,",
Bnr Udyog Ltd,Companies(Private),Pune,"6, 3, 650, 218, 2, Maheshwari Chambers, Somajiguda, Hyderabad 500082, TS","+91-40-23375793, +91-40-23375791","cameo@cameoindia.com,cameo@cameoindia.com,info@highenergyltd.com,cameo@cameoindia.com,info@highenergyltd.com,x3ecameo@cameoindia.com,",
Anupam Technologies Pvt Ltd,Companies(Private),Pune,"5-B, 113, Park Street, Poddar Point, Kolkata 700016, WB","+91-33-22651205, +91-33-22651204","jane.doe@asics.com,asics.support@ndslindia.com,kavita.goyal@asics.com,customersupport-me@asics.com,x3ejane.doe@asics.com,asics.support@ndslindia.com,",
Acurus Bpo Pvt Ltd,Companies(Private),Pune,"4, 363, C, Behind MAX Showroom, Kandanchavadi, OMR, Chennai 600014, TN",-43052978,"finance@ssplwealth.com,info@altius.cc,jane@altius.cc,ram@altius.co.in,finance@ssplwealth.com,",
Weir BDK Valves,Companies(Private),Pune,"47/48, Gokul Road, Hubli 580030, KA","+91-836-2331499, +91-836-2333930",,
VRG Arihant Plastics Pvt Ltd,Companies(Private),Pune,"11/1, Samrat Mills Compound, LBS Marg, Vikhroli West, Mumbai 400079, MH",-25771874,"jane@welset.com,arvindmehta@welset.com,",
Vinayak Precision Moulds,Companies(Private),Pune,"4, 5, 6, Ganko Industrial Estate, Opposite Paras Industrial, Ramchandra Lane, Kach Pada, Malad West, Mumbai 400064, MH","+91-22-28825232, +91-22-28886973","CS@VISHNUCHEMICALS.COM,investors@vishnuchemicals.com,x3eCS@VISHNUCHEMICALS.COM,",
Vardhman Industries Ltd (Vallabh Group),Companies(Private),Pune,"GH-6/223, Meera Bagh, Paschim Vihar, New Delhi 110087, DL",-32567975,,
Unisol India Pvt Ltd,Companies(Private),Pune,"A-38, Hosiery Complex, Phase 2, Gautam Budh Nagar, Noida 201301, UP",-4737829,"info@universaladhesives.com,sales.domestic@brilliantpolymers.com,info@universaladhesives.com,info@universaladhesives.com,sales.domestic@brilliantpolymers.com,",
"Tuflex India,Div of Parry Enterprises (Murugappa Group)",Companies(Private),Pune,"704, GIDC, Palej, Bharuch 392220, GJ",-280214,"dverma64@yahoo.co.in,dverma64@yahoo.co.in,dverma64@yahoo.co.in,dverma64@yahoo.co.in,jenpharma06@gmail.com,jenpharma06@gmail.com,jenpharma06@gmail.com,dverma64@yahoo.co.in,dverma64@yahoo.co.in,dverma64@yahoo.co.in,dverma64@yahoo.co.in,dverma64@yahoo.co.in,dverma64@yahoo.co.in,dverma64@yahoo.co.in,x22jenpharma06@gmail.com,x3ejenpharma06@gmail.com,x3ejenpharma06@gmail.com,",
Tridev Resins Pvt Ltd,Companies(Private),Pune,"9, Penisula Center, SS Rao Road, Parel East, Mumbai 400012, MH",-40586651,"info@turbhepolycans.com,turbhepolycans@gmail.com,info@turbhepolycans.com,info@turbhepolycans.com,info@turbhepolycans.com,",
Synmac Chemicals Pvt Ltd,Companies(Private),Pune,"G-6, Bajrangbali Industrial Estate, Site 4, Panki, Kanpur 208020, UP",-9415131181,"n-cud.hr@adityabirla.com,",
Swadesh Essfil Pvt Ltd,Companies(Private),Pune,"201, Tower A, Vrajvenu Complex, Opposite Jaini Duplex, Gotri Samta Road, Vadodara 390021, GJ",-2370691,"accounts@swastikpolyvinyls.com,swastik_polymers@rediffmail.com,swastik_polymers@rediffmail.com,swastik_polymers@rediffmail.com,xx@swastikpolyvinyls.com,swastik_polymers@rediffmail.com,swastik_polymers@rediffmail.com,swastik_polymers@rediffmail.com,x3eaccounts@swastikpolyvinyls.com,",
Suvchem,Companies(Private),Pune,"70, Shop No 1, Tel Gali, Vithal Wadi, Off Kalbadevi Road, Marine Lines, Mumbai 400002, MH",-22415324,"contact@swash.in,u003econtact@swash.in,saransh.jain@hindustantimes.com,u003econtact@swash.in,contact@swash.in,saransh.jain@hindustantimes.com,",
Supriya Lifescience Ltd,Companies(Private),Pune,"207/208, Udyog Bhavan, Sonawala Road, Goregoan East, Mumbai 400063, MH",-40332658,"info@suvchem.com,sales@suvchem.com,info@suvchem.com,sales@suvchem.com,info@suvchem.com,",
Supraveni Chemicals Pvt Ltd,Companies(Private),Pune,"Plot No 8C1, 2nd Cross, KIADB Industrial Area, Kadugodi, Bengaluru 560067, KA","+91-80-28455690, +91-80-28455691","secretarial@surajindustries.org,",
Sun Arch Industries,Companies(Private),Pune,"Opposite Elite International School, Morbi 363641, GJ","+91-2822-285110, +91-9687626012",,
Sudarshan Groups,Companies(Private),Pune,"55/547, MHB Colony, Mahavir Nagar, Kandivali West, Mumbai 400067, MH","+91-22-42505678, +91-22-28605014",,
Shivam Polymers,Companies(Private),Pune,"S-130, 2nd Floor, Greater Kailash Part 1, Delhi 110048, DL",-2561151,,
Servo Packaging Ltd,Companies(Private),Pune,"88/1, Cuddalore Pondy Main Road, Kattukuppam, Manapet, Pondicherry 607402, TN","+91-413-2611705, +91-413-2611706","contacts@shakunpolymers.com,cs@shakunpolymers.com,amitvsharma.ca@gmail.com,shakundmn@yashnet.net.in,sales@shakunpolymers.com,jaswantdoshi1960@gmail.com,mathurca@gmail.com,cs@shakunpolymers.com,contacts@shakunpolymers.com,amitvsharma.ca@gmail.com,shakundmn@yashnet.net.in,sales@shakunpolymers.com,jaswantdoshi1960@gmail.com,mathurca@gmail.com,cs@shakunpolymers.com,x3ecs@shakunpolymers.com,",
Saraswati Plastotech India Pvt Ltd,Companies(Private),Pune,"Lane 4, Phase 1, SIDCO Industrial Complex, Bari Brahmna, Samba 181133, JK","+91-9814098674, +91-1923-220081",,
S S Gas Lab Asia Pvt Ltd,Companies(Private),Pune,"A-6/3, Jhilmil Industrial Area, GT Road, New Delhi 110095, DL","+91-11-22583963, +91-11-22583247",,
Renuka Industries,Companies(Private),Pune,"Industrial Estate, SIDCO, Kurichi, Coimbatore 641021, TN","+91-422-2676666, +91-422-2674495","support@porwal.net,sunil_srisrimal@yahoo.co,support@porwal.net,cs@rishabh.co.in,sunil_srisrimal@yahoo.co,info@rishabh.co.in,",
Ratnagiri Chemicals Pvt Ltd,Companies(Private),Pune,"611/612, Raheja Arcade, Sector 11, CBD Belapur, Mumbai 400614, MH",-9820009195,"info@realchemsys.com,customercare@realchemsys.com,info@realchemsys.com,customercare@realchemsys.com,info@realchemsys.com,real_chemicals@rediffmail.com,info@realchemsys.com,real_chemicals@rediffmail.com,info@realchemsys.com,customercare@realchemsys.com,info@realchemsys.com,real_chemicals@rediffmail.com,info@realchemsys.com,real_chemicals@rediffmail.com,",
Punjab Alkalies & Chemicals Ltd,Companies(Private),Pune,"SCO 125-127, Sector 17-B, Chandigarh 160017, CH","+91-172-2703646, +91-172-2703647",,
Pulcra Chemicals India Pvt Ltd,Companies(Private),Pune,"15, 4th Floor, Dubash House, JN Heredia Marg, Ballard Estate, Mumbai 400001, MH","+91-22-43537575, +91-22-22820192","roc.chennai@mca.gov.in,roc.chennai@mca.gov.in,",
Pratham Stearchem Pvt Ltd,Companies(Private),Pune,"C-103, Venus Towers, Bodakdev, Ahmedabad 380054, GJ",-26852795,"srikrishnan.pm@kdhptea.co.in,accounts@dastur.com,dikshit@papiertech.com,dikshit@aimsindia.org,info@premierstarch.com,info@premierstarch.com,sales@premierstarch.com,srikrishnan.pm@kdhptea.co.in,accounts@dastur.com,dikshit@papiertech.com,dikshit@aimsindia.org,",
Praful International Corporation,Companies(Private),Pune,"D-4, Vijay Park, Mathuradas Extension Road, Kandivali West, Mumbai 400067, MH","+91-22-28623500, +91-22-28623501","prathamudyog@yahoo.com,prathamudyog@yahoo.com,",
Pioneer Impex Chemflux Pvt Ltd,Companies(Private),Pune,"Ghosh Market, Benachity, Durgapur 713213, WB",-2584774,,
Pax Group of Companies,Companies(Private),Pune,"Plot No 72, Shreyas, Mogal Lane, Mahim, Mumbai 400016, MH","+91-22-24385488, +91-22-65802400","usshivraj@perfectplastic.co.in,perfectplasticchennai@gmail.com,perfectplasticchennai@gmail.com,shivraj@perfectplastic.co.in,perfectplasticchennai@gmail.com,perfectplasticchennai@gmail.com,usshivraj@perfectplastic.co.in,perfectplasticchennai@gmail.com,perfectplasticchennai@gmail.com,shivraj@perfectplastic.co.in,perfectplasticchennai@gmail.com,perfectplasticchennai@gmail.com,",
NOCIL Ltd,Companies(Private),Pune,"Mafatlal House, HT Parekh Marg, Backbay Reclamation, Churchgate, Mumbai 400020, MH",-66576031,"nutriroma@yahoo.co.in,nutriroma@gmail.com,",
Merchem Ltd,Companies(Private),Pune,"44, Grove Centre, Development Plot, Kalamassery, Kochi 683109, KL","+91-484-4089300, +91-484-2382285","raju.desai@imcd.in,info@excelenviro.com,tarunagoelcs@gmail.com,laurel.kumar@gmail.com,laurel.kumar@gmail.com,raju.desai@imcd.in,info@excelenviro.com,laurel.kumar@gmail.com,x3etarunagoelcs@gmail.com,",
Mak Ampoules Pvt Ltd,Companies(Private),Pune,"505, 21, Maker Bhavan, New Marine Lines, Mumbai 400020, MH","+91-22-66391941, +91-22-66391942","rakesh.shejwal@aartigroup.cominfo,info@mpcl.co.in,info@mpcl.co.in,rohit.goyal@mpcl.co,rakesh.shejwal@aartigroup.cominfo,info@mpcl.co.in,info@mpcl.co.in,ravikumartaf410@gmail.com,rohit.goyal@mpcl.co.in,",
Kunal Calcium Ltd,Companies(Private),Pune,"18-F, DAV Market, Opposite Madhu Hotel, Yamuna Nager, Yamunanagar 135001, HR","+91-1732-222797, +91-1732-235797","roc.chennai@mca.gov.in,avishek@wondergroup.in,Accounts@Oswinplastics.Com,Chennai@Symphonypolymers.Com,roc.chennai@mca.gov.in,avishek@wondergroup.in,Accounts@Oswinplastics.Com,",
Krishna Creation,Companies(Private),Pune,"E-34, Near Ambay Hospital, Lajpat Nagar, Ghaziabad 201005, UP","+91-120-2639090, +91-9811806915","info@kuloday.com,u003einfo@kuloday.com,info@kuloday.com,u003einfo@kuloday.com,info@kuloday.com,",
KK Polycolor Asia Ltd,Companies(Private),Pune,"405, Ajit Sen Bhawan, 13, Crooked Lane, Kolkata 700069, WB","+91-33-22488539, +91-33-30280119","janed@kores.in,janed@kores.in,response@kores-india.com,janed@kores.in,secretarial@kores-india.com,response@kores-india.com,response@kores-india.com,x3ejaned@kores.in,",
Kdac Chem Pvt Ltd,Companies(Private),Pune,"92/A/1, GIDC Estate, Nandesari Industrial Estate, Vadodara 391340, GJ",-2840797,,
Jaydev Chemical Industries,Companies(Private),Pune,"C-209, TTC Area, MIDC, Turbhe, Navi Mumbai 400705, MH","+91-22-27635335, +91-22-27633732","accounts@jigschemical.com,info@jigschemical.com,info@jigschemical.com,accounts@jigschemical.com,info@jigschemical.com,x3eaccounts@jigschemical.com,",
Imexsu India,Companies(Private),Pune,"8/A, Vaibhav Industrial Estate, Next To SakiVihar Telephone Exchange, Baji Pasalkar Marg, Andheri East, Mumbai 400072, MH","+91-22-67488999, +91-22-28570339","last@icidyes.com,harin@dynaind.com,renu.dangi@croda.com,last@icidyes.com,harin@dynaind.com,renu.dangi@croda.com,",
Hamilton Paints Pvt Ltd,Companies(Private),Pune,"F/15, 1st Floor, Behind South City Mall, Katju Nagar, Kolkata 700032, WB",-9039000792,"ac1@heetu.co.in,x3eac1@heetu.co.in,",
Grand Polycoats Company Pvt Ltd,Companies(Private),Pune,"204, Siddharth Complex, RC Dutt Road, Alkapuri, Vadodara 390007, GJ","+91-265-3064201, +91-265-3064200",,
Graham Blowpack Pvt Ltd,Companies(Private),Pune,"47, Mittal Chambers, Nariman Point, Mumbai 400021, MH","+91-22-30287475, +91-22-30287476","subramaniam.arun@gtzworld.com,u003esubramaniam.arun@gtzworld.com,accounts@waldies.com,teena@waldies.com,u003esubramaniam.arun@gtzworld.com,connect@gtzworld.com,subramaniam.arun@gtzworld.com,accounts@waldies.com,teena@waldies.com,",
Glosil Silicaware Pvt Ltd,Companies(Private),Pune,"47, Narayana Mudali Sreet, Chennai 600079, TN",-25382808,"sales@gandharoil.com,exports@gandharoil.com,naveen.gupta@averest.co.in,vikassubspares@gmail.com,info@indiacoolant.com,sales@gandharoil.com,exports@gandharoil.com,naveen.gupta@averest.co.in,",
Glenrock Rubber Products Pvt Ltd,Companies(Private),Pune,"Building No 6-183/A, Mallikassery, Kottayam, Palai 686577, KL","+91-4822-226151, +91-4822-225867","homail@godavaripipe.com,gyaneshenterprises@finolexpipes.com,godavari@waterflo.in,gyaneshenterprises@finolexpipes.com,raja.andimuthu@gmail.com,x3ehomail@godavaripipe.com,",
Gauri Impex,Companies(Private),Pune,"303, 3rd Floor, Saraswati House, Nehru Place, New Delhi 110019, DL",-26445386,"gemplast99@gmail.com,u003egemplast99@gmail.com,cs@agindus.com,vinayak.khanvalkar@kanjcs.com,u003egemplast99@gmail.com,n@cal2.vsnl.net,vinayak.khanvalkar@kanjcs.com,x3ecs@agindus.com,",
Ellsworth Adhesives India Pvt Ltd,Companies(Private),Pune,"Unit No 1201, 12th Floor, Gopal Heights, Netaji Subhash, New Delhi 110034, DL",-45566145,"account@enzal.com,u003eaccount@enzal.com,idealchemicals@rediffmail.com,u003eaccount@enzal.com,account@enzal.com,account@enzal.com,account@enzal.com,enzal_arun@rediffmail.com,x3eidealchemicals@rediffmail.com,",
Elegant Fashion Fiber Chemicals Ltd,Companies(Private),Pune,"75/B, Christopher Road, Kolkata 700046, WB","+91-33-23282043, +91-33-23282045","siddhu@ens.net,enjay@enjaymarketing.com,exports@enjaymarketing.com,siddhu@ens.net.in,",
EcoChem India,Companies(Private),Pune,"310, Plot No B/65, Stanford Plaza, Off Link Road, Andheri West, Mumbai 400058, MH",-66987239,"emco@emcochemicals.com,u003eemco@emcochemicals.com,u003eemco@emcochemicals.com,ruchir@emcochemicals.com,",
Ducol Organics and Colours Pvt Ltd,Companies(Private),Pune,"15, Old Bangalipura, Mumbai 400003, MH","+91-22-43545000, +91-22-23429601","info@dynamicrubbers.com,info@dynamicrubbers.com,info@dynamicrubbers.com,dynamicandrubber@gmail.com,info@dynamicrubbers.com,info@dynamicrubbers.com,",
Dolphin Inks Pvt Ltd,Companies(Private),Pune,"214, Devendra Industrial Estate, Lokmanya Nagar, Thane West, Mumbai 400606, MH","+91-22-25881112, +91-22-25881049","durgapurpolymer@yahoo.co.in,u003edurgapurpolymer@yahoo.co.in,nitin.agarwal.spl@gmail.com,preeti@radiantindustries.in,info@dhingrapolymers.com,vijay@dhariyal.com,dhariyalp@gmail.com,u003edurgapurpolymer@yahoo.co.in,durgapurpolymer@yahoo.co.in,x3enitin.agarwal.spl@gmail.com,x3epreeti@radiantindustries.in,x3einfo@dhingrapolymers.com,x3evijay@dhariyal.com,x3edhariyalp@gmail.com,",
Demosha Chemicals Pvt Ltd,Companies(Private),Pune,"105-A, 210, Mittal Tower, Nariman Point, Mumbai 400021, MH","+91-22-22823558, +91-22-22852189","dpplho@gmail.com,u003edpplho@gmail.com,accounts@ayiswaryapolymers.com,accounts@ayiswaryapolymers.com,accounts@ayiswaryapolymers.com,tnkdppl@md2.vsnl.net.in,u003edpplho@gmail.com,knmohanram-unitc@devipolymers.com,tnkdppl@md2.vsnl.net.in,x22accounts@ayiswaryapolymers.com,x3eaccounts@ayiswaryapolymers.com,x3eaccounts@ayiswaryapolymers.com,",
Deepak Nitrite Ltd,Companies(Private),Pune,"Aditya 1, Near Keya Motors, National Highway 8, Chhami Road, Vadodara 390024, GJ","+91-265-2765200, +91-265-3960200",,
Decotouch Paints Ltd,Companies(Private),Pune,"3399, 2nd Floor, Mahindra Park Chowk, Ranibagh, Pitampura, New Delhi 110034, DL",-9212141681,"lalitkumar@desmetballestra.com,lalitkumar@desmetballestra.com,x3elalitkumar@desmetballestra.com,",
DCW Ltd,Companies(Private),Pune,"3rd Floor, Nirmal, Nariman Point, Mumbai 400021, MH","+91-22-22871914, +91-22-22871916","denischem401@gmail.com,denis@vivro.net,cs.denischem@gmail.com,denis@vivro.net,Denischem401@gmail.com,denis@vivro.net,cs.denischem@gmail.com,denis@vivro.net,Denischem401@gmail.com,x3edenischem401@gmail.com,",
Dawn Agrovet Pvt Ltd,Companies(Private),Pune,"A-73, Royal Orchid, Opposite Prahalad Nagar Garden, Corporate Road, Satellite, Ahmedabad 380054, GJ","+91-9712548680, +91-9426060822",,
Dattashri Enterprises,Companies(Private),Pune,"77/8, Kamthe Estates, Dangat Industrial Area, Shivne, Pune 411023, MH",-9403340269,"info@cscpl.com,purchase@cscpl.com,info@uscpl.net,hello@molkem.com,trisha_trauma@yahoo.com,Subscriber@ASAPPinfoGlobal.com,info@cscpl.com,purchase@cscpl.com,info@uscpl.net,hello@molkem.com,trisha_trauma@yahoo.com,Subscriber@ASAPPinfoGlobal.com,khyatichemicals@gmail.com,",
Dart Manufacturing India Pvt Ltd,Companies(Private),Pune,"12-13-1270/71, Door No 1, 2nd Floor, Maity Villi, Tarnaka, Secunderabad 500017, AP",-27158117,,
Crystal Crop Protection Pvt Ltd,Companies(Private),Pune,"B-95, Wazirpur Industrial Area, New Delhi 110052, DL","+91-11-49007100, +91-11-27006800","dakle_ad1@sancharnet.in,dakle_ad1@sancharnet.in,dakle_ad1@rediffmail.com,dakle_ad1@rediffmail.com,dakle_ad1@sancharnet.in,dakle_ad1@rediffmail.com,dakle_ad1@rediffmail.com,",
Citizen Plastic Industries,Companies(Private),Pune,"108, 1st Floor, Ramgopal Industrial Estate, Opposite Jawahar Talkies, Dr RP Road, Mulund West, Mumbai 400080, MH",+91-22-25656491,"rajibde@bergerindia.com,contactus@sblcoatings.com,commercial@sblcoatings.com,x3erajibde@bergerindia.com,",
Christ Nishotech Water Systems Pvt Ltd,Companies(Private),Pune,"EL-89, Electronic Zone, TTC Industrial Area, MIDC, Mahape, Navi Mumbai 400710, MH","+91-22-41288999, +91-22-41289000","sarwar.zariwala@jotun.com,anthony.wong@jotun.com,roc.chennai@mca.gov.in,sarwar.zariwala@jotun.com,anthony.wong@jotun.com,roc.chennai@mca.gov.in,",
Chemet Chemicals Pvt Ltd,Companies(Private),Pune,"D/63, Silver ARC Building, Near Gujarat Railway Crossing, Ellisebridge, Ahmedabad 380006, GJ",+91-79-26583242,"corporate@chambal.in,pnk@cheminova.net,rakesh.shejwal@aartigroup.cominfo,corporate@chambal.in,pnk@cheminova.net,rakesh.shejwal@aartigroup.cominfo,",
Caprihans India Ltd,Companies(Private),Pune,"Shivsagar Estate, Block D, DR Annie Besant Road, Mumbai 400018, MH","+91-22-30478664, +91-22-30478665",,
Bajaj Superpack Ltd,Companies(Private),Pune,"Imambada Road, Nagpur 440018, MH","+91-712-2720071, +91-9325132351","ritu.kohli@lyb.com,ritu.kohli@lyb.com,ritu.kohli@lyb.com,Customer.AFMEI@lyondellbasell.com,ritu.kohli@lyb.com,ritu.kohli@lyb.com,ritu.kohli@lyb.com,",
Bagadia Colourchem Ltd,Companies(Private),Pune,"317, 257, Mantri Kishor Arcade, Budhwar Peth, Pune 411002, MH",+91-9422089343,"accounts@gbdpl.com,cccl@wilnetonline.net,himanshumehta@basemetal.co.in,accounts@gbdpl.com,cccl@wilnetonline.net,basemetalgroup@gmail.com,",
Auxi Chem India & Company,Companies(Private),Pune,"9/454-4, Veenus School, CAK Road, Kumaran Nagar, Karur 639001, TN","+91-4324-241195, +91-4324-240295","narendra.tiple@evonik.com,J.Pillai@Uflexltd.Com,abdusaleemmp@gmail.com,j.pillai@uflexltd.com,manoj.pillai@evonik.com,narendra.tiple@evonik.com,",
Atul Ltd (Lalbhai),Companies(Private),Pune,"Valsad 396020, GJ",+91-2632-233261,"akja4678@gmail.com,akja4678@gmail.com,sales@avadhpolytubes.com,sales@avadhpolytubes.com,",
Aquaplast India,Companies(Private),Pune,"Door No 512, KRL Road, Kundanoor, Kochi 682304, KL",+91-484-2705874,"arihant.dyes.chemicals@gmail.com,pragnesh@arihantchemtex.com,momaiimpex@gmail.com,n.dyes.chemicals@gmail.com,",
Ajanta Chemical Industries,Companies(Private),Pune,"812/E-9,10,11, RIICO Industrial Area, Samtel Zone, Phase 3, Bhiwadi 301019, RJ",+91-1493-512266,"r.guha@akzonobel.com,adminppmai@ppmai.org,adminppmai@ppmai.org,grievancecell@progressiveshares.com,support@progressiveshares.com,investor.india@akzonobel.com,sxx@akzonobel.com,x3er.guha@akzonobel.com,",
Zulfikar Enterprises,Companies(Private),Pune,"1st Floor, Lido Building, Opposite S.N.D.T. University, Juhu Road, Santacruz West, Mumbai 400049, MH",+91-22-66916687,"subrata@foglagroup.com,udhav@foglagroup.com,udhav@foglagroup.com,subrata@foglagroup.com,udhav@foglagroup.com,udhav@foglagroup.com,",
Walsons Services Pvt Ltd (Securitas India),Companies(Private),Pune,"496, Corporate Resource Centre, Udyog Vihar, Phase-3, Gurgaon 122016, HR",+91-124-4718888,"PRABHATKUMAR6297@GMAIL.COM,",
VISION Management Services,Companies(Private),Pune,"105, 2-B, Sainanda Plaza, Vikas Complex, Agra Road, Castle Mill, Thane West, Mumbai 400601, MH","+91-22-25472348, +91-22-25472349","info@vrikshconsulting.com,info@vrikshconsulting.com,info@vrikshconsulting.com,info@vrikshconsulting.com,info@vrikshconsulting.com,info@vrikshconsulting.com,info@vrikshconsulting.com,info@vrikshconsulting.com,info@vrikshconsulting.com,info@vrikshconsulting.com,info@vrikshconsulting.com,info@vrikshconsulting.com,",
Vin Management Consultants Pvt Ltd,Companies(Private),Pune,"402, A-Wing, Dhuru Marg, Agar Bazar, Dadar West, Mumbai 400028, MH",+91-22-24366801,,
Turning Point Consultancy Pvt Ltd,Companies(Private),Pune,"2, 16,1, Reliaable Phoenix Towers, Museum Road, Bangalore 560 001, KA",+91-80-49016500,"unisonconsultant99@gmail.com,",
The School of Leadership (TSL),Companies(Private),Pune,"23, St.Thomas Town, Vinayak Temple Street, Ramaiah Layout, Bangalore 560084, KA",+91-80-41732777,"taplbangalore@airtelmail.in,gdpr@thomas.co.uk,taplbangalore@airtelmail.in,gdpr@thomas.co.uk,",
The Boston Consulting Group India Pvt Ltd,Companies(Private),Pune,"227, 14th Floor, Nariman Bhavan, Nariman Point, Mumbai 400021, MH",+91-22-67497000,,
The All Solutions,Companies(Private),Pune,"135-L, Raj Nagar, Ghaziabad 201001, UP",+91-9891234592,,
TFS Business Advisors India Pvt Ltd,Companies(Private),Pune,"8-D, Soami Nagar, New Delhi 110017, DL","+91-11-41749966, +91-11-26497007",,
Tekflair Consultants Pvt Ltd,Companies(Private),Pune,"11, 12, 1st Floor, Station Road, Kodambakkam, Chennai 600024, TN",+91-44-43456365,"adityakumarmittal@gmail.com,info@Propellasearch.com,ppshahandassociates@gmail.com,csg-unit@tcplindia.co.in,Vedpathak.Parikshit@bcg.com,hr@adani.in,Mumbai@gmcg.global,",
Tech Lead Consultants,Companies(Private),Pune,"8-2-603-B, 1-S, 2, 2nd Floor, Road No 10, Banjara Hills, Hyderabad 500034, TS",+91-9959400087,"fidele.sra@gmail.com,x3efidele.sra@gmail.com,vijayan.iyengar@tekflair.com,d-jane@tekflair.com,x3ekcnoida@gmail.com,kcnoida@gmail.com,",
Tata Quality Management Services (TATA),Companies(Private),Pune,"2nd Floor, Nanavati Mahalaya, Homi Mody Street, Fort, Mumbai 400001, MH",+91-22-66657701,"suresh@techlead-india.com,info@techlead-india.com,",
Superior Management Consultant,Companies(Private),Pune,"27, Naveen Park, Sahibabad, Ghaziabad 201005, UP",+91-120-4554064,"smisra@citelum.in,swapnilshinde2007@gmail.com,",
ST Shah & Co,Companies(Private),Pune,"301, Lalita Complex, Between Mithakhali, Jain Temple, Six Road, Navrangpura, Ahmedabad 380009, GJ",+91-79-26442930,"vishal@rightstepconsulting.com,stepconsulting.in@gmail.com,info@stepconsulting.org,u003einfo@stepconsulting.org,",
SPB Projects & Consultancy Ltd,Companies(Private),Pune,"Esvin House, Rajiv Gandhi Salai, Perungudi, Chennai 600096, TN","+91-44-39279300, +91-44-39279415",,
"Singh & Associates, Advocates & Solicitors",Companies(Private),Pune,"30-N, Malviya Nagar, New Delhi 110017, DL","+91-11-46665000, +91-11-26687993","yashwant@skoch.in,",
SIGN Consulting,Companies(Private),Pune,"1612, Asmangadh, SBH Colony, Malakpet, Hyderabad, 500036, TS",+91-9000535356,"ashish@singlepointhr.co.in,x3eaccounts@rshrteamsolutions.com,accounts@rshrteamsolutions.com,",
Shree Placement Services,Companies(Private),Pune,"59-E, 2nd Floor, Hari Bhawan, Pandav Nagar, Patpar Ganj, New Delhi 110091, DL","+91-11-65491441, +91-11-65491442","events@siegergroups.com,rajkumar@siegergroups.com,",
Shape Resource,Companies(Private),Pune,"21, 3rd Floor, PNB Bank Building, Silvassa Vapi Main Road, Silvassa 396230, DH",+91-9974851010,"shreeplacement@hotmail.com,",
Sanblue Corporation Ltd,Companies(Private),Pune,"202-203, Sapphire Complex, Near Cargo Motors, C.G.Road, Ahmedabad 380009, GJ",+91-79-26640047,"x3ekcnoida@gmail.com,fidele.sra@gmail.com,kcnoida@gmail.com,sales@zenithengg.com,zenith@vsnl.net,x3efidele.sra@gmail.com,ashutosh.pgjco@gmail.com,",
Sai Geotechnical Engineers Pvt Ltd,Companies(Private),Pune,"826, 22, Indraprastha Apartment, Shalimar Garden, Sahibabad, Ghaziabad 201005, UP",+91-120-2649279,"vdkassociates@gmail.com,u003evdkassociates@gmail.com,sisplnsk@gmail.com,info@samarthlife.com,samarthfacility20100@gmail.com,prdeshpande@yahoo.com,",
Renergetics Consulting Pte Ltd,Companies(Private),Pune,"903, Live Bridge, Heera Nandani Medows, Thane West, Mumbai 400610, MH",+91-22-41007511,"roc.chennai@mca.gov.in,ganesh.chandrasekaran@rgp.com,",
Quest Executive Services & Business Consultants Pvt Ltd,Companies(Private),Pune,"127, Unique Industrial Estate, Twin Tower, Prabhadevi, Mumbai 400025, MH","+91-33-24743824, +91-33-24544897","niti_dewan@rkdewanmail.com,",
QueLabs Technologies Pvt Ltd,Companies(Private),Pune,"7,11, 9, Gayatri Heights, Jai Hind Gandhi Road, Madhapur, Hyderabad 500081, TS",+91-40-64605605,,
Quanzen,Companies(Private),Pune,"163, 10-E, Harshvihar, Aundh, Pune 411007, MH",+91-9673996308,"qa@spectro.in,u003eaccounts@qvccert.com,accounts@qvccert.com,cemark@qvccert.com,",
Pyramid Engineering & Consulting Pvt Ltd,Companies(Private),Pune,"6th Floor, Think Techno Campus, FF Eastern Express Highway, Pokhran Road No 2, Mumbai 400607, MH",+91-22-62121000,"bharathh@qualitreeinc.com,",
Purple Solutions,Companies(Private),Pune,"394, 1st Floor, YMK Plaza, Dr. Rajkumar Road, Bangalore 560010, KA",+91-9886073446,"ahmedabad@vil.co.in,srasia.india@gmail.com,",
Prudential Travels Pvt Ltd,Companies(Private),Pune,"11-G, M.G Road, Mulund West, Mumbai 400080, MH","+91-22-61533000, +91-22-25916477","ramesh@pyramidci.com,accounts@pyramideservices.com,HR@pyramidci.com,",
Pragna Technologies,Companies(Private),Pune,"407, Aditya Enclave, Ameerpet, Hyderabad 500038, TS","+91-40-40036678, +91-40-64575775","sagarjha1974@gmail.com,rp_proactiveconsultant@hotmail.com,delhi@proactive.co.in,info@companydetails.in,pcpl@proactiveconusltant.com,proactiveconstruction14@gmail.com,",
Pinnacle Sourcing & Consultancy Pvt Ltd,Companies(Private),Pune,"43-C, Sushant Lok, Phase-2, Sector-56, Gurgaon 122002, HR","+91-124-4109791, +91-124-4109794",,
PeopleLogic Business Solutions,Companies(Private),Pune,"1st Floor, S.S Commercial Estate, Nagvarapalya, Raman Nagar, Bangalore 560093, KA",+91-80-43402222,"investor@bigshareonline.com,",
PD Rungta & Co,Companies(Private),Pune,"317, 21, 3rd Floor, Hemanta Basu Sarani, Kolkata 700001, WB",+91-33-30282500,"x3ejsamuel@peoplelogic.in,jsamuel@peoplelogic.in,",
Pacific Networks,Companies(Private),Pune,"2, Satyendra Bhavan, Opposite Pinky Cinema, New Nagardas Road, Andheri East, Mumbai 400069, MH","+91-22-61617857, +91-22-49469649","Parthimpex16@gmail.com,parthagroimpex@gmail.com,",
Oyster HR Solutions Pvt Ltd,Companies(Private),Pune,"236, Powai Plaza, Hiranandani Gardens, Powai, Mumbai 400076, MH",+91-22-25707750,,
OneCert Asia Agri Certification Pvt Ltd,Companies(Private),Pune,"8-H, Industrial Area, Mansarovar, Jaipur 302020, RJ","+91-141-6541882, +91-141-2395481","otctvm@gmail.com,",
Ocean Sky Security & Placement India Pvt Ltd,Companies(Private),Pune,"106-F, 1st Floor, Ashirwad Complex, Near Biyani Girls College, Vidydhar Nagar, Jaipur 302023, RJ",+91-141-5105128,,
MSD Aviation Pvt Ltd,Companies(Private),Pune,"31-C, Nathu Singh Market, Masoodpur, Vasant Kunj, New Delhi 110070, DL",+91-11-26139315,,
"Mettl, Inc",Companies(Private),Pune,"97, Near Whirpool Building, Sector-44, Gurgaon 122003, HR",+91-9555114444,,
Mancer Consulting Services Pvt Ltd,Companies(Private),Pune,"27-H, 1, 2nd Floor, Jia Sarai, Near IIT Delhi Hauz Khas, New Delhi 110016, DL",+91-11-66417200,"devbvca@gmail.com,",
Mainstream Technologies India Pvt Ltd,Companies(Private),Pune,"3rd Floor, Near Dadar Station, Civic Center, MMGS Marg, Dadar East, Mumbai 400014, MH","+91-22-40448800, +91-22-40409400","contactus@manford.co.in,bhatin@bhatin.com,",
Mai Indolink Consulting Pvt Ltd,Companies(Private),Pune,"16, 282, Raisoni industrial Park, Mulshi, Pune 411057, MH",+91-20-64731585,,
Lawcombine Advocates,Companies(Private),Pune,"59-B, Sarvodaya Enclave, New Delhi 110017, DL","+91-11-41011571, +91-11-41011574",,
Krisvin Personnel,Companies(Private),Pune,"271, 1st Floor, Mottapa Gardern Indrapuram, Bangalore 560008, KA",+91-9900179285,,
KPMC & Associates,Companies(Private),Pune,"1-C, 1st Floor, R.D.C. Raj Nagar, Ghaziabad 201002, UP","+91-120-4119416, +91-9810709268","delhi@kvqaindia.com,accounts@kvqaindia.com,kvqa@satyam.net,",
Kitco Ltd,Companies(Private),Pune,"4407, National Highiway Vennala Cochin, Puthiya Road, Kochi 682028, KL","+91-484-4129000, +91-484-2357437","reachus@cornertreeconsulting.com,deepak@knowledge-tree.in,info@cornertreeconsulting.com,",
Kirpalaney & Associates Engineers Pvt Ltd,Companies(Private),Pune,"213, 809, 8th Floor, Raheja Chambers, Nariman Point, Mumbai 400021, MH",+91-22-22854255,"info@cvpl.in,anil.kalwala@kcapital-us.com,unityhealthservicespvtlimited@gmail.com,x3einfo@cvpl.in,",
JPA Solutions,Companies(Private),Pune,"2, 2nd Floor, VSR Complex, Link Road, Velachery, Chennai 600042, TN","+91-44-45008181, +91-44-45006161",,
Joshi Management Consultancy,Companies(Private),Pune,"401-A, 4th Floor, Opposite Gokulanand Hotel, W.E. Highway Dahisar, Mumbai 400068, MH","+91-22-28953815, +91-9821119228",,
I-Tech System,Companies(Private),Pune,"104, 1st Floor, Sanmitra Apartment-B, Opposite NBT Law College, College Road, Nashik 422005, MH","+91-253-2582186, +91-253-2580086",,
iRekruit,Companies(Private),Pune,"742-A, Sushant Lok-I, Near IFFCO Chowk, Metro Station, Gurgaon 122002, HR",+91-124-4047830,,
Indian Institute of Training & Development (IITD),Companies(Private),Pune,"26, Cunningham Road, Bangalore 560052, KA","+91-80-40509200, +91-7411576332","mkedia@infinityitpark.com,inderpreet1791@gmail.com,infinity.incometax@gmail.com,manvendra232@gmail.com,",
Impression & Beyond,Companies(Private),Pune,"12, Dar Ul Khalil, Shahid Bhagatsingh Road, Colaba, Mumbai 400001, MH",+91-22-22820482,"OSE.SECRETARIAL@GMAIL.COM,",
Imperative India Pvt Ltd,Companies(Private),Pune,"209-A, 2nd Floor, Opposite Bank of Baroda, MG. Road, Ghatkopar West, Mumbai 400086, MH",+91-22-65343445,,
I Square Soft Consulting,Companies(Private),Pune,"90, Ganga Nagar, Bangalore 560032, KA","+91-80-41284021, +91-80-41284014","kundan87@gmail.com,",
HR Sangam,Companies(Private),Pune,"34, 38, 4th Floor, Sri Krishna, 3rd Main Road, Raja Annamalaipuram, Chennai 600028, TN",+91-44-42102424,"cgsacsprivateart@gmail.com,chandigarhsacs.pvt@gmail.com,prakashchandra@hotmail.com,",
HGS International Services Pvt Ltd,Companies(Private),Pune,"4-A, 4th Floor, Summerville, 33rd Road, Bandra West, Mumbai 400050, MH",+91-22-42003717,"ahmedabad@uhr.co.in,qamar.travels@yahoo.com,hr@adani.in,roc.chennai@mca.gov.in,ahmedabad@uhr.co,",
Helix Technologies,Companies(Private),Pune,"28, 1st Floor, NS Palya, Bangalore 560076, KA",+91-80-26787144,"roc.chennai@mca.gov.in,",
Grossky Infra Solutions LLP,Companies(Private),Pune,"Laxmisagar, Bhubaneswar 751006, OD",+91-9778825753,"ahmedabad@pdamepconsultants.com,kamat_gm@rediffmail.com,",
Genesis Zeal Multi Solutions Pvt Ltd,Companies(Private),Pune,"70-A, 2nd Floor, Sector 15, Gautam Budh Nagar, Noida, ,201301, UP",+91-120-4149300,"xxxx@gherzieastern.com,duvvuridp@gmail.com,u003eaccounts@gherzi.in,accounts@gherzi.in,",
Genesis Solutions (India),Companies(Private),Pune,"7, Panchdeep Apartments ITI Road, Aundh, Pune 411007, MH",+91-20-25890636,"mails_0102@yahoo.com,jocelyn.vigreux@tomtom.com,microexports@ir.bosch.com,gcepl_76@yahoo.com,GHARPURE03@GMAIL.COM,",
Fox Data Services Pvt Ltd,Companies(Private),Pune,"49-A, Data Ram Park, Near Radha Swami Satsang Bhawan, Deenpur, Najafgarh, New Delhi 110043, DL",+91-9529881154,"finance@merlinprojects.com,ranvir.suneel@gmail.com,",
Fortune Shapers,Companies(Private),Pune,"4-B, Jhabha Tower 170, Near Central Mall, RNT Marg, Indore 452001, MP",+91-731-4245699,"rabindra.p@nic.in,first@fullerenesolutions.com,taxmantra.com@gmail.com,",
Finmatrix Strategic Consulting Pvt ltd,Companies(Private),Pune,"58, 6, Whitefield Main Road, Maheswari Nagar, Mahadevapura, Bangalore 560048, KA",+91-8553025165,"jane@focusonit.com,vipul@focusonit.com,",
Fastline Homes & Properties,Companies(Private),Pune,"2nd Floor, Ambady Building, Shenoys Junction, M.G. Road, Ernakulam 682035, KL","+91-484-2364447, +91-484-2372609","hemlata.k@finiq.com,",
Facilities And Building Solutions Pvt Ltd (FABS),Companies(Private),Pune,"856, 1st Floor, Indira Nagar, Bangalore 560038, KA","+91-80-41520118, +91-80-41520119","accounts@chn.fichtner.co.in,sales@fichtner.co,accounts@fichtnerindia.com,chennai@stupmail.com,bdt@fichtnerindia.com,",
Esync Business Solutions,Companies(Private),Pune,"Uthamar Gandhi Road, Nungambakkam, Chennai 600034, TN",+91-44-30045279,"ansingh_200547@rediffmail.com,cashalinirai@gmail.com,",
Emilestones,Companies(Private),Pune,"13-C, Kailash Complex, Vikhroli Park, Behind Godrej Residential Colony, LBS Marg, Vikhroli West, Mumbai 400079, MH",+91-22-40794567,"eil.mktg@eil.co.in,rajiv.ranjan@ceil.co.in,",
ELGIVA Business Solutions Pvt Ltd,Companies(Private),Pune,"777- F, 3rd Floor,100 Feet Road, Indira Nagar, Bangalore 560038, KA",+91-80-40348888,"resume@employmail.com,accounts@ssn.co.in,",
ElenchusHR,Companies(Private),Pune,"21, Electronic City, Sector-18, Gurgaon 122001, HR",+91-124-4265670,,
Eduquity Career Technologies Pvt Ltd,Companies(Private),Pune,"433, 1st C Main, Extension Koramangala, Bangalore 560095, KA","+91-80-43436000, +91-80-25702796","shalaka@finsmart.co.in,jane@finsmart.co.in,",
E Z BioXcel Solutions Pvt Ltd,Companies(Private),Pune,"7th Floor, Tower A, DLF Cyber City, Gurgaon 122002, HR",+91-124-4564000,"mjaiswal@edcil.co.in,techsupport@edcil.co.in,mjaiswal@edcil.co,mrbehera@edcil.co.in,sdey@edcil.co.in,x3emrbehera@edcil.co.in,sdey@edcil.co,",
Dutch Business Partners India Pvt Ltd,Companies(Private),Pune,"31, 2nd Floor, Shrimali Society, Opposite Navrangpura Police Station, Ahmedabad 380006, GJ",+91-9687617569,,
Dragon Sourcing India,Companies(Private),Pune,"601-A, Mota Mahal Lokhandwalla Complex, Andheri West, Mumbai 400053, MH",+91-9867602535,"toon.laurensse@dutchbusinesspartners.com,",
Cube Infotech,Companies(Private),Pune,"248, 4th Floor, Rajaji Nagar, Bangalore 560010, KA",+91-80-28612147,"bimalokpal.kolkata@gbic.co.in,",
Creation Consultants,Companies(Private),Pune,"10-C, Kutchery Road, Allahabad 211002, UP",+91-9838141763,"info@crystalscreening.com,",
Crawford Bayley & Co,Companies(Private),Pune,"State Bank Annexe Building, N.G.N Vaidya Marg, Mumbai 400023, MH","+91-22-22660699, +91-22-22663713","susheelavenkateshrao@gmail.com,",
Convergence Catalyst,Companies(Private),Pune,"8, Tower 1, Cessna Business Park, Marthahalli-Sarjapur ORR, Bangalore 560103, KA","+91-9632090131, +91-9008422500","pankaj.kumar@ihsglobalinsight.com,sales@theinsightpartners.com,",
Chandrakant M. Joshi & Co,Companies(Private),Pune,"6th Floor, Vishwananak, Chakala Road, Andheri East, Mumbai 400099, MH","+91-22-28380848, +91-22-28324920","vineetasengupta@chrglobal.com,",
Cedar Management Consulting Pvt Ltd,Companies(Private),Pune,"703, Nirman Kendra, E Moses Road, Mahalaxmi, Mumbai 400011, MH",+91-22-66619800,"marketing@ceil.co,g.suresh@ceil.co.in,",
Cats Eye HR Pvt Ltd,Companies(Private),Pune,"Sree Narayana Bhavan, Kalathilparambil Road, Cochin, Ernakulam 682016, KL","+91-484-2375454, +91-484-2378484","mumbai@safewaytpa.in,generalpublicenquiries-in@shell.com,crpc@rbi.org.in,",
Catalyst Consulting Services,Companies(Private),Pune,"158, Lenin Sarani, Basement Room No 43, Kolkata 700013, WB",+91-33-40050069,"finance@exploreceo.com,",
Career Shapers Hr Consulting Pvt Ltd,Companies(Private),Pune,"7-A, 1st Floor, Saraswati Vihar, Near Dipali Chowk, Outer Ring Road, New Delhi 110032, DL","+91-11-27023956, +91-9811269746","vandana.arun@soprasteria.com,cassol.dr@cassiopae.com,ssn@everestconsulting.netLocation,8yr@shansolar.com,",
C&K Management Ltd,Companies(Private),Pune,"1-8-303, 48, 12, Prenderghast Road, Secunderabad 500003, AP","+91-40-66765000, +91-40-66765001","aruna@careercatalysts.com,",
Brainsearch Consulting Pvt Ltd,Companies(Private),Pune,"4-C, Sector-51, Noida 201301, UP","+91-120-2480270, +91-120-2481910",,
Black and White Business Solutions Pvt Ltd,Companies(Private),Pune,"58, 1st Cross, HAL 3rd Stage, Indra Nagar, Bangalore 560076, KA","+91-80-41152994, +91-80-41611744",,
ATZ Consultants,Companies(Private),Pune,"8-C, 286, Sector 8, Rohini, New Delhi 110085, DL",+91-11-27940645,,
Aspire Hr Solutions Pvt Ltd,Companies(Private),Pune,"18-K, Som Bazaar Road, Sector-4, Dwarka, New Delhi 110059, DL","+91-11-45647261, +91-11-32325888",,
Archon Consulting Systems Pvt Ltd,Companies(Private),Pune,"9, 675, 1st Floor, Indira Nagar, Bangalore 560038, KA",+91-80-42229840,"sampathjm@vsnl.com,sampath@arpitha.com,",
Aquatherm Engineering Consultants India Pvt Ltd,Companies(Private),Pune,"2nd Floor, St. Thomas Building, 150 Luz Church Road, Mylapore, Chennai 600006, TN","+91-44-24660462, +91-44-24660464","JohnSmith@arimaan.com,",
Altacit Global,Companies(Private),Pune,"148-150, 3rd Floor, Luz Church Road, Mylapore, Chennai 600004, TN",+91-44-24984821,"abhinavkondal@gmail.com,",
All India Federation of Tax Practitioners,Companies(Private),Pune,"31, 215, Rewa Chambers, New Marine Lines, Mumbai 400020, MH",+91-22-22006342,"mumbaidacs.private@gmail.com,",
Alea International Consulting Pvt Ltd,Companies(Private),Pune,"34-F, Connaught Place, New Delhi 110001, DL","+91-9810312767, +91-11-43678888","shreeleshnambiar@yahoo.co.in,",
AJEETS Management & Manpower Consultancy,Companies(Private),Pune,"407-A, Western Edge, Phase 2, W.E Highway, Mumbai 400066, MH","+91-22-28706080, +91-22-28706081","arkkagency@gmail.com,al_ghori@hotmail.com,innsys@vsnl.com,",
AF-Consult India Pvt Ltd,Companies(Private),Pune,"25-C, 19, G.F. Tower-1, Stellar IT Park, Noida 201301, UP",+91-120-4185500,"u003esameer@absolutehotelservices.com,sameer@absolutehotelservices.com,akhil@ahsgroup.in,",
ACE Vision Health Consultants Pvt Ltd,Companies(Private),Pune,"6-SP, APEX Hospital, Malviya Industrial Area, Malviya Nagar, Jaipur 302017, RJ",+91-9829053136,,
Ace International Consultancy,Companies(Private),Pune,"29-G, Sector-41, Noida 201301, UP","+91-120-4318587, +91-120-4225109","helpdesk@acmeconsultants.co.in,u003elimitedconsultant@gmail.com,acme.kolkata@gmail.com,limitedconsultant@gmail.com,",
Abner Group,Companies(Private),Pune,"1, 1st Floor, Sireesh Gowda Complex, New Kavalbyrasandra Extension, KHB Main Road, RT Nagar, Bangalore 560032, KA",+91-80-65777110,"Vaishali.Rajadhyaksha@willistowerswatson.com,ashish.sen@acclaris.com,",
Aambridge Staffing Solutions,Companies(Private),Pune,"22-G, Near Metro Station, Sector-3, Noida 201301, UP",+91-9560183000,"admission@abcstudylinks.com,",
AAA Compliances,Companies(Private),Pune,"349, 1st Floor, Lakda Market, Markandeya Mandir, Kalyan Road, Bhiwandi 421302, MH",+91-2522-249584,"jayna.kothari@gmail.com,dua.hr@duaassociates.com,abacus@abacuslegalgroup.net,hsajmani.law@gmail.com,xxxx@abacustech.com,",
A G P International Services,Companies(Private),Pune,"963, 11, Crescent Court, Periyar E.V.R High Road, Chennai 600084, TN",+91-44-44450000,"a1mncpvtltd@gmail.com,u003ecompliance@wwindia.com,deepsoffice@yahoo.com,info@a1hr.in,compliance@wwindia.com,",
Varam Capital Pvt Ltd,Companies(Private),Pune,"2nd Floor, North Wing, Rashmi Towers, 1, Valluvarkottam High Road, Nungambakkam, Chennai 600034, TN",+91-44-65150015,"guptananda123@yahoo.co.in,manopinkfb@gmail.com,backoffice@venimail.com,",
The Deccan Merchants Co-op. Bank Ltd,Companies(Private),Pune,"217, Raja Rammohan Roy Road, Girgaum, Mumbai 400004, MH","+91-22-23868134, +91-22-24223116",,
Star Union Dai-ichi Life Insurance Company Ltd,Companies(Private),Pune,"11th Floor, Vishwaroop IT Park, Plot 34, 35 & 38, Sector 30A, Vashi, Navi Mumbai 400703, MH","1800-266-8833, +91-22-39546200, +91-22-39546234","kalpesh@stcipd.com,u003ekalpesh@stcipd.com,pradeep@stcipd.com,first@stcipd.com,",
Santosh Kumar Kejriwal Securities Pvt Ltd,Companies(Private),Pune,"6th Floor, Govind Bhawan 2, Brabourne Road, Kolkata 700001, WB",+91-33-22254840,"inf@sksesl.com,",
Sakthi Finance Ltd (Sakthi),Companies(Private),Pune,"New 62, Dr Nanjappa Road, Coimbatore 641018, TN","+91-422-2231471, +91-422-2231472","santosh@kejriwalgroup.in,skkspl@kejriwalgroup.in,nictitatevalueindia@gmail.com,pawan@kejriwalgroup.in,",
Regal Entertainment & Consultants Ltd,Companies(Private),Pune,"24, Gunbow Street, Fort, Mumbai 400001, MH","+91-22-22612811, +91-22-22612822",,
Predictive Research,Companies(Private),Pune,"142, 7th Block, RLF Residency, JP Nagar, Bangaluru 560062, KA",+91-9538093274,,
Niche Technologies Pvt Ltd,Companies(Private),Pune,"D-511, Bagree Market, 71, BRB Basu Road, Kolkata 700001, WB","+91-33-22357270, +91-33-22357271","nichetechpl@nichetechpl.com,x3esourav.daga@met-technologies.com,",
Lighthouse Advisors India Pvt Ltd,Companies(Private),Pune,"102-B, Hallmark Business Plaza, Guru Nanak Hospital Road, Bandra East, Mumbai 400051, MH",+91-22-42041000,,
Latin Manharlal Securities Pvt Ltd,Companies(Private),Pune,"Viraj Building, 5th Floor, 124, Opposite ICICI Bank, SV Road, Khar West, Mumbai 400052, MH","+91-22-40350100, +91-22-40824082","virendra.pednekar@lmspl.com,lms@lmspl.com,",
KBS India Ltd,Companies(Private),Pune,"502, Commerce House, 140, Nagindas Master Road, Fort, Mumbai 400001, MH",+91-22-40362626,"investors@kbs.co.in,abhay.pande@poonawallafincorp.com,Messageinfo@kbsindustries.in,",
Kashi Gomti Samyut Gramin Bank,Companies(Private),Pune,"C-19/40, Faatman Road, Sigra, Varanasi 221002, UP","+91-542-2220752, +91-542-2227164",,
Jindal Poly Investment and Finance Company Ltd (Jindal),Companies(Private),Pune,"Plot 12, Local Shopping Complex, Sector B-1, Vasant Kunj, New Delhi 110070, DL",+91-11-26139256,"cs_jpoly@jindalgroup.com,x3ecs_jpoly@jindalgroup.com,cs_jpifcl@jindalgroup.com,cs_jplfcl@jindalgroup.com,",
Japan Bank for International Cooperation,Companies(Private),Pune,"1st Floor, Bangla Sahib Road, New Delhi 110001, DL",+91-11-43522900,"customerservice.india@jpmorgan.com,",
Instanex Insurance Brokers Pvt Ltd,Companies(Private),Pune,"83, Maker Chambers 3, Nariman Point, Mumbai 400021, MH",+91-22-22828513,"x3ecare@policybazaar.com,pioneer@pioinsure.com,pranav.kapadia@globalinsurance.co.in,x3epranav.kapadia@globalinsurance.co.in,pioneer@bom2.vsnl.net.in,care@policybazaar.com,",
Hongkong & Shanghai Banking Corporation Ltd (HSBC),Companies(Private),Pune,"52/60, 2nd Floor, HSBC Building, MG Road, Fort, Mumbai 400001, MH","+91-22-40891300, +91-22-66536001",,
Future Consumer Enterprise Ltd (Future),Companies(Private),Pune,"Tower C, 24/7 Park, LBS Marg, Vikhroli West, Mumbai 400083, MH","+91-22-61994025, +91-22-61994295, +91-22-61190000","investor.care@futureconsumer.in,x3einvestor.care@futureconsumer.in,",
Frontline Capital Services Ltd,Companies(Private),Pune,"B 22, Sector 4, Noida 201301, UP","+91-120-2534067, +91-120-2534066","frontlineffc.pune@gmail.com,FCSL321@gmail.com,",
Firstcall India Equity Advisors PvtLtd,Companies(Private),Pune,"SEBI Registered Category, I Merchant Bankers, 3rd Floor, Sankalp, The Bureau, Dr RC Marg, Chembur, Mumbai 400071, MH","+91-22-25276077, +91-22-25276089","info@firstcallindia.com,",
Elephant India Advisors Pvt Ltd,Companies(Private),Pune,"1st Floor, ASHI Bhawan, 19 Rouse Avenue, New Delhi 110002, DL",+91-11-43208000,"SKathuria@elephantcapital.com,skathuria@elephantcapital.com,",
Credit Nation,Companies(Private),Pune,"F-213 B, Level 1, Rear Block, Lado Sarai, New Delhi 110030, DL",+91-11-42854285,"customercare@dmifinance.in,x22care@paisabazaar.com,kosuke.mori@creditsaison-ap.com,cs.loantapcredit@help.loantap,partnerships@creditsaison-in.com,care@paisabazaar.com,grievance@aeoncredit.co.in,care@homecredit.co.in,agmcustomerservice@mahabank.co,cs.loantapcredit@help.loantap.in,grievance@aeoncredit.co,info@creditfair.in,x3ecare@paisabazaar.com,care@homecredit.co,",
Corporate Strategic Allianz Ltd,Companies(Private),Pune,"402, 808, Samedh Complex, Near Associated Petrol Pump, Chimanlal Girdharlal Road, Ellisbridge, Ahmedabad 380006, GJ","+91-79-40024670, +91-9898204753","x3ehelp.in@allianz.com,mayur9776@gmail.com,help.in@allianz.com,",
Caregrowth Broking Pvt Ltd,Companies(Private),Pune,"Keyu complex, 3rd Floor, Near GPO, MG Road, Rajkot 360001, GJ","+91-281-2230787, +91-281-3053971, +91-281-3053972",,
Capital Square Advisors Pvt Ltd,Companies(Private),Pune,"208-209, Aarpee Centre, 2nd Floor, CTS 70, MIDC Road 11, Andheri East, Mumbai 400093, MH",+91-22-66849999,"info@capitalsquare.in,",
Bharatiya Mahila Bank Ltd,Companies(Private),Pune,"IFCI Towers, 9th Floor, 61, Nehru Place, New Delhi 110019, DL",+91-11-47472100,"info@bfil.co.in,shima.devi@bmb.co.in,",
Bhagwandas Gordhandas Financial Pvt Ltd,Companies(Private),Pune,"Cama Building, 4th Floor, Dalal Steet, Fort, Mumbai 400023, MH","+91-22-22656363, +91-22-22657373","bgpvt@yahoo.com,",
BgSE Financials Ltd,Companies(Private),Pune,"51, ""Stock Exchange Towers"", 1st Cross, JC Road, Bangaluru 560027, KA","+91-80-41575553, +91-80-41575234, +91-80-41575235","avp_dp@bfsl.co.in,x3edp_mail@bfsl.co.in,x3ecs@bfsl.co.in,cs@bfsl.co.in,dp_mail@bfsl.co.in,ceo@bfsl.co.in,x3eceo@bfsl.co.in,x3eavp_dp@bfsl.co.in,",
Bajaj Capital Ltd (Bajaj),Companies(Private),Pune,"5th Floor, 97, Bajaj House, Nehru Place, New Delhi 110019, DL","+91-11-67000000, +91-11-41693000","care@bajajcapital.com,x22info@bajajcapital.com,x3einfo@bajajcapital.com,info@bajajcapital.com,dp@bajajcapital.com,",
Ad Manum Finance Ltd (Agarwal House),Companies(Private),Pune,"Agarwal House, 5, Yeshwant Colony, Indore 452003, MP","+91-731-4714000, +91-731-2538874","mukeshbafna@mwbgroups.com,cs@admanumfinance.com,ho@admanumfinance.com,",
Nutcracker Technologies,Companies(Private),Pune,,,"shishir.thakur2005@gmail.com,shishir@nutcracker.tech,jane@nutcracker.co.za,",
Composite Investments Pvt Ltd,Companies(Private),Pune,"30/1, SJ Towers, 3rd Floor, Mission Road, Bangaluru 560027, KA","+91-80-41145828, +91-80-41145829","lifinsfinancial@gmail.com,",
MetLife India Insurance Company Ltd,Companies(Private),Pune,,,"x3eclaimshelpdesk@pnbmetlife.com,bimalokpal.pune@cioins.co.in,indiaservice@pnbmetlife.co.in,",
Unitherm Engineers Ltd,Companies(Private),Pune,"109-A, Boomerang, Chandivali Farm Road, Andheri East, Mumbai 400072, MH",+91-22-42204848,"corporate@unithermfurnaces.com,sxxxxxj@unithermfurnaces.com,bakshi@unithermfurnaces.com,",
Optomech Engineers Pvt Ltd,Companies(Private),Pune,"3-A, Prasahanthi, Kukatpally, Hyderabad 500072, TS",+91-40-23078371,"info@optomech.in,sales@optomech.in,",
Lancer Laser Tech Ltd,Companies(Private),Pune,"1434-P/2, Chhatral Mehsana National Highway, Rajpur, Mehsana 382715, GJ",+91-9099050263,"info@lancerlaser.com,dhaval@lancerlaser.com,",
RS Components and Controls India Ltd,Companies(Private),Pune,"74-B, Sector 60, Noida 201301, UP",+91-120-4519100,"9100_sales@rs-components.co,sales@rs-components.co.in,orders@rs-components.co.in,lalit.khanna@trimaster.co,lalit.khanna@trimaster.co.in,x3esales@rs-components.co.in,",
Lubi Electronics,Companies(Private),Pune,"Karai Gam Patia Brignt College, Sardar Patel Ring Road, Gandhinagar Nara Choroda, Ahmedabad 380025, GJ",+91-79-39845300,"jhaverishah@yahoo.com,customersupport@lubipumps.com,",
ADI Automotives Pvt Ltd,Companies(Private),Pune,"Delhi Jaipur Highway, Binola Industrial Zone, Gurgaon 122413, HR",+91-124-2017314,"ashish@adiautomotives.com,",
Indian SEO,Companies(Private),Pune,,,"business@seoindiahigherup.com,info@brandstory.in,",
Aurionpro Solutions Ltd,Companies(Private),Pune,,,"investor@aurionpro.com,x3einfo@aurionpro.com,",
Sparsh BPO Services Ltd ,Companies(Private),Pune,,,"complianceofficer@sparshindia.com,",
CEAT Ltd,Companies(Private),Pune,,,"investors@ceat.in,x3einvestors@ceat.com,pxxxxxp@ceat.com,name.surname@ceat.com,investors@ceat.com,",
Verizon Communications,Companies(Private),Pune,,,"jane.doe@verizon.com,John@verizon.com,manvendra.singh@intl.verizon.com,JSmith@verizon.com,x3ejane.doe@verizon.com,x3eJSmith@verizon.com,x3eJohn@verizon.com,",
