Name,Sector,City,Address,Phone,Email,Lat-Long
ABS FITNESS CAMP. PUNE,Gym,Pune,"15+ years in business Â· Atur Foundation House, 4, Dr Baba Saheb Ambedkar Rd, Above Jawaharlal Nehru Memorial Hall",Open â‹… Closes 11â€¯pm Â· 020 4861 3524,,"18.5197909,73.8732787"
Pehellwaan gym camp pune,Gym,Pune,"3+ years in business Â· 3rd Floor, Taboot Street saifi lane Opp oyo town house Oswal building",Open â‹… Closes 11â€¯pm Â· 077220 33403,,"18.5158503,73.8755144"
Gryt.Fit,Gym,Pune,"5+ years in business Â· Level 2, Hermes Palazzo, opposite St Anne's School",Open â‹… Closes 10â€¯pm Â· 098506 02141,"grytfitness@gmail.com,,","18.5215874,73.8114229"
"B2B Gym, Best Gym In Aundh & Baner",Gym,Pune,"5+ years in business Â· 2nd floor, B-wing, Astral Court, Opposite Gaikwad Petrol Pump/Peter Donuts",Open â‹… Closes 10â€¯pm Â· 094223 21788,,"18.5575991,73.8018174"
Anytime Fitness Pune | Gym Near Me Viman Nagar,Gym,Pune,"4th floor, 10 Biz Park, beside Symbiosis Law School Road",Open 24 hours Â· 090223 85408,,"18.5752153,73.9071384"
"ABS FITNESS- ICC SB ROAD. GYM on SB ROAD. GYM Near model Colony, FC ROAD. DECCAN",Gym,Pune,"15+ years in business Â· 9th Floor, ICC Tech Park, Tower B, B Wing, Senapati Bapat Rd",Open â‹… Closes 10â€¯pm Â· 097632 15051,,"18.5355838,73.8274181"
Fitness365 Gym - Committed To Be Fit,Gym,Pune,"7+ years in business Â· A, Runwal Cornet, Above Women's Pantaloons, 4th Floor Paud Road Runwal Paradize",Open â‹… Closes 10â€¯pm Â· 097675 04150,",fitness365pune@gmail.com,","18.5085422,73.7891371"
THE IRON GYM,Gym,Pune,"5+ years in business Â· S. No. 50/11, Kanaskar Bldg Mahadeonagar, Old Mundhwa Rd, near Bollywood Cinema",Open â‹… Closes 10â€¯pm Â· 096890 48613,",support@gymcompany.co.za,nsw@irongym.com.au,admin@ironindustrygym.com.au,JohnSmith@getirongym.com,","18.5478462,73.92713"
"Urbounce Gym Law College Road Branch, Powered By Bounce",Gym,Pune,"Law College Rd, near FTII Institute",Open â‹… Closes 9:30â€¯pm Â· 080077 10099,,"18.5121078,73.8223292"
H2O FITNESS CLUB,Gym,Pune,"1158, GV45+635, near, Subhash Nagar Rd Number 2",Open â‹… Closes 10â€¯pm Â· 070303 03076,"h2ofitness.india@gmail.com,,info@h2ofitnessclubpune.com,contact@kothrud.com,","18.5063775,73.8545702"
"Iron Sanctuary Gym - Available on cult.fit - Gyms in Kothrud, Pune",Gym,Pune,"Shankar Bhawan, 2nd Floor Shri, Paud Rd",Open â‹… Closes 10â€¯pm Â· 070578 06060,,"18.5107339,73.8160437"
Raise The Bar Fitness Center,Gym,Pune,"Parmar Gallery, 2nd Floor, Jagtap Chowk, above Axis Bank Branch",Open â‹… Closes 10â€¯pm Â· 079722 70054,,"18.4931692,73.8976293"
GT Fitness Club,Gym,Pune,"5+ years in business Â· 1st Floor, GRGV+MCC Gurukrupa Complex, Modern Engineering College Rd, off Fergusson College Road",Open â‹… Closes 10â€¯pm Â· 086001 50150,",ninfo@fivefitness.com,info@fivefitness.com,","18.5266988,73.8409256"
Arkfit Arena,Gym,Pune,"7+ years in business Â· 2nd Floor, Opposite Hotel Central Park, Apte Rd, near HDFC Bank",Open â‹… Closes 10â€¯pm Â· 084462 89777,,"18.5203541,73.8419739"
The Gym,Gym,Pune,"20+ years in business Â· Ganga Home, Row House No.1/2, next to Bank of India",Open â‹… Closes 10â€¯pm Â· 098813 44635,",support@gymcompany.co.za,WeCare@GoldsGym.in,contact@multifit.co.in,emmartrading@gmail.com,shreegym2016@gmail.com,","18.4760581,73.8698087"
Universal Gym | Best Gym In Camp Pune,Gym,Pune,"Universal Gym & Fitness Club, opp. Chandan Medicals",Open â‹… Closes 11â€¯pm Â· 099230 88848,,"18.5083146,73.872162"
Elite Edge Fitness (Gineel N Fitness),Gym,Pune,"GANESH KRIPA HOS SOC, AMEYA ,PLOT NO 2O-C 2,12TH LANE, VANAZ, near Subway",Open â‹… Closes 10â€¯pm Â· 096659 62938,",contact@kothrud.com,","18.5115872,73.8010742"
Quality Fitness Club,Gym,Pune,"15+ years in business Â· Akshay Complex, Barne Tower, 2nd floor, 156/1-B, Barane Rd",Open â‹… Closes 9â€¯pm Â· 020 2612 5251,",thequalityfitnessclub@gmail.com,emmartrading@gmail.com,","18.5240984,73.8615404"
THE FITNESS TOUCH,Gym,Pune,"5+ years in business Â· Sr. no.48/1 , Icchyatrupti Society, Anand Park",Open â‹… Closes 10â€¯pm Â· 098904 21641,,"18.5529922,73.9227407"
"Studio Velocity (Baner) - Available on cult.fit - Gyms in Baner, Pune - Maharashtra",Gym,Pune,"3+ years in business Â· 3rd Floor, Platinum Techno Park Survey No. 52/5/3 Plot No. 9, Pashan - Sus Rd, Behind Audi Showoom",Open â‹… Closes 10â€¯pm Â· 072183 11777,,"18.5494384,73.766757"
Gold Star Unisex Fitness Club,Gym,Pune,"3+ years in business Â· Bhagyashree Apartments, near Ajit Hotel",Open â‹… Closes 10â€¯pm,,"18.5161405,73.8368328"
PUNEFITLIFE FUNCTIONAL TRAINING GYM,Gym,Pune,7+ years in business Â· Yash lawns,Open â‹… Closes 9â€¯pm,"punefitlife@gmail.com,,info@punefiltlife.com,","18.4789147,73.8622389"
Fitranger Gym,Gym,Pune,"3+ years in business Â· Haribhau Sane Krida Sankul, 17/1B, Late GA Kulkarni Path, near Joshi Museum Of Miniature Railways",Open â‹… Closes 11â€¯pm Â· 098230 96431,",manish@fitranger.com,contact@kothrud.com,","18.5023674,73.8208866"
Fitness Fellowship - BT Kawade Road Pune,Gym,Pune,"7+ years in business Â· Soc, Gran Exito, Fitness Fellowship, 1st Floor, Bhagwan Tatyasaheb Kawade Rd, opp. Palm Groves",Open â‹… Closes 10â€¯pm Â· 077220 93637,",talwalkarshifibtkawaderd@gmail.com,","18.5240871,73.9033244"
Evolve Fitness & Wellness Club,Gym,Pune,"10+ years in business Â· Sixth Floor, One Place, Salunke Vihar Rd, above Third Wave Coffee",Open â‹… Closes 11â€¯pm Â· 086005 11152,,"18.4813507,73.900506"
Fitnation Club,Gym,Pune,"3+ years in business Â· 2nd floor, Nikhil Pride Building, Lokmanya Bal Gangadhar Tilak Rd, near Kaka Halwai",Open â‹… Closes 9:30â€¯pm Â· 099218 27245,",sun.fitness.pune@gmail.com,","18.5057905,73.8502274"
Muscle Tone Fitness Club,Gym,Pune,"2nd floor, Lane No. 7, above ICICI bank",Open â‹… Closes 10â€¯pm Â· 091291 17171,"muscletonefitnessclub81@gmail.com,,","18.5343618,73.89712"
Nitrro Wellness And Fitness Hub,Gym,Pune,"5+ years in business Â· Waterfront Society, PANCHSHIL WATERFRONT, Vithalrao Vandekar Rd",Open â‹… Closes 10â€¯pm Â· 093686 81111,",info@nitrro.in,","18.5215101,73.7791539"
Power Fitness Club Pune,Gym,Pune,"5+ years in business Â· GRHP+X2C, Deep Bunglow Chowk",Open â‹… Closes 9:30â€¯pm Â· 099239 63399,",anandjankar7777@gmail.com,emmartrading@gmail.com,","18.5299299,73.8324308"
Definition Gym,Gym,Pune,"10+ years in business Â· 2nd Floor, 3 D, Destination Ratna Chintamani Building, SUJAY GARDEN",Open â‹… Closes 10â€¯pm Â· 098226 00093,,"18.4967713,73.8586978"
27 CrossthonFit pune,Gym,Pune,"3+ years in business Â· Balgandharv Rangamandir Premises, j.m Road, Congress House Rd",Open â‹… Closes 9â€¯pm Â· 089567 01103,,"18.5219942,73.8460553"
The Dâ€™s Dynamic Fitness,Gym,Pune,"573/6, Jangali Maharaj Rd",Open â‹… Closes 9â€¯pm Â· 093226 34233,,"18.519618,73.8433732"
QUEEN FITNESS,Gym,Pune,"Kapila Housing Society, opp. Sai Baba Mandir",Open â‹… Closes 9â€¯pm Â· 095032 17559,"WeCare@GoldsGym.in,,customerservice@queenfitnessstudio.com,","18.5254114,73.8237051"
Brawn Fiitnness,Gym,Pune,"10+ years in business Â· 2nd, Premanjali Building, Complex, Pune - Satara Rd, opposite Ellora Palace",Open â‹… Closes 11â€¯pm Â· 090961 00016,",brawnfitnes@gmail.com,","18.4657897,73.8551587"
Janorkar's Gym,Gym,Pune,"5+ years in business Â· 2nd Floor, The Green Roof Restaurant & Popular Hotel Building, Sinhgad Rd",Open â‹… Closes 12â€¯am Â· 097674 46744,,"18.4727163,73.818639"
Empire Gym,Gym,Pune,"10+ years in business Â· Prasad Chambers, Sinhgad Rd",Open â‹… Closes 10:30â€¯pm Â· 098502 32146,,"18.4760447,73.8286071"
The GYM BUG's,Gym,Pune,"3+ years in business Â· V B Patil Swimming Pool, Bhau Patil Rd, near Shivaji Maharaj Garden",Open â‹… Closes 10â€¯pm Â· 098900 67603,",calikeeda@gmail.com,","18.5686129,73.8298663"
MITRA FITNESS CLUB,Gym,Pune,"5+ years in business Â· Boys Hostel, Sr. No.33/1 Bharati Vidyapeeth, Near Ichapurti Ganesh Mandir, Shree Krupa",Open â‹… Closes 10â€¯pm Â· 098813 98812,,"18.455654,73.8470131"
N - Vie Fitness,Gym,Pune,"5+ years in business Â· E-101, First Floor, Business Court",Open â‹… Closes 10â€¯pm Â· 020 2426 6004,",gsnilesh@gmail.com,","18.4760628,73.9007086"
Asia21 Gym & Fitness Club,Gym,Pune,"Ganagadham Katraj Road S.No.62H, No. 2A/2/20, Office, 12, Mandot Tower Rd, opp. Shanti Nagar Society",Open â‹… Closes 10â€¯pm Â· 080074 80123,,"18.4599423,73.8751311"
Body Fuel Fitness Club,Gym,Pune,"7+ years in business Â· survey No 121, à¤¸à¥à¤•à¥‹à¤¸à¥à¤¸à¤¾ - à¤¦ à¤ à¥€à¤• à¤¶à¥‡à¤• à¤à¤‚à¤¡ à¤¬à¤¾à¤‡à¤Ÿà¥à¤¸ à¤®à¤¿à¤Ÿ à¤•à¥‰à¤²à¥‡à¤œ à¤°à¥‹à¤¡, 122, Rd Number 1, behind Chaitanya Health Club",Open â‹… Closes 10â€¯pm Â· 097640 42350,",kinsilinnadar97@gmail.com,","18.5052098,73.8125188"
Spa Fitness,Gym,Pune,"10+ years in business Â· Samaj Mandir (Hanuman nagar Ganapati Mandir), Senapati Bapat Rd",Open â‹… Closes 10â€¯pm Â· 020 2565 7522,",punhr.arogyaspa@hyatt.com,prashantarge@gmail.com,","18.4759913,73.7461982"
Vikram's Fitness Studio,Gym,Pune,"10+ years in business Â· Chinar Heights, 33/9, Prabhat Rd Pune, opp. Shri Mahila Griha Udyog Lijjat Papad Factory",Open â‹… Closes 8â€¯pm Â· 095277 30493,,"18.5083914,73.8176175"
Sammy Fitness Studio,Gym,Pune,7+ years in business Â· 2100,Open â‹… Closes 9:30â€¯pm Â· 095035 13845,,"18.5051987,73.8473212"
Niwara Gym by V3 Fitness,Gym,Pune,"25+ years in business Â· Niwara Campus, 96, Navi Peth",Open â‹… Closes 9â€¯pm,",holiday@kesari.in,","18.5088038,73.8393882"
Bhairava Fitness Club,Gym,Pune,"First Floor, Gitanjali Building, near Gajanan Maharaj Math",Open â‹… Closes 10â€¯pm,",galaxyfitnessclub03@gmail.com,silvergroupofficial@gmail.com,","18.4931193,73.8475187"
"The Fitness Temple - Best Gym in Aundh Baner - CrossFit, Functional Studio, Parkour, Yoga Studio",Gym,Pune,3+ years in business Â· 1st floor D wing Lakshmi Plaza Office No. 3,Open â‹… Closes 10â€¯pm Â· 084218 09899,,"18.5580377,73.8014571"
"Paradise Fitness Club - - Available on cult.fit - Gyms in Undri, Pune",Gym,Pune,"3+ years in business Â· Second floor, Aero nest building, near Dynamic Grandeur Wadachi wadi, Rd",Open â‹… Closes 10â€¯pm Â· 072729 42222,,"18.4464752,73.9144787"
4 Fitness Club,Gym,Pune,7+ years in business Â· 101,Open â‹… Closes 11â€¯pm Â· 088889 77999,",anandjankar7777@gmail.com,nw582201@gmail.com,emmartrading@gmail.com,","18.5310667,73.8229979"
Hustle Gym,Gym,Pune,"2nd floor wing gold crest, above idbi bank, opposite zensar",Open â‹… Closes 10â€¯pm Â· 072762 63946,,"18.5497188,73.9403419"
ABS FITNESS,Gym,Pune,"3+ years in business Â· Pushp Mangal Karyalay Near City Pride, Pune - Satara Rd",Open â‹… Closes 11â€¯pm Â· 077966 59190,",mahesh.kamble@absfitness.in,info@tifc.co.in,contact@kothrud.com,","18.4760581,73.8698087"
La Fit,Gym,Pune,"5+ years in business Â· Laxminarayan Building, 270/3, Jawaharlal Nehru Rd",Open â‹… Closes 12â€¯am Â· 075177 74884,,"18.4760581,73.8698087"
"Cult Magarpatta City - Gyms in Magarpatta City, Pune",Gym,Pune,"3+ years in business Â· 1st & 2nd Floor, Magarpatta Rd, above Jeep Showroom",Open â‹… Closes 10â€¯pm Â· 1800 572 6303,",x3ehello@cult.fit,hello@cult.fit,","18.5129281,73.9300958"
Curves Fitness Club,Gym,Pune,"Ganga Nursing Home Road Ganesh Baug Gymnasium Hall Second Floor, Society, near ROHAN ISHITA",Open â‹… Closes 9â€¯pm,",eumarketing@curves.eu,emmartrading@gmail.com,","18.5291302,73.9100762"
Rising Fitness Club Camp Branch,Gym,Pune,"2405 east street camp pune Above Sujata Mastani, Juna Pulgate, near Burger King, next to LIC building",Open â‹… Closes 11â€¯pm Â· 088884 12336,,"18.5077455,73.8766707"
Planet Gym,Gym,Pune,"10+ years in business Â· Shop No, 746, Chhatrapati Shivaji Maharaj Rd",Open â‹… Closes 11â€¯pm Â· 082377 59722,",swapnaliasole@yahoo.com,arshadshaikh159@gmail.com,","18.5578366,73.7198844"
P9 Fitness,Gym,Pune,Suma Paradise,Open â‹… Closes 10â€¯pm,"WeCare@GoldsGym.in,,","18.523996,73.8558815"
The Gym,Gym,Pune,"7+ years in business Â· Shri Nagar Society lane no 2, sr, 41, Ganesh Nagar Rd, behind Laxmi creation, near Anand park",Open â‹… Closes 11â€¯pm Â· 085529 77867,",support@gymcompany.co.za,WeCare@GoldsGym.in,contact@multifit.co.in,emmartrading@gmail.com,shreegym2016@gmail.com,","18.4760622,73.9007086"
Brahma Fitness,Gym,Pune,"925, B4, Deendayal Hospital Lane, Tukaram Paduka Chowk, Fergusson college campus Rd",Open â‹… Closes 10â€¯pm,,"18.5305633,73.8123497"
Aim Fitness,Gym,Pune,"3+ years in business Â· Salunke, Above Reliance Fresh, S No 66/67, Lingfield Plaza",Open â‹… Closes 11:30â€¯pm Â· 072729 99100,",ajinkya40.ap@gmail.com,","18.4818867,73.8955696"
Fitness Fort,Gym,Pune,FVJ6+7C7,Open â‹… Closes 10â€¯pm,",info@thefitnesstemple.in,","18.4806654,73.8584589"
Active Fitness,Gym,Pune,"5+ years in business Â· Deep Bunglow, Chowk, Karande Path, opposite DBS Bank",Open â‹… Closes 9â€¯pm Â· 087887 78948,,"18.4760447,73.8286071"
"Cult Kalyani Nagar - Gyms in Kalyani Nagar, Pune",Gym,Pune,"3+ years in business Â· Fortaleza Complex, 3rd Floor, S Ave Rd",Open â‹… Closes 10â€¯pm,",x3ehello@cult.fit,hello@cult.fit,","18.5432649,73.9022018"
I Fitness Destiny,Gym,Pune,"7+ years in business Â· 598, Sachapir St, Above Andhra Bank",Open â‹… Closes 11â€¯pm Â· 095451 73949,"abfsagar@gmail.comOpens,,","18.5152364,73.8731516"
Tranceform Fitness Best Gym in Dhankawadi,Gym,Pune,"7+ years in business Â· Plot No 11,12 Pushkaraj Society, Behind Bharati Vidyapeeth, Opp RamaKrishna hostel, Dhankawadi,, Chandrabhaga Nagar Rd",Open â‹… Closes 9:30â€¯pm Â· 099702 58096,,"18.4601929,73.8483489"
Rising Fitness Club Wanowrie Branch,Gym,Pune,"5+ years in business Â· 2nd Floor, Parmar Galary, Above SBI Bank, near jagtap chowk",Open â‹… Closes 10â€¯pm Â· 088884 12337,,"18.4933677,73.8974361"
SK FITNESS 4 ALL,Gym,Pune,7+ years in business Â· Karan Bazar Apartment,Open â‹… Closes 10â€¯pm Â· 073870 82244,,"18.5553819,73.9181827"
Chakra Fitness Community,Gym,Pune,"7+ years in business Â· Pingale Farms, Lane No. 7, next to Blossom Boulevard",Open â‹… Closes 9â€¯pm Â· 097641 58903,,"18.5304202,73.8981431"
SPA Gym,Gym,Pune,"School Ground, near Shivsena Kacheri",Open â‹… Closes 10â€¯pm Â· 094223 02824,",support@gymcompany.co.za,info@nitrro.in,memberexperience@anytimefitness.in,","18.4759913,73.7461982"
"S3 Fitness Gym & Crossfit, Bibwewadi",Gym,Pune,"1st floor todakar garden, Gangadham - Shatrunjay Rd, opp. Natural ice cream",Open â‹… Closes 10â€¯pm Â· 095459 45353,,"18.4810235,73.8636689"
Trimurti Gym,Gym,Pune,"7+ years in business Â· 64, Trimurti Niwas, Sr No 23, Hind Swaraj Chowk",Open â‹… Closes 10â€¯pm Â· 098221 13081,,"18.490151,73.8146281"
Maharudraya Hardcore Gym,Gym,Pune,"7+ years in business Â· Plot No 185, Khatape Complex, In front of Vandevi Temple, Karvenagar, Pune",Open â‹… Closes 11â€¯pm Â· 097661 17983,,"18.4782505,73.8048901"
SPA Fitness,Gym,Pune,"3+ years in business Â· Sun City Rd, opp. Parmar Foods",Open â‹… Closes 10â€¯pm Â· 094223 02824,",punhr.arogyaspa@hyatt.com,prashantarge@gmail.com,","18.4759913,73.7461982"
Elite Fit,Gym,Pune,"5+ years in business Â· Katraj Bypass (Wonder City), Manik Moti Building, Sugandhatara Reality high way Near, Katraj-Dehu Rd Bypass",Open â‹… Closes 9:45â€¯pm Â· 090281 00202,",hello@cult.fit,","18.4760628,73.9007086"
URO Fitness Club Best Gym in Gokhale Nagar SB Road,Gym,Pune,10+ years in business Â· Virbaji Prabru Vidyalay Shal,Open â‹… Closes 10â€¯pm Â· 091305 10823,",healthcare@schcpune.org,","18.5267535,73.8218235"
Nitrro Fitness - Pune Satara Road,Gym,Pune,"2nd floor, Sharada Arcade, Pune - Satara Rd, opp. to D-Mart",Open â‹… Closes 10:30â€¯pm,,"18.4793429,73.8549977"
Aesthetics Fitness,Gym,Pune,"3rd floor, Picasso Plaza, NIBM Rd",Open â‹… Closes 10:30â€¯pm Â· 084848 93494,",Wecare@goldsgym.in,","18.4759913,73.7461982"
Cross Strength Fitness Club & Elite Personal Training Studio,Gym,Pune,"3+ years in business Â· Punekar Chowk, Cross Strength Fitness Club Unit 201, 2nd Floor NYATI ETERNITY COMMERCIAL, Mohammed Wadi, Pune, Maharashtra at, near, Godrej Horizon Rd",Open â‹… Closes 11â€¯pm Â· 085307 29997,,"18.4554763,73.9176214"
Conquer Fitness Center,Gym,Pune,"3+ years in business Â· Yashogita Building, near, Mhatre Bridge",Open â‹… Closes 10â€¯pm Â· 070583 34923,,"18.5049205,73.8315196"
Gold's Gym Baner,Gym,Pune,"3+ years in business Â· Imperial Atria, ABIL House, 4th Floor, ABIL Square, Near, Pan Card Club Rd",Open â‹… Closes 11â€¯pm Â· 091122 88282,"WeCare@GoldsGym.in,,Wecare@goldsgym.in,","18.5560863,73.7704505"
Gold's Gym Kalyani Nagar,Gym,Pune,"10+ years in business Â· 2nd Floor, Fortaleza Complex, Central Ave, above NM Medical",Open â‹… Closes 10â€¯pm Â· 098237 66766,",kalyaninagar.pune@goldsgymindia.com,","18.5432861,73.9021848"
Nitrro Gym - Sinhagad Road,Gym,Pune,"3+ years in business Â· Sinhgad Rd, above Mcdonalds",Open â‹… Closes 10â€¯pm Â· 075197 00700,",doe.jane@nitrro.in,","18.4760177,73.8198314"
Sai Gym,Gym,Pune,FRQ8+MWW,Open â‹… Closes 9â€¯pm,"chetangym@gmail.com,,","18.4760447,73.8286071"
Star Fitness,Gym,Pune,"5+ years in business Â· 191, Airport Rd",Open â‹… Closes 10â€¯pm Â· 078880 44293,",info@nitrro.in,","18.5629776,73.8905303"
Nitrro Wellness and Fitness Hub Kothrud,Gym,Pune,"FRXC+PP5 REVOLUTION MALL, 3rd Floor,at S.No 20/2, Plot. No. CC -3, 3rd Ln, above Big Baazar",Open â‹… Closes 10â€¯pm Â· 072970 58282,,"18.4991341,73.8194083"
Ethos- Republic Of Strength,Gym,Pune,"1214, Road No. 4, near Pabalkar Hospital",Open â‹… Closes 10â€¯pm Â· 084598 60591,",anil.dhiman@ethoswatches.com,","18.5059407,73.8537163"
Dotfit Fitness,Gym,Pune,"10+ years in business Â· HQ7M+JJ8 Srushti Elegance, 136/1, 5th Floor, Old Baner-Balewadi Rd, near Salt Hotel",Open â‹… Closes 10â€¯pm Â· 098228 43366,"dotfit.vishal@gmail.com,,support@dotfit.in,","18.5725828,73.7793546"
Gold's Gym Sinhagad Road,Gym,Pune,"3+ years in business Â· Mohite Township, Shop no 14/3/4, Sinhgad Rd",Open â‹… Closes 10â€¯pm Â· 095950 91091,"WeCare@GoldsGym.in,,sinhagadroad.pune@goldsgym.in,","18.476029,73.8199781"
FIT WITH ATHARVA,Gym,Pune,3+ years in business Â· Giridhar bhawan chowk,Open â‹… Closes 11â€¯pm Â· 093706 21469,",info@apexmedicalfitness.com,","18.4947953,73.8669438"
LOUKIK FITNESS AND SPORTS,Gym,Pune,"5+ years in business Â· Rd, 7, Baner Rd, near Sakalnar",Open â‹… Closes 10â€¯pm,,"18.547188,73.8151921"
Gym World,Gym,Pune,"3+ years in business Â· Sr. No. 14/9, Vitthal Nagar, 15 Number, Solapur - Pune Hwy, near Maruti Temple",Open â‹… Closes 10â€¯pm Â· 077190 40000,",emmartrading@gmail.com,","18.4760581,73.8698087"
The world fitness gym,Gym,Pune,3+ years in business Â· Shop no 37 to 45 Bizz bay mall Opp- SBI bank,Open â‹… Closes 11â€¯pm Â· 073507 00800,",kalyaninagar.pune@goldsgymindia.com,emmartrading@gmail.com,","18.4699755,73.8969375"
La Fit lullanagar,Gym,Pune,"3+ years in business Â· Premdeep building, chowk, opposite Manikchand Malabar Hills Building, above ktm showroom",Open â‹… Closes 11â€¯pm Â· 075178 74884,",info@lafit.in,","18.486914,73.8851347"
Status Health Club,Gym,Pune,"25+ years in business Â· Shivshakti Building, Bhandarkar Rd, opposite HDFC Bank",Open â‹… Closes 9â€¯pm Â· 020 2567 5070,",sumedha.fitness@gmail.com,","18.5179347,73.8333316"
Gold's Gym Aundh,Gym,Pune,"3+ years in business Â· 127/1A, Server Space, A.G.Technology Park, Sarjaa Rd, Sanewadi, Aundh",Open â‹… Closes 10:30â€¯pm Â· 090290 02870,",aundh.pune@goldsgymindia.com,aundh.pune@goldsgym.in,","18.553572,73.8050531"
POWERHOUSE FITNESS CLUB,Gym,Pune,"5+ years in business Â· Power House by M.S Fitness, 53, Bhagwan Tatyasaheb Kawade Rd",Open â‹… Closes 10â€¯pm Â· 096577 51374,",rohit.pande2006@gmail.com,","18.4760581,73.8698087"
Reshape Fitness | Gym in Pune Deccan,Gym,Pune,"5+ years in business Â· Deccan Avenue, Jangali Maharaj Rd, Above Bata Showroom",Open â‹… Closes 10â€¯pm Â· 084469 10101,",deccangymkhana@gmail.com,","18.4760628,73.9007086"
Spartah Fitness Clubb (Gym)Deccan,Gym,Pune,"3+ years in business Â· Mulridhar Veg, Siddharth Chambers, Akshay Shri Co.Op. Society, Sr. No. 216, 216, NC Kelkar Road, near Z Bridge",Open â‹… Closes 10â€¯pm Â· 097642 93555,,"18.5144181,73.8429099"
Fitness Mantras Marketyard,Gym,Pune,"5+ years in business Â· 2nd floor, Raviraj, Cru Mall, Bibvewadi road",Open â‹… Closes 10â€¯pm Â· 089834 82482,,"18.4819395,73.8738402"
Fitness Evogue,Gym,Pune,"KPCT MALL, Office No 413 , 4th Floor, CWing, Vitthalrao, Vitthal Rao Shivarkar Rd",Open â‹… Closes 11â€¯pm Â· 096233 86420,",info@tifc.co.in,","18.5035905,73.8979504"
Fit 7 By M S Dhoni,Gym,Pune,"5+ years in business Â· Survey No 44 A/1, Shopper Orbit, Office no.216, Above Big Bazar, Near Sathe Biscuit Factory Stop, Alandi Rd",Open â‹… Closes 10â€¯pm Â· 089754 57777,",info@fit7global.com,","18.570672,73.8756451"
ARM FITNESS,Gym,Pune,"3+ years in business Â· Arm Fitness , 2nd floor , office no.3 , above apple salon Lolage corner, opposite ICICI Bank",Open â‹… Closes 9â€¯pm Â· 096570 50535,",Wecare@goldsgym.in,","18.4913418,73.8189101"
Dynamix Fitness,Gym,Pune,"7+ years in business Â· Maji Sainik Vasahat, Paud Rd",Open â‹… Closes 10â€¯pm,",membership@zapfitness.com.au,","18.5127383,73.8168919"
Valeosis Fitness Club,Gym,Pune,"7+ years in business Â· FRRC+RCC, 1st Floor, Sr.no.29/1",Open â‹… Closes 10â€¯pm Â· 096578 11222,",admin@valeosifitness.com,","18.492267,73.8185301"
Ethcure Fitness Club,Gym,Pune,125,Open â‹… Closes 10â€¯pm Â· 0788 795 5559,",shreeresidency@nexuspune.in,galaxyfitnessclub03@gmail.com,praj2183@gmail.com,","18.5150614,73.8146613"
HEALTH EDGE - Project Fitness,Gym,Pune,"Concominium, CTS 15/1, PT Gera Center, Shop #9, Bund Garden Rd, opposite Wadia College, Sangamvadi, Pune, Maharashtra 411001",,",info@healthedge.com,","18.5344237,73.8764068"
Gold's Gym Pimple Saudagar,Gym,Pune,"5th Floor, RK Lunkad Business Center, Kokane Chowk, above Reliance fresh",Open â‹… Closes 10â€¯pm Â· 097155 98598,"WeCare@GoldsGym.in,,Wecare@goldsgym.in,","18.5968852,73.7878359"
A2B Fitness Club,Gym,Pune,"5+ years in business Â· VCC Vantage 9, First Floor, Pashan Hwy Side Rd, near Renault Showroom",Open â‹… Closes 10â€¯pm Â· 096070 50700,"mydentistjpnagar@gmail.com,,","18.554186,73.7690742"
GYM TOWN,Gym,Pune,"10+ years in business Â· Tukai Darshan Chawk, Kale Borate Nagar Rd, near YASHRAJ GREEN CASTLE APARTMENTS",Open â‹… Closes 11â€¯pm Â· 097302 92128,",support@gymcompany.co.za,","18.4759913,73.7461982"
MultiFit Kalyani Nagar,Gym,Pune,"7+ years in business Â· 4th Floor, Gold Adlabs Mariplex Mall",Open â‹… Closes 10â€¯pm Â· 080070 00791,"member.care@multifit.co.in,,contact@multifit.co.in,ninfo@multifitgym.com,info@multifitgym.com,saleskn@multifit.co.in,","18.54557,73.9037543"
Gold's Gym Shaniwar peth,Gym,Pune,"5+ years in business Â· 333-271, T Saheb KK Marg",Open â‹… Closes 10â€¯pm Â· 0788 788 3355,"WeCare@GoldsGym.in,,","18.5190885,73.8473192"
Devkar Fitness Club,Gym,Pune,5+ years in business Â· FVW2+82F,Open â‹… Closes 10â€¯pm Â· 099230 96467,,"18.4958204,73.8474578"
Arjun Fitness,Gym,Pune,"Sant Gadage Maharaj Vasahat, 42, S Main Rd, near Ambika mata mandir",Open â‹… Closes 10â€¯pm Â· 086984 24044,"WeCare@GoldsGym.in,,","18.5318055,73.8875839"
CrossFit Monkey Flag,Gym,Pune,"Futsal 5, Pune Central Mall, 25/20",Â· 097677 55419,,"18.51022,73.8357021"
Primalbase Gyms,Gym,Pune,"3rd Floor, ELITE PREMIO, Near, Balewadi High St",Open â‹… Closes 8:45â€¯pm Â· 070470 48187,",sandeepdas25@outlook.com,","18.5739055,73.7740308"
Aayush fitness and slimming centre,Gym,Pune,5+ years in business Â· Kishor Bhagirath Tapadia Rd,Open â‹… Closes 10â€¯pm Â· 092255 10300,,"18.5090354,73.8304492"
Universal fitness,Gym,Pune,3+ years in business Â· GWC4+3H8,Open â‹… Closes 10â€¯pm,"ufequipments@gmail.com,,ufequipment@gmail.com,","18.4760581,73.8698087"
i Train Fitness Gym,Gym,Pune,"Parmar Plaza, next to Inamdar Hospital, opposite Cycle World",Open â‹… Closes 11â€¯pm Â· 072767 97104,",info@nitrro.in,","18.5013483,73.8977241"
Gold's Gym,Gym,Pune,"10+ years in business Â· BIZZBAY Mall, Shop No.1, 2 & 101, NIBM Rd, Opposite Clover Hills Co-operative housing Society",Open â‹… Closes 10:30â€¯pm Â· 082372 90555,",nibm.pune@goldsgym.in,WeCare@GoldsGym.in,onenorth.pune@goldsgym.in,baner.pune@goldsgym.in,aundh.pune@goldsgym.in,Wecare@goldsgym.in,","18.4760581,73.8698087"
Life Fitness Club,Gym,Pune,"10+ years in business Â· 6th Floor, PANDHARINATH COMPLEX BLOCK-C, NDA Rd",Open â‹… Closes 10â€¯pm,",consumerproducts@lifefitness.com,customersupport@lifefitness.com,emmartrading@gmail.com,","18.468104,73.7816587"
Symbiosis Fitness Centre,Gym,Pune,"5+ years in business Â· GRXQ+QRG, Pune",Open â‹… Closes 8â€¯pm Â· 094634 12297,",support@website.com,admissions@sicsr.ac.in,slspinfo@symlaw.ac.in,x3esupport@website.com,info@siu.edu.in,","18.5494473,73.8369984"
Urbounce,Gym,Pune,"7+ years in business Â· 3rd Floor, HQ2R+5F7 Ven Business Centre, Baner - Pashan Link Rd, near HDFC Bank",Open â‹… Closes 10â€¯pm Â· 077679 30066,",urbounceanand@gmail.com,Info@urbounce.com,support@urbounce.fit,","18.5505175,73.7887069"
Bodymaster Gym and fitness centre,Gym,Pune,"5+ years in business Â· shivshankar apartments, Paud Rd",Open â‹… Closes 9â€¯pm Â· 098225 38137,,"18.5125847,73.8059529"
Apple Fitness (Narhe),Gym,Pune,"7+ years in business Â· Walhekar Properties, Fourth Floor, Narhe Rd, Above HDFC Bank, Near Pune-Bangalore",Open â‹… Closes 10â€¯pm Â· 097679 81903,"santosh.aware36@gmail.com,,","18.453593,73.8251563"
City Point Fitness,Gym,Pune,7+ years in business Â· Shree Pandharinath Hole Rd,Open â‹… Closes 10â€¯pm Â· 070301 77719,,"18.5061579,73.9239764"
MetaFit,Gym,Pune,"7+ years in business Â· Su Casa Housing Society, 301, Behind Shishya School, Datta Mandir Rd",Open â‹… Closes 10â€¯pm Â· 090965 90587,",ninfo@metafit.in,info@metafit.in,metafit.club@gmail.com,","18.5970199,73.76238"
VGP Fitness Centre à¤¶à¥à¤°à¥€ à¤µà¥€à¤° à¤—à¥‹à¤—à¤¾à¤¦à¥‡à¤µ à¤ªà¥à¤°à¤¤à¤¿à¤·à¥à¤ à¤¾à¤¨,Gym,Pune,"25+ years in business Â· 443, Raut Rd",Open â‹… Closes 10â€¯pm,,"18.5058467,73.8704618"
BODYNATION PERSONAL TRAINING STUDIO (GYM),Gym,Pune,"Bodynation Personal Training Studio, Holistic child development India Building, Salunke Vihar Rd, opposite Rosary School",Open â‹… Closes 10â€¯pm Â· 078757 26843,,"18.4817145,73.8931255"
AB's Fitness Club,Gym,Pune,7+ years in business Â· Pune - Satara Rd,Open â‹… Closes 10â€¯pm,",info@tifc.co.in,contact@kothrud.com,","18.4985751,73.8117236"
The Bodyworks Gym and Fitness Center,Gym,Pune,"Firdaus,1,Ground Floor, Vitthal Rao Shivarkar Rd",Open â‹… Closes 10:30â€¯pm,,"18.4968503,73.8974889"
"Cult Wakad - Gyms in Wakad, Pune",Gym,Pune,"3+ years in business Â· Vantagio, 3rd Floor., Wakad Rd, next to Flechazo",Open â‹… Closes 10â€¯pm,",x3ehello@cult.fit,hello@cult.fit,","18.5927548,73.7571875"
Evolvefitcircle,Gym,Pune,"7+ years in business Â· Office No-10, Ganga heights, Opp Shabdasneha Library, Samarth Rd, near pegasus",Â· 098908 99349,",x3ecolindale@evolve-gym.co.uk,colindale@evolve-gym.co.uk,ruislip@evolve-gym.co.uk,","18.493822,73.8227199"
Swaraj Fitness Club,Gym,Pune,"5+ years in business Â· Hingne Khurd, Vitthalwadi Tarde Colony, Sinhgad Rd",Open â‹… Closes 10â€¯pm Â· 077097 68048,,"18.480391,73.8241115"
OneMoreRep unisex hardcore gym,Gym,Pune,"1st floor, Laxmikant niwas, opposite Balaji Heights",Open â‹… Closes 10â€¯pm Â· 072765 05858,,"18.5574844,73.9292262"
Pune Fitness Club Kharadi,Gym,Pune,10+ years in business Â· Mundhwa - Kharadi Rd,Open â‹… Closes 10â€¯pm Â· 088065 76088,,"18.5617876,73.9356668"
Kettlebell GYM,Gym,Pune,5+ years in business Â· 66,Open â‹… Closes 10â€¯pm Â· 097651 26331,",KettleBellGym1994@gmail.com,","18.4759913,73.7461982"
Speed Fitness,Gym,Pune,"Nancy Towers, Shop No. 27, Below 3M Car Care, near Kedari Petrol Pump",Open â‹… Closes 12â€¯am Â· 020 4126 0251,,"18.4875428,73.8963657"
Nitrro Redefining Fitness Gym Wakad,Gym,Pune,"3+ years in business Â· Austin Plaza, Kasapte Wasti Mhatoba Chauwk, Chatrapati Chowk Rd, opposite Riddhi-Siddhi",Open â‹… Closes 10â€¯pm Â· 095707 07028,,"18.5950312,73.7661516"
SoulFitness,Gym,Pune,"3+ years in business Â· 76/81 Araneshwar Padmavti Rd, Sahakarnagar",Open â‹… Closes 9â€¯pm,",Sales@aftonfitness.com,emmartrading@gmail.com,","18.4937916,73.7860149"
Bodywizard Fitness Academy,Gym,Pune,"1st Floor, Ganga Sankalp, Aranyeshwar Rd, opp. TVS Shelar Showroom",Â· 078880 27027,",ceo@sportsskills.in,","18.48626,73.8541406"
Olympia Fitness Unisex Gym NIBM,Gym,Pune,"C/1, Bramha Estate Road",Open â‹… Closes 10:30â€¯pm Â· 098907 95768,,"18.4775589,73.8871538"
Fitnesss First gym,Gym,Pune,7+ years in business Â· Kharadi South Main Road,Open â‹… Closes 10â€¯pm Â· 098600 34766,"WeCare@GoldsGym.in,,x3emembership.services@fitnessfirst.co.uk,membership.services@fitnessfirst.co.uk,","18.4760447,73.8286071"
Endure Fitness Club - Satara Road,Gym,Pune,"5+ years in business Â· Ground Floor, Endure Fitness Club, City Pride Multiplex 692/693, Pune - Satara Rd",Open â‹… Closes 10â€¯pm Â· 090498 20505,,"18.4887217,73.8554058"
The Fitness Xplorer,Gym,Pune,"Decision Towers, Swaroopanand Path",Open â‹… Closes 10â€¯pm,",emmartrading@gmail.com,","18.4881161,73.8554631"
Orion Fitness,Gym,Pune,"10+ years in business Â· Plot no. 17, Gauri Shankar Soc, Canal Road, Damodar Nagar, Hingane, Off sinhagad road, Sinhagad College Road",Open â‹… Closes 9:30â€¯pm Â· 094039 83900,",orders@shaktisportspune.com,iswarparsadnimbodiya@gmail.com,orionfitnesspune@gmail.com,","18.4750039,73.8299991"
Sculpt Fitness Centre,Gym,Pune,"15+ years in business Â· Sec 1, 2, 3, Second Floor Navrang Plaza Tingre Nagar, Airport Rd, Near Sawant Petrol Pump",Open â‹… Closes 9:45â€¯pm Â· 072768 68918,",sheetal.tyagi14@gmail.com,","18.5737369,73.8819572"
Vibes The Fitness & learning Studio,Gym,Pune,Dr Baba Saheb Ambedkar Rd,Open â‹… Closes 8:30â€¯pm Â· 091756 73124,,"18.5202229,73.8699982"
Enduro Fitness Center,Gym,Pune,"10+ years in business Â· Plot no 82 ,1st Floor, Pacific House , Sahakar Nagar, Aranyeshwar Nagar",Open â‹… Closes 10â€¯pm Â· 097638 36211,",galaxyfitnessclub03@gmail.com,enduro2849@rediffmail.com,","18.4846235,73.8470891"
Sevasadan Gym,Gym,Pune,"10+ years in business Â· 67/2, Karve Rd",Open â‹… Closes 9â€¯pm Â· 020 6401 8104,",sevasadan@sevasadan.org,","18.5013052,73.8295676"
FitWorld,Gym,Pune,"2nd Floor, Porwal Rd, above Zudio",Open â‹… Closes 10â€¯pm Â· 085588 55847,,"18.6059896,73.9072418"
La Fit Satara Road,Gym,Pune,"3+ years in business Â· Pune, Maharashtra",Open â‹… Closes 11â€¯pm Â· 075178 74884,,"18.4878694,73.854631"
Pehellwaan Gym Yerwada Branch,Gym,Pune,"5+ years in business Â· Pune, Maharashtra",Â· 074474 91117,,"18.5492952,73.8807127"
Solaris Sports World,Gym,Pune,"15+ years in business Â· 128, 2, JP Naik Rd, off Karve Road",Open â‹… Closes 11â€¯pm Â· 020 4140 5060,"customer@solaris.in,,","18.5057345,73.8168478"
Navyug Health Club,Gym,Pune,3+ years in business Â· GR2Q+M6J,Open â‹… Closes 10â€¯pm,",info@maharshikarve.org,","18.5017097,73.835433"
TY Fitness,Gym,Pune,"5+ years in business Â· 480/1 B, Mudaliar Rd, next to Shantai hotel, Above Green Finger",Open â‹… Closes 8â€¯pm,,"18.5198855,73.8687995"
Crunch Fitness Club,Gym,Pune,"3+ years in business Â· 2nd floor, Palash Plus, C Building, opposite Euro School",Open â‹… Closes 10â€¯pm Â· 084830 48363,,"18.5999023,73.7674835"
Athenova Fit,Gym,Pune,"Seth House Shopping Complex, 21/4B, Bund Garden Rd",Open â‹… Closes 9â€¯pm,",info@tifc.co.in,marketing@abgensets.co.in,","18.5370527,73.8788612"
Pramod Mahajan Krida Sankul ( boxing club 2 ),Gym,Pune,"7+ years in business Â· GV44+FWQ, Subhash Nagar Rd Number 2",Open 24 hours,",avmtechnologies@vsnl.net,","18.5062074,73.8547918"
"à¤…à¤²à¥à¤ªà¤¬à¤šà¤¤ à¤«à¤¿à¤Ÿà¤¨à¥‡à¤¸ à¤¸à¥‡à¤‚à¤Ÿà¤°, à¤ªà¥à¤£à¥‡",Gym,Pune,"3+ years in business Â· 7,Queens garden council hall road, near Residency club",Open â‹… Closes 10â€¯pm,,"18.526836,73.8783764"
Gym personal trainer,Gym,Pune,"sr.no 27, Punit Yash Arcade, near, Kothrud Bus Stand Rd",Open â‹… Closes 10â€¯pm,",shreegym2016@gmail.com,","18.4760581,73.8698087"
Gold's Gym,Gym,Pune,"10+ years in business Â· Survey No.136, 137",Open â‹… Closes 10â€¯pm Â· 084118 14778,",nibm.pune@goldsgym.in,WeCare@GoldsGym.in,onenorth.pune@goldsgym.in,baner.pune@goldsgym.in,aundh.pune@goldsgym.in,Wecare@goldsgym.in,","18.4760581,73.8698087"
Core Fitness Club,Gym,Pune,"7+ years in business Â· Sr. No. 161/19B , Opp. Kalyan Bhel , Near Bhosale Garden",Open â‹… Closes 10â€¯pm Â· 075072 86059,",sourabh7damle@gmail.com,","18.4760447,73.8286071"
Okinawa Fitness,Gym,Pune,"987, Jawaharlal Nehru Rd",Open â‹… Closes 8â€¯pm Â· 096652 36875,",indiaokinawagojuryupune@gmail.com,connectus@okinawascooters.com,","18.5128628,73.8660537"
Atenx Performance Studio,Gym,Pune,"10, Kothrud Industrial Estate, near Oblique Kitchen",Open â‹… Closes 10â€¯pm Â· 095767 61010,,"18.5016365,73.8206114"
Bialete Fitness Studio In Kothrud,Gym,Pune,"3+ years in business Â· CHOICE INSTITUTE,GROUND FLOOR DAULAT ESTATE OFF KARVE ROAD, near CHOICE HEALTH CLUB",Open â‹… Closes 9â€¯pm Â· 074998 09619,,"18.5063688,73.8184134"
"Alpha Fitness, NIBM",Gym,Pune,"2nd floor, heaven hills plaza, main, near Parmar Pavan, above kothari honda showroom",Open â‹… Closes 10â€¯pm Â· 084848 86896,",nibm.pune@goldsgym.in,","18.4795718,73.887753"
Solaris Chintamani Pride Kothrud,Gym,Pune,"5+ years in business · Chintamani Pride Building, 301, Kothrud, near City Pride, Above Siya Restaurant",Open ⋅ Closes 10 pm · 083088 38012,"customer@solaris.in,,","18.4987217,73.816829"
Fitness freak,Gym,Pune,"5+ years in business · Near, Flying vista, Near Flying Heights, College, DY Patil University Rd",Open ⋅ Closes 9:30 pm,",info@thefitnesstemple.in,","18.4760447,73.8286071"
KLVSP Boxing Club,Gym,Pune,Arun Kumar Vaidya Stadium,Open ⋅ Closes 8 pm · 093261 53243,,"18.5086958,73.8679494"
Shubhangad Fitness Centre (Only For Ladies),Gym,Pune,7+ years in business · Shubhangad 388 Shankarseth Road,· 020 2645 4810,",shubhangadind@gmail.com,","18.501483,73.8657771"
fitnessstudiopune,Gym,Pune,"SAHAYASHRAM SOCEITY B-8, SAHAYASHRAM SOCEITY, Dr Baba Saheb Ambedkar Rd, behind NABARD",,",galaxyfitnessclub03@gmail.com,info@tifc.co.in,emmartrading@gmail.com,","18.4760581,73.8698087"
Vishwalaxmi Gym,Gym,Pune,"15+ years in business · No 6, Sr No 71/1 Ghorpadi Gaon Shravasti Nagar Lane, Pune 1, near Vishwalaxmi Chowk",· 090111 17862,,"18.5247547,73.9001616"
Gulshe Talim Gym & Wrestling club,Gym,Pune,"800, Moti Chowk",Open ⋅ Closes 9 pm · 088559 36366,,"18.516789,73.8564777"
Nutraline Fitness Club,Gym,Pune,"2009, Lokmanya Bal Gangadhar Tilak Rd, Madiwale Colony, Sadashiv Peth, Pune, Maharashtra 411030",,",shreeresidency@nexuspune.in,galaxyfitnessclub03@gmail.com,anandjankar7777@gmail.com,","18.5068178,73.8415896"
MountainFit Studio,Gym,Pune,"370 Shanivar peth , Murlidhar Apartments 4th floor , paper lane, Prabhune Rd, near Ahilyadevi School",Open ⋅ Closes 8 pm,",contact@mountainfit.in,","18.5157283,73.8467783"
MetaFit,Gym,Pune,5+ years in business · 3rd floor,Open ⋅ Closes 10:30 pm · 088570 93101,",ninfo@metafit.in,info@metafit.in,metafit.club@gmail.com,","18.5970199,73.76238"
PYC Hindu Gymkhana Gate 4 Ladies Club,Gym,Pune,"3+ years in business · GR8Q+MFC, Ratnakant Phade Path",Open ⋅ Closes 9 pm,",sports@pycgymkhana.com,gymnasium@pycgymkhana.com,membership@pycgymkhana.com,","18.5166789,73.8360724"
"Gokul Vastad Talim, Pune.",Gym,Pune,"7+ years in business · 155, New Timber Market Rd",Open ⋅ Closes 9:30 pm · 098507 45252,,"18.5105897,73.8645836"
New Life Fitness A1 Gym,Gym,Pune,"office no 908 9th floor, Platinum Square, next to hotel Hyatt regency, opp. WNS",Open ⋅ Closes 10 pm · 081492 89269,",sharadsbharati@gmail.com,","18.5608914,73.9096511"
Kelkar's Gymnasium And Fitness Centre,Gym,Pune,"10+ years in business · 1428/1, Sadashiv Peth Rd, Near Pune Vidyarthi Gruha",Open ⋅ Closes 9 pm,,"18.5084873,73.8483824"
Transform| Fitness Centre| Yoga| Comprehensive Fitness| Women's Fitness| Crossfit,Gym,Pune,"5+ years in business · 1205/8, flat no.5, second floor, Ganga Yamuna Apartment, Apte Rd, next to Allen Institute",· 099756 44200,"abfsagar@gmail.comOpens,,galaxyfitnessclub03@gmail.com,info@thefitnesstemple.in,","18.5224974,73.8434305"
Crossfit Akhada,Gym,Pune,"347/A, off Balkrishna Sakharam Dhole Patil Road, near hotel mint",Open ⋅ Closes 9 pm · 080070 58007,",sunriseipr@gmail.com,","18.5357214,73.8725879"
U K Fitness Club,Gym,Pune,"5+ years in business · Bunglow no. 6, Archana Soc. Ganesh Mala, Opp. Phule Ganapati Baugh,, Dattawadi",Open ⋅ Closes 10 pm · 097620 06907,",support@gymcompany.co.za,anandjankar7777@gmail.com,shreeresidency@nexuspune.in,","18.4966005,73.8357161"
Sports Plus - High Performance Studio,Gym,Pune,"Sundarban Society, 999 C/B1",Open ⋅ Closes 9 pm,,"18.5064309,73.8375396"
COEP Gym,Gym,Pune,"GVJ4+9HV, Shivajinagar, Pune, Maharashtra 411005",,",x3edirector@coep.ac.in,sudrikhr18.plan@coep.ac.in,director@coep.ac.in,tpo@coeptech.ac.in,","18.530979,73.8461171"
Golden Gym Fitness Club,Gym,Pune,"junwadi, 54, Gokhale Nagar Rd",· 096572 92742,",nw582201@gmail.com,ravet.pune@goldsgym.in,","18.5144526,73.8200246"
All Dimension Fitness,Gym,Pune,"Shivshri Bungalow, Lane No. 2",Open ⋅ Closes 8:30 pm,,"18.4760447,73.8286071"
Endure Fitness Club - Wanowrie,Gym,Pune,"2nd Floor, LANDMARK, Endure Fitness Club, SNo. 65/1+3, Bapusaheb Kedari Marg",Open ⋅ Closes 10 pm · 091120 60201,",ness@gmail.com,endurefitnessclub@gmail.com,u003eendurefitnessclub@gmail.com,","18.4866768,73.8964286"
SM fitness club,Gym,Pune,"3+ years in business · 767 Ganesh peth, near Maharana Pratap school",Open ⋅ Closes 10 pm,",nw582201@gmail.com,","18.4929263,73.796605"
LifeTime Fitness Gym,Gym,Pune,"732, Chhatrapati Shivaji Maharaj Rd, near rashtrbhushan chawk",Open ⋅ Closes 10 pm,"contact@countryclubmail.com,consumerproducts@lifefitness.com,customersupport@lifefitness.com,,","18.5062176,73.8518333"
Spartan Fitness Private Limited,Gym,Pune,"1641, 2nd Floor, Madhav Heritage, Lokmanya Bal Gangadhar Tilak Rd, Sadashiv Peth, Pune, Maharashtra 411030",,"vbokil@gmail.com,,contact@spartanfitness.in,","18.5150303,73.8356046"
Yashwant Fitness Centre,Gym,Pune,"7+ years in business · Pune, Maharashtra",Open ⋅ Closes 9 pm · 080871 43399,,"18.4916153,73.8314379"
TOAG - The Open Air Gym,Gym,Pune,"Sarosh Mansion, Quarter Gate Chowk",Open ⋅ Closes 9 pm,",guineassports@gmail.com,","18.5161544,73.8690843"
Avengers Fitness Studio,Gym,Pune,"Second Floor, Dr Patil Building, Solapur - Pune Hwy, near Tekawde Petrol Pump",· 090047 97706,,"18.4760581,73.8698087"
Life Fitness,Gym,Pune,"Chhatrapati Shivaji Stadium, 1008, Veer Santaji Ghorpade Rd",· 072639 89965,",consumerproducts@lifefitness.com,customersupport@lifefitness.com,","18.4760581,73.8698087"
FIT2LIVE,Gym,Pune,"97/820, Divyashakti Society Rd, opp. Soubhagya Mangal Karyalay",Open ⋅ Closes 8 pm,"WeCare@GoldsGym.in,,contact@multifit.co.in,info@nitrro.in,","18.4921454,73.8571084"
Smiths Gym,Gym,Pune,"5th floor, Sukhwani Prestige, Dr. Homi Bhabha Rd, above Union Bank, Sagar Co-Operative Housing Society, Bavdhan, Pune, Maharashtra 411021",,",smithsgym@yahoo.co,smithsgym@yahoo.co.in,","18.5151127,73.7715132"
GetFit Personal Training - online,Gym,Pune,"3rd Floor, 303 Faith Centre, Lane No. 4, near Nexa Showroom",· 083790 66928,,"18.5617863,73.9044436"
27 BRICK HOUSE GYM - performance & lifestyle,Gym,Pune,"5+ years in business · House. 4th floor, Seth, Seth House Shopping Complex, Seth House, Bund Garden Rd",Open ⋅ Closes 10 pm · 098230 11333,,"18.5369648,73.8788547"
Admark fitness,Gym,Pune,"20+ years in business · Pune, Maharashtra",Open ⋅ Closes 10 pm · 091460 00091,",praj2183@gmail.com,csladda@ymail.com,","18.5135136,73.8094747"
The Pilates Studio KP by Namrata Purohit,Gym,Pune,"Phase II, E1, House No 2, Ground Floor, Liberty House, N Main Rd, next to Celio",Open ⋅ Closes 10 pm · 086056 52255,,"18.5398122,73.8959982"
Weight Loss Training,Gym,Pune,"Near, K-Block, Nehru Stadium",,",diwan918@gmail.com,support@fittr.com,info@fitnessmaster.in,","18.5059095,73.7752551"
Mind Gym Pune,Gym,Pune,"5+ years in business · Alpha Bachat Bhawan, behind Council Hall Camp",090119 09653,",mindgym@manashakti.org,emmartrading@gmail.com,","18.5266362,73.8782798"
Amol Gadkar Gym,Gym,Pune,"13, Tadiwala Road , Panchil Chowk , Near, Vidya Sagar Society , Tadiwala, Road Pu",· 098220 60020,,"18.5347724,73.8711115"
1st Fitness,Gym,Pune,"110, Times Square Building, Pune - Satara Rd, near Saibaba Temple",· 020 2426 9568,",info@nitrro.in,","18.5219074,73.8174625"
Mona's Fit & Fine Yoga Class,Gym,Pune,"Society, ADITYA RESIDENCY, Flat No.55, near Mitra Mandal Road",· 096048 64454,,"18.4979778,73.8501764"
Active People Gym ShivajiNagar,Gym,Pune,"Modern College Engineering, College Road",· 022 2546 0799,,"18.5252754,73.8451646"
Best fitness/gym Club in pune,Gym,Pune,near Navle College,Open 24 hours,",anandjankar7777@gmail.com,galaxyfitnessclub03@gmail.com,","18.4760622,73.9007086"
F2 Fitness Freak,Gym,Pune,"45M BRT Road near Nashik, Fhata flyover back side Khushboo Exotica",Open ⋅ Closes 10 pm · 0788 783 8899,,"18.6047287,73.8155293"
Gym Equipment Manufacturer | Syndicate,Gym,Pune,"Pune, Maharashtra",· 0181 461 8232,",syndicategym@gmail.com,","18.5201303,73.8574528"
Force - 89 Gym,Gym,Pune,"GVH2+CC5, Revenue Colony, Pune, Maharashtra 411005",,",oicadmission@gmail.com,","18.5285179,73.8408094"
SHIVAJIRAO BHOSALE SWIMMING POOL,Gym,Pune,"BACK SIDE OF PRIDE HOTEL, near Dalvi Hospital",· 099219 99997,",bhagwatintc@gmail.com,deven.bhattad@gmail.com,","18.5327622,73.8457851"
Poona Club Gym,Gym,Pune,GVFH+JVH,,",newpatnaclub@gmail.com,secretary@poonaclubltd.com,","18.5145912,73.835314"
Grace Fitness Center Pune,Gym,Pune,"Office No 2,1st Floor, Triveni Apt, Model Colony (, near Symbiosis Distance Learn",· 096898 48236,,"18.5346312,73.8315567"
Kaizens Wellness N Fitness Club,Gym,Pune,"No 504, 505, Paud Rd, Mahatma Society, Kothrud, Pune, Maharashtra 411038",,",rohit198723@gmail.com,","18.5074141,73.7964944"
Kaizens Wellness N Fitness Club,Gym,Pune,"No 504, 505, Paud Rd",Temporarily closed,",rohit198723@gmail.com,","18.5074144,73.8042193"
Gold’s Gym Moshi Pune,Gym,Pune,"3+ years in business · The Goldfields, Moshi High St",Open ⋅ Closes 10 pm · 091072 22777,",moshi.pune@goldsgym.in,WeCare@GoldsGym.in,Wecare@goldsgym.in,kalyaninagar.pune@goldsgymindia.com,","18.6632419,73.8279198"
"Pehellwaan Gym, nal stop branch",Gym,Pune,"Uday Housing Cooperative Society, 13/2/4, Late Shrimati Kashibai Amrutrao, Khilare Patil Rd, Erandwane, Pune, Maharashtra 411004",,",anand@thecreative.co.in,annasoc@roseland.com,","18.5069847,73.8227463"
Pune Gym,Gym,Pune,3+ years in business,081775 41628,",contact@multifit.co.in,emmartrading@gmail.com,aundh.pune@goldsgym.in,anandjankar7777@gmail.com,info@tifc.co.in,","18.4760581,73.8698087"
Silver Fitness Club,Gym,Pune,"7+ years in business · Sawatha Mali Temple Rd, near Silver City",Open ⋅ Closes 10 pm · 080070 80903,",dhayari@silverfitnessclub.in,wakad@silverfitnessclub.in,chikhli@silverfitnessclub.in,","18.4559721,73.7981906"
Setu Fitness Studio,Gym,Pune,"Sinhgad Rd, Sarita Vihar, Dattawadi, Pune, Maharashtra 401130",,",angarkheashwini78@gmail.com,","18.4943415,73.825249"
Gold Gym - Pune,Gym,Pune,,,",onenorth.pune@goldsgym.in,WeCare@GoldsGym.in,baner.pune@goldsgym.in,aundh.pune@goldsgym.in,Wecare@goldsgym.in,","18.4760581,73.8698087"
Core Studio - Airport Studio - Pune,Gym,Pune,,,",sk@pudumjee.com,jagdish.patil@pudumjee.om,","18.5314582,73.7980926"
C5 Training Space - Pune,Gym,Pune,"C5 Training Space, 18 Latitude Business Complex, 18/28, Kate Wasti Rd, Punawale, Pune, Maharashtra 411035",093704 84431,",c5trainingspace@gmail.com,","18.6237619,73.7295153"
Zest Fitness Centre - Peth - Pune,Gym,Pune,"1-C, Bramha Estates, 2nd Floor, Above Uti-Atm Center, Bhavani Peth, Pune 411048, MH",+91-20-30163448,,
Zenith Fitness Club - Katraj - Pune,Gym,Pune,"Near Sainath Hospital Bharati Vidhyapeeth, Trimurti Chowk, Main Road, Katraj, Pune 411046, MH",+91-9552545339,",zenith-fitness-club-pune-3w9@dbd29.html,",
Zad Studio - Wakad - Pune,Gym,Pune,"103, Sanskriti Arcade, 1st Floor, Opposite PCMC School, Kaspate Vasti, Wakad Sanskriti, Wakad, Pune 411057, MH",+91-7057397210,,
Yphoria - Viman Nagar - Pune,Gym,Pune,"Symbiosis School, Opposite Peter Donuts Cafe, Viman Nagar, Pune 411014, MH",+91-9975059574,,
Yogdarshan Yogasan Varg - Sinhagad Road - Pune,Gym,Pune,"6, Behind Santosh Hall, Sinhagad Road, Anand Nagar, Pune 411051, MH",+91-20-24476357,,
Yoganjali - Baner - Pune,Gym,Pune,,,"contact@wakad.in,,",
Yoga Center For Busy People - Sangvi - Pune,Gym,Pune,"New Sanghvi, Pune 411027, MH",,",info@wellintra.com,hello@goplayr.com,",
Yoga And Management Center - Pashan - Pune,Gym,Pune,"1, Gauri Shankar Apartment, Behind Yash Classic Apartment, Sus Road, Pashan, Pune 411021, MH",,",yoga-and-management-center-pune-q2xf2f@g9.html,support@learnpick.in,",
Yoga Addicts - Aundh - Pune,Gym,Pune,"1-G/5, Shirine Garden, Near Parihar Chowk, Raagdari Society, Aundh, Pune 411007, MH",+91-20-25897067,,
Yog Sadhana - Swargate - Pune,Gym,Pune,"Parvati, Near Telephone Office, Shahu College Road, Pune 411009, MH",+91-20-24226708,",anant_ambolikar@yahoo.com,amitnigade@gmail.com,",
Yo Fitness Studio - Chinchwad - Pune,Gym,Pune,"5, 1st Floor, Opposite Chinchwad Railway Station, Pune 411033, MH",+91-9028519239,,
Yes 2 Life - Aundh - Pune,Gym,Pune,"1204-B, Aloma County Society, Near MediPoint Hospital, Aundh, Pune 411045, MH",+91-9158487992,,
Yashwant Fitness Club - Peth - Pune,Gym,Pune,"Yashwant Nagar, Peth, Pune 411030, MH",+91-9158487992,",dptdoshi@gmail.com,",
Xtrim Fitness - Nigdi - Pune,Gym,Pune,"629, ABC Plaza, 1st Floor, Near Smokin Joe's Pizza, Sector 25, Late Umesh Shetty Marg, Pimpri-Chinchwad, Pune 411044, MH",+91-7796779700,",xtrimanand@gmail.com,",
Xmenia Hi-Fi - Kothrud - Pune,Gym,Pune,"3-A, Opposite Royal Enfield Showroom, Bhusari Colony, Paud Road, Kothrud, Pune 411021, MH",+91-8237105544,",xmaniafitnessclubpune@gmail.com,",
Xfit Fitness - Ravet - Pune,Gym,Pune,"13/1, 1st Floor, Near D.Y.Patil College Road, Pune 412101, MH",,",nw582201@gmail.com,",
Wow Fitness Club - Kondhwa - Pune,Gym,Pune,"Bramha Estate, 2nd Floor, Near Jyoti Hotel, Krishnakeval Nagar, Kondhwa, Pune 411048, MH",+91-9545266000,",emmartrading@gmail.com,",
Wow Fitness Club - Katraj - Pune,Gym,Pune,"1-C, 1st Floor, Near Mumbai-Pune Bypass Road, Katraj, Pune 411046, MH",+91-7875758899,",Wowfitnessclub@yahoo.in,",
Wow Fitness Club - Kothrud - Pune,Gym,Pune,"Kedar Empire, Opposite SNDT College, Erandwane, Karve Road, Kothrud, Pune 411038, MH",+91-9145112233,,
Work It Out Studio - Wanowrie - Pune,Gym,Pune,"27, Nancy Tower, Near Kedari Petrol Pump, Wanowrie, Pune 411040, MH",+91-9049118839,",ness@gmail.com,",
Wildcard Fitness - Ambegoan - Pune,Gym,Pune,"33/6, Near Icchapurti Ganesh Mandir, Ambegaon, Pune 411046, MH",,",Wildcardsantosh@gmail.com,wildcard.fithouse@gmail.com,",
Wild Card Fitness Club - Karve Nagar - Pune,Gym,Pune,"Near Bakers Treat The Cake Shop, Hingane Home Colony, Warje Malwadi Road, Karve Nagar, Pune 411052, MH",+91-7263851447,,
Vyakti Vikas Kendra - Aundh - Pune,Gym,Pune,"Anuradha Apartment, Behind IT Park Bopodi, Bahupati Patil Marg, Aundh, Pune 411020, MH",+91-20-25887171,,
Vlk Fitness Club - Warje - Pune,Gym,Pune,"1/2, 3rd Floor, Near Kaveri Hotel, Mumbai Bangalore Highway, Warje, Pune 411058, MH",+91-7721999111,",vinaylk94@gmail.com,",
Vj's Fitness Club - Baner - Pune,Gym,Pune,"5th Floor, Opposite Chaitanya Paratha, Baner, Pune 411045, MH",+91-8421517771,"contact@wakad.in,,directorcprpune@gmail.com,",
Vivafit Pune - Camp - Pune,Gym,Pune,"18, Opposite Gool Poonawala Garden, Salisbury Park, Camp, Pune 411037, MH",+91-9922954622,,
Vitality Fitness And Relaxation - Kondhwa - Pune,Gym,Pune,"1-A, NIBM Wanwadi, Nibm Road, Kondhwa, Pune 411048, MH",+91-20-64785426,,
Vinod Dudhal Yoga Training Institute - Satara Road - Pune,Gym,Pune,"1897, Sarang Society, Sahakar Nagar, Pune 411009, MH",+91-20-24226048,,
Victoryplates - Viman Nagar - Pune,Gym,Pune,"303/4, Faith Centre, 3rd Floor, Near Nexa Showroom, Viman Nagar, Pune 411014, MH",+91-8379066928,,
Vibez - Kalyani Nagar - Pune,Gym,Pune,"Mariplex Mall, Marigold Complex, 4th Floor, Kalyani Nagar, Pune 411014, MH",+91-20-48611103,",info@vibes.co.in,",
Vgp Fitness Centre - Peth - Pune,Gym,Pune,"443, Near Golden Jubilee Hostel, Bhawanipeth, Pune 411042, MH",,",Vgpfitness@gmail.com,",
Verve Fitness Club - Ravet - Pune,Gym,Pune,"Shailaja Farm, Anand Plaza, 1st Foor, Near DY Patil College, Sector 29, Ravet Pradhikaran Road, Ravet, Pune 411044, MH",+91-8956270035,,
Versatile Fitness Club - Kharadi - Pune,Gym,Pune,"7, SSR Tower, 1st Floor, Opposite Zensar Technologies, Knowledge Park, Kharadi, Pune, 411014, MH",+91-9768759888,,
Vandanas Power Yoga - Kalyani Nagar - Pune,Gym,Pune,"Joggers Park Hall, 1st Floor, Pune-Lalwani Vastu, Viman Nagar, Pune 411006, MH",,",archvaidya@gmail.com,",
Valeosis Fitness - Karve Nagar - Pune,Gym,Pune,"Krushnai Complex, 1st Floor, Opposite Corporation Bank, Karve Nagar, Pune 411052, MH",+91-9657811222,"chetangym@gmail.com,,admin@valeosifitness.com,",
Vaishanavi Dance Studio - Wakad - Pune,Gym,Pune,"Opposite Shanti Junior School, Dange Chowk Road, Wakad, Pune 411057, MH",+91-8983991000,",jeetparmar01234@gmail.com,",
Vaishali Fitness & Sliming Centre - Hadapsar - Pune,Gym,Pune,"Vaishali, Near Octrai Naka Shewalewadi, Pune-Solapur Highway, Shewalewadi, Pune 412307, MH",+91-8087104237,,
V Fitness Center - Nigdi - Pune,Gym,Pune,"10, 1st Floor, Opposite Vasu Restaurant, Sector 25, Sindhu Nagar, Pradhikaran, Nigdi, Pune 411044, MH",+91-8082051357,,
Uro Fitness Club - Pimpri Chinchwad - Pune,Gym,Pune,"Nakhate Vasti, Baderaj Colony, Rahatani Road, Pimpri-Chinchwad, Pune 411017, MH",+91-7798989838,,
Urbounce Fitness - Pashan - Pune,Gym,Pune,"Ven Business Center, 3rd Floor, Near 3M Car Care, Pashan Link Road, Baner, Pune 411021, MH",+91-20-67081000,",support@urbounce.fit,",
Universal Gym - Dhanori - Pune,Gym,Pune,"Besides Geetai Lawns, Dhanori Lohegaon Road, Dhanori, Pune 411015, MH",+91-8055607222,",contact@multifit.co.in,",
Universal Fitness - Wagholi - Pune,Gym,Pune,"9, Krushna Kunj Commercial Complex, Near Life Line Hospital, Pune Nagar Road, Wagholi, Pune 412207, MH",+91-7066096141,,
Unbeatable's Naka - Warje - Pune,Gym,Pune,"Acharya Society, Warje Jakat Naka, Pune 411058, MH",+91-8605007735,,
Unbeatable's Malwadi - Warje - Pune,Gym,Pune,"44/2, Chavhan Building, Near Ganpati Matha Mandir, Nda Road, Warje Malwadi, Pune 411058, MH",+91-20-30163444,",Prashantinterior@rediffmail.com,",
Ultra Fitness Health Club - Pimpri - Pune,Gym,Pune,"Near Sai Mandir, Sai Chowk, Pimpri Gaon, Pune 411018, MH",+91-9822246922,",punhr.arogyaspa@hyatt.com,",
Ultimate Fitness - Katraj - Pune,Gym,Pune,"15, Near Queens Residency, Behind Bharti Vidyapeeth, Shiv Colony, Dhankawadi, Pune 411046, MH",+91-9404959320,,
Uday Pendse Yoga Classes And Therapist - Senapati Bapat Road - Pune,Gym,Pune,"9, Pallavi Housing Society, Senapati Bapat Road, Chaturshringi, Pune 411016, MH",+91-9822534661,,
Ty Fitness - Peth - Pune,Gym,Pune,"480/1-B/2, Lila Manik Apartment, Near Motor World, Sardar Mudliyar Street, Rasta Peth, Pune 411011, MH",+91-20-26140132,",Wecare@goldsgym.in,",
Trimurtee Gym - Karve Nagar - Pune,Gym,Pune,"23, Opposite Vikas Mitra Mandal, Hinda Swaraj Chowk, Karve Nagar, Pune 411052, MH",+91-9822113081,,
Tranceform Fitness - Dhankawadi - Pune,Gym,Pune,"11/12, Opposite Rama Krishna Hostel, Pushkaraj Society, Dhankawadi, Pune 411043, MH",+91-997058096,,
Torque Fitness Gym - Baner - Pune,Gym,Pune,"112-A/1, Near Venkys Store, Baner-Pashan Link Road, Baner, Pune 411021, MH",+91-9773710068,",sales@torquefitness.com,",
Tiger Fitness - Pimpri Chinchwad - Pune,Gym,Pune,"1, Near Sancheti School, Tuljai Colony, Karantiveer Nagar, Thergaon, Pimpri Chinchwad, Pune 411033, MH",+91-8149853878,",service@tigerfitness.com,",
The Wellness Experts - Viman Nagar - Pune,Gym,Pune,"205, Lunkad Skymax, 2nd Floor, Datta Mandir Chowk, Viman Nagar, Pune 411014, MH",+91-7507551417,",renusane@gmail.com,",
The Studio - Kalyani Nagar - Pune,Gym,Pune,"Mariplex Mall, Marigold Complex, 4th Floor, Kalyani Nagar, Pune 411014, MH",,",arazakorient@gmail.com,contact@multifit.co.in,info@orientcombatarts.com,",
The Room - Shivaji Nagar - Pune,Gym,Pune,"Kakade Bizz Icon, 1st Floor, University Road, Shivaji Nagar, Pune 411016, MH",,",info@roomindia.com,",
The Place Dance & Fitness Studio - Aundh - Pune,Gym,Pune,"304-B, 3rd Floor, Opposite Gaikwad Petrol Pump, Marutirao Gaikwad Nagar, Aundh, Pune 411007, MH",+91-9922440052,,
The Little Gym - Kondhwa - Pune,Gym,Pune,"3, Clover Highlands, NIBM Road, Kondhwa, Pune 411048, MH",+91-9823065432,,
The Life Sports - Pashan - Pune,Gym,Pune,"8-19/1-B/1, Near Hotel Green Park, Someshwarwadi Road, Pashan, Pune 411008, MH",+91-9767755977,",lifesportsenquiry@gmail.com,",
The Hilife Fitness - Kothrud - Pune,Gym,Pune,"Pmt Building, 1st Floor, Above Kothrud Bus Stand, Karve Road, Kothrud, Pune 411038, MH",+91-9595457124,,
The Gt Fitness Club - Shivaji Nagar - Pune,Gym,Pune,"Gurukrupa Complex, 1st Floor, Near IDBI Bank, Dnyaneshwar Paduka Chowk, Modern College Road, Shivajinagar, Pune 411004, MH",+91-8600150150,,
The Fitness Floor - Chinchwad - Pune,Gym,Pune,"Nahar Building, Near Lokmanya Hospital, Chinchwad Railway Station Road, Chinchwad, Pune 411019, MH",+91-8600150150,",n@goldsgym.in,info@shoppingbazar.in,",
The Feet Circus - Koregaon Park - Pune,Gym,Pune,"101/6, Pingale Corner, Koregaon Park, Pune 411001, MH",+91-9689934908,,
The Dance Floor Pune - Camp - Pune,Gym,Pune,"859, 2nd Floor, Near JJ Garden, Dastur Meher Road, Camp, Pune 411001, MH",+91-8983508551,,
Tejaswini Health Club (For Ladies) - Karve Nagar - Pune,Gym,Pune,"Near Cummins College, Hingne Budrukh, Karve Nagar, Pune 411052, MH",+91-20-25478211,,
Tarai Fitness Club - Narhe - Pune,Gym,Pune,"Tarai Complex, Narhe Polis Chowki, Manaji Nagar, Pune 411041, MH",+91-9152296168,,
Talwalkars Sahakarnagar - Satara Road - Pune,Gym,Pune,"3, Near Walwekar Nagar, Taware Colony, Satara Road, Sahakarnagar, Pune 411009, MH",+91-20-24203366,",astirefitnesssahakarnagar@gmail.com,",
Talwalkars Lulla Nagar - Wanowrie - Pune,Gym,Pune,"2-2/595/1, Above Vespa Showroom, Lullanagar, Kondhawa Road, Wanowrie, Pune 411048, MH",+91-7888028125,",vastuyojana@rediffmail.com,",
Talwalkars Hifi Bt Kawade Road - Ghorpadi - Pune,Gym,Pune,"3/113-14, 1st Floor, Opposite Palm Groves Society, B.T.Kawade Road, Ghorpadi, Pune 411001, MH",+91-7722093637,",talwalkarshifibtkawaderd@gmail.com,",
Talwalkars Hi-Fi - Peth - Pune,Gym,Pune,"1214, Near Pabalkar Hospital, Shukhrawarpeth, Road No 4, Subhash Nagar, Pune 411002, MH",+91-20-24466789,,
Talwalkars F C Road - Fc Road - Pune,Gym,Pune,"925-B/4, Dyaneshwar Paduka Chowk, Fergusson College Campus, F.C.Road, Shivajinagar, Pune 411004, MH",+91-20-25666961,,
Sweat Gym - Kothrud - Pune,Gym,Pune,"Suraj Nagar Road, Guruganesh Nagar, Pune 411038, MH",+91-9604901263,,
Swasti Yoga Center - Chinchwad - Pune,Gym,Pune,"2/1, Near Jai Hind Collection, Empire Estate Phase 1, Chinchwad, Pune 411019, MH",+91-9922916025,"swastiyogacenter@gmail.com,,contact.swastiyoga@gmail.com,info@swastiyogacenter.com,",
Suryaprakash Gym - Bhosari - Pune,Gym,Pune,"6, Near Maya Ladies Tailor, Bhosari Colony, Gavhane Vasti Pmt Chowk, Sector No 2, Indrayani Nagar, Pune 411039, MH",+91-9623252456,,
Sunny Durge's Rhythm Studio - Kothrud - Pune,Gym,Pune,"2nd Floor, Near Kothrud Stand, Kothrud, Pune 411038, MH",+91-20-30163449,",kisan_chawda@yahoo.co.in,archvaidya@gmail.com,",
Sungrace Yoga - Wakad - Pune,Gym,Pune,"1/101-B, Kaspate Vasti, Near Ambience Hotel, Wakad, Pune 411057, MH",+91-9890372111,,
Sudhakar Fitness Center - Vadgoan Budrukh - Pune,Gym,Pune,"Jayprakash Apartment, Near Garwe Hyundai Showroom, Mumbai-Bangalore Highway, Vadgaon Budruk, Pune 411041, MH",+91-9850191630,,
Sudama Gym - Dhanori - Pune,Gym,Pune,"27, Bopkhel, Ganesh Nagar, Dhanori, Pune 411015, MH",+91-9922418007,,
Studio Natraj The Dance Hub - Viman Nagar - Pune,Gym,Pune,"203/29, Near Kailash Super Market, Viman Nagar, Pune 411014, MH",+91-9049411369,,
Studio Fm - Baner - Pune,Gym,Pune,"401, Aditi Jivan Apartment, Near Bikaner Bakery, Baner, Pune 411045, MH",+91-9764441440,",suyog222bhagwan@gmail.com,ashokkumar_dange@yahoo.co.in,",
Studio 9 - Kothrud - Pune,Gym,Pune,"9, Vrundavan Commercial Complex, Near Ashish Garden, Guruganeshnagar, Kothrud 411038, MH",+91-9422303701,",suyog222bhagwan@gmail.com,hello@fitholic.in,",
Studio 360 - Nibm - Pune,Gym,Pune,"1, Sunflower Apartment, More Super Market, Nibm Road, Kondhwa Khurd, Pune 411048, MH",+91-9965412345,",suyog222bhagwan@gmail.com,",
Studio 19 - Kharadi - Pune,Gym,Pune,"18-A, 2nd Floor, Opposite Victorious Kids Educare, Fountain Road, Kharadi, Pune 411014, MH",+91-9923902237,,
Strong Fitness - Pimple Gurav - Pune,Gym,Pune,"Dnyandeep Heights, Behind Ashok Hotel, Pimple Gurav Dapodi Road, Pimple Gurav, Pune 411061, MH",,",olympismsports@gmail.com,",
Strong Fitness - Pimple Nilakh - Pune,Gym,Pune,"14, Purnima Plaza, Brahma Vrinda Colony, Wakad-Baner DP Road, Pimple Nilakh, Pune 411027, MH",+91-20-65229922,"admission@ifssedu.com,,olympismsports@gmail.com,",
Stretch Fitness And Beyond - Wanowrie - Pune,Gym,Pune,"Commercial Plaza, 1st Floor, Near Kedari Petrol Pump, Wanowrie, Pune 411040, MH",+91-20-26803550,,
Strength Fitness Club - Chinchwad - Pune,Gym,Pune,"51/2-3, Ashok Ratna Arcade, Opposite Prathibha Motors Showroom, Chinchwad, Pune 411033, MH",+91-7218622516,",nw582201@gmail.com,emmartrading@gmail.com,",
Status Health Club - Deccan - Pune,Gym,Pune,"Shivshakti Building, Near Hotel Raviraj, Bhandarkar Road, Deccan Gymkhana, Pune 411004, MH",+91-20-25675070,,
Star Fitness - Yerawada - Pune,Gym,Pune,"191, Nagpur Chawl, Opposite Yerwada Jail, Airport Road, Yerawada, Pune 411006, MH",+91-7888044293,,
Sportfit Studio - Baner - Pune,Gym,Pune,"201, 3rd Floor, Opposite Kapil Malhar Society, Baner, Pune 411045,MH",,",info@thefitnesstemple.in,",
Spartns Fitness - Hadapsar - Pune,Gym,Pune,"209/5, Capital Plaza, Malwadi, D P Road, Hadapsar, Pune 411028, MH",+91-8540070707,",webmaster@us.artofliving.org,",
Spa Fitness - Senapati Bapat Road - Pune,Gym,Pune,"Samaj Mandir, Opposite Baramati Hostel, Senapati Bapat Road, Gokhale Nagar, Pune 411016, MH",+91-20-25657522,,
Spa Fitness - Balewadi - Pune,Gym,Pune,"43/2, Shree Building, Near Bharti Vidhyapeth School, Mitcorn College Road, Balewadi, Baner, Pune 411045, MH",+91-8459590123,",hello@ellipsa.in,",
Soulz Fitness - Kondhwa - Pune,Gym,Pune,"Behind Rupee Co-operative Bank, Nibm Road, Kondhwa Khurd, Pune 411048, MH",+91-9158900789,",emmartrading@gmail.com,",
Soul Beats Dance And Fitness Studio - Wadgaon Sheri - Pune,Gym,Pune,"47, 1st Floor, Sangharsh Chowk, Above Shivajirao Bhosle Bank, Chandan Nagar, Pune 411014, MH",+91-7447711072,,
Soman Health Club - Peth - Pune,Gym,Pune,"1688, Laxmi Rang Building, Khajina Vihir Chowk, Sadashivpeth, Pune 411030, MH",+91-9326530511,",sangeetaraut@gmail.com,",
Solaris - Bavdhan - Pune,Gym,Pune,"1st Floor, Bavdhan Police Station, Bavdhan, Pune 411021, MH",+91-8380055357,"customer@solaris.in,,",
Soham Yoga - Magarpatta - Pune,Gym,Pune,"Magarpatta City, Hadapsar, Pune 411013, MH",+91-9881725930,",SohamYogaStudio@gmail.com,sohamyogastudio@gmail.com,",
Snap Fitness - Chinchwad - Pune,Gym,Pune,"Sardar Gawade Commercial, Near Kalika Mandir, Link Road, Tanaji Nagar, Chinchwad, Pune 411033, MH",+91-9552284343,,
Sk Fitness For All - Viman Nagar - Pune,Gym,Pune,"1, Karan Bazar, Near By Ramchandra Sabhagruh, Somnath Nagar, Wadgaon, Sheri, Pune 411014, MH",+91-9822735062,,
Silver Fitness Club - Wakad - Pune,Gym,Pune,"165-1/166-5, Near Mumbai-Bangalore Highway, Shankar Kalat Nagar, Wakad, Pune 411057, MH",+91-9325340231,",wakad@silverfitnessclub.in,",
Silver Fitness Club Tathawade - Chinchwad - Pune,Gym,Pune,"Near Raghu Nandan Mangal Karyalaya, Ram Nagar, Kalewadi Main Road, Pimpri-Chinchwad, Pune 411033, MH",+91-9325340231,",tathawade@silverfitnessclub.in,wakad@silverfitnessclub.in,",
Silver Fitness Club - Dhayari - Pune,Gym,Pune,"Opposite Nanded City Main Gate, Nanded, Pune 411041, MH",+91-8669980003,",dhayari@silverfitnessclub.in,",
Silver Fitness Club Chikhali - Pimpri Chinchwad - Pune,Gym,Pune,"Silver Fitness Club, Near Silver City, Jadhavwadi Road, Chikhali, Pune 411062, MH",+91-8007080906,",tathawade@silverfitnessclub.in,chikhli@silverfitnessclub.in,",
Shree Dance Academy - Viman Nagar - Pune,Gym,Pune,"34, Opposite Phoenix Market City, Sopan Nagar, Vadgaon Sheri, Pune 411014, MH",+91-9766486526,,
Sherigara Gym - Wanowrie - Pune,Gym,Pune,"Parmar Gallery, 2nd Floor, Jagtap Chowk, Beside IDBI Bank, Vikas Nagar, Wanowrie, Pune 411040, MH",+91-9890099644,,
Shah's Studio - Bibwewadi - Pune,Gym,Pune,"16, Kapil Upavan Society, Near Lake Town Society, Bibvewadi Road, Bibvewadi, Pune 411037, MH",+91-9623266400,",taap.pune@gmail.com,",
Seventy Seven Fitness Club - Katraj - Pune,Gym,Pune,"32, Kudle Nivas, Near Chintamani School, Chatrapati Shivaji Chowk, Katraj, Pune 411046, MH",+91-8308097977,",anandjankar7777@gmail.com,",
Setu Fitness Studio - Sinhagad Road - Pune,Gym,Pune,"10, Swetambari Apartment, Near Navshya Maruti Mandir, Sinhagad Road, Panmala, Dattavadi, Pune 411030, MH",,",angarkheashwini78@gmail.com,",
Sculpt Fitness Centre - Yerawada - Pune,Gym,Pune,"Navarang Plaza, 2nd Floor, Tingre Nagar Road, Vishrantwadi, Pune 411015, MH",+91-20-26612383,,
Savi's Dance Studio - Erandwane - Pune,Gym,Pune,"Nanasaheb Bhonde Path, Bhonde Colony, Erandwane, Pune 411004, MH",+91-7745077770,,
Satyam Yoga - Kondhwa - Pune,Gym,Pune,"Satyanand Hospital, Opposite Konark Pooram, Kondhwa, Pune 411 048, MH",+91-7588094317,,
Sarvadnya Yoga Institute - Pimpri Chinchwad - Pune,Gym,Pune,"3, Mata Chambers, 3rd Floor, Near Shagun Tailor, Anand Nagar, Pimpri Chinchwad, Pune 411027, MH",+91-9545984706,",sarvadnyayoga@gmail.com,",
Sanjay Sports Academy - Baner - Pune,Gym,Pune,"19/1-B/1, Sanjay Residency, Near Rajwada Hotel, Baner Road, Pashan Gaon, Someshwarwadi, Pune 411021, MH",+91-9767755977,",nimhan777@gmail.com,",
Sammy Fitness Studio - Peth - Pune,Gym,Pune,"2100, Shanti Mandir, Sadashiv, Kalaprasadpeth, Pune 411030, MH",+91-9503513845,,
Samarth Gymnasium - Dighi - Pune,Gym,Pune,"Opposite Apeksha Heights, Alandi Road, Datta Nagar, Dighi, Pune 411015, MH",+91-9850311782,,
Sai Vyayam Shala - Viman Nagar - Pune,Gym,Pune,"Sai Krupa Building, Near Dr. Marthophillus School, Porwal Road, Lohgaon, Pune 411047, MH",+91-9860479910,,
Sai Raj Gym - Kothrud - Pune,Gym,Pune,"112, Samarth Colony, Sutardara, Sai Auto Garage, Kothrud, Pune 411038, MH",+91-9527975897,",contact@kothrud.com,",
Sai Fitness Club - Fc Road - Pune,Gym,Pune,"Near Modern College, Fergusson College Road, Shivaji Nagar, Pune 411004, MH",,",dhayari@silverfitnessclub.in,",
Sachin Yoga Studio - Pimple Gurav - Pune,Gym,Pune,"Near Narmada Garden, Sahyadri Colony, New Sangavi, Pimpri, Chinchwad, Pune 411027, MH",+91-9545353535,,
S Square Fitness - Pimple Saudagar - Pune,Gym,Pune,"2nd Floor, Opposite Lakshdeep Plaza, Shivaji Chowk, Pimple, Saudagar, Pune 411027, MH",+91-7447446787,,
Runiq Wellness - Sinhagad Road - Pune,Gym,Pune,"19/463, 1st Floor, Near Madhukar Hospital, Hingne Khurd, Sinhagad Road, Anand Nagar, Pune 411051, MH",+91-9545614242,,
Rudra Health Club Pimple Gaurav - Pimple Gurav - Pune,Gym,Pune,"36, Shiv Lakshya Heights, Opposite Ramkrishna Karyalaya Chowk, Katepuram Road, Pimple Gurav, Pune 411061, MH",,",archvaidya@gmail.com,",
Rs Fitness Studio - Bibwewadi - Pune,Gym,Pune,"Near Bit Collage, Lake Town Road, Bibvewadi, Pune 411037, MH",+91-9822240305,,
Royal Orchid Central Pune - Kalyani Nagar - Pune,Gym,Pune,"Annexe Building, Near Kotak Mahindra Bank, Kalyani Nagar, Pune 411014, MH",+91-20-40003000,",rooms.rocpune@royalorchidhotels.com,travel@blessingsonthenet.com,",
Royal Fitness Club - Pirangut - Pune,Gym,Pune,"Balaji Nagar, Lavale Road, PLavale Phata, Pirangut, Pune 412115, MH",+91-9921515219,,
Royal Fitness Club - Sinhagad Road - Pune,Gym,Pune,"Vishwa Arcade, 3rd Floor, Above Suzuki Showroom, Narhe Gaon, Sinhagad Road, Pune 411041, MH",+91-8805000042,,
Rock Hard Gym - Pimple Saudagar - Pune,Gym,Pune,"304-A, In Rainbow Plaza, Jagtap Dairy Road, Pimpri Chinchwad, Pune 411017. MH",+91-9096093780,,
Rising Fitness Club - Wanowrie - Pune,Gym,Pune,"Parmar Gallery, Parmar Park, 2nd Floor, Above State Bank Of India, Wanowrie, Pune 411040, MH",+91-20-66091275,,
Rishi Sanskruti Vidya Kendra - Shivaji Nagar - Pune,Gym,Pune,"Kapila Housing Society, Near Chaitanya Software Technologies, Senapati Bapat Road, Gokhale Nagar, Pune 411004, MH",+91-20-2550497,,
Rich Heritage Yoga - Wagholi - Pune,Gym,Pune,"Jai Anand Complex, 2nd Floor, Fadai Chowk, Wagholi, Pune 412207, MH",+91-9890268268,",richheritageyoga@gmail.com,",
Reshape Fitness - Deccan - Pune,Gym,Pune,"Deccan Avenue, 2nd Floor, Near Bata Showroom, J M Road, Deccan, Pune 411004, MH",,",deccangymkhana@gmail.com,",
Regent Fitness Club - Bibwewadi - Pune,Gym,Pune,"406-B, Near Chintamani Nagar, Raskar Campus, Swami Vivekanand Road, Upper Indira Nagar, Bibwewadi, Pune 411037, MH",+91-20-24281113,,
Refit Studio - Aundh - Pune,Gym,Pune,"7-B, Sheeba Housing Society, 2nd Floor, Bhau Patil Road, Pragati Nagar, Bopodi, Pune 411020, MH",,",aundh.pune@goldsgymindia.com,info@thefitnesstemple.in,",
Recomp Gym - Koregaon Park - Pune,Gym,Pune,"5, Suyojana Society, Kavadewadi, Koregaon Park, Pune 411001, MH",+91-8552098643,,
Real Body Yoga Institute - Peth - Pune,Gym,Pune,"14/39, Rashtrabasha Prachar Samiti, Shukrawarpeth, Pune 411002MH",+91-9764558567,,
Raw Adventure Solutions - Sinhagad Road - Pune,Gym,Pune,"203-A, Near Dhareshwar Temple, Dhayari Gaon, Pune 411041, MH",+91-9881422575,",rawadventuresolutions@gmail.com,",
R H Zone - Nigdi - Pune,Gym,Pune,"5, Basement Puja Palace, Purnanagar, Chikhali Pradhikaran, Nigdi, Pune 411019, MH",,",vinaykunjir@gmail.com,contactus@physcgym.com,",
R G's Fitness Club - Wadgaon Sheri - Pune,Gym,Pune,"Near Anand Bus Stop, Ganeshnagar Road, Vadgaon Sheri, Pune 411014, MH",+91-9850593033,",ravigavali33@gmail.com,",
R Fitness Center - Pimpri Chinchwad - Pune,Gym,Pune,"Hotel Kalasagar Basement, Opposite State Bank Of India, Old Mumbai Road, Kasarwadi, Pimpri Chinchwad, Pune 411017, MH",+91-8888872767,,
Quality Fitness Club - Peth - Pune,Gym,Pune,"156/1-B, Akshay Complex, Opposite Manorama Mangal Kendra, Main Road, Mangalwar, Peth, Pune 411011, MH",+91-20-26125251,,
Pune Fitness Club - Kharadi - Pune,Gym,Pune,"43, Mundwa-Kharadi Road, Chandan Nagar, Kharadi, Pune 411041, MH",+91-8149400071,,
Pulse The Studio - Camp - Pune,Gym,Pune,"Behind Kaya Skin Clinic, Ambedkar Road Camp, Pune 411001, MH",+91-9371371357,,
Pro Fitness - Wakad - Pune,Gym,Pune,"245, Bhakti Genesis, 3rd Floor, Near Sahara Hotel, Hinjewadi Road, Wakad, Pune 411057, MH",+91-7030338777,",profitness7777@gmail.com,wakad@silverfitnessclub.in,",
Prime Fitness - Pimpri Chinchwad - Pune,Gym,Pune,"Dehu Road, Datta Nagar, Pimpri Chinchwad, Pune 412101, MH",+91-9922855322,,
Powerhouse Gym - Hinjewadi - Pune,Gym,Pune,"Shreenath Icon, 2nd Floor, Shivaji Chowk, Hinjewadi, Pune 411057, MH",+91-8237279090,",moshigymycspowerhouse@gmail.com,",
Powerhouse Fitness Club - Sopan Baugh - Pune,Gym,Pune,"66, Shreenath Nivas Building, Near B T Kawde Fly Over End, B T Kawade Road, Sopan Baug, Pune 411001, MH",+91-8412845851,"admin@powerhousegym.com,,",
Power Punch Fitness Club - Baner - Pune,Gym,Pune,"2, Opposite KFC Restaurant, Baner Road, Baner, Pune 411045, MH",+91-8378971129,,
Power Of Yoga - Koregaon Park - Pune,Gym,Pune,"19, Near Dario's Osho International Commune, Koregaon Park, Pune 411001, MH",+91-8039510660,,
Power Nv - Vishrantwadi - Pune,Gym,Pune,"Madhuban Society, Opposite Pawar Petrol Pump, Alandi Road, Vishrantwadi, Pune 411015, MH",+91-9657894445,,
Postures Yoga Art Studio - Viman Nagar - Pune,Gym,Pune,"207, 2nd Floor, Above Apache Lounge, Phase 1, Viman Nagar, Pune 411014, MH",+91-9860278686,,
Pooja Fitness Club - Chinchwad - Pune,Gym,Pune,"Talekar Nagar, Chapekar Chowk Link Road, Chinchwad, Pune, 411033, MH",+91-9922404264,,
Pompoes Academy - Kalyani Nagar - Pune,Gym,Pune,"5/6, Opposite Niyati Building, Kalyani Nagar, Pune 411006, MH",,",kalyaninagar.pune@goldsgymindia.com,saleskn@multifit.co.in,",
Platinum Health & Fitness Center - Warje - Pune,Gym,Pune,"H N More Complex, 1st Floor, Near More Petrol Pump, Shivane-Khadakwasla, Warje, Pune 411023, MH",+91-20-25294299,,
Planet Health Center - Hinjewadi - Pune,Gym,Pune,"Ganga Estate, 2nd Floor, Above Axis Bank, Hinjewadi, Pune 411057, MH",+91-7028070294,",admin@planethealth.co.in,",
Planet Fitness - Pimpri Chinchwad - Pune,Gym,Pune,"Saraswati Complex, 2nd Floor, Opposite Kunal Hotel, Kalewadi, Pimpri, Pune 411017, MH",,",maheshhatte691@gmail.com,nw582201@gmail.com,",
Planet Fitness - Peth - Pune,Gym,Pune,"Swargiya Pramod Mahajan Krida Sankul, Opposite Telephone Exchange, Shukrawarpeth, Pune 411002, MH",+91-8007810561,,
Pink Studio - Baner - Pune,Gym,Pune,"Shivranjan Towers, Opposite Pavana Sahakari Bank, Baner Road, Someshwarwadi, Pashan, Pune 411008, MH",+91-9881235170,,
Physc Gym - Nigdi - Pune,Gym,Pune,"Sanjay Kale Complex, Near CMS English Medium High School, Sector 28, Nigdi Pradhikaran, Pune 411044, MH",+91-8087243332,",contactus@physcgym.com,",
"Physc Gym, - Chinchwad - Pune",Gym,Pune,"Navkar Commercial Complex, 4th Floor, Link Road, Above Bank Of Baroda, Chinchwad, Pune 411033, MH",,",contactus@physcgym.com,",
"Physc Gym, - Bhosari - Pune",Gym,Pune,"2, Northland Apartment, Near Bank Of Maharashtra, Indrayani Nagar, Bhosari, Pune 411026, MH",+91-20-65602626,",contactus@physcgym.com,",
Physc Gym - Pimpri Chinchwad - Pune,Gym,Pune,"Navkar Commercial Complex, 4th Floor, Above Bank Of Baroda, Link Road, Chinchwad, Pune 411033, MH",+91-9146191913,",contactus@physcgym.com,",
Physc Gym - Hadapsar - Pune,Gym,Pune,"2-A, Near Lakshmi Electricals, Baburao Shankarrao Tupe Road, Malwadi, Hadapsar, Pune 411028, MH",+91-9146191912,",contactus@physcgym.com,",
Physc Gym - Pimpri - Pune,Gym,Pune,"Fusion Park, 2nd Floor, Opposite PCMC Garden, Morewadi, Ajmera Road, Pimpri, Pune 411018, MH",+91-9146191913,",contactus@physcgym.com,",
Pharaohs Health Club - Swargate - Pune,Gym,Pune,"Harjivan Hospital Premises, Opposite Sarasbaug, Swargate, Pune 411002, MH",+91-9822015109,,
Perfect Gym - Pimpri - Pune,Gym,Pune,"Near D Y Patil College, Ajmera Road, Mahesh Nagar, Pimpri, Pune 411018, MH",+91-9921890309,"kore.kunal@yahoo.in,,",
Perfect Fitness Club - Sinhagad Road - Pune,Gym,Pune,"Nilay Complex, Opposite Santosh Hall, Sinhgad Road, Anand Nagar, Pune 411051, MH",+91-7350222555,",galaxyfitnessclub03@gmail.com,dhayari@silverfitnessclub.in,",
Pehellwaan Gym Yerwada - Yerawada - Pune,Gym,Pune,"Lahuji Vastad Salve Vyayam Shala, Kshirsagar Hall, Lakshmi Nagar, Yerawada, Pune 411006, MH",+91-7447491117,,
Pehellwaan Gym - Pimple Gurav - Pune,Gym,Pune,"Lokseva Vyayam Mandal, Lokseva Vasahat, Near Ladkatwadi Road, Sangamvadi, Pune 41100, MH",+91-8805963796,,
Pehellwaan Gym - Dhankawadi - Pune,Gym,Pune,"30/4, New Nurses Town Co-operative Society, Above Durwankur Karyalaya, Dhankawadi Post Office Road, Kundan Nagar, Dhankawadi, Pune 411043, MH",+91-9960022221,,
Passion Fitness - Aundh - Pune,Gym,Pune,"3rd Floor, Near Medi Point Hospital, New DP Road, Aundh, Pune 411007, MH",+91-7767906722,,
Pasos Loco - Kalyani Nagar - Pune,Gym,Pune,"6/5, Palacimo Estate, Opposite Nyati Builders Office, Kalyani Nagar, Pune 411006, MH",+91-9975037344,,
Parag Gym - Wadgaon Sheri - Pune,Gym,Pune,"Near Niramai Hospita, Namdev Nagar, Vadgaon Sheri, Pune 411014, MH",+91-9011007878,",team.paragfitness@gmail.com,Nileshshiral@gmail.com,",
Paradise Hardcore Gym - Hadapsar - Pune,Gym,Pune,"2, Shree Pruthvi Complex, Sasane Nagar Road, Hadapsar, Pune 411028, MH",+91-9822833050,,
P40X Fitness Studio - Fc Road - Pune,Gym,Pune,"ILS Law College Pune Campus, Near National Film Archive Of India, Law College Road, Shivaji Nagar, Pune 411004, MH",+91-9823057298,,
Oxygym Fitness Centre - Chinchwad - Pune,Gym,Pune,"19/3, Opposite State Bank Of India, Bhoir Palace, Moreshwar Bhoir Colony, Dange Chowk, Chinchwad, Pune 411033, MH",+91-9823901388,,
Oxyfit Premium Fitness Club [ Only For Members ] - Hinjewadi - Pune,Gym,Pune,"Rajiv Gandhi IT Park, Behind Wipro Circle Phase 2, Hinjewadi, Pune 411057, MH",+91-8484848415,,
Outraw Fitness Gym - Pimple Saudagar - Pune,Gym,Pune,"Near Godambe Chowk, Rahatani Road, Kalewadi, Rahatani, Pune 411017, MH",+91-8424852233,,
Oscar Health Step Academy - Dhayari - Pune,Gym,Pune,"74, Patil Plaza, Dhayari, Pune 411041, MH",+91-8888035500,",oscarhealthstepacademy@gmail.com,",
Orion Fitness - Sinhagad Road - Pune,Gym,Pune,"17, Gauri Shankar Society, Behind Damodar Nagar, Hingne Khurd-Manik Baug, Sinhagad Road, Pune 411051, MH",+91-9403983900,",orionfitnesspune@gmail.com,",
Origins Fitness Club - Warje - Pune,Gym,Pune,"130, Audumber Society, 3rd Floor, Opposite Chevrolet Showroom, Mumbai-Bangalore Highway, Warje, Pune 411041, MH",+91-9860600986,",Aniket.origin@gmail.com,",
On 8 Inc - Kondhwa - Pune,Gym,Pune,"2-A, Sunshree Woods Commercial Complex, 2nd Floor, Nibm Road, Kondhwa, Pune 411048, MH",+91-7798181858,,
Om Studio - Shivaji Nagar - Pune,Gym,Pune,"3rd Floor, Above Pashankar Auto-Honda Showroom, Jangli Maharaj Road, Shivaji Nagar, Pune 411005, MH",+91-8390000401,,
Om Studio - Shivaji Nagar - Pune,Gym,Pune,"4th Floor, Above Pashankar Auto-Honda Showroom, Jangli Maharaj Road, Shivaji Nagar, Pune 411005, MH",+91-8390000401,,
Ojas Gym - Pimpri Chinchwad - Pune,Gym,Pune,"16, Sai Park Colony, Jai Bhawani Nagar, Thergaon, Pimpri-Chinchwad, Pune 411033, MH",+91-9850200024,",suyog222bhagwan@gmail.com,kapilkulkarnipune@gmail.com,",
O2 Fitness Club - Katraj - Pune,Gym,Pune,"Kadam Plaza, Behind Bank Of Maharashtra, Pune Satara Road, Katraj, Pune 411046, MH",+91-20-33014653,",o2fitnessclub07@gmail.com,o2@o2fitnessclubs.com,",
O Yoga Universal - Koregaon Park - Pune,Gym,Pune,"1, Near Osho International Meditation Resort, Koregaon Park, Pune 411001, MH",+91-9158777731,,
Nutraline Gym - Peth - Pune,Gym,Pune,"2009, Opposite Bank Of Maharashtra, Madiwale Colony, Gangadhar Tilak Road, Peth, Pune 411030, MH",+91-9823177056,,
Nj's Fitness Center - Pimple Saudagar - Pune,Gym,Pune,"4th Floor, Near Nana Kate's Office, Katenagar, Pimple Saudagar, Pune 411027, MH",+91-20-65205050,,
Niwara - Peth - Pune,Gym,Pune,"96, David Sasson Anath Pangu Gruha, Near SM Joshi Bridge, Thoasar Paga, Navi Peth, Pune 411030, MH",,",aaalulkar@gmail.com,suyog222bhagwan@gmail.com,",
Nitrro Wellness And Fitness Hub - Kalyani Nagar - Pune,Gym,Pune,"9/60, Prathamesh Society, Kalyani Nagar, Kalyani Nagar, Pune 411006, MH",+91-9368681111,",info@nitrro.in,",
Nirvana Yoga - Kothrud - Pune,Gym,Pune,"Yashashree Society Hall, Behind Mit College, Paud Road, Kothrud, Pune 411038, MH",,",nirvanayogapune@gmail.com,",
Nirmal Pranayam And Yoga Classes - Wanowrie - Pune,Gym,Pune,"Jagtap Chowk, Behind Sai Sagar Hotel, Shivarkar Road, Wanowrie, Pune 411040, MH",,",info@theashtangaschool.com,",
Nh Fitness - Chinchwad - Pune,Gym,Pune,"Kumble Plaza, Opposite Hanuman & Shanti Mandir, Thergoan Link Road, Jaytop Nagar, Pimpri Chinchwad, Pune 411033, MH",,",dptdoshi@gmail.com,",
Nexus Gym - Wadgaon Sheri - Pune,Gym,Pune,"Opposite Bramha Suncity, Kalyani Nagar Road, Vadgaon Sheri, Pune 411014, MH",+91-7775096993,,
New Master Gym - Pimpri Chinchwad - Pune,Gym,Pune,"266, Near Sanjiwani Hospital, D.P.Road, Gadital, Hadapsar, Pune 411028, MH",+91-9850073484,",n@goldsgym.in,",
New Image Fitness - Pimpri Chinchwad - Pune,Gym,Pune,"1418, More Vasti, Chikhali, Pimpri-Chinchwad, Pune 411062, MH",+91-9890629680,,
Neutrino The Nutrition Centre - Swargate - Pune,Gym,Pune,"1301, 3rd Floor, Above Sampada Sahakari Bank, Bajirao Road, Subhash Nagar, Swargate, Pune 411002, MH",+91-9595056868,,
Naach Dance Company - Aundh - Pune,Gym,Pune,"2nd Floor, Opposite Shivsagar Restaurant, D.P. Road, Aundh, Pune 411007, MH",+91-20-41207136,",abhilasha@naachindia.com,",
N Vie Fitness - Satara Road - Pune,Gym,Pune,"101-E, Behind Pankaj Restaurant, Satara Road, Mukund Nagar, Pune 411037, MH",+91-20-24266004,,
My Fitness - Sangvi - Pune,Gym,Pune,"3rd Floor, Trimurti Colony, Ganesh Nagar, Pimpri Chinchwad, Pune 411027, MH",,",drmayuriphysio@gmail.com,",
Muscle Mania Fitness Centre - Pimpri - Pune,Gym,Pune,"15/8, Near Shani Mandir, Pimpri Colony, Sai Chowk, Pimpri, Pune 411018, MH",+91-9270060070,,
Multifit Wellness - Kalyani Nagar - Pune,Gym,Pune,"Mariplex Mall, Marigold Complex, 3rd Floor, Above Big Cinemas, Kalyani Nagar, Pune 411014, MH",+91-20-67473400,"member.care@multifit.co.in,,contact@multifit.co.in,ninfo@multifitgym.com,info@multifitgym.com,saleskn@multifit.co.in,",
Multifit - Senapati Bapat Road - Pune,Gym,Pune,"17, Behind Hotel Sahara, Senapati Bapat Road, Shivajinagar, Pune 411016, MH",+91-7517711000,",contact@multifit.co.in,",
Multifit Satara Road - Ganga Dham - Pune,Gym,Pune,"Opposite Light House Mall, Gangadham Road, Kenjale Nagar, Ganga Dham, Pune 411037, MH",+91-8600639639,",contact@multifit.co.in,",
Multifit - Pimple Saudagar - Pune,Gym,Pune,"18 Mall, 6th Floor, Rahatani Road, Pimple Saudagar, Pune 411027, MH",+91-7777878724,",contact@multifit.co.in,",
Multifit - Nibm - Pune,Gym,Pune,"Dorabjee Heritage Mall, 5th Floor, Above Dmart, Pune 411060, MH",+91-7744955003,",contact@multifit.co.in,",
Multifit - Kothrud - Pune,Gym,Pune,"Shree Shankar Bhavan, 2nd Floor, Above Rawat Furniture, Paud Road, Kothrud, Pune 411038, MH",+91-7057806060,",contact@multifit.co.in,",
Multifit Hadapsar - Sopan Baugh - Pune,Gym,Pune,"Krome Mall, 5th Floor, Pune-Solapur Road, Hadapsar, Pune 411013, MH",+91-9890857911,,
Multifit - Baner - Pune,Gym,Pune,"112, 1st Floor, Opposite Syngenta, Baner, Pune 411045, MH",+91-9604700700,,
Multifit - Viman Nagar - Pune,Gym,Pune,"2nd Floor, Behind Phoenix Market City, Viman Nagar Road, Viman Nagar, Pune 411014, MH",+91-7447789999,"member.care@multifit.co.in,,contact@multifit.co.in,saleskn@multifit.co.in,",
Multifit - Sinhagad Road - Pune,Gym,Pune,"Blue Bells Showroom, Opposite Pu La Deshpande Garden, Sinhagad Road, Pune 411030, MH",+91-7719077000,",contact@multifit.co.in,",
Multifit - Pradhikaran - Pune,Gym,Pune,"Above Sterling Honda Showroom, Nigdi, Pradhikaran, Pune 411044, MH",+91-8600169169,",contact@multifit.co.in,",
Multifit - Aundh - Pune,Gym,Pune,"Pinnac Kanchanganga, 3rd Floor, Opposite RMZ West End Mall, D.P. Road, Aundh, Pune 411007, MH",,",contact@multifit.co.in,",
Multifit - Kharadi - Pune,Gym,Pune,"Downtown Racing, Tuluja, Bhawani Nagar, Mio Pallazzo, Kharadi, Pune 411014, MH",+91-20-67473400,",contact@multifit.co.in,",
Mrudang Dance Academy - Kothrud - Pune,Gym,Pune,"Behind Dashabhuja Ganpati Mandir, Erandwane, Gulwani Maharaj Road, Kothrud, Pune 411038, MH",+91-9689515599,",mrudang@mrudangarts.com,",
Movez Dance Studio - Wakad - Pune,Gym,Pune,"103, 1st Floor, Opposite PCMC School, Kaspate Vasti, Wakad Sanskriti, Wakad, Pune 411057, MH",+91-7758901063,,
Moves Dance Fitness Studio - Hadapsar - Pune,Gym,Pune,"Skywards Nirvana, 1st Floor, Near Amanora Township, Magarpatta, Mundhwa-Kharadi Road, Hadapsar, Pune 411028, MH",+91-9623169755,,
Moushu's Pilates In Pune - Kalyani Nagar - Pune,Gym,Pune,"4th Floor, Opposite Joggers Park, Kalyani Nagar, Pune 411006, MH",+91-9561720001,",contact@moushuspilates.com,",
Mjk Academy Of Performing Arts - Wanowrie - Pune,Gym,Pune,"20-F, 1st Floor, Above Mcdonald, Wanowarie, Pune 411040, MH",+91-9730018299,,
Millenium Fitness Club - Katraj - Pune,Gym,Pune,"Chandrabhaga Appatment, Near Katraj Dairy, Dattanagar Road, Katraj, Pune 411043, MH",+91-8007944599,",lokeshawale123@gmail.com,kailas.surgude@gmail.com,",
Mickey Mehta 360° Wellness Temple - Koregaon Park - Pune,Gym,Pune,"Ashiyana Park, Above Wellness Forever, Koregaon Park, Pune 411001, MH",+91-2026155833,,
Metrocity Sports And Health Club - Kothrud - Pune,Gym,Pune,"Near MIT College Of Engineering, Rambaug Colony, MIT College Road, Kothrud, Pune 411038, MH",+91-9011997279,,
Metafit - Wakad - Pune,Gym,Pune,"301, Casa Housing Society, Behind Shishya School, Shankar Kalat Nagar, Datta Mandir Road, Wakad, Pune 411057, MH",+91-8983040018,",metafit.club@gmail.com,",
Metafit - Pimple Saudagar - Pune,Gym,Pune,"Prime Square Building, 3rd Floor, Above Federal Bank, Pimple Saudagar, Pune 411027, MH",+91-9152463069,,
Merz Dance Academy - Camp - Pune,Gym,Pune,"440-441, 2nd Floor, Above Express Stationery Shop, Camp, Pune 411002, MH",+91-9762318777,",tmerwyn@yahoo.com,",
Medical Yoga - Sangvi - Pune,Gym,Pune,"Trimurti Colony, Near Bora Hospital And Suruchi Bhojanalay, New Sanghavi, Kawade Nagar, Pimpri Chinchwad, Pune 411027, MH",+91-9011247209,",info@thefitnesstemple.in,",
Maximus Your Fitness Zone - Chinchwad - Pune,Gym,Pune,"1, 4th Floor, Above Ranka Jewellers, Old Pune Mumbai Road, Chinchwad, Pune 411017, MH",+91-9373006677,",info@maximusfitnesszone.com,",
Maximum Fit - Pimple Gurav - Pune,Gym,Pune,"85/2-B, Js Mall, 3rd Floor, Near Kalpataru Phase I, Javalkar Nagar, Pimple Gurav, Pune 411061, MH",+91-8975226464,",vijaysanglikar7425@gmail.com,olympismsports@gmail.com,",
Masters Gym - Chinchwad - Pune,Gym,Pune,"19/5, Opposite Ganesh Mandi, Ganesh Nagar, Dange Chowk, Thergaon, Chinchwad, Pune 411033, MH",+91-7768816913,,
Masterpiece Gym - Katraj - Pune,Gym,Pune,"Katraj Chowk, Ambegaon BK, Katraj Ambegaon Khurd Road, Santosh Nagar, Pune 411046, MH",+91-7276345518,",rohitawale1691@gmail.com,",
Mamma's Care Prenatal And Postnatal Yoga - Pimpri Chinchwad - Pune,Gym,Pune,"14-C, Dwarka Sai Paradise, Opposite Lotus Hospital, Pimpri Chinchwad, Pune 411017, MH",+91-9827502001,,
Maharudra Gym - Pashan - Pune,Gym,Pune,"140/3, Near Jai Bhavani Nagar, Pashan Sus Road, Pashan, Pune 411021, MH",+91-9850020455,,
Magnum Health World - Pimpri - Pune,Gym,Pune,"4, Near Ganesh Temple, Vallabh Nagar, Pimpri, Pune 411018, MH",+91-9970833103,",info@magnumohs.com,",
Live Fit Fitness Centre - Ravet - Pune,Gym,Pune,"183, Shinde Wasti, Near Aaditya Terraces, Midc Road, Ravet, Pune 412101, MH",+91-7083871871,,
Lifepro Fitness Club - Pashan - Pune,Gym,Pune,"Above Axis Bank, Vignaharta Chowk, Near Reliance Fresh, Pashan Sus Road, Pune 411021, MH",,",rupesh.mazire@gmail.com,",
Life Style Gym - Nigdi - Pune,Gym,Pune,"Sai Jyoti Apartment, Pradhikaran, Nigdi Pradhikaran-Akurdi, Pimpri Chinchwad, Pune 411044, MH",+91-9850892263,,
Life Fitness Club - Warje - Pune,Gym,Pune,"6th Floor, Deshmukhwad, NDA Road, Kamte Vasti, Shivane, Pune 411023, MH",+91-20-30163441,",mangu2703@gmail.com,",
Life Core Fitness - Hadapsar - Pune,Gym,Pune,"Fortune Plaza, 1st Floor, Near Railway Crossing, Kale Pedal By Pass Road, Hadapsar, Pune 411028, MH",+91-8983507132,,
Lets Go Gym - Yerawada - Pune,Gym,Pune,"1197-T, Maharashtra Co-operative Housing Society, Near Central Jail Hospital, Airport Road, Yerawada, Pune 411006, MH",+91-9833200122,,
Lc Fitness Club - Mundhwa - Pune,Gym,Pune,"38, Ashok Super Market, Manjari Road, Lonkar Vasti, Keshav Nagar, Mundhwa, Pune 411036, MH",+91-9762444458,",anandjankar7777@gmail.com,u003eanandjankar7777@gmail.com,",
La Gym - Ganga Dham - Pune,Gym,Pune,"Gagan Ganga Parisar, Near Shrreeji Infottek, Ganga Dham, Clubhouse, Gangadham Phase 2, Pune 411037, MH",,",suyog222bhagwan@gmail.com,",
La Fit - Camp - Pune,Gym,Pune,"270/3, New Timber Market, Above Meenakshi Steel & Kotak Mahindra, Jawaharlal Nehru Road, Kashewadi, Pune 411042, MH",+91-7517774884,,
Kshitija Centre For Yog And Ayurved - Wanowrie - Pune,Gym,Pune,"1, Crystal Castle Building, Opposite Sungrace High School, Salunke Vihar Road, Wanowrie, Pune 411040, MH",+91-7775019164,",archvaidya@gmail.com,",
Krishna Sure - Katraj - Pune,Gym,Pune,"63-B/82/2, Opposite Rajiv Gandhi Snake Park, Sawant Vihar Phase 1, Satara Road, Katraj, Pune 411046, MH",,",mwanve@quantimeworld.com,cestat08@gmail.com,suyog222bhagwan@gmail.com,y.r.ekbote@gmail.com,",
Khalsa Gyym - Kharadi - Pune,Gym,Pune,"16, Govind Nagar Society, Kharadi Road, Chandan Nagar-Kharadi, Pune 400014, MH",+91-9527902929,"priyakadam972@gmail.com,,",
Kettlebell Gym - Kothrud - Pune,Gym,Pune,,,",KettleBellGym1994@gmail.com,",
Kasture's Fitness - Nigdi - Pune,Gym,Pune,"Kasture`S Building, Near Shivsena Office, Spine Road, Triveni Nagar, Pimpri Chinchwad, Pune 411044, MH",+91-8237100007,",contactus@physcgym.com,",
Kaizen's Wellness And Fitness Club - Pimple Nilakh - Pune,Gym,Pune,"204, Tatvam Vartex, Above Shivsagar Hotel, Nandanwan Society, Gulmohar Park Road, Vishal Nagar, Pimple Nilakh, Pune 411027, MH",+91-8180863360,,
Kaizen's Wellness And Fitness Club - Pimple Nilakh - Pune,Gym,Pune,"204, Tatvam Vartex, Gulmohar Park Road, Vishal Nagar, Above Shivsagar Hotel, Nandanwan Society, Pimple Nilakh, Pune 411027, MH",+91-8180863360,,
Kaizen Welness N Fitness Club - Wakad - Pune,Gym,Pune,"Palash Plus, Kaspate Vasti, Opposite Euro School, Wakad, Pune 411057, MH",+91-7385522224,",appointment@kaizengastrocare.com,",
Kaizen Wellness N Fitness Club - Swargate - Pune,Gym,Pune,"Swargiya Pramod Mahajan Krida Sankul, Opposite Telephone Exchange, Subhash Nagar Road, Shukrawar Peth, Pune 411002, MH",+91-9763000222,,
Kaizen Wellness N Fitness Club - Kothrud - Pune,Gym,Pune,"Venture Building, 4th Floor, Above Mc Donalds, Kothrud Depot, Pune 411038, MH",+91-9763000222,,
Kaivalya Yoga Institute - Shivaji Nagar - Pune,Gym,Pune,"1013/16, Swastik Society, Opposite Swanand Hospital, Model Colony, Pune 411016, MH",,",kdham.delhi@kdham.com,archvaidya@gmail.com,",
Kailasdham Fitness Centre - Dhanori - Pune,Gym,Pune,"51-52, Vani Bhavan, Road No 11, Bhairav Nagar, Dhanori, Pune 411015, MH",+91-20-27171345,",annethomas2004@gmail.com,",
Kage Gym (The Ultimate Fitness) - Camp - Pune,Gym,Pune,"New Modhikhana, Near Bhavani Mata Mandir, Camp, Pune 411001, MH",+91-9623979748,,
K Balaji Gym - Kondhwa - Pune,Gym,Pune,"50/2, Shankar Rukmini Apartment, Kondhwa Khurd, Pune 411048, MH",+91-9545935050,,
Just Knock 4 Dance - Pimpri - Pune,Gym,Pune,"22, Opposite Durgamata, Pimpri, Pune 411018, MH",+91-8600483410,,
Just Knock 4 Dance Fitness And Event Company - Wakad - Pune,Gym,Pune,"103, Sanskriti Arcade, Near Chatrapati Chowk, Kaspate Vasti, Wakad, Pune 411057, MH",+91-8600483410,",jk4dance@gmail.com,",
Just Knock 4 Dance Fitness And Event Company - Aundh - Pune,Gym,Pune,"Shivratna Complex, 3rd Floor, Opposite DAV School, Ambedkar Chowk, Aundh, Pune 411007, MH",+91-8600483410,",jk4dance@gmail.com,",
Just Knock 4 Dance Academy - Pimple Saudagar - Pune,Gym,Pune,"312, Rainbow Plaza, 3rd Floor, Above Mc Donalds, Shivar Chowk, Rahatani Road, Pimple Saudagar, Pune 411027, MH",+91-8600483410,,
Just Fit Ladies Gym - Bhosari - Pune,Gym,Pune,"312, Rainbow Plaza, 3rd Floor, Above Mc Donalds, Shivar Chowk, Rahatani Road, Pimple Saudagar, Pune 411027, MH",+91-8600005890,",ujakamble15@gmail.com,",
Jk Aerobics & Dance Classes - Katraj - Pune,Gym,Pune,"2nd Floor, Narayani Dham Temple, Near Raja Ram Gas Agency, Bharti Vidyapeeth Area, Shriram Nagar, Katraj, Pune 411046, MH",+91-8484849172,,
Jalsa Yoga Classes - Bibwewadi - Pune,Gym,Pune,"52, Sant Eknath Society Part 2, Opposite Bharat Jyoti Bus Stop, Bibwewadi, Pune 411037, MH",+91-7350074602,,
Indian Sports Academy Of Martial Arts - Baner - Pune,Gym,Pune,"4, Vitthal Rukmani Mandir, Baner Road, Baner, Pune 411046, MH",+91-8888819478,,
Hyatt Pune - Kalyani Nagar - Pune,Gym,Pune,"88, Palace View Society, Aga Khan Palace, Nagar Road, Kalyani Nagar, Pune 411006, MH",+91-20-41411234,",u003epunhr.arogyaspa@hyatt.com,consumeraffairs@hyatt.com,pune.regency@hyatt.com,x3econsumeraffairs@hyatt.com,punhr.arogyaspa@hyatt.com,",
Huns Health Club - Narhe - Pune,Gym,Pune,"Near Kashibai Navale Hospital, Narhe, Pune 411041, MH",,",sinhagadroad.pune@goldsgymindia.com,",
Holistic Wellness - Ghorpadi - Pune,Gym,Pune,"Inland House, Near Preeti Prakash Society Gate, B T Kawade Road, Ghorpadi, Pune 411001, MH",,",info@atmabodhwellness.com,info@atmbodhwellness.com,Holisticwellnesspune@gmail.com,",
Highfit Fitness - Sangvi - Pune,Gym,Pune,"Patil Plaza, Near Ganesh Bank, Kirti Nagar, Sangvi, Pune 411027, MH",+91-9730091111,,
Hercules Fitness - Kothrud - Pune,Gym,Pune,"4th Floor, Opposite Rajesh Motors, Ideal Colony, Paul Road, Kothrud, Pune 411038, MH",+91-9373615155,"support@herculesfitness.com,,",
Health Mantra Fitness - Pimpri Chinchwad - Pune,Gym,Pune,"Above Saraswat Bank, Vishal Nagar, Wakad-Hinjewadi Road, Pimple Nilakh, Pune 411027, MH",+91-9730576470,,
Haribhau Sane Fitness Club - Peth - Pune,Gym,Pune,"406, Narayan, Opposite Bhanuvilas Theatre Shagun Square, Laxmi Road, Pune 411030, MH",+91-9881712947,",abhijeet.wasake@tatamotors.com,",
Happiness Inc - Kalyani Nagar - Pune,Gym,Pune,"5, Palacimo Estate, Opposite Nyati Builder's Office, Kalyaninagar, Pune 411006, MH",+91-9822597926,",max@happiness-inc.in,",
Gurutatwa Yoga - Fc Road - Pune,Gym,Pune,"1221-A/2, Behind Hotel Vaishal, Warangler Paranjape Road, Shivaji Nagar, Pune 411005, MH",+91-20-25539198,,
Guiding Lyght Yoga - Aundh - Pune,Gym,Pune,"301, 3rd Floor, Near Ozone Mall, Supreme Centre, ITI Road, Aundh, Pune 411007, MH",+91-9960709334,",anuradhapandit1985@gmail.com,support@learnpick.in,",
Gold's Gym - Satara Road - Pune,Gym,Pune,"8/10, Manhar House, 3rd Floor, Saibaba Mandir, Satara Road, Pune 411037, MH",+91-7721077216,"WeCare@GoldsGym.in,,",
Gold's Gym Pcmc Akurdi - Nigdi - Pune,Gym,Pune,"Star Bazaar Mall, 2nd Floor, Opposite Cotton Greaves Limited, Star Bazaar Road, Akurdi, Nigdi, Pune 411035, MH",,"WeCare@GoldsGym.in,,Wecare@goldsgym.in,",
Gold's Gym Nibm - Nibm - Pune,Gym,Pune,"101, Bizzbay Showroom, 1st Floor, Opposite Clover Hills, NIBM Road, Kondhwa Khurd, Pune 411048, MH",+91-8237290555,"WeCare@GoldsGym.in,,Wecare@goldsgym.in,nibm.pune@goldsgym.in,",
Gold's Gym - Narhe - Pune,Gym,Pune,"56, 2nd Floor, Before Amit Bloomfield, Vadgaon Budruk, Narhe, Pune 411041, MH",,",nibm.pune@goldsgym.in,WeCare@GoldsGym.in,sinhagadroad.pune@goldsgym.in,Wecare@goldsgym.in,",
Gold's Gym Model Colony - Senapati Bapat Road - Pune,Gym,Pune,"Pride Silicon Plaza, 3th Floor, Chaturshrungi Temple, Senapati Bapat Road, Model Colony, Pune 411016, MH",+91-9960164444,"WeCare@GoldsGym.in,,",
Golden Fitness - Nigdi - Pune,Gym,Pune,"49/5, N B Arcade, 1st Floor, Near Monginis Cake Shop, Akurdi Main Road, Vivek Nagar, Pimpri-Chinchwad, Pune 411035, MH",+91-9970000691,",nw582201@gmail.com,",
Golden Fitness Club - Pimpri Chinchwad - Pune,Gym,Pune,"49/5, 1st Floor, Near Shitla Devi Chowk, Shri Mhalsakant Vidyalaya Road, Vivek Nagar, Akurdi, Pimpri Chinchwad, Pune 411035, MH",+91-9970000691,",maheshhatte691@gmail.com,nw582201@gmail.com,",
Gnosis Yoga - Shivaji Nagar - Pune,Gym,Pune,,,"aajolpune@yahoo.com,,",
Glamzone - Law College Road - Pune,Gym,Pune,"124/12-A/83/12-A, Apex Colony, Law College Road, Erandwane, Pune 411004, MH",+91-9130417175,",bmsadmission@indsearch.org,diploma@indsearch.org,",
Galaxy Gym & Fitness Center - Ambegoan - Pune,Gym,Pune,"Near Gaymukh, Ambegaon Budruk, Pune 411046, MH",+91-9604688854,,
Funrobics - Pimple Saudagar - Pune,Gym,Pune,"2-A, Kunj Colony, Pimple Saudagar, Planet Millennium Society Road, Pimpri-Chinchwad, Pune 411027, MH",+91-9922319099,",contact@PimpleSaudagar.in,",
Funk And Fusion Dance Academy - Aundh - Pune,Gym,Pune,"Vintage 7 Hotel Basement, Opposite Allahabad Bank, Medipoint Hospital Road, Aundh, Pune 411007, MH",+91-7507021432,,
Functional Fitness Group - Magarpatta - Pune,Gym,Pune,"Magarpatta City, Hadapsar, Pune 411028, MH",+91-9172565441,,
Fuel Fitness Club - Peth - Pune,Gym,Pune,"Vijay Chamber, Sadashivpeth, Pune 411030, MH",+91-20-24479454,,
Forever Fitness - Peth - Pune,Gym,Pune,"Maharana Pratap Road, Kasbapeth, Pune 411011, MH",+91-7066959491,",info@gymcompany.co.za,x3einfo@gymcompany.co.za,",
Focus 5 - Warje - Pune,Gym,Pune,"Dangat Constration, Canel Road, Warje, Pune 41105, MH",+91-8805001118,",infinitygymnastics9@gmail.com,manishsangewar@yahoo.com,",
Flames School Of Dance - Viman Nagar - Pune,Gym,Pune,"16-B, Royal Towers, 3rd Floor, Above Shrikrishna Resturant, Viman Nagar, Pune 411014, MH",+91-9049900088,,
Fitness With Pristine - Kothrud - Pune,Gym,Pune,"87/6, Azadnagar, Near Paranjape High School, DP Road, Kothrud, Pune 411038, MH",,",anandjankar7777@gmail.com,",
Fitness Mantras Tingre Nagar - Vishrantwadi - Pune,Gym,Pune,"2, Above Laxmi Narayan Paints Shop, Adarsh Colony, Tingre Nagar Road, Tingre Nagar, Pune 411015, MH",+91-20-60607894,,
Fitness Mantras Nibm - Nibm - Pune,Gym,Pune,"Heaven Hills Co-operation Society, Near Cloud 9 Society, NIBM Road, NIBM, Pune 411048, MH",+91-9112160000,,
Fitness Mantras Market Yard - Bibwewadi - Pune,Gym,Pune,"Raviraj CRU Mall, 3rd Floor, Near Modern Montessori International Pre School, Market Yard, Bibwewadi Road, Lulla Nagar, Pune 411037, MH",+91-8149482482,,
Fitness Mantras - Dhanori - Pune,Gym,Pune,"17, Shriram Mansa, Opposite Sriram Prides, Madhav Nagar, Dhanori, Pune 411015, MH",+91-8390247247,,
Fitness Mantra - Vishrantwadi - Pune,Gym,Pune,"2, Above Laxmi Narayan Paints Shop, Adarsh Colony, Tingre Nagar Road, Tingre Nagar, Pune 411015, MH",+91-20-60607894,,
Fitness Forever Wadgoan Sheri - Wadgaon Sheri - Pune,Gym,Pune,"Tushar Kunj Bungalow, 2nd Floor, Adarsha Nagar, Suncity Road, St. Arnold's School, Wadgaonsheri, Pune 411014, MH",+91-9595956575,,
Fitness Craze - Pimpri Chinchwad - Pune,Gym,Pune,"Shivchandra Plaza, 2nd Floor, Opposite Hotel Garwa, Walhekarwadi Road, Pimpri Chinchwad, Pune 411033, MH",+91-9922426219,,
Fitness 365 - Kothrud - Pune,Gym,Pune,"Runwal Cornet, Opposite Seven Eleven Hotel, Bhusari Colony, Paud Road, Kothrud, Pune 411038, MH",+91-9767504150,,
Fitnation - Peth - Pune,Gym,Pune,"Fitnation Clubnikhil Pride Building, 2nd Floor, Near Kaka Halwai, Tilak Road, Sadashivpeth, Pune 411030, MH",,",sun.fitness.pune@gmail.com,",
Fitbox India Fitness Club - Hadapsar - Pune,Gym,Pune,"71-C/2, Sainath Colony, Shewalwadi Naka, Solapur-Pune Highway, Hadapsar, Pune 412307, MH",+91-8379888801,,
Fitbox Gym - Sangvi - Pune,Gym,Pune,"Opposite Sambhaji Bank, Kranti Chowk, New Sangvi, Pune 411027, MH",+91-9511811811,,
Fitbeingz The Gym - Camp - Pune,Gym,Pune,"Hermes Palazzo, Near Shivaji Market, Camp, Pune 411001, MH",+91-9850602141,,
Fit-N-Fine Health Club - Viman Nagar - Pune,Gym,Pune,"2, Jasmine Building, Opposite AXA Company, Nico Garden, Viman Nagar Road, Viman Nagar, Pune 411014, MH",+91-9970841841,",fitnfinepune@gmail.com,",
Fit Box Studio - Kothrud - Pune,Gym,Pune,"6, Near Gandhibhavan, Gananjay Society, Kothrud, Pune 411038 , MH",,",contact@kothrud.com,",
Fit 7 By Ms Dhoni - Vishrantwadi - Pune,Gym,Pune,"2nd Floor, Vishrantwadi Chowk, Above Big Bazaar, Vishrantwadi, Pune 411006, MH",+91-8975457777,",info@fit7global.com,",
Firstfitt - Viman Nagar - Pune,Gym,Pune,"Anand Square, 1st Floor, Opposite Symbiosis International School, New Airport Road, Viman Nagar, Pune 411014, MH",+91-8378080000,",gymcopathare70@gmail.com,firstfitt@gmail.com,",
Fcf Crossfit - Narhe - Pune,Gym,Pune,"51, Near Mumbai-Bangalore Highway, Narhe, Pune 411041, MH",+91-8087687588,,
F3 Fitness Club - Kharadi - Pune,Gym,Pune,"Gold Star, Opposite Mount And Glorry Or Water Tank, Tulaja Bhawani Nagar, Kharadi, Pune 411014, MH",+91-8806012314,,
Exhale Gym - Shivaji Nagar - Pune,Gym,Pune,,,",ravet.pune@goldsgym.in,",
Evolve Fitness And Wellness Club - Nibm - Pune,Gym,Pune,"Clover Metropole, Clover Highlands, NIBM Road, Kondhwa, Pune 411048, MH",+91-8600511152,",x3ecolindale@evolve-gym.co.uk,colindale@evolve-gym.co.uk,",
Evolv Dance Studio - Pimple Saudagar - Pune,Gym,Pune,"402, 4th Floor, Shivar Chowk, Above Pradeep Sweet, Pimple Saudagar, Pune 411027, MH",+91-9960655222,,
Epoc Fitness - Pimple Saudagar - Pune,Gym,Pune,"Radhika Avenue, Jagtap Dairy, Opposite Savitribai Phule BRT Bus Stop, BRTS Road, Pimple Saudagar, Pune 411027, MH",+91-9763867767,,
Enduro Fitness - Swargate - Pune,Gym,Pune,"82, Pacific House, Parvati Darshan, Opposite Pune People Bank, Sahakar Nagar, Swargate, Pune 411009, MH",+91-20-24217170,,
Empower Gym And Zumba Fitness - Kondhwa - Pune,Gym,Pune,"3rd Floor, Opposite Reliance Fresh, Above Saraswat Bank, Salunke Vihar Road, Kondhwa, Pune 411040, MH",+91-9152290203,,
Empower Fitness Club - Wanowrie - Pune,Gym,Pune,"3rd Floor, Opposite Reliance Fresh, Salunke Vihar Road, Kondhwa, Pune 411040, MH",+91-9152290203,",emmartrading@gmail.com,",
Eco Fitness - Satara Road - Pune,Gym,Pune,"Decision Tower, 1st Floor, Satara Road, Maharshi Nagar, Pune 411037, MH",+91-20-24225252,",res.tf.esquare@fernhotels.com,",
Dynamix Fitness - Kothrud - Pune,Gym,Pune,"Maji Sainik Vasahat, Rambaug Colony, Paud Road, Erandwane, Pune 411038, MH",+91-9371821620,",contact@kothrud.com,",
Dynamic Fitness Center - Pimpri Chinchwad - Pune,Gym,Pune,"Opposite Athawan Hotel, Kalewadi Phata, Kalewadi Main Road, Rahatani, Pune 411017, MH",+91-9665657333,,
Dr Manisha's Yoga Center - Baner - Pune,Gym,Pune,"15-A, Shivranjan Tower, Club House, Baner Road, Baner, Pune 411045, MH",+91-8308315494,,
Dotfit Fitness - Baner - Pune,Gym,Pune,"136/1, Srushti Elegance, 5th Floor, Opposite Ecole Heritage School, Balewadi Phata, Baner, Pune 411045, MH",+91-9822843366,",support@dotfit.in,",
Divyayog - Baner - Pune,Gym,Pune,"24/25, Shroff Suyash Mall, Near Union Bank Of India, Pan Card Club Road, Baner, Pune 411045, MH",+91-9730232030,",pysbst.punew@gmail.com,",
Devraj Gym - Sangvi - Pune,Gym,Pune,"Anjira Height, 1st Floor, Shitole Nagar, Sangavi, Pune 411027, MH",+91-9175110002,",dja6768@gmail.com,",
Definition Gym - Mukund Nagar - Pune,Gym,Pune,"3-D Destination, Ratna Chintamani Building, 2nd Floor, Sujay Garden, Mukund Nagar, Pune 411037, MH",+91-9822600093,,
Gymkhana - Deccan - Pune,Gym,Pune,"759/1, Club House Building, Near Deccan Police Station, Deccan Gymkhana, Pune 411004, MH",,"info@pycgymkhana.com,,deccangymkhana@gmail.com,",
Danzofit Studio - Kalyani Nagar - Pune,Gym,Pune,,,",danzofit@gmail.com,",
Danceholics Dance And Fitness Academy - Kondhwa - Pune,Gym,Pune,"110, La Ventana, Opposite Sunshree E-4, NIBM Road, Kondhwa, Pune 411048, MH",+91-8329042297,,
Dance To Fitness - Hadapsar - Pune,Gym,Pune,"201/25, Rohan Plaza, Keshav Nagar, Hadapsar, Pune 411013, MH",+91-9623169755,,
Dance Planet Academy - Karve Nagar - Pune,Gym,Pune,"7, Opposite Shiddi Vinayak Cummice College, Sahu Colony, Karve Nagar, Pune 411052, MH",,",actplanetacademy@gmail.com,",
Dance Floor Studio - Pimple Saudagar - Pune,Gym,Pune,"Solaris Gym, 4th Floor, Opposite Vission 9 Mall, Kunal Icon Road, Pune 411027, MH",+91-9860986212,,
D'Kulal Fitness Club - Katraj - Pune,Gym,Pune,"39, Suryaushi Tower, Near Flying Birds Nursery School, Ambegaon BK, Pune 411046, MH",,",anandjankar7777@gmail.com,",
Custom Body Fitness Pvt Ltd - Koregaon Park - Pune,Gym,Pune,"105, Power Point Building, 1st Floor, Above Indigo Deli Restaurant, Koregaon Park, Meera Nagar, Pune 411001, MH",+91-7030734499,",FITINDIA1@YAHOO.IN,",
Crystal Crew Studio - Kondhwa - Pune,Gym,Pune,"104, Gagan Galaxy Apartment, Near Om Market, Gangadham, Shatrunjay Road, Kondhwa, Pune 411048, MH",+91-7798761860,,
Crossfit Vyom - Viman Nagar - Pune,Gym,Pune,"1-2, East Court, Phoenix Market City, Near Big V Telecom, Viman Nagar, Pune 411014, MH",+91-9545569889,,
Crossfit Graybar - Viman Nagar - Pune,Gym,Pune,"Near Nexa Showroom, Airport Road, Viman Nagar, 411014, MH",+91-7219218704,"crossfitgraybar@gmail.com,,",
Corefit By Bindu- Aundh - Pune,Gym,Pune,"Corefit By Bindu, Ozone, ITI Road, Above Crossword, Aundh, Pune 411001, MH",,",aundh.pune@goldsgymindia.com,",
Core Fitness Club - Pimpri Chinchwad - Pune,Gym,Pune,"3/4, Mrunal Heights, Basement, Pimple Nilakh, Pimpri Chinchwad, Pune 411027, MH",,",symmetryfitnessclub@gmail.com,Contact@symmetryfitnessclub.com,sourabh7damle@gmail.com,",
Conrad Pune - Koregaon Park - Pune,Gym,Pune,"7, Near Botanical Survey Of India, Mangaldas Road, Koregaon Park, Pune 411001, MH",+91-20-67456745,,
Conquer Fitness - Erandwane - Pune,Gym,Pune,"Yashogeeta, Near Shankar Chaya Building, Erandwane, Pune 411004 , MH",+91-7058334923,,
Ck's Fitness Club - Wagholi - Pune,Gym,Pune,"Khandve Nagar, Wagholi, Pune 412207, MH",+91-9689811113,,
City Point Fitness - Hadapsar - Pune,Gym,Pune,"151/16, Behind Dominoz Pizza, Magarpatta Road, Magarpatta City, Hadapsar, Pune 411028, MH",+91-9579170504,,
Cadence Indoor Cycling - Kothrud - Pune,Gym,Pune,,,",gaurav.kunte6623@gmail.com,",
Bring Into Being (Bib) Arts And Recreation Center - Wakad - Pune,Gym,Pune,"166/8/102, 1st Floor, Near Eden Garden Row Houses Echoing Greens, Wakad, Pune 411057, MH",+91-7338439197,"contact@wakad.in,info@bibart.in,,",
Brawn Fitness Club - Satara Road - Pune,Gym,Pune,"21, Dhanashree, Near Akshay Hotel Dhankawadi, Panchod, Satara Road, Balaji Nagar, Pune 411043, MH",+91-8007900016,,
Bramhasmi Yoga - Mukund Nagar - Pune,Gym,Pune,"707-E/1, Kumar Business Court, Opposite Brand Factor, Sujay Garden, Mukund Nagar, Pune 411037, MH",+91-8007504121,,
Brahma Fitness Club - Dhanori - Pune,Gym,Pune,"67, Dhanori, Near Surya Mukhi Datta Mandir Bhairav Nagar, Pune 411015, MH",+91-9881027021,,
Bounce The Studio - Peth - Pune,Gym,Pune,"350, Sai Complex, 1st Floor, Opposite Kem Hospital, Rasta Peth, Pune 411011, MH",,",jayaeram@rediffmail.com,",
Bodyworks Dance And Fitness Studio - Wanowrie - Pune,Gym,Pune,"Ruhi Apartments, Behind ICICI ATM, Salunkhe Vihar Road, Pune 411040, MH",+91-9152290203,,
Bodyguru Fitness Club - Ghorpadi - Pune,Gym,Pune,"Tara Aai Residency, 2nd Floor, Kawade Patil Complex, B T Kawade Road, Media Park, Ghorpadi, Pune 411001, MH",+91-9890082226,,
Body Touch Gym - Pimpri Chinchwad - Pune,Gym,Pune,"3/4, Shiddhi Seema Apartment, Spine Road, Purnanagar, Pune 411019, MH",+91-8446655844,",principal@pcpolytechnic.com,",
Body Instact Gym - Sangvi - Pune,Gym,Pune,"Near Katepuram Chowk, Gajanan Nagar, New Sangavi, Pune 411027, MH",+91-20-25885015,,
Body Fuel - Kothrud - Pune,Gym,Pune,"121-122, Behind Chaitanya Health Club, Rambaug Colony, MIT College Road, Kothrud, Pune 411038, MH",+91-9764042350,,
Body Arts Gym & Fitness Club - Vadgoan Budrukh - Pune,Gym,Pune,"Raghunandan Krupa Apartment, Sinhagad College Road, Jadhav Nagar, Pune 411041, MH",+91-9881507935,,
Blitz Athletics - Baner - Pune,Gym,Pune,"Blitz Athletics, Deron Heights, Opposite Hotel Mahabaleshwar, Baner Road, Baner, Pune 411045, MH",+91-9730873731,,
Biorhythm India - Aundh - Pune,Gym,Pune,"92, Ozone Mall, 5th Floor, Anand Park, Aundh, Pune 411007, MH",+91-7767802914,",info@biorhythmindia.co.in,",
Beyond Fitness - Chinchwad - Pune,Gym,Pune,"2/301-306, Above Jai Hind Collection, Chinchwad, Pune 411019, MH",+91-8888277772,,
Believe Fitness - Paud Road - Pune,Gym,Pune,"1-2, Kohinoor Centre Gate No 1281, 2nd Floor, Gokul Hospital, Nashik Road, Chakan, Pune, 410501 MH",+91-7057806060,,
Beingfit'N'Fine - Bhosari - Pune,Gym,Pune,"684, Near Sneha Sidhi Building, Landewadi, Bhosari, Adinath Nagar, Pune 411039, MH",+91-7767891333,",contactus@physcgym.com,",
Balancedbodies Yoga Studio - Pimple Saudagar - Pune,Gym,Pune,"402, Royal Avenue, 4th Floor, Above Pradeep Sweets, Shivar Chowk, Pimple Saudagar, Pune 411027, MH",+91-9766264883,",pankaj.lagad@balanced-bodies.org,",
B K Jambhulkar Health Club - Hinjewadi - Pune,Gym,Pune,"Shivaji Chowk, Jambhulkar Nagar, Hinjewadi, Pune 411057, MH",+91-9850809257,,
Awfis - Viman Nagar - Pune,Gym,Pune,"3-B, Near Four Points By Sheraton, Samrat Ashok Road, Viman Nagar, Pune 411014, MH",,",press@awfis.com,info@awfis.com,amit.ramani@awfis.com,x3eamit.ramani@awfis.com,",
Avenue Fitness Center - Kothrud - Pune,Gym,Pune,"Narayani, 1st Floor, Opposite Sahajanand Bus Stop, Kothrud, Pune 411021, MH",+91-20-65222243,"customer@solaris.in,,contact@kothrud.com,",
Art Of Living Followup Center - Warje - Pune,Gym,Pune,"Shivkamal Prestige, 3rd Floor, Near Shinde Bridge, NDA Road, Shivane, Warje, Pune 411058, MH",,",triveniashram@gmail.com,",
Art 4 Fun Recreation Hub - Aundh - Pune,Gym,Pune,"Yash Tower, 2nd Floor, Opposite D.A.V. School, D P Road, Aundh, Pune 411007, MH",+91-9960705507,,
Arkfit Arena - Deccan - Pune,Gym,Pune,"Arkfit Arena, Opposite Hotel Central Park, Apte Road, Karyalaya, Pune 411004, MH",+91-8446289777,",deccangymkhana@gmail.com,",
Apple Fitness And Spa - Pimple Gurav - Pune,Gym,Pune,"Sadguru Building, 4th Floor, Opposite Pcmc Badminton Hall, Siddhi Hospital, Kate Puram Road, Pimple Gurav, Pune 411061, MH",+91-8149398502,,
Aplomb Mma Academy - Balewadi - Pune,Gym,Pune,"Sargam Palace, Behind Peter England Showroom, Baner Road, Baner, Pune 411045, MH",,",balewadi.pune@thezone360.com,privacy@ufcgym.in,",
Anytime Fitness Studio - Viman Nagar - Pune,Gym,Pune,"Faith Center, Behind Nexa Showroom, Anand Residency Road, Viman Nagar, Pune 411014, MH",+91-7020103010,,
Angels Fitness Club - Nigdi - Pune,Gym,Pune,"Angels Fitness Club, Near Dinesh Super Market, Yamuna Nagar, Nigdi, Pune 411044, MH",+91-9763316926,"dhingrashweta000@gmail.com,,",
Anand Yoga Institute - Dhole Patil Road - Pune,Gym,Pune,"Virangula Kendra, Boat Club Road, Pune 411001, MH",+91-9960555185,,
Anand Yoga Center - Satara Road - Pune,Gym,Pune,"94, Dnyaneshwar Housing Society, Sahakar Nagar No 1, Pune 411009, MH",,",cm.gwaliormepl@gmail.com,",
Anand Yoga And Arts - Pimple Saudagar - Pune,Gym,Pune,"Sai Ambience, 4th Floor, Kunj Colony, Kunal Icon Road, Pimple Saudagar, Pune 411027, MH",+91-8055666033,,
Anahat Yoga - Pimple Saudagar - Pune,Gym,Pune,"Ram Shrushti Bungalow, Near Govind Yashada Chowk, Vishwashanti Colony, Nashik HIghway, Pimple Saudagar, Pune 411027, MH",+91-9881475758,,
Anahat Yoga - Pimple Gurav - Pune,Gym,Pune,"Bhakti Ranga, Oppostie Samira Palace, Bora Hospital Road, Kavde Nagar, Pimple Gurav, Pune, 411061, MH",+91-9881475758,,
Anahat Yoga - Baner - Pune,Gym,Pune,"21/3, Near Ganraj Mangal Karyalay, Tree House School Road, Sri Nath Nagar, Baner, Pune 411045, MH",+91-9881475758,,
Amit Gym - Pimpri - Pune,Gym,Pune,"Opposite Hamu Kalani Garden, Pune 411018, MH",,",yudikachhap@gmail.com,",
Amigos Fitness Club - Ambegoan - Pune,Gym,Pune,"Arya Commercial, Opposite Sankalp Collage, Sinhagad Science College Road, Ambegaon Budruk, Pune 411046, MH",+91-8983796135,",info@amigosfitness.com,ninfo@amigosfitness.com,",
Amida Fitness - Dhayari - Pune,Gym,Pune,"Grand Horizon, 3rd Floor, Behind Bramha Hotel, Dhayari, Pune 411041, MH",,",sales@amidafitness.com,",
Alpha Fit Academy - Nibm - Pune,Gym,Pune,"Sunshree Woods Commercial Complex, 2nd Floor, Rims International School, Nibm Road, Kondhwa, Pune 411048, MH",+91-8329042297,,
All About Fitness - Kothrud - Pune,Gym,Pune,"Anusagar Building, 2nd Floor, Near Kumbare Township, Kothrud, Pune 411038, MH",+91-20-25393015,"abfsagar@gmail.comOpens,,contact@kothrud.com,",
Ajinkya Health Club - Dighi - Pune,Gym,Pune,"Bharat Mata Nagar Road, Maule Nagar, Bhosari, Dighi, Pune 411015, MH",+91-9850747907,,
Ag Fitness Gym - Viman Nagar - Pune,Gym,Pune,"44/2, Shri Moraya Park, Hari Home Housing Society, Somnath Nagar, Vadgaon Sheri, Pune 411014, MH",+91-7769989150,,
Aeroblue Dance Arena - Fc Road - Pune,Gym,Pune,"1228-A, Landsquare, 1st Floor, Below Kesari Tours And Travels, F C Road, Shivaji Nagar, Pune 411004, MH",+91-9850989358,"contact@arenapune.com,,",
Ady's Gym - Baner - Pune,Gym,Pune,"1, Near Supreme Pallecio Society, Sutarwadi Baner Gaon Road, Baner, Pune 411045, MH",+91-7798985150,,
Adhiyoga - Sinhagad Road - Pune,Gym,Pune,"Near Big Bazaar, Sinhagad Road, Pune 411030, MH",+91-9284580521,",contact@multifit.co.in,neelpura@yahoo.com,dhayari@silverfitnessclub.in,",
Add Fitness - Camp - Pune,Gym,Pune,"Nucleus Mall, 2nd Floor, Near Blue Nile Restaurant, Sadhu Vaswani Road, Camp, Pune 411001, MH",+91-9595751079,,
Active People Gym - Kothrud - Pune,Gym,Pune,"25, Sudarshan Society, Near More Vidyalaya, Paud Road, Kothrud, Pune 411038, MH",+91-9420481438,,
Active Fitness - Bhosari - Pune,Gym,Pune,"Bhosari Gaonthan, Near Roshal Garden Dhawadewasti, Pune Nashik Highway, Bhosari, Pune 411039, MH",+91-9604561989,",sidhu.kokane@gmail.com,",
Achiver's Gym - Chinchwad - Pune,Gym,Pune,"Chikhali Akurdi Road, Sambhajinagar, Pimpri-Chinchwad, Pune 411019, MH",+91-7387091040,,
Ace Fitness Club - Sinhagad Road - Pune,Gym,Pune,"143, Laygude Industrial Estate, 1st Floor, Near V Trans Limited, Sinhagad Road, Nanded Fata, Nanded, Pune 411041, MH",+91-8087401555,",National.Accounts@ACEfitness.org,",
Ace Fitness Club - Ambegoan - Pune,Gym,Pune,"Opposite Podar International School, Ambegoan, Pune 411046, MH",+91-8237271555,",ninfo@acefitnessclub.com,info@acefitnessclub.com,",
4 Fitness Club - Shivaji Nagar - Pune,Gym,Pune,"Above Panch Pandav, Vadar Housing Society, Janwadi, Gokhale Nagar, Pune 411016, MH",,",res.tf.esquare@fernhotels.com,sachdeva.sports18@gmail.com,",
2 B Fit - Wanowrie - Pune,Gym,Pune,,,",ness@gmail.com,",
Rakesh Gym - Dehu Road - Pune,Gym,Pune,,,",rakeshchandrajwar0@gmail.com,",
Fitness First Gym - Kharadi - Pune,Gym,Pune,,,"x22ff@fitnessfirst.com.sg,x3eff@fitnessfirst.com.sg,ff@fitnessfirst.com.sg,,",
Vrushali's Slimming Centre - Prabhat Road - Pune,Gym,Pune,,,",fitness@vrushalislimming.com,",
Zumba With Drashti Pandit - Baner - Pune,Gym,Pune,"Pancard Road, Baner, Pune 411045, MH",+91-8149005076,",mail@zumbawithdrashtipandit.in,",
Zumba Fitness Center - Baner - Pune,Gym,Pune,"Near HDFC Bank, Baner-Pashan Link Road, Baner, Pune 411045, MH",+91-9890600938,,
Zen Fittness Center - Deccan Gymkhana - Pune,Gym,Pune,"766, 1, Opposite Gym Tennis Court, Pune 411004, MH",+91-20-25660030,",deccangymkhana@gmail.com,",
Z Fitness - Keshav Nagar - Pune,Gym,Pune,"41, 1st Floor, Tarabai Park, Keshav Nagar, Mundhwa, Pune 411036, MH","+91-9763239633, +91-9922525378",",anandjankar7777@gmail.com,",
Yuvraj Gym - Bhumkar Naga - Pune,Gym,Pune,"Ambegaon Road, Bhumkar Nagar, Narhe Gaon, Pune 411041, MH",+91-9822152954,,
Yoga Academy - Camp - Pune,Gym,Pune,"23, Yoga Academy, Kendriya Vidyalaya, Kahun Road, Camp, Pune 411001, MH",+91-20-26360162,",wakad@silverfitnessclub.in,mindgympune1@gmail.com,",
Yashashri Fitness Club - Bhosari - Pune,Gym,Pune,"Vithhal Architect, Pune-Nashik Highway, Pimpri Chinchwad, Bhosari, Pune 411039, MH","+91-9890299721, +91-9503910343",",anandjankar7777@gmail.com,",
Xtrim Fitness - Saudagar - Pune,Gym,Pune,"Periwinkle Club Rose Land Residency, Near Jagtap Dairy, Pimple Saudagar, Pune 411027, MH","+91-9823152980, +91-9923631417, +91-20-27212070",",contact@PimpleSaudagar.in,",
Xtrim Fitness - Pimpri - Pune,Gym,Pune,"Kudale Plaza, Near Jai Hind School, Pimpri, Pune 411017, MH","+91-9850850032, +91-9850866609","fitnessxteam@gmail.com,,",
Xtreme Health & Fitness - Kharadi - Pune,Gym,Pune,"11, 4, Near Sbi, Kharadi-Hadapasar Road, Kharadi, Pune 411014, MH",+91-9822070205,,
XMenia Fitness Club - Guru Ganesh Nagar - Pune,Gym,Pune,"3rd Floor, Shantiban Shopping Complex, Near Eklavya College, Guru Ganesh Nagar, Kothrud, Pune 411038, MH","+91-20-65298746, +91-9860122011",,
Wonder Fit - Vishal Nagar - Pune,Gym,Pune,"Jagtap Dairy, Vishal Nagar, Pimple Nilakh, Pune 411027, MH",+91-9823945008,",info@simplestepsfitness.in,",
Wellness Club - Katraj - Pune,Gym,Pune,"Near Chandrbhaga, Datta Nagar Road, Katraj, Pune 411046, MH",+91-9822209995,,
Weight Loss And Weight Gain Center - Hadapsar - Pune,Gym,Pune,"101, 1st Floor, Handewadi Road, Chintamani Nagar, Hadapsar, Pune 411028, MH",+91-8237842924,",sheetalgd@gmail.com,",
Vrushalis Slimming Centre - Aundh - Pune,Gym,Pune,"202, Centriole Mall, Above Adidas Show Room, ITI Road, Aundh, Pune 411007, MH","+91-20-65606100, +91-20-65606101",",sunil@vrushalislimming.com,fitness@vrushalislimming.com,",
Vivekananda Kendra - Sadashiv Peth - Pune,Gym,Pune,"21, Opposite Pune Hospital, Nishta, Sadashiv Peth, Pune 400030, MH",+91-20-24325553,,
Vitality Fitness Club - Nibm - Pune,Gym,Pune,"Nibm-Kondhwa Road, Nibm, Pune 411048, MH",+91-9822097576,,
Vishwa Gym - Vidya Nagar - Pune,Gym,Pune,"20, Kondhwa Road, Vidya Nagar, Pune 411046, MH",+91-20-26960183,,
Vinod Dulal Yoga Institute - Parvati Darshan - Pune,Gym,Pune,"Sarang Society, Parvati Darshan, Aranyeshwar Nagar, Pune 411009, MH","+91-20-24226048, +91-20-24227686",,
Vijay Cricket Club - Narayan Peth - Pune,Gym,Pune,"437, Hamalwada, Near Lokhande Tamil, Narayan Peth, Pune 411030, MH",+91-9850138488,,
Therapy Ayurveda - Viman Nagar - Pune,Gym,Pune,"10, Opposite Natraj Bhel, Datta Mandir Chowk, Viman Nagar, Pune 411057, MH","+91-20-26630045, +91-20-26630046",",keralaayurvedicpune@gmail.com,",
Therapy Ayurveda - Aundh - Pune,Gym,Pune,"5, 6, 127, 1-C, Anand Park, Aundh, Pune 411007, MH","+91-20-64013236, +91-20-64013237",",ayurprevencia@gmail.com,",
The Inspiration - Kalyani Nagar - Pune,Gym,Pune,"1st Floor, Opposite Joggers Park, Kalyani Nagar, Pune 411014, MH",+91-20-66828617,",info.theinspiration@gmail.com,u003einfo.theinspiration@gmail.com,",
The Performance Gym - Wakad - Pune,Gym,Pune,"Dange Chowk, Wakad, Pune 411057, MH",+91-9270166110,",wakad@silverfitnessclub.in,",
Tejas Fitness Point - Shukrawar Peth - Pune,Gym,Pune,"132, Near Telephone Exchange, Bajirao Road, Shukrawar Peth, Pune 411002, MH","+91-20-24485174, +91-9420730299, +91-9326821893",,
Talwalkars Fitness - Viman Nagar - Pune,Gym,Pune,"43, 2, 43, 2,44, 2, Near Shri Krishna Hotel, Panchsheel Tech Park, Viman Nagar, Pune 411014, MH",+91-20-30243398,",talwalkarshifibtkawaderd@gmail.com,",
Talwalkars Fitness - Kothrud - Pune,Gym,Pune,"2nd Floor, B-Junction, Opposite Venus Traders, Kothrud, Pune 411029, MH",+91-20-30272222,,
Talwalkars Fitness - Camp - Pune,Gym,Pune,"156, Opposite Burger King, MG Road, Camp, Pune 411001, MH",+91-20-30583600,"info@talwalkarspune.in,,tbvfl.ipo@linkintime.co.in,",
Talwalkars Fitness - Baner - Pune,Gym,Pune,"1st Floor, Opposite Bharat Petroleum, Baner, Pune 411045, MH",+91-20-30243370,"info@talwalkarspune.in,,contact@kothrud.com,",
Swasthya Yogopchar & Yog Margdarshan Kendra - Keshav Nagar - Pune,Gym,Pune,"Madhuram Ganesh Colony, Chinchwad Gaon, Keshav Nagar, Chinchwad, Pune 411033, MH",+91-20-66820672,,
Strength Fitness - Wakad - Pune,Gym,Pune,"Ashok Ratna Hostel, Dange Chowk, Wakad, Pune 411057, MH",+91-20-66828844,,
Solid Muscle - Mahadev Nagar - Pune,Gym,Pune,"Manjari Road, Mahadev Nagar, Hadapsar, Pune 411028, MH",+91-9860085786,,
Solaris - Baner - Pune,Gym,Pune,"287, 8, Opposite LG Show Room, Baner Road, Baner, Pune 411045, MH","+91-20-27292354, +91-8308838029","customer@solaris.in,,",
Solaris - Pimpale Saudagar - Pune,Gym,Pune,"Amenity Space Commercial Club House, Pimpale Saudagar, Pune 411027, MH","+91-20-27201111, +91-20-27206066","customer@solaris.in,,arkinteriorsolutions@gmail.com,",
Solaris - Kalyani Nagar - Pune,Gym,Pune,"228, Behind Joggers Park, Phase 2, Kalyani Nagar, Pune 411014, MH","+91-20-400447101, +91-20-26610217","customer@solaris.in,,",
Solaris - Karve Nagar - Pune,Gym,Pune,"29, 1, Krishnai Complex, Karve Nagar, Pune 411052, MH",+91-20-25457265,"customer@solaris.in,,",
Soham Yoga Studio - Hadapsar - Pune,Gym,Pune,"Magarpatta City, Hadapsar, Pune 411028, MH",+91-9881725930,",SohamYogaStudio@gmail.com,sohamyogastudio@gmail.com,",
Slim Line Fitness - Pradhikaran - Pune,Gym,Pune,"326, 27-A, Near Lokmanya Hospital, Pradhikaran, Pune 411044, MH","+91-9822495593, +91-20-27658984, +91-20-27658985","tiwarynirmal@gmail.com,,",
Smiths Breathe Fitness - Bavdhan - Pune,Gym,Pune,"4th Floor, Opposite Bank Of Maharashtra, Sukhwani Prestige, NDA-Pashan Road, Bavdhan, Pune 411021, MH","+91-20-65600606, +91-20-22953355, +91-9923811212, +91-9960038385",,
Sky fitness & Wellness India PVT LTD - Baner - Pune,Gym,Pune,"33, 2, 2, 1, 2, Opposite Shivneri Society, Dhankundewasti, Baner, Pune 411045, MH","+91-20-27215000, +91-9881729730",",mjacob@skyfitnessindia.com,",
Siddhi Health Club - Kothrud - Pune,Gym,Pune,"77, 2, Bhusari Colony, Near Ved Bhavan Building, Paud Road, Kothrud, Pune 411029, MH","+91-20-25286530, +91-9850435457",",contact@kothrud.com,",
Shri Krishna Yog Institute - New Sangvi - Pune,Gym,Pune,"Sahyadri Colony, Near New Millennium School, New Sanghvi, Pune 411027, MH",+91-9545353535,",u003einfo@shrikrishnayog.com,info@shrikrishnayog.com,",
"Shri Krishna Yog Institute - Tingare Nagar, - Pune",Gym,Pune,"3, 102, 14, R K Puram, Tingare Nagar, Vishrantwadi, Pune 411015, MH",,",suyog222bhagwan@gmail.com,info@shrikrishnayog.com,",
Shapes Fitness Club - Vishrantwadi - Pune,Gym,Pune,"115, 2-A, 1st Floor, Near Banana Leaf Hotel, Madhuban Commercial Complex, Vishrantwadi, Pune 411015, MH","+91-20-27150677, +91-20-66822556",,
Shape & Glow - Bijli Nagar - Pune,Gym,Pune,"2nd Floor, Near Sambhaji Chowk, Bijli Nagar, Nigdi, Pune 411044, MH","+91-20-65111234, +91-8482947777, +91-9225645499",,
Shape & Glow - Aundh - Pune,Gym,Pune,"5, 6, 3rd Floor, Akshay Building, ITI Road, Aundh, Pune 411007, MH","+91-20-67207777, +91-20-67207778, +91-20-67207779",,
SAI Fitness - Katraj - Pune,Gym,Pune,"Near Icchapurti Temple, Datta Nagar Road, Katraj, Pune 411046, MH",+91-9766449986,,
S S Health & Fitness Club - Dhankawadi - Pune,Gym,Pune,"Shiv Smarak Samiti, Above Kakade Jewellers, Dhankawadi, Pune 411043, MH","+91-20-32308915, +91-9822419833, +91-9421875786",,
Pride Fitness Center - Hadapsar - Pune,Gym,Pune,"Vaibhav Complex, Above Canara Bank, Pune-Solapur Road, Hadapsar, Pune 411028, MH",+91-20-26821545,,
Power Gym - Model Colony - Pune,Gym,Pune,"1019, 4, Model Colony, Deep Bunglow Chowk, Ambika Niwas, Pune 411016, MH",+91-9923963399,",info@powermaxfitness.net,",
Param Yoga - Wakad - Pune,Gym,Pune,"Woods Clubhouse, Wakad, Pune 411057, MH",,",paramyogaoffice@gmail.com,",
Om Yoga Classes - Wanowrie - Pune,Gym,Pune,"Behind IDBI Bank, Shivarkar Raod, Wanowrie, Pune 411040, MH",+91-20-67281409,,
Om Sai Health Club & Fitness Centre - Vadgaon Budruk - Pune,Gym,Pune,"Daulat Dangat Patil Marg, Dattamandir Road, Vadgaon Budruk, Pune 411041, MH",+91-9860015550,,
Nutrition Helth Club - Karve Nagar - Pune,Gym,Pune,"Sai Ganesh Complex, Vitthal Mandir Road, Karve Nagar, Pune 411052, MH",+91-9822070561,",info@maharshikarve.org,",
MGBS Fitness World - Thergaon - Pune,Gym,Pune,"Opposite Padumjee Paper Mill, Dange Chowk, Thergaon, Pune 411033, MH","+91-8149398502, +91-9423408011",,
Krupa Parlour & Body Massage - Akurdi - Pune,Gym,Pune,"135, Near Gurudwara Chowk, Akurdi, Pune 411035, MH","+91-9637484115, +91-7507356235",,
Kare Yoga Center - Prabhat Road - Pune,Gym,Pune,"39, 40, 9, 3rd Floor, Profile Serene Aparttment, Erandavane, Prabhat Road, Pune 411004, MH",+91-9372844740,,
Inspirations - Pradhikaran - Pune,Gym,Pune,"301, 3, 4, Ashish Plaza, Above Radhika Electronics, Sector 27-A, Pradhikaran, Pune 411039, MH","+91-20-27653250, +91-9096039914",",nw582201@gmail.com,pdeacoa@gmail.com,",
Horizon Fitness And Snooker Club - Viman Nagar - Pune,Gym,Pune,"33, 2-B, 1, Maruti Show Room, Viman Nagar, Pune 411014, MH","+91-9881582244, +91-9881682244, +91-20-26633698",,
Hanuman Gym Club - Chinchwad - Pune,Gym,Pune,"Ganga Bhiva Complex, Opposite Heritage Plaza, Chinchwad, Pune 411033, MH",+91-9960033884,,
Gymbo Fitness Centre - Ghorpade Peth - Pune,Gym,Pune,"Rashtrabhushan Chowk, Ghorpade Peth, Pune 411042, MH",+91-9850597549,,
Gurutatwayoga - Shivaji Nagar - Pune,Gym,Pune,"1221, 2, Warangler Paranjape Road, Shivaji Nagar, Pune 411005, MH","+91-20-25537531, +91-20-25539198",,
Golden Fitnessh Club - Akurdi - Pune,Gym,Pune,"49, 5, Near Gupta Play, NB Arcade, Akurdi, Pune 411035, MH",+91-9970000692,",nw582201@gmail.com,",
Gold's Gym - Hadapsar - Pune,Gym,Pune,"136, 137, Magarpatta City, Hadapsar, Pune 411026, MH","+91-9049743572, +91-9049748356, +91-9049749302","WeCare@GoldsGym.in,,Wecare@goldsgym.in,onenorth.pune@goldsgym.in,",
Gold's Gym - Kondhwa Khurd - Pune,Gym,Pune,"1, 2, 101, Bizz Bay Mall, Opposite Clover Hills, NIBM Road, Kondhwa Khurd, Pune 411048, MH","+91-20-65290555, +91-7350190190, +91-7350290290","WeCare@GoldsGym.in,,Wecare@goldsgym.in,nibm.pune@goldsgym.in,",
Gold's Gym - Law College Road - Pune,Gym,Pune,"Shanti Sheela Society, Near FTII Institute, Law College Road, Pune 411004, MH",+91-7350235000,"WeCare@GoldsGym.in,,Wecare@goldsgym.in,lcr.pune@goldsgymindia.com,",
Gold's Gym - Kalyani nagar - Pune,Gym,Pune,"59, 60, Kalyani Nagar, Pune 411006, MH","+91-20-32912212, +91-20-32912213","WeCare@GoldsGym.in,,Wecare@goldsgym.in,kalyaninagar.pune@goldsgymindia.com,",
Gold's Gym - Aundh - Pune,Gym,Pune,"127, 1-A, 1st Floor, A G Technology Park, Gaikwad Avenue, Aundh, Pune 411007, MH","+91-20-25884122, +91-9604025000",",WeCare@GoldsGym.in,ravet.pune@goldsgym.in,aundh.pune@goldsgym.in,Wecare@goldsgym.in,aundh.pune@goldsgymindia.com,",
Force Fitness Centres - Wakad - Pune,Gym,Pune,"2nd Floor, Prime City Center, Dange Chowk, Wakad, Pune 411057, MH","+91-9823618003, +91-8888646455",,
Fitness World Health Club - Moshi - Pune,Gym,Pune,"Near Nageshwar Mandir, Dehu Alandi Road, Moshi, Pune 410105, MH",+91-9767909595,"manish.singh@fitness-world.in,,",
Fitness World - Nigdi - Pune,Gym,Pune,"Near Akurdi Railway Statio Pradhikaran, Sector 26, Nigdi-Pimpri Chinchwad, Pune 411044, MH","+91-9657974500, +91-9657974600",,
Fitness Freak - Tukaram Nagar - Pune,Gym,Pune,"17, 9, 1, Sonal Industries Campus, Sujit House, Kharadi, Tukaram Nagar, Pune 411014, MH",+91-20-66491810,",fitnessfreakpune@gmail.com,",
Fitness First Gym - Wadgaon Sheri - Pune,Gym,Pune,"1st Floor, Near Anand Park, Wadgaon Sheri, Pune 411014, MH",+91-9860034766,,
Fiber Fitness Club - Bhekrai Nagar - Pune,Gym,Pune,"206, Bhakti Complex, Near IBM, Saswad Road, Bhekrai Nagar, Pune 411028, MH","+91-9922959254, +91-8484925701",,
Fab The Gym - Wanowire - Pune,Gym,Pune,"1276, 2nd Floor, Parmar Park, Parmar Galary, Wanowrie, Pune 411040, MH","+91-20-66091276, +91-9323032075, +91-9225545287",",info@gymcompany.co.za,x3einfo@gymcompany.co.za,",
Enduro Fitness Club - Sahakar Nagar - Pune,Gym,Pune,"82, Opposite Pune Peoples Bank, Golawalkar Guruji Path, Sahakar Nagar, Pune 411009, MH","+91-9011360078, +91-20-24217170",",enduro2849@rediffmail.com,",
Endurance Fitness Club - Camp - Pune,Gym,Pune,"1988, Near Choksi School, Convent Street, Camp, Pune 411001, MH","+91-20-26359495, +91-20-26344758",",maheshhatte691@gmail.com,nw582201@gmail.com,",
Endurance Fitness Club - Pune Satara Road - Pune,Gym,Pune,"1st Floor, City Pride Multiplex, Pune-Satara Road, Pune 411009, MH",+91-20-67217751,,
Endeavour Fitness Club - Warje - Pune,Gym,Pune,"5th Floor, Near Warje Bridge, Sneha-Deep Construction, Pune 411058, MH","+91-9822908908, +91-9822907907",,
Empower Gym & Fitness Club - Salunke Vihar Road - Pune,Gym,Pune,"3rd Floor, Opposite Reliance Fresh, Salunke Vihar Road, Pune 411048, MH","+91-20-64001399, +91-9890866988",,
Elite Fitness - Hadapsar - Pune,Gym,Pune,"3rd Floor, Amar Manor, Beside Krome Mall, Hadapsar, Pune 411028, MH","+91-20-30589977, +91-9552573752",,
Effector Gym & Health Club - Hadapsar - Pune,Gym,Pune,"Parijat Society, Near Jain Mandir, Serum Road, Hadapsar, Pune 411028, MH",+91-9422559292,,
Dimension Wellness Club - Baner - Pune,Gym,Pune,"Near Savata Vitthal Mandir, Baner, Pune 411045, MH",+91-9623133709,,
Club Amida - Anand Nagar - Pune,Gym,Pune,"15, Opposite Samarth Park, Sinhagad Road, Anand Nagar, Pune 411051, MH","+91-9923321433, +91-9850675615, +91-20-24357131",",priyagopane363@gmail.com,",
Champion Fitness Club - Donje - Pune,Gym,Pune,"Khadakwasla Research Station, Donje, Pune 411024, MH",+91-9823300909,",anandjankar7777@gmail.com,championsgym01@gmail.com,",
Chaitanya Health Club - Kothrud Depot - Pune,Gym,Pune,"Rambaug Colony, Kothrud Depot, Mit College Road, Pune 411038, MH",+91-20-66821279,,
Bodyguru Fitness Club - B T Kawade Road - Pune,Gym,Pune,"2nd Floor, Above Satvik Hotel, BT Kawade Road, Ghorpadi, Pune 411001, MH","+91-20-65270497, +91-9890082226",,
Body Instact Gym - Gajanan Nagar - Pune,Gym,Pune,"Katepuram Chowk, Gajanan Nagar, New Sangvi, Pune 411027, MH",+91-9373527120,,
Beyond Fitness - Kalyani nagar - Pune,Gym,Pune,"1st Floor, Opposite Cybage, Kalyani Nagar, Pune 411006, MH","+91-20-32939003, +91-8888377772",,
Ashwamegh Fitness Centre - Akurdi - Pune,Gym,Pune,"Durgechaya Building, Opposite Akurdi Railway Station, Bijali Nagar Road, Akurdi, Pune 411035, MH","+91-9763148064, +91-9960045030",,
Arnold Health Club - Law College Road - Pune,Gym,Pune,"73,3, 16, Bhakti Marg, Near Film Institute, Law College Road, Deccan Gymkhana, Pune 411004, MH","+91-20-25412186, +91-9823828665",",arnold-health-club-pune-rf@faq0ti.html,",
Amida Fitness - Sinhgad Road - Pune,Gym,Pune,"Abhiruchi Mall, Sinhgad Road, Pune 411041, MH","+91-20-24390199, +91-20-24390149",,
Alert Fitness Centre - Warje - Pune,Gym,Pune,"78, Swed Ganga Society, Near Warje Jakat Naka, NDA Road, Warje, Pune 411052, MH","+91-9011031262, +91-9850068639",,
AKS Fitness Academy - Hadapsar - Pune,Gym,Pune,"Shivam Complex, Below Sadhana Bank, Pune-Solapur Road, Hadapsar, Pune 411028, MH","+91-9860790606, +91-9822667295",,
Ajinkaytara Fitness Club - Katraj - Pune,Gym,Pune,"Gujarwadi, Satara Road, Katraj, Pune 411046, MH",+91-8007897007,,
Airo Fitness & Academy - Wagholi - Pune,Gym,Pune,"Kashanand Phata, Baif Road, Wagholi, Pune 412207, MH",+91-9545535355,,
Aerotrim Health Centre - Kothrud - Pune,Gym,Pune,"32, 2, 201, 205, 1st Floor, Dahanukar Colony, Kothrud, Pune 411029, MH","+91-20-32905462, +91-20-32905627, +91-9595355009, +91-7350821935, +91-9890911311","tamhankarketan@gmail.com,,",
Admark Fitness Centre - Kothrud - Pune,Gym,Pune,"Rambaug Colony, MIT College Road, Kothrud, Pune 411038, MH","+91-20-25434291, +91-20-65287595","admarkgrouporg@gmail.com,,",
Abs Fitness Club - Wakad - Pune,Gym,Pune,"Nandavan Colony, Wakad Dange Chowk Road, Wakad, Pune 411057, MH",+91-20-65223223,,
Abs Fitness And Wellness Club - Kharadi - Pune,Gym,Pune,"Eon Mall, Kharadi, Pune 411016, MH",+91-9325232193,,
Abs Fitness And Wellness Club - Senapati Bapat Road - Pune,Gym,Pune,"ICC Towers, B Wing, Senapati Bapat Road, Pune 411016, MH","+91-20-30281317, +91-20-30281318",,
SEF Fitness - Pune,Gym,Pune,"Astral Court, 2nd Floor, B Wing, Opposite Gaikwad Petrol Pump, Aundh, Pune 411007, MH",,",veerdhavalc@gmail.com,",
Xmenia Fitness Club - Pune,Gym,Pune,"52/1, Shantiban Shopping Complex, 2nd & 3rd Floor, Near Eklavya College Bus Stop, Guruganesh Nagar, Kothrud, Pune 411029, MH",+91-20-65298746,",xmaniafitnessclubpune@gmail.com,",
Vtm Gym - Pune,Gym,Pune,"Omkareshwar Mandir, Shaniwarpeth, Pune 411030, MH",+91-9422007814,,
Vlcc - Pune,Gym,Pune,"11, Parshwa Building, Sujay Garden, Mukund Nagar, Pune 411037, MH",+91-20-66822103,",sxxxxxa@vlccwellness.com,vxxxxh@vlccwellness.com,institute.pune@vlcc.co.in,vivek@icraindia.com,",
Vishwa Gym - Pune,Gym,Pune,"20, Katraj Kondhwa Road, Vidya Nagar, Katraj, Pune 411046, MH",+91-20-26960183,,
Tripod Fitness Arena - Pune,Gym,Pune,"685/860, Gaurav Ganesh Apartments, Kumthekar Road, Sadashivpeth, Pune 411030, MH",+91-20-32347515,,
Temple Gym - Pune,Gym,Pune,"Siddhi Towers, 1st Floor, Opposite Dominos Pizza, Main Kondhwa Road, Kondhwa Khurd, Pune 411048, MH",+91-20-64504506,",thefitnesstemple2021@gmail.com,info@thefitnesstemple.in,chikhli@silverfitnessclub.in,",
Tarai Health And Fitness Club - Pune,Gym,Pune,"Tarai Building, Opposite Navale Hospital, Narhegaon, Pune 411041, MH",+91-9767981903,",tarai-gym-pune-mvl@21539.html,",
Talwalkars - Baner - Pune,Gym,Pune,"Anmol Pride Apparment, 1st Floor, Opposite Mauli Pertol Pump, Baner, Pune 411045, MH",+91-20-30243371,"info@talwalkarspune.in,,avantis@talwalkars.net,contact@kothrud.com,",
Talwalkars - Viman Nagar - Pune,Gym,Pune,"43/2, 43/2, 44/2, Panchsheel Tech Park, Behind ICICI Bank, Ganpati Chowk Road, Viman Nagar, Pune 411014, MH",+91-20-30243398,",aspirefitnessvimannagar@gmail.com,",
Symphony Club - Pune,Gym,Pune,"131/2, Opposite Balaji Temple Lane, Pashan Baner Link Road, Pashan, Pune 411021, MH",+91-20-66239091,,
Strength Fitness And Sports Club - Pune,Gym,Pune,"16/3, Opposite Sarvodya Housing Society, Nibm Road, Kondhwa Khurd, Pune 411048, MH",+91-20-32342344,",memberexperience@anytimefitness.in,galaxyfitnessclub03@gmail.com,nespro@rediffmail.com,olympismsports@gmail.com,",
Squats Fitness Centre - Pune,Gym,Pune,"47/2, Sardar Building, Opposite City Pride Cinema, Satara Road, Market Yard, Pune 411037, MH",+91-20-24223045,",support@fittr.com,",
Smith Gym - Pune,Gym,Pune,"S-403, Sukhawani Prestige, 4th Floor, Opposite Bank Of Mahashtra, Pashan Road, Bavdhan, Pune 411021, MH",+91-20-22953355,,
Shree Gym - Pune,Gym,Pune,"34, Opposite Gigastace, Off Nagar Road, Viman Nagar, Pune 411014, MH",+91-9422300535,",Shreegym2016@gmail.com,contact@shreegym.in,shreeresidency@nexuspune.in,info@khelomore.com,shreegym2016@gmail.com,ganesh.galande@yahoo.com,info@shreegym.in,",
Sanatoriym - Pune,Gym,Pune,"Chatrapati Shivaji Maharaj Swimming Pool, Sector 26, Akurdi, Pradhikaran, Pune 411044, MH",+91-9823399982,",ninpune@bharatmail.co.in,dptdoshi@gmail.com,",
Sai The Gym - Pune,Gym,Pune,"Rutugandh Apartment, Next Kamal Medical Store, Vadgaon Sheri, Somnath Nagar, Pune 411014, MH",+91-9922525378,"chetangym@gmail.com,,",
S Square Gym And Fitness Centre - Pune,Gym,Pune,"Kokane Heights, 2nd Floor, Near Rahatani Main Bus Stop, Pimple Saudagar, Pune 411027, MH",+91-20-64103535,,
R K Gym And Fitness Centre - Pune,Gym,Pune,"41/1, Datta Nagar Chowk, Mscb Office, Ambegaon Budruk, Pune 411046, MH",+91-20-24371079,",rkfitnessdwarka@gmail.com,",
Pune Fitness Club - Pune,Gym,Pune,"A-43, Bypass Road, Ashok Nagar, Kharadi, Pune 411014, MH",+91-20-66820443,",galaxyfitnessclub03@gmail.com,x3einfo@gymcompany.co.za,nw582201@gmail.com,info@gymcompany.co.za,anandjankar7777@gmail.com,",
Popular Health Club - Pune,Gym,Pune,"33, Parinay Mangal Karyalay Manik Baug, Sinhagad Road, Pune 411041, MH",+91-20-24358868,",emmartrading@gmail.com,",
Poona Parsi Gymkhana - Pune,Gym,Pune,"33, Near Kendriya Vidyalay School Camp, Escon Temple, Pune 411001, MH",+91-20-26361206,,
Pegasus Health Club Kothrud - Pune,Gym,Pune,"36/2/1, Near Pratidnya Hall, Samarth Park, Karve Nagar, Pune 411052, MH",+91-20-25455501,,
Optimum Health Club - Pune,Gym,Pune,"313, Rainbow Plaza, 3rd Floor, Near Shivar Garden, Pimple Saudagar, Pune 411027, MH",+91-20-65600666,,
Imperial Fitness - Pune,Gym,Pune,"Rajyog Society, Krishnai Building, 2nd & 3rd Floor, Warje, Pune 411029, MH",+91-20-67289168,,
Hanuman Gym And Fitness - Pimpri - Pune,Gym,Pune,"Masulkar Colony Road, Pimpri, Pune 411018, MH",+91-9503044700,,
Gravity Fitness Club - Pune,Gym,Pune,"Kapil Upavan, 1st Floor, Lake Town, Chintamani Nagar, Bibvewadi, Pune 411037, MH","+91-20-64701872, +91-9890747474",,
Fit N Fun Gym - Pune,Gym,Pune,"304, 3rd Floor, Rainbow Plaza, Pimple Saudagar, Pune 411027, MH",+91-8804410499,,
F 5 Fitness Club - Pune,Gym,Pune,"Sahani Sujan Park, Gulmohar Archid, Lulla Nagar, Pune 411040, MH",+91-20-32949899,",anandjankar7777@gmail.com,",
Endurance Fitness Club - Khurd - Pune,Gym,Pune,"Konark Indrayu Mall, Kondhwa, Khurd, Pune 411048, MH",+91-20-26800333,,
Bodyguru Fitness Club - Pune,Gym,Pune,"2nd Floor, Tara Aai Residency, Next To Media Park, BT Kawade Road, Ghorpuri, Pune 411001 MH",+91-020-65270497/+91-9890082226,",anandjankar7777@gmail.com,",
Amazonas Gym - Pune,Gym,Pune,"210, Fortleza Central Avenue, Opposite Gold Big Cinemas, Kalyani Nagar, Pune 411014, MH",+91-20-26608800,,
A One Health Club - Pune,Gym,Pune,"Hemi Classic, Opposite Ellora Palace, Satara Road, Balaji Nagar, Pune 411043, MH",+91-9422555546,,
VLCC - Pune,Gym,Pune,,,"sxxxxxa@vlccwellness.com,,vxxxxh@vlccwellness.com,institute.pune@vlcc.co.in,",
Body and Soul - Pune,Gym,Pune,"2nd Floor, Millenium Star, Near Ruby Hall, BS Dhole Patil Road, Pune 411001, MH",+91-9766395495,"kamshet.bns@yahoo.com,,emmartrading@gmail.com,",
Chez Somaya Saloon - Pune,Gym,Pune,,,",chezsomya@gmail.com,",
Inspirations - Pune,Gym,Pune,"4/A, Sukhwani Lawns, Ajmera Road, Morwadi, Pimpri, Pune 411018, MH",+91-9850991263,",Wecare@goldsgym.in,info@thefitnesstemple.in,",
Abs Sports Club - Pune,Gym,Pune,"Magarpatta City, Hadapsar, Pune 411013, MH",+91-20-64001140,",info@tifc.co.in,contact@kothrud.com,",
Solaris Fitness World - Pune,Gym,Pune,"Road No 10, Kalyani Nagar, Pune 411006, MH",+91-20-26610217,"customer@solaris.in,,",
The Gazelle Health Spa - Pune,Gym,Pune,,,",justlookonpune@gmail.com,punhr.arogyaspa@hyatt.com,",
Talwalkars - Pune,Gym,Pune,,,"talwalkars.sn@gmail.com,,avantis@talwalkars.net,aspirefitnesskothrud.38@gmail.com,",
Slim Well Clinic - Pune,Gym,Pune,"4, Sapna Building, Kothrud, Karve Road, Navi Peth, Dattavadi, Pune 411029, MH",+91-20-25446783,"hello@thewellnessco.in,,",
Sancheti Health Club - Pune,Gym,Pune,,,",sancheticop@sha.edu.in,info@sha.edu.in,x3eappointment@sanchetihospital.org,connecttoscientifica@gmail.com,appointment@sanchetihospital.org,",
Grace Health Club - Pune,Gym,Pune,"30/1, Bansal Corner, Pune 411009, MH",+91-20-22424316,",anandjankar7777@gmail.com,info@maharshikarve.org,",
