Name,Sector,City,Address,Phone,Email,Lat-Long
Axis Bank Ltd (Customer Care),Banks,Chennai,,,",pno@axisbank.com,x3epno@axisbank.com,Corporate.Ib@axisbank.com,x3eCorporate.Ib@axisbank.com,","13.0990997,80.2857895"
HDFC Bank,Banks,Chennai,"2nd Line Beach Parrys,Near Harbour Parrys",,",x3eMerchantHelpdesk.Kerala@hdfcbank.com,Merchanthelpdesk.Pune@hdfcbank.com,MerchantHelpdesk.Bangalore@hdfcbank.com,x3ecustomerservices.cards@hdfcbank.com,x3eMerchantHelpdesk.Hyderabad@hdfcbank.com,customerservices.cards@hdfcbank.com,x3eMerchantHelpdesk.Bangalore@hdfcbank.com,MerchantHelpdesk.Hyderabad@hdfcbank.com,x3eMerchanthelpdesk.Pune@hdfcbank.com,MerchantHelpdesk.Kerala@hdfcbank.com,","13.095615,80.29464"
HDFC Bank,Banks,Chennai,"Mint Street Sowcarpet,Opposite Apollo Hospital Sowcarpet",,",x3eMerchantHelpdesk.Kerala@hdfcbank.com,Merchanthelpdesk.Pune@hdfcbank.com,MerchantHelpdesk.Bangalore@hdfcbank.com,x3ecustomerservices.cards@hdfcbank.com,x3eMerchantHelpdesk.Hyderabad@hdfcbank.com,customerservices.cards@hdfcbank.com,x3eMerchantHelpdesk.Bangalore@hdfcbank.com,MerchantHelpdesk.Hyderabad@hdfcbank.com,x3eMerchanthelpdesk.Pune@hdfcbank.com,MerchantHelpdesk.Kerala@hdfcbank.com,","13.09814,80.280135"
HDFC Bank,Banks,Chennai,"Prakasam Salai Broadway, Broadway",,",x3eMerchantHelpdesk.Kerala@hdfcbank.com,Merchanthelpdesk.Pune@hdfcbank.com,MerchantHelpdesk.Bangalore@hdfcbank.com,x3ecustomerservices.cards@hdfcbank.com,x3eMerchantHelpdesk.Hyderabad@hdfcbank.com,customerservices.cards@hdfcbank.com,x3eMerchantHelpdesk.Bangalore@hdfcbank.com,MerchantHelpdesk.Hyderabad@hdfcbank.com,x3eMerchanthelpdesk.Pune@hdfcbank.com,MerchantHelpdesk.Kerala@hdfcbank.com,","13.0921206,80.2858284"
HDFC Bank,Banks,Chennai,"Thambu Chetty Street Parrys, Parrys",,",x3eMerchantHelpdesk.Kerala@hdfcbank.com,Merchanthelpdesk.Pune@hdfcbank.com,MerchantHelpdesk.Bangalore@hdfcbank.com,x3ecustomerservices.cards@hdfcbank.com,x3eMerchantHelpdesk.Hyderabad@hdfcbank.com,customerservices.cards@hdfcbank.com,x3eMerchantHelpdesk.Bangalore@hdfcbank.com,MerchantHelpdesk.Hyderabad@hdfcbank.com,x3eMerchanthelpdesk.Pune@hdfcbank.com,MerchantHelpdesk.Kerala@hdfcbank.com,","13.089809,80.2883349"
IDFC First Bank (Regional Office),Banks,Chennai,"Bharathidasan Road Teynampet,Near Siet College Teynampet",,",nodaldesk@idfcfirstbank.com,Banker@idfcfirstbank.com,Pno@idfcbank.com,x3enriservices@idfcfirstbank.com,Head.branchbanking@idfcbank.com,x3enodaldesk@idfcfirstbank.com,nriservices@idfcfirstbank.com,RNO.Thiru@idfcfirstbank.com,","13.035831,80.246605"
HDFC Bank,Banks,Chennai,"South Usman Road T Nagar, T Nagar",,",x3eMerchantHelpdesk.Kerala@hdfcbank.com,Merchanthelpdesk.Pune@hdfcbank.com,MerchantHelpdesk.Bangalore@hdfcbank.com,x3ecustomerservices.cards@hdfcbank.com,x3eMerchantHelpdesk.Hyderabad@hdfcbank.com,customerservices.cards@hdfcbank.com,x3eMerchantHelpdesk.Bangalore@hdfcbank.com,MerchantHelpdesk.Hyderabad@hdfcbank.com,x3eMerchanthelpdesk.Pune@hdfcbank.com,MerchantHelpdesk.Kerala@hdfcbank.com,","13.036272,80.230606"
HDFC Bank,Banks,Chennai,"G N Chetty Road T Nagar,Opposite Jeeva Park T Nagar",,",x3eMerchantHelpdesk.Kerala@hdfcbank.com,Merchanthelpdesk.Pune@hdfcbank.com,MerchantHelpdesk.Bangalore@hdfcbank.com,x3ecustomerservices.cards@hdfcbank.com,x3eMerchantHelpdesk.Hyderabad@hdfcbank.com,customerservices.cards@hdfcbank.com,x3eMerchantHelpdesk.Bangalore@hdfcbank.com,MerchantHelpdesk.Hyderabad@hdfcbank.com,x3eMerchanthelpdesk.Pune@hdfcbank.com,MerchantHelpdesk.Kerala@hdfcbank.com,","13.043225,80.237298"
HDFC Bank,Banks,Chennai,"Habibullah Road T Nagar, T Nagar",,",x3eMerchantHelpdesk.Kerala@hdfcbank.com,Merchanthelpdesk.Pune@hdfcbank.com,MerchantHelpdesk.Bangalore@hdfcbank.com,x3ecustomerservices.cards@hdfcbank.com,x3eMerchantHelpdesk.Hyderabad@hdfcbank.com,customerservices.cards@hdfcbank.com,x3eMerchantHelpdesk.Bangalore@hdfcbank.com,MerchantHelpdesk.Hyderabad@hdfcbank.com,x3eMerchanthelpdesk.Pune@hdfcbank.com,MerchantHelpdesk.Kerala@hdfcbank.com,","13.0499,80.2385"
HDFC Bank,Banks,Chennai,"Rangan Street T Nagar, T Nagar",,",x3eMerchantHelpdesk.Kerala@hdfcbank.com,Merchanthelpdesk.Pune@hdfcbank.com,MerchantHelpdesk.Bangalore@hdfcbank.com,x3ecustomerservices.cards@hdfcbank.com,x3eMerchantHelpdesk.Hyderabad@hdfcbank.com,customerservices.cards@hdfcbank.com,x3eMerchantHelpdesk.Bangalore@hdfcbank.com,MerchantHelpdesk.Hyderabad@hdfcbank.com,x3eMerchanthelpdesk.Pune@hdfcbank.com,MerchantHelpdesk.Kerala@hdfcbank.com,","13.03973,80.23178"
Karur Vysya Bank Ltd,Banks,Chennai,"Godown Street Parrys,Behind Flower Bazzar Police Station Parrys",,",customersupport@kvbmail.com,u003ecustomersupport@kvbmail.com,neftcfc@kvbmail.com,pmcares@kvbmail.com,x3epmcares@kvbmail.com,x3eneftcfc@kvbmail.com,","13.088392,80.281713"
Citibank (Corporate Office),Banks,Chennai,"Dr. Radhakrishnan Salai Mylapore,Near Savera Hotel Mylapore",,",Affidavitedelivery@citi.com,head.customercare@citi.com,x3ehead.customercare@citi.com,x3eAffidavitedelivery@citi.com,er@citi.com,citibankpno@citi.com,","13.06114,80.264123"
Standard Chartered Bank Ltd,Banks,Chennai,"Haddows Road Nungambakkam,Near Shastri Bhavan Passport Office Grindlays Gardens Nungambakkam",,",x3eHead.Service@sc.com,Principal.NodalOfficer@sc.com.The,customer.care@sc.com,Head.Service@sc.com,Priority.Banking@sc.com,SachinPuranmal.Udasi@sc.com,","13.067604,80.248236"
Axis Bank Ltd (Retail Asset Centre),Banks,Chennai,"5th Cross Street Kodambakkam,United India Colony Kodambakkam",,",pno@axisbank.com,x3epno@axisbank.com,merchant.helpdesk@axisbank.com,x3emerchant.helpdesk@axisbank.com,","13.048057,80.218745"
HDFC Bank (Regional Office),Banks,Chennai,"Anna Salai Mount Road,Opposite TVS Mount Road",,",x3eMerchantHelpdesk.Kerala@hdfcbank.com,Merchanthelpdesk.Pune@hdfcbank.com,MerchantHelpdesk.Bangalore@hdfcbank.com,x3ecustomerservices.cards@hdfcbank.com,x3eMerchantHelpdesk.Hyderabad@hdfcbank.com,customerservices.cards@hdfcbank.com,x3eMerchantHelpdesk.Bangalore@hdfcbank.com,MerchantHelpdesk.Hyderabad@hdfcbank.com,x3eMerchanthelpdesk.Pune@hdfcbank.com,MerchantHelpdesk.Kerala@hdfcbank.com,","13.06445,80.2669072"
ICICI Bank Ltd (Regional Office),Banks,Chennai,"Ambattur Industrial Estate, Ambattur Industrial Estate",,"infocppc@sbp.co.in,digitallending@icicibank.com,,nri@icicibank.com,x3edigitallending@icicibank.com,x3enri@icicibank.com,","13.092262,80.166176"
Reserve Bank Of India (Regional Office),Banks,Chennai,"Rajaji Salai Parrys,Near Secretariat Opposite Madras Port Trust Fort Glacis Parrys",,",csd@iobnet.co.in,nefthelpdeskncc@rbi.org,cms.bochandigarh@rbi.org.in,x3ecrpc@rbi.org.in,rdmumbai@rbi.org.in,crpc@rbi.org.in,csdbo@iob.in,","13.0843168,80.2885634"
Indian Bank (Corporate Office),Banks,Chennai,"254-260, Avvai Shanmugam Salai, Pudupet, Gopalapuram, Chennai, Tamil Nadu 600014",044 2813 4300,"nodalofficer@indianbank.in,indmail@indianbank.co.in,customercomplaints@indianbank.co.in,,","13.048574,80.2597029"
Axis Bank Ltd (Head Office),Banks,Chennai,"Dr Radha Krishnan Salai Mylapore,Opposite Nilgiris Supermarket Mylapore",,",pno@axisbank.com,x3epno@axisbank.com,Corporate.Ib@axisbank.com,x3enodal.officer@axisbank.com,nodal.officer@axisbank.com,x3eCorporate.Ib@axisbank.com,","13.044752,80.26382"
Axis Bank Ltd,Banks,Chennai,"G N Chetty Road T Nagar,Opposite Accord Metropolitan Hotel T Nagar",,",pno@axisbank.com,x3epno@axisbank.com,Corporate.Ib@axisbank.com,merchant.helpdesk@axisbank.com,x3emerchant.helpdesk@axisbank.com,loans@axisbank.com,x3eCorporate.Ib@axisbank.com,","13.0472485,80.2435571"
Sri Rama Nama Bank,Banks,Chennai,"Ramamanthiram"", #2, Vinayagam St, Perambur, Vivekanandapuram, West Mambalam, Chennai, Tamil Nadu 600033",098401 25575,,"13.0409567,80.2169662"
Federal Bank Ltd,Banks,Chennai,"Royapettah High Road Mylapore,Opposite Government Hospital Beemasena Garden Mylapore",,",x3ecreditcards@federalbank.co.in,mdsr@federalbank.co.in,x3enridiv@federalbank.co.in,Email_address_bgrr@federalbank.co,fednetinfo@federalbank.co.in,bgrr@federalbank.co.in,creditcards@federalbank.co.in,x3esupport@federalbank.co.in,x3emobilesupport@federalbank.co.in,nridiv@federalbank.co.in,mobilesupport@federalbank.co.in,u003emdsr@federalbank.co.in,x22support@federalbank.co.in,support@federalbank.co.in,support@jupiter.money,x3econtact@federalbank.co.in,help@fi.care,contact@federalbank.co.in,","13.042711,80.267511"
Karur Vysya Bank Ltd,Banks,Chennai,"Munuswamy Salai K K Nagar West,Near Pondicherry Guest House Opposite RTO Ground Nesapakkam K K Nagar West",,",customersupport@kvbmail.com,u003ecustomersupport@kvbmail.com,neftcfc@kvbmail.com,pmcares@kvbmail.com,x3epmcares@kvbmail.com,x3eneftcfc@kvbmail.com,","13.0433906,80.1936592"
Karur Vysya Bank Ltd,Banks,Chennai,"Main Road Mogappair East,Next Hotel Sangamam Near Madras Medical Mission Hospital Mogappair East",,",customersupport@kvbmail.com,u003ecustomersupport@kvbmail.com,neftcfc@kvbmail.com,pmcares@kvbmail.com,x3epmcares@kvbmail.com,x3eneftcfc@kvbmail.com,","13.0849944,80.1797236"
City Union Bank Ltd,Banks,Chennai,"MTH Road Ambattur,Near Farm Bazaar Ambattur",,",x3ecustomercare@unionbankofindia.com,nri@cityunionbank.com,complaints_grievances@cityunionbank.in,u003ecustomercare@cityunionbank.com,xx@cityunionbank.com,customercare@unionbankofindia.com,x22customercare@unionbankofindia.com,customercare@cityunionbank.com,","13.118222,80.1522887"
Federal Bank Ltd,Banks,Chennai,"Kakkan Street Tambaram West,Opposite To Vidya Theatre Near Tambaram Ho Tambaram West",,",x3ecreditcards@federalbank.co.in,mdsr@federalbank.co.in,x3enridiv@federalbank.co.in,Email_address_bgrr@federalbank.co,fednetinfo@federalbank.co.in,bgrr@federalbank.co.in,creditcards@federalbank.co.in,x3esupport@federalbank.co.in,x3emobilesupport@federalbank.co.in,nridiv@federalbank.co.in,mobilesupport@federalbank.co.in,u003emdsr@federalbank.co.in,x22support@federalbank.co.in,support@federalbank.co.in,support@jupiter.money,x3econtact@federalbank.co.in,help@fi.care,contact@federalbank.co.in,","12.9263093,80.1121056"
HDFC Bank,Banks,Chennai,"5th Avenue Anna Nagar, Anna Nagar",,",x3eMerchantHelpdesk.Kerala@hdfcbank.com,Merchanthelpdesk.Pune@hdfcbank.com,MerchantHelpdesk.Bangalore@hdfcbank.com,x3ecustomerservices.cards@hdfcbank.com,x3eMerchantHelpdesk.Hyderabad@hdfcbank.com,customerservices.cards@hdfcbank.com,x3eMerchantHelpdesk.Bangalore@hdfcbank.com,MerchantHelpdesk.Hyderabad@hdfcbank.com,x3eMerchanthelpdesk.Pune@hdfcbank.com,MerchantHelpdesk.Kerala@hdfcbank.com,","13.085445,80.202842"
Standard Chartered Bank,Banks,Chennai,"2nd Avenue Anna Nagar East,Opposite Karaikudi Restaurant Anna Nagar East",,",x3eHead.Service@sc.com,customer.care@sc.com,Head.Service@sc.com,Priority.Banking@sc.com,SachinPuranmal.Udasi@sc.com,","13.084223,80.222366"
Karur Vysya Bank Ltd,Banks,Chennai,"5th Avenue Anna Nagar,Opposite Kovai Palamudhir Nilayam Near Saravana Bhavan Anna Nagar",,",customersupport@kvbmail.com,u003ecustomersupport@kvbmail.com,neftcfc@kvbmail.com,pmcares@kvbmail.com,x3epmcares@kvbmail.com,x3eneftcfc@kvbmail.com,","13.084552,80.211879"
Karur Vysya Bank Ltd,Banks,Chennai,"1st Avenue Adyar,Near Padma Priya Hospital Near Axis Bank Indira Nagar Adyar",,",customersupport@kvbmail.com,u003ecustomersupport@kvbmail.com,neftcfc@kvbmail.com,pmcares@kvbmail.com,x3epmcares@kvbmail.com,x3eneftcfc@kvbmail.com,","12.9997061,80.2529431"
Karur Vysya Bank Ltd,Banks,Chennai,"7th Avenue Ashok Nagar,Opposite Hotel Mangalaambika Ashok Nagar",,",customersupport@kvbmail.com,u003ecustomersupport@kvbmail.com,neftcfc@kvbmail.com,pmcares@kvbmail.com,x3epmcares@kvbmail.com,x3eneftcfc@kvbmail.com,","13.0364943,80.2163946"
Karur Vysya Bank Ltd,Banks,Chennai,"Tambaram Main Road Velacheri,Opposite Adyar Anandha Bhavan Velacheri",,",customersupport@kvbmail.com,u003ecustomersupport@kvbmail.com,neftcfc@kvbmail.com,pmcares@kvbmail.com,x3epmcares@kvbmail.com,x3eneftcfc@kvbmail.com,","12.9730248,80.2193771"
Union Bank Of INDIA,Banks,Chennai,"Trunk Road Porur,Opposite Saravana Stores Porur",,",ccd.grievances@unionbankofindia.bank,customerservice@www.unionbankng.com,x3ecustomer.service@unionbankph.com,x3ecustomerservice@www.unionbankng.com,chennaimain@unionbankofindia.com,BOI.CallCentre@bankofindia.co.in,customer.service@unionbankph.com,customercare@unionbankofindia.com,x3eBOI.CallCentre@bankofindia.co.in,u003ecustomercare@unionbankofindia.com,x22customer.service@unionbankph.com,cgo@unionbankofindia.com,","13.032362,80.16394"
Union Bank Of India,Banks,Chennai,"Mount Poonamalle High Road Porur,Below Dominos Pizza Near Shell Petrol Pump Sakthi Nagar ICICI Bank Porur",,",ccd.grievances@unionbankofindia.bank,customerservice@www.unionbankng.com,x3ecustomer.service@unionbankph.com,x3ecustomerservice@www.unionbankng.com,chennaimain@unionbankofindia.com,BOI.CallCentre@bankofindia.co.in,customer.service@unionbankph.com,customercare@unionbankofindia.com,x3eBOI.CallCentre@bankofindia.co.in,u003ecustomercare@unionbankofindia.com,x22customer.service@unionbankph.com,cgo@unionbankofindia.com,","13.03491,80.1556"
Karur Vysya Bank Ltd,Banks,Chennai,"North Park Street Ambattur,Near Girls High School Venkatapuram Ambattur",,",customersupport@kvbmail.com,u003ecustomersupport@kvbmail.com,neftcfc@kvbmail.com,pmcares@kvbmail.com,x3epmcares@kvbmail.com,x3eneftcfc@kvbmail.com,","13.1190644,80.1555873"
Union Bank Of India,Banks,Chennai,"Arcot Road Vadapalani,Opposite AVM Theatre Vadapalani",,",ccd.grievances@unionbankofindia.bank,customerservice@www.unionbankng.com,x3ecustomer.service@unionbankph.com,x3ecustomerservice@www.unionbankng.com,chennaimain@unionbankofindia.com,BOI.CallCentre@bankofindia.co.in,customer.service@unionbankph.com,customercare@unionbankofindia.com,x3eBOI.CallCentre@bankofindia.co.in,u003ecustomercare@unionbankofindia.com,x22customer.service@unionbankph.com,cgo@unionbankofindia.com,","13.048598,80.205184"
HDFC Bank,Banks,Chennai,"Kamaraj Nagar-paruthipet,Near Karumari Amman Temple Arch Kamaraj Nagar paruthipet",,",x3eMerchantHelpdesk.Kerala@hdfcbank.com,Merchanthelpdesk.Pune@hdfcbank.com,MerchantHelpdesk.Bangalore@hdfcbank.com,x3ecustomerservices.cards@hdfcbank.com,x3eMerchantHelpdesk.Hyderabad@hdfcbank.com,customerservices.cards@hdfcbank.com,x3eMerchantHelpdesk.Bangalore@hdfcbank.com,MerchantHelpdesk.Hyderabad@hdfcbank.com,x3eMerchanthelpdesk.Pune@hdfcbank.com,MerchantHelpdesk.Kerala@hdfcbank.com,","13.1067448,80.0969511"
Canara Bank,Banks,Chennai,"Anna Salai Teynampet,Opposite DMS Teynampet",,"x3ehodbshelpdesk@canarabank.com,x22hocancard@canarabank.com,hocancard@canarabank.com,horeconhelpdesk@canarabank.com,cb2771@canarabank.com,csscochn@canarabank.com,csscodel@canarabank.com,x3ehoreconhelpdesk@canarabank.com,hodbshelpdesk@canarabank.com,x3ehocancard@canarabank.com,,nriserviceidmum@canarabank.com,rtgs@canarabank.com,cb7993@canarabank.com,neft@canarabank.com,cb16046@canarabank.com,","13.0455851,80.2477291"
HDFC Bank,Banks,Chennai,"Anna Salai Mount Road,Opposite TVS Sundaram Mount Road",,",x3eMerchantHelpdesk.Kerala@hdfcbank.com,Merchanthelpdesk.Pune@hdfcbank.com,MerchantHelpdesk.Bangalore@hdfcbank.com,x3ecustomerservices.cards@hdfcbank.com,x3eMerchantHelpdesk.Hyderabad@hdfcbank.com,customerservices.cards@hdfcbank.com,x3eMerchantHelpdesk.Bangalore@hdfcbank.com,MerchantHelpdesk.Hyderabad@hdfcbank.com,x3eMerchanthelpdesk.Pune@hdfcbank.com,MerchantHelpdesk.Kerala@hdfcbank.com,","13.0599347,80.2595286"
Lakshmi Vilas Bank,Banks,Chennai,"Velacheri Main Road Velacheri,Near Gandhi Road Bus Stop Opposite Dandeeshwaram Kovil Tank Velacheri",,",Ravishankar.Swaminathan@lvbank.in,cathedral@lvbank.in,cathedral_fex@lvbank.in,atmcardscpc@lvbank.in,Bangaloreroplanning@lvbank.in,info@lvbank.in,","12.9861336,80.2227962"
DCB Bank,Banks,Chennai,"Kottam High Road Nungambakkam, Nungambakkam",,",loans@dcbbank.com,customercare@dcbbank.com,x3ecustomercare@dcbbank.com,ajaya@dcbbank.com,bopatna@rbi.org.in,bomumbai2@rbi.org.in,u003ecustomercare@dcbbank.com,","13.0615363,80.2467046"
Punjab National Bank (Circle Office),Banks,Chennai,"Royapettah High Road Royapettah, Royapettah",,"corporatecare@pnb.com.ph,,pnbcreditcards@pnb.com.ph,x3ecare@pnb.co.in,coerk@pnb.co.in,care@pnb.co.in,cochennainorth@pnb.co.in,aksingh@pnb.co.in,Cpio.chen@pnb.co.in,nirmalroy@pnb.co.in,customercare@pnb.com.ph,admnpatna@unitedbank.co,","13.0642546,80.2781725"
Indian Bank (South Zonal Office),Banks,Chennai,"Commander In-Chief Road Egmore,Near Ethiraj College Egmore",,",indmail@indianbank.co.in,customercomplaints@indianbank.co.in,zochennaisouth@indianbank.co.in,","13.0651225,80.2587191"
Indian Bank,Banks,Chennai,"1st Street Egmore,Near HDFC Bank Sait Colony Egmore",,",BOI.CallCentre@bankofindia.co.in,x3eBOI.CallCentre@bankofindia.co.in,indmail@indianbank.co.in,customercomplaints@indianbank.co.in,cohrmd@indianbank.co.in,","13.063919,80.259838"
IVY Mobility Solutions Pvt Ltd,Banks,Chennai,"Work Easy Space Solutions, Urban Square 4th Floor S. No. 278/3A1, 278.3A2, 278/9A Kandanchavadi, Rajiv Gandhi Salai, OMR, Chennai, Tamil Nadu 600041",,",marketing@ivymobility.com,suresh.k@ivymobility.com,x3emarketing@ivymobility.com,u003emarketing@ivymobility.com,","12.9685972,80.2481761"
City Union Bank (Computer System Department),Banks,Chennai,"706, Anna Salai, Thousand Lights East, Thousand Lights, Chennai, Tamil Nadu 600006",044 2829 7903,",x3ecustomercare@unionbankofindia.com,x3ecustomercare@cityunionbank.com,customercare@unionbankofindia.com,x22customercare@unionbankofindia.com,customercare@cityunionbank.com,","13.0582015,80.2546496"
Bandhan Bank,Banks,Chennai,"Dr Radhakrishnan Salai Mylapore,Near Rajan Dental Care Opposite Kalyani Hospital Mylapore",,",pno@axisbank.com,x3eSecretary.Karthikeyan@bankofindia.co.in,Secretary.Karthikeyan@bankofindia.co.in,nungambakkam.branch@bandhanbank.com,x3epno@axisbank.com,customercare@bandhanbank.com,ch.surat@bandhanbank.com,x3esujoy.roy@bandhanbank.com,u003ecustomercare@bandhanbank.com,ed1@mahabank.co.in,cms.bojammu@rbi.org.in,ch.chennai@bandhanbank.com,sujoy.roy@bandhanbank.com,x3eed1@mahabank.co.in,","13.0447945,80.264981"
Indian Bank,Banks,Chennai,"Ethiraj Salai,Near Hotel Kanchi Ethiraj Salai",,",BOI.CallCentre@bankofindia.co.in,x3eBOI.CallCentre@bankofindia.co.in,indmail@indianbank.co.in,customercomplaints@indianbank.co.in,cohrmd@indianbank.co.in,","13.0636222,80.2597922"
Kriya Tec It Systems Pvt Ltd,Banks,Chennai,"95, Poes Rd, Subbarayan Nagar, Teynampet, Chennai, Tamil Nadu 600018",090925 33344,",tharani@kriyatec.com,info@kriyatec.com,sales@kriyatec.com,","13.0408424,80.2477588"
Godb Tech Pvt Ltd,Banks,Chennai,"High Road Raja Annamalai Puram,Near Ayyapan Temple Raja Annamalai Puram",,",pushpendra.sharma@smec.com,kbalaji@godbtech.com,rabik@godbtech.com,x3epushpendra.sharma@smec.com,","13.019637,80.268001"
Abacus Logistics Solutions Pvt Ltd,Banks,Chennai,"14/1, Sterling Rd, Nungambakkam, Chennai, Tamil Nadu 600034",044 4213 9112,",hussain4u@yahoo.com,corporate@porter.in,sales@abacuslogistics.net,x3eaccounts@itsabacus.com,accounts@itsabacus.com,info@abacuslogistics.net,x3ecorporate@porter.in,","13.0641776,80.2338548"
Tripro Technologies Pvt Ltd,Banks,Chennai,"No 6, 173, First Main Rd, Venkateswara Nagar, HL Colony, Pozhichalur, Chennai, Tamil Nadu 600074",,",crstonesexport@gmail.com,rr@tripro.in,","12.9816364,80.1401528"
Citibank,Banks,Chennai,"C P Ramaswamy Road Alwarpet,Near Sony Center Opposite Dina Color Lab Alwarpet",,",head.customercare@citi.com,x3ehead.customercare@citi.com,ashwin.panicker@citi.com,ruth.juliet.antonio@citi.com,er@citi.com,","13.031655,80.256945"
Citibank,Banks,Chennai,"Anna Salai Mount Road,Opposite Spencers Plaza Mount Road",,",head.customercare@citi.com,x3ehead.customercare@citi.com,ashwin.panicker@citi.com,ruth.juliet.antonio@citi.com,er@citi.com,","13.0615102,80.2614606"
Kotak Mahindra Bank,Banks,Chennai,"3rd Avenue Anna Nagar,Near K 4 Police Station Anna Nagar",,",x3eservice.cards@kotak.com,service.bank@kotak.com,x3ecare@kotak.com,x3eitsecurity.bank@kotak.com,x3eservice.securities@kotak.com,service.cards@kotak.com,x3eKprime.service@kotak.com,care@kotak.com,x3ejane.doe@kotak.com,itsecurity.bank@kotak.com,jane.doe@kotak.com,service.securities@kotak.com,Kprime.service@kotak.com,","13.091316,80.21783"
Axis Bank Ltd,Banks,Chennai,"Kamarajar Street Tambaram West,Near National Cinema Hall Vasan Eye Care Hospital Tambaram West",,",pno@axisbank.com,x3epno@axisbank.com,Corporate.Ib@axisbank.com,merchant.helpdesk@axisbank.com,x3emerchant.helpdesk@axisbank.com,loans@axisbank.com,x3eCorporate.Ib@axisbank.com,","12.929343,80.113766"
Axis Bank Ltd,Banks,Chennai,"MTH Road Ambattur,Near Teja Hospital Opposite Rakki Cinemas Ambattur",,",pno@axisbank.com,x3epno@axisbank.com,Corporate.Ib@axisbank.com,merchant.helpdesk@axisbank.com,x3emerchant.helpdesk@axisbank.com,loans@axisbank.com,x3eCorporate.Ib@axisbank.com,","13.121977,80.147025"
State Bank Of India (Head Office),Banks,Chennai,"College Road Greames Road,Near Sankara Nethralaya Greames Road",,",gm.customer@sbi.co.in,cppc.mumbai@sbi.co.in,x3ePrincipalNodalOfficer@sbicard.com,customercare@sbi.co.in,sanjeevani.hr@sbi.co.in,x3esanjeevani.hr@sbi.co.in,contactcentre@sbi.co.in,cppc.zoche@sbi.co,PrincipalNodalOfficer@sbicard.com,","13.0669807,80.251201"
Axis Bank Ltd,Banks,Chennai,"Shanthi Colony-anna Nagar,Near Kovai Pazhamudhir Nilayam Shanthi Colony anna Nagar",,",pno@axisbank.com,x3epno@axisbank.com,Corporate.Ib@axisbank.com,merchant.helpdesk@axisbank.com,x3emerchant.helpdesk@axisbank.com,loans@axisbank.com,x3eCorporate.Ib@axisbank.com,","13.084032,80.209878"
RBL Bank Ltd,Banks,Chennai,"G N Chetty Road T Nagar,Opposite Accord Metropolitan T Nagar",,",x3eanand.adhikari@rblbank.com,principalnodalofficer@rblbank.com,cardservices@rblbank.com,agribusiness@rblbank.com,ruralbanking@rblbank.com,x3eprincipalnodalofficer@rblbank.com,anand.adhikari@rblbank.com,u003ecustomercare@rblbank.com,csachennai1@rblbank.com,x3ecustomercare@rblbank.com,CEO@rblbank.com,kyc.cards@rblbank.com,x3ekyc.cards@rblbank.com,x3eCEO@rblbank.com,customercare@rblbank.com,rblbank.com_ruralbanking@rblbank.com,","13.046368,80.2420764"
Kotak Mahindra Bank,Banks,Chennai,"Medavakkam Main Road Madipakkam,Opposite Reliance Fresh Madipakkam",,",x3eservice.cards@kotak.com,service.bank@kotak.com,x3ecare@kotak.com,x3eitsecurity.bank@kotak.com,x3eservice.securities@kotak.com,service.cards@kotak.com,x3eKprime.service@kotak.com,care@kotak.com,x3ejane.doe@kotak.com,itsecurity.bank@kotak.com,jane.doe@kotak.com,service.securities@kotak.com,Kprime.service@kotak.com,","12.9625949,80.1873079"
Kotak Mahindra Bank,Banks,Chennai,"Arcot Road Porur,Opposite Naidu Hall Lakshmi Nagar Porur",,",x3eservice.cards@kotak.com,service.bank@kotak.com,x3ecare@kotak.com,x3eitsecurity.bank@kotak.com,x3eservice.securities@kotak.com,service.cards@kotak.com,x3eKprime.service@kotak.com,care@kotak.com,x3ejane.doe@kotak.com,itsecurity.bank@kotak.com,jane.doe@kotak.com,service.securities@kotak.com,Kprime.service@kotak.com,","13.0378669,80.1621412"
Axis Bank Ltd,Banks,Chennai,"Anna Salai Mount Road,Opposite Spencers Plaza Mount Road",,",pno@axisbank.com,x3epno@axisbank.com,Corporate.Ib@axisbank.com,merchant.helpdesk@axisbank.com,x3emerchant.helpdesk@axisbank.com,loans@axisbank.com,x3eCorporate.Ib@axisbank.com,","13.060716,80.258908"
Axis Bank Ltd,Banks,Chennai,"1st Cross Street Virugambakkam,Near CSI Church Lambert Nagar Alwarthirunagar Virugambakkam",,",pno@axisbank.com,x3epno@axisbank.com,Corporate.Ib@axisbank.com,merchant.helpdesk@axisbank.com,x3emerchant.helpdesk@axisbank.com,loans@axisbank.com,x3eCorporate.Ib@axisbank.com,","13.046105,80.187527"
State Bank Of INDIA,Banks,Chennai,"Kamarajar Salai Tambaram West,Near Vasan Eye Care Hospital Tambaram West",,",x3eBoi.neft@bankofindia.co.in,Rtgs.boi@bankofindia.co.in,Boi.neft@bankofindia.co.in,J.Smith@sbi.co.in,John.Smith@sbi.co.in,Smith.John@sbi.co.in,customercare@sbi.co.in,x3eJohn.Smith@sbi.co.in,JSmith@statebankofindia.com,x3eBOI.CallCentre@bankofindia.co.in,Smith@sbi.co.in,x3eRtgs.boi@bankofindia.co.in,BOI.CallCentre@bankofindia.co.in,x3esanjeevani.hr@sbi.co.in,sbi.00800@sbi.co.in,boi.customerservices@oberthur.com,xxxx@sbi.co.in,sanjeevani.hr@sbi.co.in,agmcustomer.lhocha@sbi.co.in,x3eboi.customerservices@oberthur.com,","12.92769564,80.11355956"
State Bank Of INDIA,Banks,Chennai,"Mudichur Road Tambaram,Opposite Lions India Hotel Tambaram",,",x3eBoi.neft@bankofindia.co.in,Rtgs.boi@bankofindia.co.in,Boi.neft@bankofindia.co.in,J.Smith@sbi.co.in,John.Smith@sbi.co.in,Smith.John@sbi.co.in,customercare@sbi.co.in,x3eJohn.Smith@sbi.co.in,JSmith@statebankofindia.com,x3eBOI.CallCentre@bankofindia.co.in,Smith@sbi.co.in,x3eRtgs.boi@bankofindia.co.in,BOI.CallCentre@bankofindia.co.in,x3esanjeevani.hr@sbi.co.in,sbi.00800@sbi.co.in,boi.customerservices@oberthur.com,xxxx@sbi.co.in,sanjeevani.hr@sbi.co.in,agmcustomer.lhocha@sbi.co.in,x3eboi.customerservices@oberthur.com,","12.9285316,80.11397"
State Bank Of INDIA,Banks,Chennai,"Reddy West Street Tambaram, Tambaram",,",x3eBoi.neft@bankofindia.co.in,Rtgs.boi@bankofindia.co.in,Boi.neft@bankofindia.co.in,J.Smith@sbi.co.in,John.Smith@sbi.co.in,Smith.John@sbi.co.in,customercare@sbi.co.in,x3eJohn.Smith@sbi.co.in,JSmith@statebankofindia.com,x3eBOI.CallCentre@bankofindia.co.in,Smith@sbi.co.in,x3eRtgs.boi@bankofindia.co.in,BOI.CallCentre@bankofindia.co.in,x3esanjeevani.hr@sbi.co.in,sbi.00800@sbi.co.in,boi.customerservices@oberthur.com,xxxx@sbi.co.in,sanjeevani.hr@sbi.co.in,agmcustomer.lhocha@sbi.co.in,x3eboi.customerservices@oberthur.com,","12.9268968,80.1130534"
Axis Bank Ltd,Banks,Chennai,"Mahatma Gandhi Road Adyar,Near Adyar Bus Depot Opposite Adyar Ananda Bhavan Shasthri Nagar Adyar",,",pno@axisbank.com,x3epno@axisbank.com,Corporate.Ib@axisbank.com,merchant.helpdesk@axisbank.com,x3emerchant.helpdesk@axisbank.com,loans@axisbank.com,x3eCorporate.Ib@axisbank.com,","12.996642,80.257133"
