Name,Sector,City,Address,Phone,Email,Lat-Long
24 X 7 Fitness Studio,Gym,Chennai,"No 11, Second Floor, Ramaniyam Isha Block 1, Old, 2nd St, Customs Colony, Sakthi Nagar, Thoraipakkam, Tamil Nadu 600097",084890 00222,,"12.943636,80.2353118"
365 Days Fitness Studio Pvt Ltd,Gym,Chennai,"1st Main Rd, Jai Nagar, Arumbakkam, Chennai, Tamil Nadu 600106",096000 43650,,"13.0718192,80.2058156"
369 Fitmonks Unisex Fitness Zone,Gym,Chennai,"Velachery Main Road Madipakkam,Near By Ponniyamman Koil Next Madipakkam",8147403176.0,,"12.964922,80.196905"
60 Minutes Fitness Studio,Gym,Chennai,"No. 281, 2nd Floor, Konnur High Rd, Ayanavaram, Chennai, Tamil Nadu 600023",095001 20177,,"13.0995808,80.2282808"
99 Degree F Fitness Studio Pvt Ltd,Gym,Chennai,"No 56, Ormes Rd, Kilpauk, Chennai, Tamil Nadu 600010",,",roc.chennai@mca.gov.in,accounts@99f.in,","13.055779,80.234745"
99 Degree F Fitness Studio Pvt Ltd,Gym,Chennai,"No 56, Ormes Rd, Kilpauk, Chennai, Tamil Nadu 600010",,",roc.chennai@mca.gov.in,accounts@99f.in,","13.0846535,80.2111374"
Aeroville Fitness Studio,Gym,Chennai,"75-632, Nelson Manickam Rd, Collectorate Colony, Aminjikarai, Chennai, Tamil Nadu 600029",098844 04641,",aneesh@paulsons.in,","13.073807,80.2181829"
Anytime Fitness,Gym,Chennai,"6th Avenue Anna Nagar,Above Kovai Pazhamuthir Solai Anna Nagar",8147197237.0,"vasanthgoldsgym@gmail.com,,John.Smith@anytimefitness.com,x3eJohn.Smith@anytimefitness.com,","13.0921793,80.2125121"
Arrow Fitness Center,Gym,Chennai,"Lake View Road West Mambalam,Near Hindu Vidyalaya School and Opposite Raju Electricals West Mambalam",9740487068.0,"vasanthgoldsgym@gmail.com,,","13.0382315,80.2249186"
Ateliers Fitness,Gym,Chennai,"Voc Street Alwarthirunagar,Bihind Mega Mart Alwarthirunagar",,"ateliersfitnes@gmail.com,,","13.038925,80.18626797"
Ateliers Fitness,Gym,Chennai,"Velachery Main Road Sembakkam,Near Camp Road and Near By Sembakkam Bus Stop Sembakkam",,"ateliersfitnes@gmail.com,,","12.9225,80.16138889"
Basics Life (Express Avenue Mall),Gym,Chennai,"1st Floor, high Road, Shop - 113, Express Avenue Mall, 49-50l, Whites Rd, Royapettah, Chennai, Tamil Nadu 600014",044 4501 1005,,"13.0582106,80.2614817"
Black Bull Fitness Studio,Gym,Chennai,"Govindan Road West Mambalam,Near Mettupalayam Bus Stop and Indian Oil Petrol Bunk West Mambalam",7947166148.0,,"13.0319811,80.2192239"
Black Bull Fitness Studio,Gym,Chennai,"1st Street Madhanandapuram,Near By Ravindra Bharathi School Madhanandapuram",7947161311.0,,"13.0220816,80.1513207"
Body Language Fitness Studio,Gym,Chennai,"Nelson Manickam Road Aminjikarai,Opposite to Bata Showroom Near Professional Couriers Aminjikarai",7947255080.0,,"13.0680726,80.2257913"
Brio Fitness Studio,Gym,Chennai,"King's Street, Plot NO-115, VGN Monte Carlo, Nolambur, Ambattur Industrial Estate, Chennai, Tamil Nadu 600095",063837 15314,",roc.chennai@mca.gov.in,","13.0700837,80.1618144"
Burn Out By Tk Gym,Gym,Chennai,"59/20, S Mada St, Thiruvalluvar Nagar, Thiruvanmiyur, Chennai, Tamil Nadu 600041",090940 78982,",burnoutramapuramf1@gmail.com,burnoutcorporate@gmail.com,","12.9827897,80.2582538"
Burn Out Unisex Fitness Studio,Gym,Chennai,"PT Rajan Salai K K Nagar,Above Ganga Sweets K K Nagar",8147055337.0,,"13.0386667,80.2046081"
Burn Out Unisex Fitness Studio - Alwarthirunagar,Gym,Chennai,"Arcot Road Alwarthirunagar,Above KFC Alwarthirunagar",8197128467.0,,"13.0454599,80.1870744"
Compact Family Fitness Studio,Gym,Chennai,"No.20, Alapakkam Main Rd, Allapakkam, Porur, Chennai, Tamil Nadu 600116",086082 35551,",ceo@maverickfitness.net,aneesh@paulsons.in,info@heartthrobgym.com,customerservice@txfamilyfitness.com,x3ecustomerservice@txfamilyfitness.com,","13.0445102,80.1620771"
Contours Womens Fitness Studio,Gym,Chennai,"LIC Colony 2nd Street Velacheri,Above Lakme Salom Velacheri",8045774783.0,,"12.97700556,80.21798056"
Crossfit IBA,Gym,Chennai,"S10 Healthcare Solutions Pvt. Ltd., 21, Race Course Rd, Old Narasingapuram, Race View Colony, Guindy, Chennai, Tamil Nadu 600032",070102 10133,"vasanthgoldsgym@gmail.com,,anu@fionis.in,","13.0059886,80.2097505"
D9 Fitness Studio,Gym,Chennai,"MGR Nagar-Nesapakkam,Near MGR Nagar Market MGR Nagar Nesapakkam",7947059570.0,,"13.03374956,80.20058439"
DFIT,Gym,Chennai,"No. 14, Venugopal Avenue, Spur Tank road, Chetpet, Chennai, Tamil Nadu 600031",044 2836 0496,",anu@fionis.in,vasanthgoldsgym@gmail.com,slamfitness.velachery@gmail.com,info@skalefitness.com,","13.0709414,80.2492553"
Dimensions Fitness,Gym,Chennai,"2/12, CP Ramaswamy Iyer Rd, Vidhya Thirtha Nagar, Abiramapuram, Chennai, Tamil Nadu 600018",073587 16662,",info@fitternity.com,ashok.damodaran@gmail.com,","13.0302328,80.2537775"
Dinesh Personal Trainer,Gym,Chennai,"Street Anna Nagar West Extension,Near MMM Hospital Anna Nagar West Extension",8147818805.0,,"13.08615111,80.19047544"
DR.KENNEDY S GREEK GOD FITNESS CENTRE,Gym,Chennai,"Medavakkam Main Road Adambakkam,Near Jayalakshmi Theatre Adambakkam",8045773523.0,,"12.98442097,80.20505597"
F7 Gym,Gym,Chennai,"Second Floor, Zion Complex, 20, Pammal Main Rd, Muthamizh Nagar, Pammal, Chennai, Tamil Nadu 600075",093616 68423,",info@f7gym.com,","12.9719392,80.1386371"
Fight 2 Fit,Gym,Chennai,"Gst Road Pallavaram,Upstairs Of Suzuki Showroom Pallavaram",,"fight2fit15@gmail.com,,","12.963478,80.147383"
Fit Perfect Health & Fitness Studio,Gym,Chennai,"5/120, Pillayar Kovil Street, Vengaivasal, Medavakkam, Chennai, Tamil Nadu 600100",063835 80694,,"12.9176304,80.190015"
Fit Tree Fitness Centre,Gym,Chennai,"29, Lakshmi Talkies Rd, Shenoy Nagar, Chennai, Tamil Nadu 600030",098844 17776,",xxxx@fittreefitness.com,info@kprgym.com,","13.0747338,80.2248427"
Fit&firm Gym,Gym,Chennai,"Nagar Thiruvanmiyur,Before Police Station Thiruvanmiyur",8147127708.0,,"12.95143097,80.25528797"
Fitness Factory,Gym,Chennai,"Munuswamy Salai K K Nagar,Near Pondicherry Guest House K K Nagar",8045790109.0,",newfitnessfactory22@gmail.com,","13.041939,80.193176"
Fitness Factory Express-The Best Gym,Gym,Chennai,"Colony Anna Nagar West Extension,Near HP Petrol Bunk Anna Nagar West Extension",7411713236.0,",thirumangalam.ffe@gmail.com,","13.08099722,80.21599722"
Fitness One,Gym,Chennai,"Habibullah Road T Nagar,Opposite Sgs Saba Behind Vidhyodhaya School T Nagar",,",info@fitnessone.in,ITPC@fitnessone.co.in,","13.0497229,80.242275"
Fitness Town,Gym,Chennai,"Illaya Street Tondiarpet,Near Tondiarpet Bridge Tondiarpet",,",skganesh9@gmail.com,nds.kalai@gmail.com,","13.1393023,80.2061405"
Flame Fitness Studio,Gym,Chennai,"Thirumalai Pillai Road T Nagar,Near Valluvar Kottam T Nagar",8197019172.0,",u003eflamefitnessstudio@gmail.com,flamefitnessstudio@gmail.com,","13.0478381,80.2266256"
Flip Style Fitness Studio,Gym,Chennai,"Navalur Navalur,Above Sdrive In 1st Floor Behind Burgerman Navalur",8904979422.0,,"12.8418975,80.2273021"
Flux Fitness Studio,Gym,Chennai,"Rajiv Gandhi Salai OMR Perungudi,Opposite Maruthi Suzuki Showroom Perungudi",,",fitnessstudioflux@gmail.com,ninfo@fluxfitnessstudio.com,ershad_89@yahoo.com,info@fluxfitnessstudio.com,","12.9586393,80.2440788"
Flux Fitness Studio,Gym,Chennai,"1st Avenue Adyar,Near Hero Showroom Indira Nagar Adyar",,",fitnessstudioflux@gmail.com,ninfo@fluxfitnessstudio.com,ershad_89@yahoo.com,info@fluxfitnessstudio.com,","12.9989302,80.2518096"
Focus Fitness Studio,Gym,Chennai,"31 A Dr Seethapathy Nagar, Taramani Link Rd, Baby Nagar, Chennai, Tamil Nadu 600042",091764 43433,"ssfocusfitnessstudio@gmail.com,cmfocusfitness@gmail.com,,","12.9812923,80.2270469"
Fortitude Fitness Studio,Gym,Chennai,"2nd Floor, PVG Towers, Dr, Velachery - Tambaram Main Rd, Munusamy Nagar, Vimala Nagar, Medavakkam, Chennai, Tamil Nadu 600100",090806 44627,,"12.9176622,80.186309"
Fun Functional Fitness,Gym,Chennai,"1/333, 2nd St, MS Nagar, Porur, Chennai, Tamil Nadu 600116",098404 98792,",info@skalefitness.com,","13.0263334,80.1486187"
Goldz Fitness Studio,Gym,Chennai,"Redhills Road Ambattur,Opp to Hdfc Bank Ambattur",7947235484.0,"vasanthgoldsgym@gmail.com,,info@goldzfitnessstudio.com,","13.12853431,80.15628814"
Gymit,Gym,Chennai,"1st floor, Choolaimedu High Road, no 4, Khan St, Choolaimedu, Chennai, Tamil Nadu 600094",073585 05505,",info@fitternity.com,Gymit.choolaimedu@gmail.com,support@gymit.com,u003esupport@gymit.com,","13.0655758,80.2282603"
Gymsquare,Gym,Chennai,"33, Rutland Tower, Shafee Mohammed Rd, Thousand Lights West, Nungambakkam, Chennai, Tamil Nadu 600006",098842 00089,",hello@gymsquare.co,","13.0596852,80.2494645"
Hardcore Fitness,Gym,Chennai,"Ground Floor, OLYMPIA TECHNOLOGY PARK, Plot No. 1, 3rd Phase, SIDCO Industrial Estate, Guindy, Chennai, Tamil Nadu 600032",044 4857 2306,",hardcorefitnessamd@gmail.com,","13.0152972,80.2016251"
Hearthrob Family Fitness Studio,Gym,Chennai,"Main Road Kattupakkam,Opposite to Paradise Biryani Near Dominos Kattupakkam",,",info@heartthrobgym.com,","13.0430852,80.1236992"
Hf Fitness Studio,Gym,Chennai,"Ecr Kottivakkam,Next to Mahendra Car Showroom Kottivakkam",7947074128.0,"mohanbabu0023@gmail.com,,info@citchennai.net,enquiry@o2healthstudio.com,nmohanbabu0023@gmail.com,","12.972136,80.257964"
Hifi Fitness Studio,Gym,Chennai,"Above Hdfc Bank Korattur,Near to Padi Saravana Store Korattur",,",fitnessspott@gmail.com,hififitpadi@gmail.com,","13.10404,80.185422"
Hustle Athlete Performance Enhancement Center,Gym,Chennai,"Street Nehru Nagar Adyar Adyar,Nalli Silks Adyar",9731668132.0,,"13.0036303,80.2520799"
In And Out Fitness,Gym,Chennai,"Church Street George Town,Opposite Stanlin Hospital George Town",,",memberexperience@anytimefitness.in,vasanthgoldsgym@gmail.com,leadfitness2022@gmail.com,info@skalefitness.com,","13.103125,80.28028056"
Indian Power Gym,Gym,Chennai,"Periyar Pathai West Arumbakkam,Near Thirunagar Single Indian Bank Arumbakkam",,",jv.jeyavel@gmail.com,","13.0597538,80.2107153"
Iron Star Gym,Gym,Chennai,"No. 200, Rangarajapuram Main Rd, Subramaniyan Nagar, Kodambakkam, Chennai, Tamil Nadu 600024",091769 61222,",info@ironstar-fit.com,","13.0511454,80.2191387"
Janani's Health Zone,Gym,Chennai,"Bank Street Ram Nagar Ambattur,Behind Rakki Theatre Ambattur",9731954453.0,"nchennai@mca.gov.in,roc.chennai@mca.gov.in,vasanthgoldsgym@gmail.com,,","13.12361111,80.14742222"
K2 Fitness Unisex Studio,Gym,Chennai,"Kadappa Road Kolathur, Kolathur",,",aneesh@paulsons.in,","13.1305679,80.2069549"
Kowsika Academy,Gym,Chennai,"Papermills Road Perambur,Opposite to Venus Market Perambur",,",kowsikaacademy@gmail.com,","13.11258611,80.23716111"
Life Fitness Studio,Gym,Chennai,"157, Srinivasan St, Golden George Nagar, Mogappair East, Chennai, Tamil Nadu 600037",072999 90507,",Info@bratzlife.in,info@ifefitnessstudio.in,aneesh@paulsons.in,lifefitnesschennai@gmail.com,ninfo@ifefitnessstudio.in,","13.0750733,80.1788714"
Life Health Fitness,Gym,Chennai,"5th Street Virugambakkam,Koyambedu Market Backside Virugambakkam",7947452428.0,",sales@lifefitnessindia.com,info@skalefitness.com,","13.065626,80.191929"
LIVA Women's Fitness Studio,Gym,Chennai,"No 177, Madambakkam Main Rd, Anna Nagar, Maruthi Nagar, Madambakkam, Chennai, Tamil Nadu 600126",091177 88999,",livaworkingcurv@gmail.com,","12.9059799,80.1564834"
Lura Women's Fitness,Gym,Chennai,"High Road Iyyappanthangal,OPP to Iyyappanthangal Bus Stand Iyyappanthangal",8197563451.0,"lurafitness@gmail.com,,aneesh@paulsons.in,","13.0393164,80.1317478"
Maximum Muscle,Gym,Chennai,"Main Road Rajakilpakkam,VGP Srinivas Nagar Rajakilpakkam",8197006625.0,",info@skalefitness.com,","12.91207878,80.15576008"
MONK LIFESTYLE & FITNESS STUDIO,Gym,Chennai,"Mount Poonamallee Road Porur,Max Showroom Porur",7947198292.0,,"13.0288355,80.170185"
Muscle Breakers Lifestyle Fitness Studio,Gym,Chennai,"No.8, 2nd floor, Vaishnav College Road, Shanthi Nagar, Chromepet, Chennai, Tamil Nadu 600044",081223 56635,",musclebreakerfitness@gmail.com,aneesh@paulsons.in,","12.955282,80.1429356"
Next Level Royal Fitness Club,Gym,Chennai,"Main Road Madhavaram Milk Colony,Near Evening Restaurant Madhavaram Milk Colony",8197491569.0,",info@powermaxfitness.net,royalfitnesscbe@gmail.com,","13.15107222,80.245425"
No 1 Challange Fitness Studio,Gym,Chennai,"5058, 18th St, opposite Chinmaya Vidalaya School, Belly Area, G Block, Anna Nagar, Chennai, Tamil Nadu 600040",098405 76888,,"13.091417,80.2042925"
O2 Health Studio,Gym,Chennai,"10th Avenue Ashok Nagar,Opposite Vijaya Bank Above Sangeetha Desi Mane Hotel Ashok Nagar",,",enquiry@o2healthstudio.com,u003eenquiry@o2healthstudio.com,","13.0346004,80.2146642"
One2one Fitness,Gym,Chennai,"No: 19/1, sri venkateswara nagar, teachers colony, kadappa road, kolathur, Chennai, Tamil Nadu 600099",080562 27224,",info@121gym.co.uk,info@freshstart.com.au,JohnSmith@one2one-fitness.co.uk,","13.1308842,80.1998277"
Pink Fitness,Gym,Chennai,"Manthoppu Colony Ashok Nagar,Near Sangamam Hotel Ashok Nagar",,",info@pinkfitness.in,","13.0348206,80.2162721"
Pink Fitness Nungambakkam,Gym,Chennai,"No.20, GKS Annexe- III Floor, Pycrofts Garden Rd, Thousand Lights West, Nungambakkam, Chennai, Tamil Nadu 600006",090033 76762,",info@pinkfitness.in,","13.0642753,80.2466962"
Pink Fitness One,Gym,Chennai,"87, Velachery Main Rd, Tambaram, Chennai, Tamil Nadu 600059",,",info@fitnessone.in,","13.0808492,80.1646889"
Pink Fitness One,Gym,Chennai,"87, Velachery Main Rd, Tambaram, Chennai, Tamil Nadu 600059",,",info@fitnessone.in,","12.92573164,80.15264128"
Pink Fitnessone,Gym,Chennai,"Arcot Road Valasaravakkam,Near Andhra Meals Hotel Valasaravakkam",,",info@fitnessone.in,","13.04187242,80.17894283"
Reboot Fitness,Gym,Chennai,"High Road Iyyappanthangal,Above Tanishq Jewellery Iyyappanthangal",7942809168.0,"office@example.org,,rachel@rebootfitness.training,rebootlifestylefitnessstudio@gmail.com,","13.0403905,80.1303017"
Rising Fitness,Gym,Chennai,"Medavakkam Main Road Madipakkam,Above Singapore Shoppe Bharath Nagar Madipakkam",,",risingfitnessstudio@gmail.com,risingfitness2019@gmail.com,","12.9636864,80.1875135"
Ryiker Gym,Gym,Chennai,"Cycleshop Puzhal,Near Goverment Hospital Puzhal",7947074617.0,"vasanthgoldsgym@gmail.com,,aneesh@paulsons.in,","13.1545131,80.2112975"
S 1 Lifestyle Fitness,Gym,Chennai,"Arunachalam Rd, Kaveri Rangan nagar, Saligramam, Chennai, Tamil Nadu 600093",098406 91111,",leadfitness2022@gmail.com,info@leadfitness.in,","13.0540028,80.2013901"
S Fitness Studio,Gym,Chennai,"1, Orandi Amman Koil St, Velachery, Chennai, Tamil Nadu 600042",098849 67040,"vasanthgoldsgym@gmail.com,,aneesh@paulsons.in,","12.9811966,80.218372"
Sanahfit Fitness Centre,Gym,Chennai,"TNHB Phase 1 Ayapakkam,Near State Bank Road SS Shoppe Ayapakkam",,",info@csstrucoach.in,aneesh@paulsons.in,info@gravityholisticfitness.in,","12.9673207,80.1888728"
Slam Fitness,Gym,Chennai,"Chamiers Road Nandanam,Above Toni Guy Nandanam",,"slamfitness.velachery@gmail.com,,info@grandslamfitness.co.in,aneesh@paulsons.in,","13.0294764,80.2478441"
Slam Life Style And Fitness Studio,Gym,Chennai,"J Nagar West Mogappair West,Opposite Reliance Digital Mogappair West",,",aneesh@paulsons.in,","13.0835442,80.1703113"
Slam Lifestyle and Fitness Studio,Gym,Chennai,"Clc Works Road Chromepet,Opposite Balaji Medical College Chromepet",8045787025.0,"slamfitness.velachery@gmail.com,,aneesh@paulsons.in,","12.95320062,80.14001308"
Slam Lifestyle And Fitness Studio,Gym,Chennai,"Paper Mills Road Perambur,Near Peravallur Jawagar Nagar Perambur",,"slamfitness.velachery@gmail.com,,aneesh@paulsons.in,","13.1168834,80.2295738"
Slam Lifestyle and Fitness Studio,Gym,Chennai,"Rajiv Gandhi Salai OMR Perungudi,Opposite to Apollo Hospital Above MI Showroom Perungudi",8123922559.0,"slamfitness.velachery@gmail.com,,aneesh@paulsons.in,","12.9619848,80.246219"
Slam Lifestyle and Fitness Studio,Gym,Chennai,"Sathya Nagar Ramapuram, Ramapuram",7947072509.0,"slamfitness.velachery@gmail.com,,aneesh@paulsons.in,","13.025213,80.185382"
SLAM Lifestyle And Fitness Studio,Gym,Chennai,"Spur Tank Road Chetpet, Chetpet",,"slamfitness.velachery@gmail.com,,aneesh@paulsons.in,","13.07173797,80.25138097"
Slam Lifestyle And Fitness Studio,Gym,Chennai,"Rk Salai Mylapore,Above Grill Box Restaurant Mylapore",,"slamfitness.velachery@gmail.com,,aneesh@paulsons.in,","13.0443765,80.2685402"
Slam Lifestyles And Fitness Studio,Gym,Chennai,"Mahabalipuram Road Thoraipakkam,Opp to Holiday In Thoraipakkam",8197311674.0,"slamfitness.velachery@gmail.com,,aneesh@paulsons.in,","12.930392,80.2319997"
Slam Nanganallur,Gym,Chennai,"33, 1st Main Rd, Ram Nagar, Nanganallur, Chennai, Tamil Nadu 600061",073585 14333,",aneesh@paulsons.in,","12.9829086,80.1895818"
Slim & Fit Health Studio For Women,Gym,Chennai,"Street Mmda Colony Arumbakkam,Opposite Street to Popular Studio Arumbakkam",9731741708.0,,"13.0669719,80.2139751"
Smart Sports Academy,Gym,Chennai,"Kanakkar St, Radhakrishnan Nagar, Rajakadai, Tiruvottiyur, Chennai, Tamil Nadu 600019",098400 12458,",smartsportsacademy@gmail.com,mailtosmartminds@gmail.com,tntargetball@gmail.com,nomail@smart.com,roc.chennai@mca.gov.in,tntargetballassion@gmail.com,","13.1592634,80.3004456"
Snatch Fitness Studio,Gym,Chennai,"Velacheri Main Road Selaiyur,Naturals Above Selaiyur",7411653933.0,",aneesh@paulsons.in,info@gravityholisticfitness.in,","12.922625,80.14615"
Solid Fitness,Gym,Chennai,"2nd Floor Purasawalkam,Next Tvs Lumni Square Purasawalkam",9731920982.0,",sofitnessstudio777@gmail.com,solidfitnessvelachery@gmail.com,kalaissolid@gmail.com,","13.08512306,80.24475858"
Solid Fitness,Gym,Chennai,"No 29/3 Velacheri,Above Basics Showroom Velacheri",9731997488.0,",sofitnessstudio777@gmail.com,solidfitnessvelachery@gmail.com,kalaissolid@gmail.com,","12.977327,80.2228935"
Solid Fitness Studio,Gym,Chennai,"Road 2nd Floor Ambattur,Near Reliance Trends Ambattur",8123925195.0,",solidfitnessvelachery@gmail.com,kalaissolid@gmail.com,ninfo@solidfitnessstudio.com,nsolidfitnessvelachery@gmail.com,info@solidfitnessstudio.com,","13.1223907,80.1465266"
Solid Health & Fitness,Gym,Chennai,"Mount Poonamallee Road Porur,Next to Dlf Porur",8197353003.0,,"13.0283736,80.1699832"
Sri V Beauty and Fitness Centre,Gym,Chennai,"Arcot Road Porur,Opposite Karambakkam Police Booth Porur",7947083764.0,",roc.chennai@mca.gov.in,","13.0369183,80.158692"
Sthree Fitness (Fitness For Every Women),Gym,Chennai,"Pammal Main Road Pammal,Opp to Indian Oil Petol Bunk Pammal",7947446802.0,,"12.97450897,80.14001197"
Stingrays Swimming & Fitness Center,Gym,Chennai,"No.5A, Sakthi Nagar, Sriram Nagar Main Rd, near Nolambur Bus Stand, Nolambur, Ambattur Industrial Estate, Chennai, Tamil Nadu 600095",090259 55308,,"13.0714879,80.1643372"
Sun Stone Fitness,Gym,Chennai,"55, Big St, Police Quarters, Triplicane, Chennai, Tamil Nadu 600005",081486 66786,,"13.0596016,80.2723917"
The Colosseum Iyyapanthangal,Gym,Chennai,"Plot 39, Goparasanallur Main Rd, Puliambedu, Iyyappanthangal, Chennai, Tamil Nadu 600077",095660 48883,",thirunagarsatellite@yahoo.com,writeus@thecolosseum.in,","13.0507556,80.128748"
Trends Sports Academy,Gym,Chennai,"56 & 57, 1st Main Rd, VGP Selva Nagar, Velachery, Chennai, Tamil Nadu 600042",098410 02003,",roc.chennai@mca.gov.in,","12.9713398,80.2193091"
Universal Fitness Studio,Gym,Chennai,"Mint Street Sowcarpet,Above Gokulam Chit Fund Sowcarpet",8197294579.0,,"13.09683,80.279841"
Velavan Sportz Academy,Gym,Chennai,"102, Plot, no, 48, 97, 50, Elaya St, Kamarajar Colony, Korukkupet, Tondiarpet, Chennai, Tamil Nadu 600021",,",vigneshwara.eng@gmail.com,","13.121415,80.280912"
Versatile Fitness,Gym,Chennai,"M S Koil Street Royapuram,Above Reliance Trends Women Bata Showroom Royapuram",9731636597.0,",versatilefitness@gmail.com,","13.112049,80.29201797"
W Fitness,Gym,Chennai,"Medavakkam Main Road Madipakkam,Above Kfc Opp By Icici Bank Madipakkam",,"vasanthgoldsgym@gmail.com,,wfitness.choolaimedu@gmail.com,","13.1277502,80.2849347"
Waves Swim Academy,Gym,Chennai,"MAIN ROAD Old Pallavaram,Near Arulmurugan Towers Old Pallavaram",8296640260.0,",contactus@imagicaaworld.com,","12.9185016,80.17861795"
Wavs Fitness Studio,Gym,Chennai,"Nagar Extension Kolathur,Near Indian Oil Bunk Senthil Nagar Signal Kolathur",8197084885.0,",wavsfitness@yahoo.com,haary347@yahoo.com,nwavsfitness@yahoo.com,","13.1236574,80.2010509"
Worlds gym,Gym,Chennai,"Mogappair East,Near Hyderabad Briyani Mogappair East",,"manish.singh@fitness-world.in,,manager@townsville.worldgym.com.au,vasanthgoldsgym@gmail.com,","13.0821745,80.1800309"
S FITNESS GYM & CROSSFIT STUDIO,Gym,Chennai,"7+ years in business Â· 1, Orandi Amman Koil St",Open â‹… Closes 10â€¯pm Â· 098849 67040,,"18.5073637,73.7960479"
SLAM Lifestyle And Fitness Studio (RK Salai),Gym,Chennai,"5+ years in business Â· No 25, Third floor, RK Salai, Yellow Pages Junction Mylapore (Above Grill Box Restaurant",Open â‹… Closes 10â€¯pm Â· 090403 74037,",aneesh@paulsons.in,","13.0443765,80.2659653"
Just Gym (Men & Women),Gym,Chennai,"5+ years in business Â· 59/27, Purasawalkam High Rd",Open 24 hours Â· 063838 14811,,"15.7776743,71.7212849"
Sen Fitness,Gym,Chennai,"5+ years in business Â· Tower Victoria, 45, Gopathi Narayanaswami Chetty Rd, Same building as Absolute Barbecues, next to Hotel Accord",Open â‹… Closes 11â€¯pm Â· 073056 01445,",info@senfitness.in,ninfo@senfitness.in,","13.0650079,80.2056552"
FIT TREE FITNESS CENTRE,Gym,Chennai,"7+ years in business Â· 29, Lakshmi Talkies Rd",Open â‹… Closes 9:30â€¯pm Â· 098844 17776,",xxxx@fittreefitness.com,","13.0747286,80.2248427"
HARD ROCK FITNESS,Gym,Chennai,"7+ years in business Â· landmark Poorvika Mobile, No-# 259, 259, Pycrofts Rd, near Ratna Cafe",Open â‹… Closes 10â€¯pm Â· 073052 40240,"rock@rock-fitness.com,roc.chennai@mca.gov.in,,","13.0589654,80.2720341"
i5 Fitness Studio,Gym,Chennai,"10+ years in business Â· 117, Nelson Tower, First Wing, Basement, Nelson Manickam Rd",Open â‹… Closes 9â€¯pm Â· 097910 70214,",sfitnessstudio@gmail.com,","16.0298443,71.2494077"
GYM IT,Gym,Chennai,"10+ years in business Â· 1st floor, Choolaimedu High Road, no 4, Khan St",Open â‹… Closes 10:30â€¯pm Â· 073585 05505,",support@gymcompany.co.za,info@gravityholisticfitness.in,ceo@maverickfitness.net,aneesh@paulsons.in,vasanthgoldsgym@gmail.com,info@skalefitness.com,","13.0655706,80.2282603"
Burn Out Unisex Fitness Studio - Anna Nagar West,Gym,Chennai,"1420, 13th Main Rd",Open â‹… Closes 10â€¯pm Â· 073394 11222,,"13.089764,80.198013"
Muscle Town Fitness Studio,Gym,Chennai,"5+ years in business Â· 21, Westcott Rd",Open â‹… Closes 10â€¯pm Â· 098849 51045,"muscletownfs2.0@gmail.com,,","15.8346371,71.6929276"
XTREAM FITNESS STUDIO,Gym,Chennai,"7+ years in business Â· 13/4, 1st St",Open â‹… Closes 10â€¯pm,"info@xtremefitness.co.in,,","18.4978259,73.8230843"
Feral Fitness,Gym,Chennai,"3+ years in business Â· Feral fitness, new number 44, 2nd floor above Kotak Mahindra Bank ATM, near five lights junction",Open â‹… Closes 10â€¯pm Â· 096008 83838,,"13.0388354,80.2180477"
Flame Fitness Studio,Gym,Chennai,"10+ years in business Â· No 6, 69, Thirumalai Pillai Rd",Open â‹… Closes 9:30â€¯pm Â· 063699 11594,",u003eflamefitnessstudio@gmail.com,flamefitnessstudio@gmail.com,","13.0516026,80.2379126"
Anytime Fitness,Gym,Chennai,"7+ years in business Â· Plot No 3978, 2nd Floor, 6th Ave",Open â‹… Closes 10â€¯pm Â· 081240 87777,"vasanthgoldsgym@gmail.com,,John.Smith@anytimefitness.com,x3eJohn.Smith@anytimefitness.com,","18.5903815,73.9002204"
Flux Fitness Studio,Gym,Chennai,"7+ years in business Â· NKS Complex, 106 107 Thirumalai Annexure, Rajiv Gandhi Salai",Open â‹… Closes 10:30â€¯pm Â· 044 4211 4242,",fitnessstudioflux@gmail.com,ninfo@fluxfitnessstudio.com,ershad_89@yahoo.com,info@fluxfitnessstudio.com,","19.1871328,72.9604139"
Crunch Fitness Studio - Anna Nagar (Best Gym in Anna Nagar),Gym,Chennai,"5+ years in business Â· Rais Towers, 2054/b, 2nd Ave",Open â‹… Closes 9:30â€¯pm Â· 081482 59637,,"13.0850206,80.1980449"
NFS GYM,Gym,Chennai,"3+ years in business Â· 127, Brick Kiln Rd, near Lumbini Square",Open â‹… Closes 9â€¯pm Â· 098848 52999,",memberexperience@anytimefitness.in,info@kfsfitness.com,aneesh@paulsons.in,vasanthgoldsgym@gmail.com,","18.4574582,73.8220928"
Maruthi fitness centre - Body transformation gym | Personal fitness trainer chennai | unisex fitness studio,Gym,Chennai,"7+ years in business Â· No 6, Rotlers St",Open â‹… Closes 9:30â€¯pm Â· 097100 42732,",roc.chennai@mca.gov.in,","13.0884973,80.256587"
SLAM Lifestyle and Fitness Studio - Chetpet,Gym,Chennai,"5+ years in business Â· No.10, 2nd Floor, Spur Tank road",Open â‹… Closes 11â€¯pm Â· 099620 11411,",aneesh@paulsons.in,","13.0717654,80.2488112"
Rocky Fitness Studio,Gym,Chennai,"5+ years in business Â· 33, 12th Ave",Open â‹… Closes 11â€¯pm Â· 098844 13301,",bharani1501@gmail.com,","13.0305411,80.2074863"
Muscle Town Fitness Studio,Gym,Chennai,"5+ years in business Â· 48, Venkatakrishna Rd",Open â‹… Closes 10â€¯pm Â· 044 4860 1850,"muscletownfs2.0@gmail.com,,","15.8346371,71.7597867"
"Cult Anna Nagar - Gyms in Anna Nagar, Chennai",Gym,Chennai,"3rd and 4th floor, No 292, Z Block, 2nd Avenue Anna Nagar Tower Metro",Open â‹… Closes 10â€¯pm Â· 073059 46839,",x3ehello@cult.fit,hello@cult.fit,","13.0851967,80.2068817"
SLAM Lifestyle and Fitness Studio (Kilpauk),Gym,Chennai,"7+ years in business Â· 6, Harleys Rd",Open 24 hours Â· 044 4211 2288,",aneesh@paulsons.in,","13.0829187,80.2396853"
Goldâ€™s Gym,Gym,Chennai,"10+ years in business Â· No 7, 1st Ave",Open â‹… Closes 10â€¯pm Â· 075500 66903,"vasanthgoldsgym@gmail.com,,WeCare@GoldsGym.in,","18.4760581,73.8698087"
Sai Fitness,Gym,Chennai,"3+ years in business Â· No.211,Ayyasamy Street, Triplicane High Rd",Open â‹… Closes 9:30â€¯pm Â· 099401 88495,",info@csstrucoach.in,","18.4760581,73.8698087"
Gymsquare,Gym,Chennai,"5+ years in business Â· 33, Rutland Tower, Shafee Mohammed Rd",Open â‹… Closes 11â€¯pm Â· 098842 00089,",hello@gymsquare.co,","13.05968,80.2494645"
Body Care Gym & Physical Fitness a/c Unisex,Gym,Chennai,"5+ years in business Â· Old No. 21/2 , 2nd Floor, 1st Main Road, Landmark:, opp. to SBM TVS Show Room",Open â‹… Closes 10â€¯pm,,"16.0746877,71.3174503"
First Set,Gym,Chennai,"7+ years in business Â· First Floor, 1 ( Landmark opposite to Indian petrol bunk, 80 Feet Road",Open â‹… Closes 9â€¯pm Â· 091761 98666,"vasanthgoldsgym@gmail.com,,info@skalefitness.com,solidfitnessvelachery@gmail.com,","18.4760581,73.8698087"
SANA GYM,Gym,Chennai,"10+ years in business Â· 26HJ+X2P, NANDI LOOP LANE",Open â‹… Closes 9â€¯pm Â· 098401 22692,",hello@curefit.com,","15.9384721,71.2419813"
Smash Fitness Studio,Gym,Chennai,"5+ years in business Â· 98/165, Avvai Shanmugam Salai, Lloyds Road, Royapettah, Chennai 600014 Royapettah, Chennai 600014",Open â‹… Closes 11â€¯pm Â· 098410 37786,",aneesh@paulsons.in,","18.6115106,73.7086002"
Flux Fitness Studio,Gym,Chennai,"10+ years in business Â· 55, 1st Ave",Open â‹… Closes 10:30â€¯pm Â· 090031 75000,",fitnessstudioflux@gmail.com,ninfo@fluxfitnessstudio.com,ershad_89@yahoo.com,info@fluxfitnessstudio.com,","19.1871328,72.9604139"
Versatile fitness gym à®µà¯†à®°à¯à®šà¯ˆà®Ÿà¯ˆà®²à¯ à®ƒà®ªà®¿à®Ÿà¯à®©à®¸à¯ à®‰à®Ÿà®±à¯à®ªà®¯à®¿à®±à¯à®šà®¿ à®®à¯ˆà®¯à®®à¯,Gym,Chennai,"3+ years in business Â· 23/38, Westcott Rd",Open â‹… Closes 10â€¯pm Â· 094445 23109,,"18.4760622,73.9007086"
Highlite Fitness Square,Gym,Chennai,"3+ years in business Â· F-11, 2nd Floor, 2nd Main Rd, near Valliammal College",Open â‹… Closes 10â€¯pm Â· 098841 37820,"anand_a82@yahoo.com,,","13.0868231,80.2178809"
Fitness Avenue gym,Gym,Chennai,"5+ years in business Â· EB office o(pp, M-7 & M8, Lattice Brg Rd",Open â‹… Closes 12â€¯am Â· 098849 29982,"vasanthgoldsgym@gmail.com,,sparrc@gmail.com,crunchfitnessstudio@gmail.com,","18.4994278,73.7265899"
Hammer Healthcare and Fitness Centre,Gym,Chennai,"3+ years in business Â· New no 213 old no 186, 3rd floor, Mahavir Complex, Royapettah High Rd, above SBI and, opp. Regenta Central Deccan Chennai",Open â‹… Closes 11â€¯pm Â· 096000 05497,,"13.0467031,80.2635831"
SO ladies Fitness Studio - Santhome,Gym,Chennai,"7+ years in business Â· 104, 113, Santhome High Rd, opp. kfc",Open â‹… Closes 9â€¯pm Â· 097898 37220,,"13.0262724,80.2726867"
Fitness Plus,Gym,Chennai,"10+ years in business Â· 209, Kutchery Rd",Open â‹… Closes 9:30â€¯pm Â· 098401 98999,",memberexperience@anytimefitness.in,hello@cultfit.com,","18.4760622,73.9007086"
Max gym,Gym,Chennai,"5+ years in business Â· 160, Linghi Chetty Street",Open â‹… Closes 10â€¯pm Â· 098419 52446,"info@maxdoutfitness.com,info@maxfitnessindia.com,,","18.4760622,73.9007086"
SLAM Lifestyle And Fitness Studio (Nandanam),Gym,Chennai,"7+ years in business Â· 67, 2nd & 3rd Floor, Pasumpon Muthuramalinga Thevar Rd",Open â‹… Closes 12â€¯am Â· 044 4356 2288,",aneesh@paulsons.in,","13.0294764,80.2452692"
Ashwin Fitness Center,Gym,Chennai,"15+ years in business Â· 65, Dr MGR Salai",Open â‹… Closes 9:30â€¯pm Â· 087092 33893,,"18.4760581,73.8698087"
MACHO GYM,Gym,Chennai,"25+ years in business Â· NO.23, 1ST FLOOR, Choolaimedu High Rd",Open â‹… Closes 9â€¯pm Â· 044 4353 5544,",colorcare33@gmail.com,aneesh@paulsons.in,","20.5283972,64.5824914"
Xtreme fitness centre,Gym,Chennai,"30, 61, CIT 1st Main Rd",Open â‹… Closes 9â€¯pm,,"18.5089832,73.8167382"
MusclePowerGym (With AC facility),Gym,Chennai,"10+ years in business Â· 6, Thayar Sahib St",Open â‹… Closes 10â€¯pm Â· 098405 58873,,"18.4760581,73.8698087"
Pink Fitness - Ladies Gym Ashok Nagar,Gym,Chennai,"10+ years in business Â· 65/30, 7th Ave, next to Hotel Sangamam",Open â‹… Closes 8â€¯pm Â· 089399 97513,,"13.0348213,80.2136982"
STRENGTH AND STAMINA GYM,Gym,Chennai,"7+ years in business Â· 1st Floor, Ghori Street, 13, Masthan Gori St",Open â‹… Closes 9â€¯pm Â· 096000 53348,",Info@bratzlife.in,","12.9956632,80.2005356"
FITT GYM,Gym,Chennai,"3+ years in business Â· 1st Floor, 3752+4RV KTMS Building, No.36/1, 46/20, Model School Rd",Open â‹… Closes 10â€¯pm Â· 093607 58393,"vasanthgoldsgym@gmail.com,,John@fittgym.com,fittgymowner@gmail.com,","18.5700755,73.8767508"
Ronnie's Walk In Gym,Gym,Chennai,"3+ years in business Â· Anbazhagan nagar 4th street, Pallavan Salai",Open â‹… Closes 10â€¯pm,,"13.1212052,80.2330904"
SLAM Lifestyle and Fitness Studio Best Gym in Adyar Chennai,Gym,Chennai,"5+ years in business Â· No 17, B Block, Indira Nagar 4th Main Rd",Open â‹… Closes 10â€¯pm Â· 075500 43555,",aneesh@paulsons.in,","12.9928359,80.2524594"
Sen Fitness,Gym,Chennai,"3rd Floor, Jansons Towers, 2nd Ave",Open â‹… Closes 10â€¯pm Â· 073056 01445,",info@senfitness.in,ninfo@senfitness.in,","13.0650079,80.2056552"
365 Days Fitness Studio,Gym,Chennai,1st Main Rd,Open â‹… Closes 9â€¯pm Â· 096000 43650,",Gym-821-GYM-@-365-DAYS-flag.html,shawnkiran@gmail.com,365daysfitnessstudio@gmail.com,","13.071814,80.2058156"
Fitness Paradise,Gym,Chennai,"25+ years in business Â· No.51, Ramakrishna Mutt Rd, near Ramakrishna Mutt",Open â‹… Closes 10â€¯pm Â· 098842 55666,",fitnessparadisegym@gmail.com,","18.4760622,73.9007086"
Focus Fitness Studio,Gym,Chennai,"7+ years in business Â· 31 A Dr Seethapathy Nagar, Taramani Link Rd",Open â‹… Closes 9â€¯pm Â· 091764 43433,"ssfocusfitnessstudio@gmail.com,cmfocusfitness@gmail.com,,","12.9812871,80.2270469"
Fitness Factory,Gym,Chennai,"893, Munusamy Salai",Open â‹… Closes 10â€¯pm Â· 099819 98183,",newfitnessfactory22@gmail.com,","18.4760447,73.8286071"
BLACK BULL FITNESS STUDIO,Gym,Chennai,"NO, 8, 1, Govindan Rd, near IOC petrol bunk",Open â‹… Closes 9:30â€¯pm Â· 081220 24774,,"13.0321503,80.2165311"
Pink Fitness - Ladies Gym T.Nagar,Gym,Chennai,"10+ years in business Â· Building No. 29, Dr. Nair Road, Opp. Grand Sweets,, Venkataraman Street, T.Nagar",Open â‹… Closes 8â€¯pm Â· 095000 50669,,"13.0426742,80.2383757"
FITNESS ONE T.NAGAR,Gym,Chennai,"7+ years in business Â· Old No. 143, New No 58A, 1st Floor, Habibullah Rd, opp. SGS Saba",Open â‹… Closes 10â€¯pm Â· 096000 09010,",info@fitnessone.in,","13.0497203,80.239735"
"Cult Nungambakkam - Gyms in Nungambakkam, Chennai",Gym,Chennai,"2nd Floor, 15, Khader Nawaz Khan Rd",Open â‹… Closes 10â€¯pm Â· 073059 45039,",x3ehello@cult.fit,hello@cult.fit,","13.0606797,80.2476625"
Monk Lifestyle & Fitness Studio,Gym,Chennai,"172, 3rd floor Mount Poonamallee High Road Mugalivakkam",Open â‹… Closes 10:30â€¯pm Â· 074188 81887,,"13.02887,80.1676574"
JB Fitness unisex,Gym,Chennai,"3+ years in business Â· #281,Triplicane High Road, Ellis Rd",Open â‹… Closes 11â€¯pm Â· 086673 02162,",jbfitness@comcast.netOpens,","17.046179,71.4017648"
"Cult T Nagar - Gyms in Parthasarathi Puram, Chennai",Gym,Chennai,"3+ years in business Â· 4th Floor, Prashanth Gold Tower, 40, N Usman Rd",Open â‹… Closes 10â€¯pm Â· 1800 572 6303,",ninfo@cure.fit,hello@cult.fit,info@cure.fit,x3ehello@cult.fit,","13.0469609,80.2306293"
Slam Lifestyle and Fitness Studio - Perambur,Gym,Chennai,"5+ years in business Â· 131, Paper Mills Road",Open â‹… Closes 10â€¯pm Â· 044 4859 9851,"slamfitness.velachery@gmail.com,,slam.perambur@gmail.com,aneesh@paulsons.in,","13.1168834,80.2269989"
Body Focus Gym,Gym,Chennai,"3+ years in business Â· 63, Old, 125, Mint St, near Ramar koil",Open â‹… Closes 10:30â€¯pm,,"18.5960639,73.8148743"
Iron Stars Gym,Gym,Chennai,"5+ years in business Â· No. 200, Rangarajapuram Main Rd",Open â‹… Closes 9:30â€¯pm Â· 091769 61222,",md@ironstarsgym.in,","13.0511402,80.2191387"
OLIVE HEALTH & FITNESS,Gym,Chennai,"7+ years in business Â· No. 16, 1st Floor, E VK Sampath Rd, above Axis Bank Branch",Open â‹… Closes 10â€¯pm Â· 094455 44155,,"15.7610608,71.7618128"
Gold's Gym,Gym,Chennai,"3+ years in business Â· 1st Floor, Orient Bank Commerce Building, Gandhi Mandapam Rd",Open â‹… Closes 10:30â€¯pm Â· 091763 20551,"WeCare@GoldsGym.in,,vasanthgoldsgym@gmail.com,","18.4760581,73.8698087"
Fitness Zone,Gym,Chennai,"10+ years in business Â· 517, 3rd St",Open â‹… Closes 9â€¯pm Â· 099623 62876,",kumar.santha12@gmail.com,info@gravityholisticfitness.in,aneesh@paulsons.in,info@leadfitness.in,vasanthgoldsgym@gmail.com,","18.4760581,73.8698087"
Solid Fitness Purasaiwakkam,Gym,Chennai,"NO: 128, Norton SB Tower, Brick Kiln Rd",Open â‹… Closes 11â€¯pm Â· 098405 62133,",kalaissolid@gmail.com,info@solidfitnessstudio.com,solidfitnesspurasawalkam@gmail.com,ninfo@solidfitnessstudio.com,sofitnessstudio777@gmail.com,","13.0887655,80.24803"
SBD FITNESS(UNISEX GYM),Gym,Chennai,"52, 225, Choolaimedu High Rd",Open â‹… Closes 10â€¯pm Â· 090030 10604,"vasanthgoldsgym@gmail.com,,aneesh@paulsons.in,","13.0623085,80.2276109"
Roque lifestyle and fitness studio,Gym,Chennai,"3rd floor, Rashmi Towers, No - 1, Valluvar Kottam High Rd",Open â‹… Closes 11â€¯pm Â· 091760 06719,,"13.0674253,80.2405377"
Naveen Gym,Gym,Chennai,"7+ years in business Â· 7, Chakravarthy Nagar Rd",Open â‹… Closes 10â€¯pm Â· 073581 87366,",sambath9475@gmail.com,","16.2252272,72.1979965"
Fusion Fitness,Gym,Chennai,"7+ years in business Â· 222, Eldams Rd",Open â‹… Closes 9:30â€¯pm Â· 095000 00994,",u003ehello@fusionfitness.com,gosport@fusionfitness-gym.co.uk,hello@fusionfitness.com,x22info@fusion-lifestyle.com,x3einfo@fusion-lifestyle.com,info@fusion-lifestyle.com,","18.4759913,73.7461982"
FITFLIX GYM ANNANAGAR - Best Premium Gym in Chennai,Gym,Chennai,"Fitflix gyms,Ground floor, Karuna conclave, 4th Ave",Open â‹… Closes 11â€¯pm Â· 063820 80309,,"13.082755,80.2059937"
W Fitness - women fitness and weight loss,Gym,Chennai,"5+ years in business Â· 17/14, 2nd Street, Gill Nagar, Choolaimedu",Open â‹… Closes 8:30â€¯pm Â· 073389 95222,,"13.0645968,80.2224602"
Spartanz fitness center,Gym,Chennai,"7+ years in business Â· 8, Rajiv Gandhi Salai",Open â‹… Closes 10â€¯pm Â· 078714 33777,",ninfo@spartanzfitness.com,info@spartanzfitness.com,","12.9167559,80.2268967"
RIO Fitness,Gym,Chennai,"5+ years in business Â· 2nd floor, Old no.110, New, 78, Iyya Mudhali St",Open â‹… Closes 10â€¯pm Â· 098401 51814,,"18.4759913,73.7461982"
Dr. Kennedy's Greek God Fitness center,Gym,Chennai,"5+ years in business Â· 144, Medavakkam Main Rd",Open â‹… Closes 10â€¯pm Â· 074185 55173,,"12.9902192,80.1958488"
Storm Fitness Gym,Gym,Chennai,5+ years in business Â· 1155,Open â‹… Closes 9:30â€¯pm,",fitness.programs@ubc.ca,info@stormfitness.com,","18.8332464,72.6809321"
The One H Fitness Studio,Gym,Chennai,"No 226/7, Om Sakthi Plaza, Kilpauk Garden Road",Open â‹… Closes 11â€¯pm Â· 075500 94560,",enquiry@o2healthstudio.com,","15.7174249,71.7272018"
INDIAN POWER GYM A/C Unisex fitness center | Near Arumbakkam Metro| Near Choolaimedu | Near Vadapalani | For Men and Women,Gym,Chennai,"7+ years in business Â· 11/6, 3rd St",Open â‹… Closes 9:30â€¯pm Â· 098843 60431,,"13.0600098,80.2107038"
Madras Barbell,Gym,Chennai,"5+ years in business Â· 15/6a, 3rd St",Open â‹… Closes 9â€¯pm Â· 098402 79389,",gm@madrasclub.org,office@madrasclub.org,guestrooms@madrasclub.org,","12.9245771,80.1054608"
Unique Gym,Gym,Chennai,5+ years in business Â· 47/2,Open â‹… Closes 9â€¯pm Â· 072999 06111,",hello@cultfit.com,","18.4719098,73.8734492"
Body Stylle Fitness Centre,Gym,Chennai,"7+ years in business Â· 1st Floor, New, no 212, Kilpauk Garden Road",Open â‹… Closes 9â€¯pm Â· 098843 37783,",aneesh@paulsons.in,","13.0946602,80.2005417"
Total fitness studio,Gym,Chennai,"10+ years in business Â· No. 35-B, Vijaya Saras Building 3rd Floor, Rajendra Prasad Road, Gayathri Nagar, above Axis Bank",Open â‹… Closes 9â€¯pm Â· 099419 42942,",sfitnessstudio@gmail.com,totalfitnessstudio123@gmail.com,","18.4760447,73.8286071"
Revive Gym Kilpauk,Gym,Chennai,New Avadi Rd,Open â‹… Closes 9:30â€¯pm Â· 098414 32613,",info@revivewellness.co.in,","13.0793944,80.2330528"
Worlds Gym,Gym,Chennai,"7+ years in business Â· Shop No.11/24, Madras Thiruvallur High Road, Mogappair East",Open â‹… Closes 10â€¯pm Â· 093851 11222,"vasanthgoldsgym@gmail.com,,manager@townsville.worldgym.com.au,","18.4760622,73.9007086"
RC GYM,Gym,Chennai,"3+ years in business Â· No 73, Thiruvengadapuram Main Rd",Open â‹… Closes 10â€¯pm,",roc.chennai@mca.gov.in,sparrc@gmail.com,rkfitnessdwarka@gmail.com,","18.4760581,73.8698087"
M Fitness Studio,Gym,Chennai,"No.83, 1, Ashtabujam Rd",Open â‹… Closes 10â€¯pm Â· 097100 50443,",mfitstudio@gmail.com,info@skalefitness.com,aneesh@paulsons.in,","18.4760622,73.9007086"
Power Gym,Gym,Chennai,"10+ years in business Â· 3rd Floor, E-34, 2nd &",Open â‹… Closes 8â€¯pm Â· 044 4215 4747,",karuna.karna@gmail.com,","18.4760581,73.8698087"
BodyLanguage Fitness Studio.,Gym,Chennai,"10+ years in business Â· No.5, Railway Colony 1st St, Aminjikarai, Nelson Manickam Road, Opp To Bata Showroom",Open â‹… Closes 9:30â€¯pm Â· 044 2374 5557,,"16.0727331,71.3645981"
Sai Fitness Studio,Gym,Chennai,"2, 140, Konnur High Rd",Open â‹… Closes 10â€¯pm Â· 099404 12124,",aneesh@paulsons.in,","18.4760581,73.8698087"
Avengers Fitness Studio,Gym,Chennai,"7+ years in business Â· No. 327, First Floor, Avvai Shanmugam Salai",Open â‹… Closes 10â€¯pm Â· 095518 77687,,"18.5009823,73.919072"
Play - Best Fitness Center for Women in Anna Nagar,Gym,Chennai,"No. 88, V Block, 2nd Floor, 5th Ave",Open â‹… Closes 9â€¯pm Â· 091691 57157,,"13.0898464,80.2079356"
MAK Gym,Gym,Chennai,"5+ years in business Â· no.109, 192, Dr Besant Rd",Open â‹… Closes 10â€¯pm Â· 098407 36831,",enquiry@o2healthstudio.com,","18.4760628,73.9007086"
Revoke Gym,Gym,Chennai,"5+ years in business Â· 2nd & 3rd Floor, No.251, Sriman Srinivasa Road, TT Krishnamachari Rd",Open â‹… Closes 9:30â€¯pm Â· 073388 16222,",adarsh.ampili@gmail.com,hrrevoke@gmail.com,","13.0408043,80.2554448"
Fitness Spott Gym Centre,Gym,Chennai,"7+ years in business Â· 1/5, W Kal Mandapam Rd",Open â‹… Closes 10â€¯pm Â· 072991 23866,",fitnessspott@gmail.com,Info@bratzlife.in,","18.4760622,73.9007086"
Beyond Fitness,Gym,Chennai,"1st Floor, Hafiz Court, 19, Dr MGR Salai",Open â‹… Closes 1â€¯am Â· 091149 11432,",info@beyondfitbda.com,John.Smith@bfitness.co.uk,","18.4760447,73.8286071"
"Cult Velachery - Gyms in Velachery, Chennai",Gym,Chennai,"3+ years in business Â· Cult Velachery, 3rd Floor, ASV Crown Plaza, No.391, Velachery - Tambaram Main Rd",Open â‹… Closes 10â€¯pm Â· 099622 07445,",hello@cultfit.com,hello@cult.fit,x3ehello@cult.fit,","12.9717838,80.217144"
V SHAPERS PRIME GYM,Gym,Chennai,"7+ years in business Â· 33/21, Krishnan colony, Nerkundram Pathai, behind HDFC Bank",Open â‹… Closes 10â€¯pm Â· 098840 81588,,"13.05421,80.2083375"
Fuel Gym,Gym,Chennai,"238, Purasawalkam High Rd",Open â‹… Closes 9â€¯pm Â· 084284 28866,",info@thefuelgym.com,fuel.fitness.nutrition@gmail.com,","18.4759913,73.7461982"
Muscle Garage,Gym,Chennai,"5+ years in business Â· No 189, Asma Building, TT Krishnamachari Rd",Open â‹… Closes 10â€¯pm Â· 096004 11122,",info@musclegarage.co.in,musclegarage2017@gmail.com,","17.894181,71.1427556"
New Health Forum Fitness,Gym,Chennai,"Old no .505 ,New.294 periyar evr Salai, Poonamallee High Rd",Open â‹… Closes 10â€¯pm Â· 098416 12448,,"13.0737825,80.2231808"
Royal Fitness Centre,Gym,Chennai,"3+ years in business Â· 20, 21, Subramaniam St",Open â‹… Closes 10â€¯pm Â· 099626 61333,",royalfitnessstudio.rfsg@gmail.com,royalfitnesscbe@gmail.com,","18.4760447,73.8286071"
"Pink Fitness - Ladies Gym Nelson Manickam Road, Choolaimedu",Gym,Chennai,"5+ years in business Â· 2(30), Railway Colony 2nd Street ,Nelson Manickam Road Opp to Chennai Fertility Centre Choolaimedu",Open â‹… Closes 8â€¯pm Â· 097909 75140,",info@pinkfitness.in,","13.0685249,80.2231039"
Boss Gym,Gym,Chennai,"10+ years in business Â· #40, Taylor's, Road Leading to Chinmaya School, Kilpauk",Open â‹… Closes 9â€¯pm,",info@boss-fitness.com,u003einfo@boss-fitness.com,","13.078428,80.2346047"
Tuskers gym & fitness center,Gym,Chennai,"5+ years in business Â· 166, Patel Rd",Open â‹… Closes 9:30â€¯pm,,"13.1098831,80.2421816"
Purple Fitness Studio,Gym,Chennai,"3+ years in business Â· 31 Q block, 6th Ave, opp. to K4 police Station",Open â‹… Closes 8â€¯pm Â· 099626 89000,,"13.0862134,80.208878"
AUGUSTINS GYM,Gym,Chennai,"7+ years in business Â· No 73, Thiruvengadapuram Main Rd",Open â‹… Closes 10â€¯pm Â· 099405 75355,",info@augustinggym.com,ninfo@augustinggym.com,","13.0660979,80.2282312"
Arrow Fitness Center,Gym,Chennai,"10+ years in business Â· 73/86, Lake View Rd",Open â‹… Closes 9â€¯pm Â· 098416 09122,"vasanthgoldsgym@gmail.com,,","13.0380832,80.2222001"
RETRO COMBAT AND FITNESS PRO,Gym,Chennai,"New No. 129, Old, No. 55, Medavakkam Tank Rd, near Vijaya Physiotherapy",Open â‹… Closes 10â€¯pm Â· 063819 06124,,"13.0892934,80.2388946"
Mr Mike Health and Fitness Centre,Gym,Chennai,"7+ years in business Â· No. 7, Avadhanam Papier Road",Open â‹… Closes 9â€¯pm Â· 097106 27348,,"13.0901114,80.2617999"
Universal Fitness Studio,Gym,Chennai,10+ years in business Â· Mint St,Open â‹… Closes 11â€¯pm,,"13.0986607,80.2779438"
Aashiq fitness centre,Gym,Chennai,"3+ years in business Â· no.12, Shanmugarayan street, Brick Kiln Rd",Open â‹… Closes 10â€¯pm Â· 099414 77756,,"13.0852747,80.2490995"
EZHIL FITNESS GYM,Gym,Chennai,"tamil mahal, Erukkenchery High Rd",Open â‹… Closes 10â€¯pm Â· 098413 09393,"vasanthgoldsgym@gmail.com,roc.chennai@mca.gov.in,,","13.1227693,80.2465142"
Roar Fitness,Gym,Chennai,"344, Konnur High Rd",Open â‹… Closes 10â€¯pm Â· 098400 18019,",clients@roar-fitness.com,u003eclients@roar-fitness.com,athershafi1@gmail.com,","13.0982186,80.2348947"
S Ravi's Fitness (Gym in Chintadripet/ Fitness Centre in Chintadripet/ Zumba Dance Classes),Gym,Chennai,"5+ years in business Â· No: 7/3A, Near, Dharmaraja Koil St",Open â‹… Closes 9â€¯pm Â· 098401 51814,,"13.0751348,80.2639367"
FIGHT 2 FIT FITNESS CENTRE PALLIKARANAI / GYM,Gym,Chennai,"5+ years in business Â· next building to reliance trends, 46A, Jalladampettai Main Rd",Open â‹… Closes 9:30â€¯pm Â· 078711 57555,,"12.9281362,80.2000709"
Solid Health & Fitness,Gym,Chennai,"7+ years in business Â· Yamuna Tower, 125/1,Yamuna Tower,Porur, Mount Poonamallee Rd",Open â‹… Closes 10â€¯pm Â· 080 4806 0860,,"13.0283823,80.1673847"
Sri Fitness Zone Gym,Gym,Chennai,"5+ years in business Â· jockey exclusive store, No .14/21, kabaleeshwarar Temple 2nd floor, E Mada St",Open â‹… Closes 9:30â€¯pm Â· 099404 84442,,"13.0328339,80.268582"
Iron Tribe Fitness,Gym,Chennai,"3+ years in business Â· C4/1 4TH FLOOR DR.KAMALA MANOR NO528, TT Krishnamachari Rd",Open â‹… Closes 9â€¯pm,"u003eirontribegym@gmail.com,,irontribegym@gmail.com,jamesgraesser@hotmail.co.uk,","13.0328355,80.2501215"
MAP - UNISEX FITNESS STUDIO,Gym,Chennai,"3+ years in business Â· 15, 37, Kamaraj Nagar 4th St",Open â‹… Closes 10â€¯pm,"vasanthgoldsgym@gmail.com,,samjoshuaofficial@gmail.com,","13.0643135,80.2180689"
Olympia Fitness Centre,Gym,Chennai,"7+ years in business Â· #74/2, Demellows Rd",Open 24 hours Â· 098411 90825,,"13.0948373,80.1969656"
Tribe7 fitness studio,Gym,Chennai,"3rd Floor, Dharmapuram Aadhinam, 158, N Usman Rd",Open â‹… Closes 10â€¯pm Â· 097916 47472,",ceo@maverickfitness.net,tribe7fitness@gmail.com,info@gravityholisticfitness.in,","13.0461337,80.2300523"
C3 Fitness Science (Vepery),Gym,Chennai,"5+ years in business Â· 11, Ritherdon Rd",Open â‹… Closes 9:45â€¯pm Â· 098843 96333,",info@c3fitness.co.in,","13.0835974,80.2562002"
Lead Fitness,Gym,Chennai,"138, Thamirabarani Street",Open â‹… Closes 10â€¯pm Â· 097899 49472,",Info@bratzlife.in,info@leadfitness.in,leadfitness2022@gmail.com,info@skalefitness.com,","13.04438,80.1805896"
Anantha Gym & Health Centre,Gym,Chennai,"10+ years in business Â· 37WJ+G6W, Nattupilliar Koil St",Open â‹… Closes 9â€¯pm Â· 098405 67076,,"13.0961253,80.2781565"
Burn & Blast Unisex Fitness Studio,Gym,Chennai,"NO.16, 1st Floor, E VK Sampath Rd",Open â‹… Closes 10â€¯pm Â· 072003 90099,,"13.0840409,80.2600212"
Solid Fitness,Gym,Chennai,"3+ years in business Â· 29/3, Second Floor, 1st Main road, Taramani Link Rd",Open â‹… Closes 11â€¯pm Â· 098405 62133,",solidfitnessvelachery@gmail.com,kalaissolid@gmail.com,ninfo@solidfitnessstudio.com,sofitnessstudio777@gmail.com,info@solidfitnessstudio.com,","12.9772509,80.2203197"
GIRI GYM,Gym,Chennai,"20+ years in business Â· 56FV+6CC, Kamaraj Nagar, Mathur, Tamil Nadu 600051",Open â‹… Closes 9â€¯pm Â· 093423 93935,",giriarasu@yahoo.co.in,","13.1300919,80.2106725"
SO WOMENS FITNESS STUDIO,Gym,Chennai,"3+ years in business Â· 22 LAKE VIEW MAIN ROAD AYYAPAN NAGAR MADIPAKKAM Ladmark above woodies electronics, 22, Lake View Rd, opp. to Vijayalakshmi party hall",Open â‹… Closes 9â€¯pm Â· 095660 37619,"lurafitness@gmail.com,,contact@shreenidhiphysio.com,","13.0036459,80.145813"
Muscle Warriors Gym,Gym,Chennai,"3+ years in business Â· Muscle Warriors Gym, Ethiraj Swami Salai",Open â‹… Closes 11â€¯pm Â· 096772 26826,",dmusclekingdom@gmail.com,","13.1255633,80.246196"
Fitness Studio,Gym,Chennai,3+ years in business Â· 47,Open â‹… Closes 10â€¯pm,",Info@bratzlife.in,info@gravityholisticfitness.in,crunchfitnessstudio@gmail.com,ceo@maverickfitness.net,info@citchennai.net,aneesh@paulsons.in,enquiry@o2healthstudio.com,burnoutcorporate@gmail.com,","13.0269819,80.1366412"
Fitness 7 Gym,Gym,Chennai,5+ years in business Â· Sundarar St,Open â‹… Closes 10â€¯pm Â· 070108 98314,"vasanthgoldsgym@gmail.com,,x3ecustomerservice@txfamilyfitness.com,customerservice@txfamilyfitness.com,","13.0854111,80.1910171"
Pink Fitness - Ladies Gym RK Salai Mylapore,Gym,Chennai,"Third floor, Lakshmi Towers, No.27, 7, Dr Radha Krishnan Salai",Open â‹… Closes 8â€¯pm Â· 097384 93493,",info@pinkfitness.in,","13.0444034,80.2655454"
Throwback Fitness Studio,Gym,Chennai,"5+ years in business Â· #177/90,First Floor, Strahans Road,pattalam, Chennai-600012 Ottery",Open â‹… Closes 10â€¯pm Â· 090439 22715,",Info@bratzlife.in,aneesh@paulsons.in,","13.0976399,80.2505431"
Toneez Fitness Centre,Gym,Chennai,7+ years in business Â· 42nd Street,Open â‹… Closes 10â€¯pm Â· 089396 33322,"toneezfitnesscenter@gmail.com,,manixtreme9898@gmail.com,admin@toneezfitness.com,","13.0142273,80.1223048"
TORQUE ELITE FITNESS STUDIO,Gym,Chennai,"203, Triplicane High Rd",Open â‹… Closes 10â€¯pm Â· 099404 27551,,"13.0591669,80.272068"
Staar Gym,Gym,Chennai,"7+ years in business Â· 63, Swamy Naicken St",Open â‹… Closes 10â€¯pm Â· 098412 72720,",staar-gym-chennai-4r7@b8frb.html,varunstaar@gmail.com,","13.0964023,80.23628"
Pink Fitness - Ladies Gym Nungambakkam,Gym,Chennai,"No.20, GKS Annexe- III Floor, Pycrofts Garden Rd",Open â‹… Closes 8â€¯pm Â· 090033 76762,",info@pinkfitness.in,","13.0642701,80.2466962"
Ignite 101 Fitness Studio,Gym,Chennai,"5+ years in business Â· 73/1 Sterling Road ,1st and 2nd floor, opposite LOYOLA COLLEGE",Open â‹… Closes 10â€¯pm Â· 099621 26336,",roc.chennai@mca.gov.in,info@ignite101.in,","18.4760628,73.9007086"
Play - Exclusive Fitness Center for Women in Periyar Nagar,Gym,Chennai,"3+ years in business Â· Plot No.55, Second Floor, 70 Feet Rd",Open â‹… Closes 9â€¯pm Â· 081221 47689,,"13.1146102,80.2248629"
Play - Exclusive Fitness Center for Women in Periyar Nagar,Gym,Chennai,"3+ years in business Â· Plot No.55, Second Floor, 70 Feet Rd",Open â‹… Closes 9â€¯pm Â· 081221 47689,,"13.1146102,80.2248629"
Weights Club,Gym,Chennai,"3+ years in business Â· Old No:51.New No:4, 3rd Floor, Dr Radha Krishnan Salai",Open â‹… Closes 10â€¯pm,",cosmonetcentre@gmail.com,","13.0434381,80.2732877"
GYM IT - Saidapet,Gym,Chennai,"3+ years in business Â· No.26 B, First Floor, E Jones Rd",Open â‹… Closes 10â€¯pm Â· 089393 05505,",sculptfitnes@gmail.com,","13.0252685,80.2227909"
Muscle Town Fitness Studio,Gym,Chennai,"108/221, 2nd Floor, Thambu Chetty St",Open â‹… Closes 10â€¯pm,"muscletownfs2.0@gmail.com,,","13.0604736,80.256077"
Abinaya Gym,Gym,Chennai,"7+ years in business Â· No.84/A, Second Floor, Arcot Rd, near Ram Theatre",Open â‹… Closes 9â€¯pm Â· 098840 96699,"abinayagym@gmail.com,,u003eabinayagym@gmail.com,ninfo@abinayagym.com,abinayagymandhealthcentre@gmail.com,info@abinayagym.com,","13.0690452,80.1501758"
O2 Health Studio,Gym,Chennai,"10+ years in business Â· 18, Khader Nawaz Khan Rd",Open â‹… Closes 9:30â€¯pm Â· 090947 91920,",enquiry@o2healthstudio.com,u003eenquiry@o2healthstudio.com,","13.0051266,80.2130449"
Versatile Fitness,Gym,Chennai,"10+ years in business Â· 163, post office, 164, MS Koil St, opposite to royapuram",Open â‹… Closes 10â€¯pm Â· 044 4263 2424,",versatilefitness@gmail.com,","13.0832316,80.2575632"
Accelerate Fitness,Gym,Chennai,"No.136/550, Hallmark Towers, 3rd floor, South Street, TT Krishnamachari Rd",Â· 073054 39996,",memberexperience@anytimefitness.in,support@acceleratefit.in,","13.0308357,80.2484537"
Olive Pink Women's Fitness,Gym,Chennai,"5+ years in business Â· 270, Purasawalkam High Rd, above Raajsan Watch Company",Open â‹… Closes 9â€¯pm Â· 099520 73434,,"13.0864988,80.2538352"
HI-FI FITNESS,Gym,Chennai,"2nd floor, 108/221, Thambu Chetty St, opp. kaligambal temple",Open â‹… Closes 11â€¯pm Â· 080561 71722,",hififitpadi@gmail.com,565055353@gmail.com,","13.1130733,80.1525605"
Zero to one fitness,Gym,Chennai,"3+ years in business Â· 9/17, MC Nicholas Rd",Open â‹… Closes 9â€¯pm Â· 097871 28787,",info@fitnessone.in,paramagurufitness@gmail.com,burnoutcorporate@gmail.com,","13.0703007,80.2379178"
Absense Fitness,Gym,Chennai,"Land Mark, No:57/34, Perambur High Road, School, opp. Jamalia",Open â‹… Closes 10â€¯pm Â· 073390 63390,",info@skalefitness.com,Info@bratzlife.in,","13.1065753,80.2457161"
Evolve 360 Fitness Studio,Gym,Chennai,"180, 210, Bharathi Salai",Open â‹… Closes 10â€¯pm Â· 090031 92296,",x3ecolindale@evolve-gym.co.uk,colindale@evolve-gym.co.uk,ruislip@evolve-gym.co.uk,","13.0587422,80.2667054"
Strength System,Gym,Chennai,"7+ years in business Â· First Floor, Strength System, MMPDA Towers, Royapettah High Rd",Open â‹… Closes 8â€¯pm Â· 098847 17558,",contact@strengthsystem.in,","13.046832,80.2635313"
SLAM Lifestyle and Fitness Studio (Nungambakkam),Gym,Chennai,"3+ years in business Â· NO.15/6 FIRST FLOOR, Jaganathan Rd",Open â‹… Closes 10â€¯pm Â· 093846 64041,",aneesh@paulsons.in,","13.0612911,80.2422895"
"SLAM Lifestyle & Fitness Studio, Velachery",Gym,Chennai,"5+ years in business Â· 1st Floor, 52/1, Dandeeshwaram Main Rd",Open â‹… Closes 10â€¯pm Â· 07397 404 411,,"12.9824918,80.2191167"
Fitness First Studio Ladies Gym,Gym,Chennai,"7+ years in business Â· Door No: 110/202, 1st Floor, Gollavar Agraharam Rd, above State Bank",Open â‹… Closes 8:30â€¯pm Â· 095008 45121,,"13.1167358,80.2867188"
Universal fitness Studio Gym Manady,Gym,Chennai,"7+ years in business Â· 47, P V Iyer St",Open â‹… Closes 9:30â€¯pm Â· 098844 67689,",roc.chennai@mca.gov.in,","13.0963325,80.2829162"
Power Zone Gym,Gym,Chennai,7+ years in business Â· Subburayan Main St,Open â‹… Closes 10:30â€¯pm Â· 099402 34474,",sani.sanidhya@gmail.com,","13.055915,80.1709197"
A2Z Gym,Gym,Chennai,"5+ years in business Â· B-1, Medavakkam Tank Rd",Open â‹… Closes 9:30â€¯pm Â· 073585 64782,",director.sports@srmist.edu.in,x22@aamer.bin.ishaq,vasanthgoldsgym@gmail.com,x3e@aamer.bin.ishaq,roc.chennai@mca.gov.in,","13.088079,80.2404801"
Skale Fitness Anna Nagar,Gym,Chennai,"H-4 parepalli Tower ,2nd Floor, 3rd Ave",Open â‹… Closes 10â€¯pm Â· 095000 06226,",annanagar@skalefitness.com,ambattur@skalefitness.com,","13.0892509,80.2157623"
Fit For Fight Fitness Studio,Gym,Chennai,"5+ years in business Â· Old no 15/14, new, no 25, Royapettah High Rd, near Pilot Theatre",Open â‹… Closes 9â€¯pm Â· 098402 49848,"fight2fit15@gmail.com,,","13.0512698,80.2615435"
C3 Fitness Science (Kilpauk),Gym,Chennai,"5+ years in business Â· 17 Lakshmi Street, New Avadi Rd",Open â‹… Closes 9:45â€¯pm Â· 091768 99333,",info@c3fitness.co.in,","13.0785658,80.2314038"
Warriors Gym,Gym,Chennai,"7+ years in business Â· 109C, Velachery Bypass Rd",Open â‹… Closes 9â€¯pm Â· 099411 42172,"ID.rajrathi0711@gmail.com,,","12.9739962,80.2117143"
Burn Out Unisex Fitness Studio - Alwarthirunagar,Gym,Chennai,"285, Arcot Rd",Open â‹… Closes 10â€¯pm Â· 076390 20202,",burnoutambattur@gmail.com,","13.0454483,80.1843766"
Giri fitness unisex,Gym,Chennai,"64, Jermiah Rd",Open â‹… Closes 10â€¯pm,",giriarasu@yahoo.co.in,","13.0871279,80.257607"
Ateliers - Best Gym in Ramapuram,Gym,Chennai,"1, Gangaiyamman Kovil St, opp. Ayya super market, near Abirami driving school",Open â‹… Closes 10â€¯pm Â· 095512 99855,"ateliersfitnes@gmail.com,ateliersgym2023@gmail.com,,","13.0328106,80.1739606"
Chennai Fitness Centre & Gym,Gym,Chennai,"7+ years in business Â· No 44, Maddox St",097105 78417,,"13.077373,80.1600241"
Our Fitness Gym,Gym,Chennai,7+ years in business Â· 3644+HVJ,Open â‹… Closes 10â€¯pm,",support@gymcompany.co.za,info@gravityholisticfitness.in,aneesh@paulsons.in,vasanthgoldsgym@gmail.com,","13.0584545,80.1737259"
Sthree Fitness Studio (ladies gym),Gym,Chennai,5+ years in business Â· No:58,Open â‹… Closes 8:30â€¯pm Â· 044 4861 0478,,"12.9720599,80.1372493"
Revive,Gym,Chennai,"3+ years in business Â· No: 19/35, Ramanujam Street, near Jain School",Open â‹… Closes 8:30â€¯pm Â· 097908 10444,",info@revivewellness.co.in,revivetofit@gmail.com,","13.0361538,80.0222765"
PUSH2MAX 3D FITNESS,Gym,Chennai,"7+ years in business Â· 42, 178, MS Koil St",Open â‹… Closes 10â€¯pm Â· 099401 38919,",fitnessspott@gmail.com,mb@thed85bff406219r.com,mb@the73b011f76906r.com,","13.1132802,80.2896503"
Ateliers - Best Gym in Velachery,Gym,Chennai,"7+ years in business Â· 37, Velachery Main Rd",Open â‹… Closes 10â€¯pm Â· 095512 99844,"ateliersfitnes@gmail.com,,","12.9729874,80.217712"
Pink Fitness - Ladies Gym Royapuram,Gym,Chennai,"5+ years in business Â· 184, MS Koil St",Open â‹… Closes 8â€¯pm Â· 074490 24902,",n@pink.royapuram,n@pink.fitnessone,","13.1135926,80.2896628"
Abinaya Gym & Health Centre,Gym,Chennai,"10+ years in business Â· 72, Medavakkam Tank Rd",Open â‹… Closes 9â€¯pm Â· 098840 96699,,"13.0690452,80.1501758"
lee fitness centre/gym,Gym,Chennai,"5+ years in business Â· 473, Erukkenchery High Rd",Open â‹… Closes 9â€¯pm Â· 098842 24299,",aneesh@paulsons.in,","13.1219383,80.2493924"
POWERPAC GYM AND FITNESS CENTRE,Gym,Chennai,"7+ years in business Â· no7/2 no., 27, Kalingarayan Street",Open â‹… Closes 10â€¯pm Â· 098845 73703,"powerpacgym@yahoo.in,,edwin@powerpacindia.com,aneesh@paulsons.in,","13.110323,80.2823941"
Dimensions Health Club,Gym,Chennai,"15+ years in business Â· 2/12, CP Ramaswamy Iyer Rd",Open â‹… Closes 9:30â€¯pm Â· 073587 16662,",ashok.damodaran@gmail.com,","13.0302276,80.2537775"
Chennai Fitness Centre & Gym,Gym,Chennai,"10+ years in business Â· 341, Thiruvottiyur High Rd",Open â‹… Closes 10â€¯pm Â· 099621 97269,,"13.077373,80.1600241"
Slam Lifestyle and Fitness Studio - Mint Street,Gym,Chennai,"3+ years in business Â· Old No21, New No39 Mint Street, 2nd Floor",Open â‹… Closes 11â€¯pm Â· 075500 02202,",fitnessspott@gmail.com,aneesh@paulsons.in,","13.1017456,80.2774693"
Pase fitness,Gym,Chennai,"3+ years in business Â· No 19, 11th St",Open â‹… Closes 9:30â€¯pm Â· 091760 46497,,"13.089922,80.2136301"
Skale Fitness - Chinmaya Nagar,Gym,Chennai,"No: 6,7,& 8 - 3rd Floor, Kaliamman Koil St",Open â‹… Closes 10â€¯pm Â· 095000 06226,",ambattur@skalefitness.com,","13.0619544,80.1942141"
Sri Fitness Studio & Gym,Gym,Chennai,"7+ years in business Â· Shop No.206/108, 1st Floor, Gollavar Agraharam Rd",Open â‹… Closes 10â€¯pm Â· 044 2595 0525,,"13.0842529,80.164174"
Fitness Factory Express,Gym,Chennai,42/12,Open â‹… Closes 10â€¯pm,",support@gymcompany.co.za,roc.chennai@mca.gov.in,thirumangalam.ffe@gmail.com,","13.0875432,80.1919626"
60 Minutes Fitness Studio,Gym,Chennai,"7+ years in business Â· No. 281, 2nd Floor, Konnur High Rd",Open â‹… Closes 10â€¯pm Â· 095001 20177,,"13.0995756,80.2282808"
Rising Fitness Health & Fitness Studio Neelankarai,Gym,Chennai,3+ years in business Â· Tamil Nadu,Open â‹… Closes 10â€¯pm Â· 063831 77736,,"12.9418431,80.2507848"
SPARKLE Fitness Studio Mylapore,Gym,Chennai,"51, Ramakrishna Mutt Rd",Open â‹… Closes 10â€¯pm,"sparklefitnessacademy@gmail.com,,sparkle.fitness.sa@gmail.com,","13.0306321,80.2643467"
SKALE Fitness Unlimited - Perambur,Gym,Chennai,"7+ years in business Â· #14/41, 1st Main Rd, above Bank Of Baroda",Open â‹… Closes 10â€¯pm Â· 095000 06226,",info@skalefitness.com,","13.1150245,80.217058"
Jack Fitness Studio,Gym,Chennai,"5+ years in business Â· 14, Stephenson Rd",Open â‹… Closes 10â€¯pm Â· 098409 50999,",jackfitnessstudio15@gmail.com,","13.1096377,80.2550708"
OXY MX FITNESS CENTRE,Gym,Chennai,"10+ years in business Â· #69,1st Floor, Teachers Colony,1st Cross Street, Adyar",Open â‹… Closes 9:30â€¯pm Â· 098407 32374,",oxymxfitness@yahoo.in,","13.0600023,80.1820437"
Skale Fitness Unlimited - Mogappair,Gym,Chennai,"7+ years in business Â· NO: 412, 1ST FLOOR, THIRUVALLUVAR SALAI, Paneer Nagar Main Rd",Open â‹… Closes 10â€¯pm Â· 095000 06226,",info@skalefitness.com,mogappair@skalefitness.com,","13.0839768,80.1680114"
FITNESS WAY GYM,Gym,Chennai,"5+ years in business Â· New no 8/4, old no 103/4, 8th Ave",Â· 095661 24601,",info@skalefitness.com,aneesh@paulsons.in,","13.044791,80.2165592"
Fusil fitness,Gym,Chennai,"10+ years in business Â· No: 60, Perambur Barracks Rd",Open â‹… Closes 11â€¯pm Â· 044 4230 0023,",muruguncoach@gmail.com,","13.091143,80.2561848"
"Cult Alwarpet - Gyms in Alwarpet, Chennai",Gym,Chennai,"3rd Floor, Plot No, 8A, 33, TT Krishnamachari Rd, above Croma - Alwarpet",Open â‹… Closes 10â€¯pm Â· 073059 62539,",x3ehello@cult.fit,hello@cult.fit,info@gravityholisticfitness.in,","13.0422952,80.2568497"
Score,Gym,Chennai,"10+ years in business Â· No 296, 265, TT Krishnamachari Rd, above Andhra Bank",Open â‹… Closes 10â€¯pm Â· 044 4312 9777,"vasanthgoldsgym@gmail.com,,","13.0486591,80.0407009"
THE RAW GYMSPORTS CLUB,Gym,Chennai,"NEW NO 30 OLD NO 11, SECOND LINE BEACH",Open â‹… Closes 1â€¯am Â· 090259 45987,",info@therawgymsportsclub.com,","13.0924981,80.28815"
BLITE WOMEN'S FITNESS,Gym,Chennai,"3+ years in business Â· 20/60, Puram Prakasham St",Open â‹… Closes 8:30â€¯pm Â· 077085 29292,,"13.051752,80.2635242"
RocoFit Fitness Studio,Gym,Chennai,"New No.201,Old No, 99, Big St",Open â‹… Closes 10:30â€¯pm,",support@gymcompany.co.za,Info@bratzlife.in,info@gravityholisticfitness.in,ceo@maverickfitness.net,aneesh@paulsons.in,","13.0563119,80.2730873"
Corporation govt Gym,Gym,Chennai,"5+ years in business Â· 36CX+J87, Vivekananda Rd",Open â‹… Closes 9â€¯pm,",info@skalefitness.com,","13.0715452,80.2457158"
S Ravi's Fitness Studio,Gym,Chennai,"5+ years in business Â· Harris Complex, New No: 75, Old No: 28, Adithanar Rd",098401 51814,",arulselvam16@rediffmail.com,srg.babu@gmail.com,","13.0721827,80.2631304"
S Ravi's Fitness Studio,Gym,Chennai,"5+ years in business Â· Harris Complex, New No: 75, Old No: 28, Adithanar Rd",098401 51814,",arulselvam16@rediffmail.com,srg.babu@gmail.com,","13.0721827,80.2631304"
Paramaguru Fitness - Weight loss center in Chennai,Gym,Chennai,"3+ years in business Â· 9/14, Big St",Open 24 hours Â· 090808 19942,,"13.083732,80.2288668"
Xhersize,Gym,Chennai,"3+ years in business Â· No. 643, 2nd Floor, Above Nilgiris Supermarket, Thiruvottiyur High Rd, opp. to old Ajax Bus Depot",Open â‹… Closes 9â€¯pm Â· 094455 03696,"vasanthgoldsgym@gmail.com,,","13.172556,80.303349"
Aviate Gym,Gym,Chennai,"1st floor, Emelem Complex, No.1/1, 70 feet scheme",Open â‹… Closes 11â€¯pm,,"13.0568392,80.2317622"
Planet 1 Fitness Studio,Gym,Chennai,Melpatti Ponnappan St,Open â‹… Closes 10â€¯pm,,"13.1154764,80.2452907"
123fitnezz,Gym,Chennai,"60, Perambur Barracks Rd",Open â‹… Closes 10â€¯pm Â· 044 4230 0023,",ninfo@cs123healthstudio.com,info@cs123healthstudio.com,","13.091143,80.2561848"
NEOFIT STUDIO,Gym,Chennai,"5+ years in business Â· No:99, 1st Floor, Andal Ammal St, Raja Reddy St",Open â‹… Closes 10â€¯pm Â· 088074 45636,",aneesh@paulsons.in,","13.0755976,80.1609765"
Oxy Mx Fitness Center gym,Gym,Chennai,"No 26, 2, Habibullah Rd",Open â‹… Closes 10â€¯pm Â· 07397 794 952,",oxymxfitness@yahoo.in,oxymaxfitnesscentre@gmail.com,","13.025284,80.2256725"
Contours Women's Fitness Studio Chennai,Gym,Chennai,"10+ years in business Â· Shop No, 16, 2nd St",Open â‹… Closes 8â€¯pm Â· 098406 71782,,"12.977201,80.2199621"
Re-L-fitness studio unisex A/c gym,Gym,Chennai,"No:5C/7,2nd Floor Amma Nainaa Shopping Corner,Meenambal salai",Open â‹… Closes 10â€¯pm Â· 044 3589 1811,,"13.131284,80.2561146"
Max muscle Fitness,Gym,Chennai,"3+ years in business Â· 34, W Madha Church St",Open â‹… Closes 9:30â€¯pm Â· 099622 46315,,"13.1080493,80.2914203"
Anchor Power Gym,Gym,Chennai,"25+ years in business Â· No. 223, Suriya Towers, Choolaimedu High Road, Ramanujan Street",Open â‹… Closes 9â€¯pm Â· 044 2372 6398,",info@anchorgyms.co.uk,u003einfo@anchorpower.co,info@anchorpower.co,roc.chennai@mca.gov.in,","13.061896,80.2274871"
SS FITNESS CLUB,Gym,Chennai,"36WM+G7H, Mettu St",Open â‹… Closes 10â€¯pm Â· 091503 03999,",aneesh@paulsons.in,","13.0308174,80.1782888"
National Gym,Gym,Chennai,"10+ years in business Â· 37X2+6X8, Strahans Rd",Â· 098402 60085,"vasanthgoldsgym@gmail.com,,","13.0835361,80.212023"
Arun Gym,Gym,Chennai,"7+ years in business Â· No.1,2nd floor, 12th West Cross St",Open â‹… Closes 9:30â€¯pm Â· 098402 22183,",info@skalefitness.com,","13.123948,80.2564121"
New Champions Gym,Gym,Chennai,"10+ years in business Â· 375G+CC8, Bharathi Salai",Open â‹… Closes 10â€¯pm,",championsfitnessgym@gmail.com,","13.0585385,80.2734947"
Fitness One Group India Limited,Gym,Chennai,"10+ years in business Â· 1, Krishnamma Rd",Â· 073587 99432,",u003esecretarial@fitnessoneclub.co.in,secretarial@fitnessoneclub.co.in,info@pinkfitness.in,","13.0688115,80.2312164"
Fitness Freaks Unisex Gym,Gym,Chennai,"50, Masilamani Rd",Open â‹… Closes 11:30â€¯pm,,"13.0483539,80.2635693"
Sk fitness centre,Gym,Chennai,Main St,Open â‹… Closes 10â€¯pm Â· 090944 88444,",skfitnesscentre@gmail.com,Skfitness1@gmail.com,","13.0589713,80.2017982"
Posh Lifestyle Fitness Studio,Gym,Chennai,"No 27, SRP Koil St N",Open â‹… Closes 10â€¯pm Â· 072996 42864,,"13.1165854,80.2289816"
SLAM Lifestyle and Fitness Studio - Pammal,Gym,Chennai,"1, Pammal Main Rd",Open â‹… Closes 10â€¯pm Â· 099902 72791,",aneesh@paulsons.in,","12.9722577,80.1367614"
House of Sweat Gym,Gym,Chennai,"Crocodile showroom, 1st Main Rd E",Open â‹… Closes 10â€¯pm Â· 072000 93158,,"13.0847434,80.2213691"
Sky Gym,Gym,Chennai,"478M+HG2, Thiruvottiyur High Rd, Mottai Garden, Tondiarpet, Chennai, Tamil Nadu 600021",,",babu861966@gmail.com,","13.1163984,80.2811779"
Barracks Government Gym,Gym,Chennai,"473M+QM8, Portuguese Church Street, Seven Wells North, Old Washermanpet, Chennai, Tamil Nadu 600001",,",hc.cell.chennai@gmail.com,Pugazhsugan.24@gmail.com,","13.1044145,80.2816326"
The muscle monster fitness centre,Gym,Chennai,"218/189, Dr Natesan Rd",Open â‹… Closes 9:30â€¯pm Â· 098409 71383,,"13.0497308,80.2717261"
Stingrays Swimming & Fitness Center,Gym,Chennai,"3+ years in business Â· No.5A, Sakthi Nagar, Sriram Nagar Main Rd, near Nolambur Bus Stand",Open â‹… Closes 10â€¯pm Â· 090259 55308,,"13.0714827,80.1643372"
SLIM & FIT fitness studio and gym,Gym,Chennai,"5+ years in business Â· 66, Rajaji Rd",Open â‹… Closes 10â€¯pm Â· 091766 92766,,"13.0809679,80.1705828"
Miller Gym,Gym,Chennai,"7+ years in business Â· 204, Purasawalkam High Rd",Open â‹… Closes 9:30â€¯pm Â· 098842 82303,",themillergym@gmail.com,thegymflint@gmail.com,","13.0858879,80.2487761"
SKALE Fitness Unlimited - Nolambur,Gym,Chennai,"7+ years in business Â· Plot No.4 1393, Mogappair West Main Rd",Open â‹… Closes 10â€¯pm Â· 095000 06226,",info@skalefitness.com,","13.0820288,80.1659705"
chennai corporation Gym,Gym,Chennai,"7+ years in business Â· 26Q7+VC8, 43rd St",Open â‹… Closes 8â€¯pm,"pavithraleo1985@gmail.com,,Pugazhsugan.24@gmail.com,saravananstr01@gmail.com,","13.0468485,80.1691254"
NAMMA Training,Gym,Chennai,"No.11, Ground Floor, Krishna Kuteera Apartments, Harrington Rd",Open â‹… Closes 9:30â€¯pm Â· 088845 62662,"coaching@nammasports.com,,feedback@nammasports.com,enquiry@o2healthstudio.com,md@nammasports.com,info@nammasports.com,FITNESS-kcpF--621x414@LiveMint.jpg,","13.0722021,80.1702394"
Maxxfit fitness center,Gym,Chennai,"MaxxFit fitness center, 5, Puzhal Murugesan St",Â· 085310 50050,",aneesh@paulsons.in,","13.1136843,80.2461164"
Strength culture,Gym,Chennai,"14/6, North madha church square, lane",Open â‹… Closes 10â€¯pm,,"13.1102652,80.292989"
Body Story Vepery,Gym,Chennai,"No.71-L, Jermiah Rd",Open â‹… Closes 9â€¯pm Â· 090806 38522,",fitness@bodystory.in,fitnessmini6@gmail.com,","13.085763,80.2596307"
The Little Gym Of Alwarpet,Gym,Chennai,"7+ years in business Â· ST Towers, Old No 122, New, 524, TT Krishnamachari Rd, near Motherhood Hospital",Â· 073587 07220,",tlgalwarpet@thelittlegym.in,","13.0310715,80.2486985"
MMC Gym,Gym,Chennai,"Madras Medical College Mens Pg Hostel, Tamil Nadu Public Service Commission Rd, Esplanade, George Town, Chennai, Tamil Nadu 600001",,",support@gymcompany.co.za,aneesh@paulsons.in,vasanthgoldsgym@gmail.com,adminexe@mmcpharmaceuticals.com,","13.0859363,80.2796102"
Sweat and gain,Gym,Chennai,"710, Poonamallee High Rd",Â· 090947 07010,,"13.0743425,80.2263844"
God's Army fitness centre,Gym,Chennai,"Chennai, Tamil Nadu",Open â‹… Closes 9:30â€¯pm,"vasanthgoldsgym@gmail.com,,aneesh@paulsons.in,","13.1050596,80.2429627"
Bailwaan Gym,Gym,Chennai,"No:9, Jawahar Rd",Open â‹… Closes 10â€¯pm Â· 098848 77009,"vasanthgoldsgym@gmail.com,,aneesh@paulsons.in,","13.1194262,80.2422247"
Chennai Corporation Free Gym,Gym,Chennai,"7+ years in business Â· Shop No, 121, Singara Thottam 4th Ln",Open â‹… Closes 10â€¯pm,,"13.1138152,80.286899"
S.S. Trainers,Gym,Chennai,"7+ years in business Â· Shop No.49/99, Big St",Open â‹… Closes 9â€¯pm Â· 098415 30169,"s-s-trainers-chennai-e81@aoecu.html,,","13.0596897,80.2731658"
Weider Guna Gym,Gym,Chennai,"5+ years in business Â· 5, Manikka Vinayagar Kovil St, near Rangasayee Street",Open â‹… Closes 9:30â€¯pm,"vasanthgoldsgym@gmail.com,,aneesh@paulsons.in,","13.109252,80.2326074"
Flip Style Fitness Studio-Gymnastics Classes|OMR|Chennai,Gym,Chennai,"Navalur, Tamil Nadu",Open â‹… Closes 10â€¯pm Â· 089250 21444,,"12.8419388,80.224865"
Government Gym,Gym,Chennai,5+ years in business Â· 37R3+FWH,Open 24 hours,",support@gymcompany.co.za,info@skalefitness.com,","13.0065838,80.0296024"
Abinaya Gym & Health Centre,Gym,Chennai,"10+ years in business Â· No 80/81, Opposite To Mannady Police Station, Broadway Rd",Open â‹… Closes 9â€¯pm Â· 044 2526 2955,,"13.0690452,80.1501758"
The Quad @ Alwarpet,Gym,Chennai,"5+ years in business Â· 314, TT Krishnamachari Rd",Â· 093840 43608,,"13.0416288,80.2557603"
Abinaya Gym and Health Centre,Gym,Chennai,"10+ years in business Â· Bus Stop, No. 422, Poonamallee High Rd, near NSK Nagar",Open â‹… Closes 9â€¯pm Â· 044 2363 4068,"abinayagym@gmail.com,,info@abinayagym.com,abinayagymandhealthcentre@gmail.com,","13.0690452,80.1501758"
Talwalkars Inshape - Adyar,Gym,Chennai,"Bus Depot, Old No.16, New No. 22/1,Above Raymonds showroom and casio watch shop Opp Gandhi Nagar, Sardar Patel Rd",Â· 044 4331 3100,,"13.0064057,80.2506043"
Government Gym,Gym,Chennai,"No 1A, Model School Rd",,",support@gymcompany.co.za,info@skalefitness.com,","13.0018835,80.0269692"
Government GYM,Gym,Chennai,363Q+WCG,Open â‹… Closes 9â€¯pm,",support@gymcompany.co.za,","13.0018835,80.0269692"
Government Gym,Gym,Chennai,"7+ years in business Â· No.125, 1st, Dr Radha Krishnan Salai",Open â‹… Closes 9:30â€¯pm,",support@gymcompany.co.za,info@skalefitness.com,","13.0018835,80.0269692"
Jungle Gym,Gym,Chennai,"35, South St",Open â‹… Closes 10â€¯pm,",J.Smith@junglegym.com,help@arirotoys.com,John.Smith@junglegymlifthouse.com,kartwheelindia@gmail.com,kspcode@kidsstoppress.com,","13.0384217,80.1178706"
mpowerrr fitness,Gym,Chennai,"27/28, RK. Salai, Dowlani towers, Mylapore, Chennai 600004 At spin dance studio or, below 27 culinary street",,",info@empowerfitness.ie,mpowergymllc@gmail.com,Hello@MPowerFlorida.com,empowerfitness9@gmail.com,info@skalefitness.com,","13.0305951,80.2332015"
Guna Fitness,Gym,Chennai,"5+ years in business Â· 22, BB Rd",Open â‹… Closes 9â€¯pm Â· 097109 97717,",roc.chennai@mca.gov.in,","13.1111669,80.2483261"
King Gym,Gym,Chennai,"10+ years in business Â· 279, Paper Mills Road",Open â‹… Closes 9â€¯pm Â· 098408 02307,",support@gymcompany.co.za,kinggymfitness@gmail.com,gym@kingsfitness.ca,","12.9711967,79.9825531"
8 Dimension Holistic Fitness,Gym,Chennai,3+ years in business Â· Iyya Mudali St,Open â‹… Closes 10:30â€¯pm Â· 098401 04248,",roc.chennai@mca.gov.in,","13.0717258,80.2419967"
B. Fit Gym,Gym,Chennai,"2nd Floor, Hameedia Shopping Mall, 108/109, Triplicane High Rd",Â· 044 4266 3307,"JohnSmith@bfitgym.co.uk,,info@citchennai.net,crunchfitnessstudio@gmail.com,","13.0289439,80.1182616"
Indian Power Gym,Gym,Chennai,"109, Periyar Pathai W",,",jv.jeyavel@gmail.com,","13.0600098,80.2097942"
FIT BEAUTY LADIES FITNESS CENTRE,Gym,Chennai,"2ND FLOOR, NO: 47 MEENAMBAL SALAI",Open â‹… Closes 9â€¯pm Â· 044 2554 8819,,"13.1305236,80.2561636"
The Quad @ Nungambakkam,Gym,Chennai,"1, Pycrofts Garden Rd",Â· 097907 77539,,"13.0630188,80.2473228"
A.R Fitness,Gym,Chennai,"#28/3, Mettu St, KK Nagar, Ayanavaram, Chennai, Tamil Nadu 600023",,",arcouplesfitnessstudio@gmail.com,info@arcouples.co.in,","13.0976271,80.2309011"
Slam Fitness,Gym,Chennai,"3+ years in business Â· No. 6B, Balfour Road",,"slamfitness.velachery@gmail.com,,info@grandslamfitness.co.in,aneesh@paulsons.in,","13.0251538,80.1302773"
Fitness Centre,Gym,Chennai,"3+ years in business Â· Taj Club House, Chennai, Woods Rd",,",support@gymcompany.co.za,crunchfitnessstudio@gmail.com,info@gravityholisticfitness.in,ceo@maverickfitness.net,aneesh@paulsons.in,vasanthgoldsgym@gmail.com,info@csstrucoach.in,info@skalefitness.com,","13.0775632,80.1569398"
Grater Chennai Corporation Gym,Gym,Chennai,"51-5, Jaganathan St",,",stadiumgcc@gmail.com,","13.0468485,80.1691254"
99 Degree F Fitness Studio Pvt Ltd,Gym,Chennai,"No 56, Ormes Rd, Kilpauk, Chennai, Tamil Nadu 600010",,",roc.chennai@mca.gov.in,accounts@99f.in,","13.0816881,80.2451536"
Ateliers Fitness,Gym,Chennai,"3727+8MW, Leonard St",Â· 095512 99822,"ateliersfitnes@gmail.com,,","12.9867783,80.1320801"
Chennai Corporation Gym and Playground,Gym,Chennai,"37Q6+6C3, Narayana Guru Salai, Choolai, Chennai, Tamil Nadu 600112",,",ranga411@gmail.com,venkatesan.sun2005@gmail.com,saravananstr01@gmail.com,pavithraleo1985@gmail.com,","13.0880073,80.2584686"
My Health And Fitness Hub,Gym,Chennai,"Midithepalli, Tamil Nadu",Temporarily closed,",info@skalefitness.com,","13.0826914,80.2682122"
Fit n' nut Gym - Madipakkam - Chennai,Gym,Chennai,"No.51, 52, Medavakkam Main Rd, Balaji Nagar, Madipakkam, Chennai, Tamil Nadu 600091",063800 87169,",roc.chennai@mca.gov.in,","12.9724866,80.1887067"
Madras Metro Club - T Nagar - Chennai,Gym,Chennai,"Old No: 124 / New, No: 17, Gopathi Narayanaswami Chetty Rd, T Nagar, T. Nagar, Chennai, Tamil Nadu 600017",099411 11002,",singaramhousing@gmail.com,","13.0450738,80.2370457"
YOGAfide - Porur - Chennai,Gym,Chennai,"6, Rukmani Street,Madhanahapuram Mugalivakkam, Porur, Chennai, Tamil Nadu 600116",099627 52766,"vasanthgoldsgym@gmail.com,,","13.0246152,80.1522506"
SLAM Fitness Studio - Adyar - Chennai,Gym,Chennai,"No 17, B Block, Indira Nagar 4th Main Rd, Indira Nagar, Adyar, Chennai, Tamil Nadu 600020",075500 43555,",aneesh@paulsons.in,","12.9928359,80.2524594"
Muscle Power Gym - Royapettah - Chennai,Gym,Chennai,,,",10flchennai@gmail.com,",
World Gym - Perambur - Chennai,Gym,Chennai,"88, Near Perambur Railway Station, Perambur High Road, Perambur, Chennai 600011, TN","+91-44-25521515, +91-9385111222",,
Swasthaman Yogalaya - Kodambakkam - Chennai,Gym,Chennai,"2A, Near Hotel Brown Star, Vedamal Avenue, Dr. Subburayan Nagar, Kodambakkam, Chennai 60002, TN",+91-44-66078560,,
Studio Fitness - Thoraipakkam - Chennai,Gym,Chennai,"340/B4, Opposite To Indian Oil Petrol Pump, Old Mahabalipuram Road, Okkiyam, Thoraipakkam, Chennai 600096, TN","+91-8489555111, +91-8489000222","admin@o2healthstudio.com,,enquiry@o2healthstudio.com,ceo@maverickfitness.net,",
Sri Guru Covey Yoga Centre - Thiruvanmiyur - Chennai,Gym,Chennai,"36/6, Thillaiyadi Valliammai Ladies Club, Near Singapore Shoppee, Kottivakkam Kuppam Road, Corner Valmiki Nagar, Thiruvanmiyur, Chennai 600041, TN",+91-9840201024,,
Speed One Fitness Studio - Tondiarpet - Chennai,Gym,Chennai,"2/1H, Near Kalara Hospital, Kumbalamman Kovil Street, Tondiarpet, Chennai 600081, TN",+91-44-66752978,",speed-one-fitness-studo-chennai-@303a8hrr.html,aneesh@paulsons.in,",
Sparrc Institute - Alwarpet - Chennai,Gym,Chennai,"4/17, Kasthuri Estate, 1st Street, Alwarpet, Chennai 600018, TN","+91-44-45066131, +91-44-42059405, +91-9790944605, +91-9840001721",",sparrc@gmail.com,",
Sparrc Institute - Anna Nagar - Chennai,Gym,Chennai,"52A, AK Block, 7th Main Road, Anna Nagar, Chennai 600040, TN",+91-44-65552530,",sparrc@gmail.com,",
Sparrc Institute - Chennai,Gym,Chennai,"4, 7th Main Road, New Colony, Chromepet, Chennai 600044, TN",+91-9659650000,",sparrc@gmail.com,",
Solid Fitness Studio - Ambattur - Chennai,Gym,Chennai,"426/469, MM Towers, 2nd Floor, Above Axis Bank, CTH Road, Ambattur, Chennai 600053, TN","+91-44-26580100, +91-44-64569899, +91-8144140901",",kalaissolid@gmail.com,",
Slim Line Gym - Mylapore - Chennai,Gym,Chennai,"118, Near Mylapore Police Station, Kutchery Road, Mylapore, Chennai 600004, TN","+91-44-24984296, +9144-43577252, +91-8056167450, +91-9840333319",,
Sahaja Yoga - Thiruvanmiyur - Chennai,Gym,Chennai,"19, Shri Krishna Mandiram, Canal Road, Thiruvanmiyur, Chennai 600041, TN",+91-9380158026,,
Purple Fitness Studio - Kilpauk - Chennai,Gym,Chennai,"24, Old No 68, 1st Floor, Landons Road, Kilpauk, Chennai 600010, TN","+91-44-26411460, +91-9962681000",,
Pink Fitness One - Selaiyur - Chennai,Gym,Chennai,"87, Opposite To Shell Petrol Bunk, Velachery Main Road, Rajakeelpauk, Selaiyur, Chennai 600073, TN",+91-44-22271622,,
Pink Fitness One - Periyar Nagar - Chennai,Gym,Chennai,"36, New No 55, Above Nilgiris Supermarket, 70 Feet Road, Periyar Nagar, Chennai 600082, TN","+91-44-26702622, +91-44-26702522, +91-44-26703122",,
Pink Fitness One - Valasaravakkam - Chennai,Gym,Chennai,"5, 1st Floor, Arcot Road, Indira Nagar, Valasaravakkam, Chennai 600087, TN",+91-44-24869622,,
Pink Fitness One - Ashok Nagar - Chennai,Gym,Chennai,"65/30, 7th Avenue, Next To Hotel Sangamam, Ashok Nagar, Chennai 600083, TN",+91-44-24700222,,
Pink Fitness One - Anna Nagar - Chennai,Gym,Chennai,"Q/90, 4th Main Road, Anna Nagar West, Chennai 600040, TN",+91-44-26211222,",pink.annanagar@fitnessoneclub.co.in,info@fitnessone.in,",
Peoples The Power Gym - Guindy - Chennai,Gym,Chennai,"Olympia Tech Park, Sidco Phase 3, Guindy, Chennai 600032, TN","+91-44-43102117, +91-44-43102116",,
Oxy Mx Fitness Centre - Adyar - Chennai,Gym,Chennai,"69, 1st Floor, Above Bajaj Service Centre, 1st Cross Street, Teachers Colony, Adyar, Chennai 600020, TN","+91-44-42114930, +91-9962039373",,
Oxy Mx Fitness Centre - T Nagar - Chennai,Gym,Chennai,"24, Opposite Vidyodya School, Thirumalaipillai Road, T Nagar, Chennai 600017, TN","+91-44-42024555, +91-44-42124555, +91-9962039373","noxymxfitnessorg@gmail.com,,oxymxfitnessorg@gmail.com,",
O2 Health Studio - Velacheri - Chennai,Gym,Chennai,"1, 100 Feet Bypass Road, Velachery, Chennai 600042, TN","+91-9551277275, +91-44-45493237, +91-44-45493094",",enquiry@o2healthstudio.com,u003eenquiry@o2healthstudio.com,",
O2 Health Studio - Ashok Nagar - Chennai,Gym,Chennai,"23/35, 10th Avenue, Ashok Nagar, Chennai 600083, TN","+91-44-9094791923, +91-44-42012042","admin@o2healthstudio.com,,enquiry@o2healthstudio.com,u003eenquiry@o2healthstudio.com,",
O2 Health Studio - Chennai,Gym,Chennai,,,",enquiry@o2healthstudio.com,u003eenquiry@o2healthstudio.com,",
Mind N Body 360 Degree Fitness Studio - Ramapuram - Chennai,Gym,Chennai,"136/4/23, 1st Main Road, Ramapuram, K K Nagar West, Chennai 600089, TN","+91-9600030058, +91-44-42014949",,
Maverick Fitness Studio - Indira Nagar - Chennai,Gym,Chennai,"55, 1st Avenue, Indira Nagar, Chennai 600020, TN","+91-44-42117788, +91-44-42117878",",ceo@maverickfitness.net,",
Life Style Gym - Gopalpuram - Chennai,Gym,Chennai,"276, Near SBI, Lloyds Road, Avvai Shanmugam Salai, Gopalapuram, Chennai 600086, TN","+91-9445183119, +91-44-28353799",,
Kanya Beauty Parlour - Besant Nagar - Chennai,Gym,Chennai,"6-E/28-A, Ramaniyam Arcade, Above Food World, 2nd Avenue, Besant Nagar, Chennai 600090, TN",+91-44-24914404,",kanya2.admin@gmail.com,",
Kanya Beauty Parlour - Anna Nagar - Chennai,Gym,Chennai,"2492, RBN Towers, 2nd Floor, 4th Avenue, Shanthi Colony, Anna Nagar, Chennai 600040, TN","+91-44-26285339, +91-44-26222336",",kanya2.admin@gmail.com,",
Kanya Beauty Parlour - Mylapore - Chennai,Gym,Chennai,"4/140, Shanthi Vihar Complex, Royapettah High Road, Mylapore, Chennai 600004, TN","+91-44-24981410, +91-44-24670470",,
Inshape Health & Fitness - Kilpauk - Chennai,Gym,Chennai,"12/3A, Next To Paramount Hotel, Ormes Road, Kilpauk, Chennai 600010, TN","+91-9003094946, +91-44-42660980",,
Gem Inn Resort - Navalur - Chennai,Gym,Chennai,"A/1, B/1, Rajiv Gandhi Salai, Old Mahabalipuram Road, Navalur, Chennai 603103, TN","+91-44-47424242, +91-9884688882",",info@jollygem.in,reserve@jollygem.in,",
Fitness One - Kilpauk - Chennai,Gym,Chennai,"17, Behind Rigid Lifeline Hospital, Lakshmi Street, Kilpauk, Chennai 600010, TN",+91-44-26471222,",ncallcenter@fitnessoneclub.co.in,aneesh@paulsons.in,Kilpauk@fitnessone.co.in,info@fitnessone.in,callcenter@fitnessoneclub.co.in,",
Fireball Fitness Club - Mogappair - Chennai,Gym,Chennai,"A/2, Near Madras Medical Mission Hospital, Valayapathy Road, Mogappair East, Chennai 600037, TN","+91-44-26562234, +91-9962450465, +91-9841324414",",kannan@inficol.com,",
Fast Track Gym - Selaiyur - Chennai,Gym,Chennai,"193, Opposite Punjab National Bank, Velachery Main Road, Selaiyur, Chennai 600059, TN",+91-9841108096,"prem@fasttrackgym.com,,",
Chennai School Of Yoga - Alwarpet - Chennai,Gym,Chennai,"4, Co-Operative Colony, 4th Floor, Next To Park Sheraton, Chamiers Road, Alwarpet, Chennai 600018, TN",,",alwarpet@136point1.com,info@136point1.com,",
Body Graph Gym & Fitness Centre - Madipakkam - Chennai,Gym,Chennai,"25/1, Behind ICICI Bank, Senthuran Colony, Madipakkam, Chennai 600091, TN",+91-9841131100,,
Ateliers Fitness - Sembakkam - Chennai,Gym,Chennai,"100/A, Velacherry Tambaram Road, Sembakkam, Chennai 600073, TN",+91-44-22282131,,
Arvind Yoga Centre - Avadi - Chennai,Gym,Chennai,"243, J B Estate, 24th Street, Avadi Camp H.O., Chennai 600054, TN",+91-9443121146,",roc.chennai@mca.gov.in,",
Anitha Fitness Studio - Mugalivakkam - Chennai,Gym,Chennai,"101, 3rd Cross Street, Sabari Nagar, Porur, Mugalivakkam, Chennai 600116, TN",+91-9176767376,,
Ananda Yoga & Meditation Centre - Porur - Chennai,Gym,Chennai,"3/2348, New No 3/1190, Near Swamy School, Padmavathy Street, Santhosh Nagar, Madanandapuram, Porur, Chennai 600116, TN",+91-44-66752371,,
Agathiyar Yoga Centre - Sholinganallur - Chennai,Gym,Chennai,"66, Near Civil Supplies Office, 9th Cross Street, New Kumaran Nagar, Sholinganallur, Chennai 600119, TN","+91-9840691849, +91-44-24500433",,
Abinaya Gym & Health Centre - Parrys - Chennai,Gym,Chennai,"80/81, Opposite Mannady Police Quarters, Broadway Lane, Parrys, Chennai 600001, TN","+91-44-25262955, +91-44-65446699",,
Abi Yoga Centre - Ashok Nagar - Chennai,Gym,Chennai,"486, Near Ashok Pillar, 46th Street, Ashok Nagar, Chennai 600083, TN","+91-44-24898885, +91-9840723539",,
Aakar Health & Fitness Studio - Sowcarpet - Chennai,Gym,Chennai,"36, 3rd Floor, SB Complex, Near Central Railway Station, Wall Tax Road, Sowcarpet, Chennai 600079, TN","+91-44-42358008, +91-44-42358009",,
100 Degree Fitness Studio - Kilpauk - Chennai,Gym,Chennai,"56, Ormes Road, Kilpauk, Chennai 600010, TN","+91-44-45558147, +91-44-45558148",",aneesh@paulsons.in,",
136.1 Yoga Studio - Alwarpet - Chennai,Gym,Chennai,"329, Above The Indian Terrain Showroom, T.T.K. Road, Alwarpet, Chennai 600018, TN","+91-44-42347670, +91-44-42325785, +91-44-42347865",",alwarpet@136point1.com,info@136point1.com,",
Green Trends - Chennai,Gym,Chennai,,,",greentrends.siruseri@gmail.com,",
99f Fitness Studio - Nungambakkam - Chennai,Gym,Chennai,"33/13, Rutland Towers, Opposite Appolo Children Hospital, Shafee Mohammed Road, Nungambakkam, Chennai 600034, TN",+91-44-66077940,",info@ignite101.in,nungambakkam@99f.in,",
D Fit - Chennai,Gym,Chennai,,,",info@citchennai.net,",
Isha life - Chennai,Gym,Chennai,,,"info@ishalife.com,support@ishalife.com,x3eishastay@ishafoundation.org,,info@ishafoundation.org,programs@ishalife.org,ishastay@ishafoundation.org,ishalife-gym-and-fitness-centre-chennai-999@amf1q.html,",
Prabas Vcare Health Clinic - Chennai,Gym,Chennai,"30, 2nd Floor, Behind Naidu Hall Pondy Bazar, Raja Bather Road, T Nagar, Chennai 600017, TN",,",accmgr@vcaretrichology.com,u003eaccmgr@vcaretrichology.com,",
Energy Fitness Studio - Chennai,Gym,Chennai,"18, New Market Street, Choolaimedu High Road, Chennai 600094, TN",+91-44-45538387/+91-7200617777,",info@citchennai.net,",
Vibes - Chennai,Gym,Chennai,,,",theconsumersreview.com@gmail.com,harisankarreddy46@gmail.com,",
The League Club - Chennai,Gym,Chennai,"105, Mmda Signal, Vinayagapuram, 2nd Street, Arumbakkam, Chennai 600106, TN",+91-44-66422332,",leagueravi@gmail.com,darjeelinggymkhanaclub1909@yahoo.com,",
Talwalkars - Adyar - Chennai,Gym,Chennai,"16, New No 22/1, Opposite Adyar Bus Depot, Sadar Patel Road, Kasturibai Nagar, Adyar, Chennai 600020, TN",+91-44-66598258,"adyar@talwalkars.net,,",
Supper Gym Urapakkam - Chennai,Gym,Chennai,"159, Opposite To Anandavallee School, Urapakkam, GNT Road, Vandalur, Chennai 600048, TN",+91-9840776031,,
Solid Fitness World - Chennai,Gym,Chennai,"125/1, Yamuna Towers, Sabari Nagar, Mount Poonamallee Road, Porur, Chennai 600116, TN",+91-9884433558,",solidfitnessvelachery@gmail.com,kalaissolid@gmail.com,manish.singh@fitness-world.in,sofitnessstudio777@gmail.com,",
Slim Line Gym - Chennai,Gym,Chennai,"14, Lattice Bridge Road, Adyar, Chennai 600001, TN",+91-44-24461810,",rajeshkrishres@gmail.com,aneesh@paulsons.in,",
Slim And Shape - Chennai,Gym,Chennai,"B, Janani Plaza, 2nd Floor, Above South Indian Bank, Rolls Nagar Velachery To Tambaram High Road, Medavakkam, Chennai 600100, TN",+91-44-66425202,",x3econtact@shape.com,slim.shape@yahoo.com,contact@shape.com,",
Sdat Dolphin Swimming Acadamy - Chennai,Gym,Chennai,"State Sports Complex, Behind Mogappair West Bus Terminus, Block 8, Mogappair West, Chennai 600037, TN",+91-44-66246027,",dolphinswimming_6@yahoo.co.in,",
Score Health And Fitness Club - Chennai,Gym,Chennai,"296/265, Above Andhra Bank, TTK Road, Alwarpet, Chennai 600018, TN",+91-44-43129777,",info@scoreclubs.com,",
Photon Health And Fitness Studio - Chennai,Gym,Chennai,"4, Adarsh Mahal, Opposite Spencers Daily, 100 Feet Bye Pass Road, Officers Colony, Velacheri, Chennai 600042, TN",+91-44-43037761,",roc.chennai@mca.gov.in,",
Oxygen Fitness Solutions - Chennai,Gym,Chennai,"9, Near Cake Point, Srinagar Colony, Redhills Road, Kolathur, Chennai 600099, TN",+91-44-25560547,,
Odds On Fitness Zone - Chennai,Gym,Chennai,"E-5, 2nd Floor, 3rd Avenue, Near Valliammal College, Anna Nagar East, Chennai 600102, TN",+91-44-66369400,"chennaioods_on@yahoo.in,,info@zonefitnessclub.com,",
New National Hitech Fitness Centre - Chennai,Gym,Chennai,"19-C, Siva Shanmugam Pillai Street, Tambaram West, Chennai 600045, TN",+91-44-22260932,",info@citchennai.net,gshitechfitness@gmail.com,",
Jai Fitness Centre - Chennai,Gym,Chennai,"Main Road, Vivekananda Nagar, Lakshmipuram, Chennai 600099, TN",+91-9840573839,"info@paramagurufitness.com,,",
Inshape Health And Fitnez - Chennai,Gym,Chennai,"12/3-A, Ormes Road, Kilpauk, Chennai 600010, TN",+91-44-42660980,",leadfitness2022@gmail.com,",
House Of Fitness - Chennai,Gym,Chennai,"176/A, Near Kabaleswarar Nagar Arch, 2nd North Main Road, Neelankarai, Palavakkam, Chennai 600041, TN",+91-9841006965,",info@csstrucoach.in,info@housefitnessclub.com,sales@acmefitness.com,",
Gym - Chennai,Gym,Chennai,,,",support@gymcompany.co.za,info@gravityholisticfitness.in,crunchfitnessstudio@gmail.com,aneesh@paulsons.in,vasanthgoldsgym@gmail.com,info@skalefitness.com,",
Golden Globe Gym And Fitness Studio - Chennai,Gym,Chennai,"103/2, 2nd Floor, MP Nathan Tower, Lattice Bridge Road, Adyar, Chennai 600020, TN",+91-44-42116178,"vasanthgoldsgym@gmail.com,,",
Gold Gym - Chennai,Gym,Chennai,"111, 8th Floor, LB Road, Kamaraj Nagar, Thiruvanmiyur, Chennai 600041, TN",+91-9600146844,"vasanthgoldsgym@gmail.com,,WeCare@GoldsGym.in,",
Giri Gym - Chennai,Gym,Chennai,"64, Jermiah Road, Vepery, Chennai 600007, TN",,",giriarasu@yahoo.co.in,",
Fitness Hub - Chennai,Gym,Chennai,"1/2, 1st Floor, Secretariat Colony, Maduvankarai, Car Track Road, Guindy, Chennai 600032, TN","+91-44-64600999, +91-9841430405",",ceo@maverickfitness.net,info@citchennai.net,eskarfitness@gmail.com,paramagurufitness@gmail.com,",
Classic Hitech Gym - Chennai,Gym,Chennai,"664, Opposite To MEPZ, GST Road, Tambaram East, Chennai 600059, TN",+91-9444140549,"classic-hitech-gym-chennai-658@1nmud.html,roc.chennai@mca.gov.in,,",
Breathe Gym - Chennai,Gym,Chennai,"Dharmaraja Koil Lane, Saidapet, Chennai 600015, TN",+91-9841161047,,
Body Style Fitness Centre - Chennai,Gym,Chennai,"18th Main Road, Annanagar West, Chennai 600101, TN",+91-44-42645005,",leadfitness2022@gmail.com,aneesh@paulsons.in,info@leadfitness.in,",
Body Focus Gym - Chennai,Gym,Chennai,"Mint Street, Chennai 600001, TN",+91-44-25201742,,
Appollo Fitness Centre - Chennai,Gym,Chennai,"Mth Road, Ambattur, Chennai 600053, TN",+91-44-26582213,,
Afton Health and Fitness Equipment - Egmore - Chennai,Gym,Chennai,"55, Embassy Towers, Basement, Montieth Road, Egmore, Chennai 600008, TN","+91-44-28553881, +91-44-28554951, +91-44-28555191",",aftoninfo@gmail.com,sales@aftonfitness.com,u003esales@aftonfitness.com,",
Abz 6 Packs - Anna Nagar West - Chennai,Gym,Chennai,"W-677, Near Thirumangalam Police Station, Anna Nagar West, Chennai 600101, TN",+91-44-66759844,,
99f Fitness Studio - Kilpauk - Chennai,Gym,Chennai,"56, Ormes Road, Kilpauk, Chennai 400010, TN",+91-44-45558147,",aneesh@paulsons.in,",
Surima Medical Centre - Chennai,Gym,Chennai,"43, Barnaby Road, Kilpauk, Chennai 600010, TN",+91-44-26412747,"vasanthgoldsgym@gmail.com,,",
Slim Line Gyms - Chennai,Gym,Chennai,,,",aneesh@paulsons.in,",
Excellent Nutrition Programme - Chennai,Gym,Chennai,,,",info@leadfitness.in,vasanthgoldsgym@gmail.com,paramagurufitness@gmail.com,leadfitness2022@gmail.com,",
Bounce Style Lounge - Chennai,Gym,Chennai,"123, Ispahani Centre, Nungambakkam High Road, Chennai 600041, TN","+91-44-28330508, +91-44-28330509",",info@naturals.in,bouncechennai@gmail.com,",
Talwalkars - Chennai,Gym,Chennai,"215/95, Behind Antonys Furniture Showroom, TTK Road, Alwarpet, Chennai 600018, TN",,",avantis@talwalkars.net,ratnam.nakka@careratings.com,jayantac@icraindia.com,",
O2 Health Studio - Chennai,Gym,Chennai,"153-E, Near Besant Nagar Post Office, 7th Cross Street, Besant Nagar, Chennai 600090, TN",+91-44-45511670,",enquiry@o2healthstudio.com,u003eenquiry@o2healthstudio.com,",
Aura - Chennai,Gym,Chennai,"601, 9th Floor, Anna Salai, Chennai 600006, TN",+91-44-42676000,",auratheholistic@gmail.com,info@auratechnology.in,naga@auratechnology.in,",
Fitness One - Chennai,Gym,Chennai,"Theresa ST, Indira Nagar, Velacheri, Chennai 600042, TN",+91-44-22436522,",info@fitnessone.in,ITPC@fitnessone.co.in,",
Maverick - Chennai,Gym,Chennai,,,",ceo@maverickfitness.net,info@gravityholisticfitness.in,",
Taj health club - Chennai,Gym,Chennai,,,",innercircle@tajhotels.com,",
Vcare Medspa - Chennai,Gym,Chennai,,,",x3egrievance@varthana.com,grievance@varthana.com,",
