Name,Sector,City,Address,Phone,Email,Lat-Long
AA Fitness Club - Valsad,Gym,Valsad,,,",swati251019@gmail.com,preshineinfo@gmail.com,","20.6037286,72.9066637"
S Fitness Gym - Valsad,Gym,Valsad,,,"bodyfitnesszone@gmail.com,,divyanshpatel854@gmail.com,","20.6035654,72.9022042"
Gym Academy 1880 - Valsad,Gym,Valsad,"GVVQ+FVC, Unnamed Road, Magod Dungri, Gujarat 396020",,",sandeep.deshmukh@upl-ltd.com,","20.5436772,72.8870515"
Everyday Fitness - Valsad,Gym,Valsad,,,",Info@aeroyog.com,","20.6450221,72.8914959"
Power House Gym - Valsad,Gym,Valsad,"JW8H+47V, Nani Khatriwad, Valsad, Gujarat 396001",,",patelpurval81@gmail.com,info@powerhousegym.com,","20.6153529,72.925608"
Workout Zone - Valsad,Gym,Valsad,,,"bodyfitnesszone@gmail.com,,ipfrpfadi@gmail.com,snk47rtm@gmail.com,","20.6328224,72.8901431"
Rambo Fitness Zone - Valsad,Gym,Valsad,,,",RAMBOFITNESS2010@GMAIL.COM,","20.6363334,72.8913354"
Sarva Yoga International - Valsad,Gym,Valsad,"Sadhna Kendra, Shanti Niketan, Tithal, Valsad, Tithal, Gujarat 396006",,",sayhello@sarva.com,sarvakalyanamnyas@gmail.com,","20.596439,72.8583456"
Shiv Shakti Nutrition Centre - Valsad,Gym,Valsad,"Sai Siddhi Arcade, Panchvati Society, Pardi Sandhpor, Valsad, Gujarat 396001",,",hitechlab@ugvcl.com,orangehealthpharma@gmail.com,","20.6125074,72.9352921"
Skylink Fitness - Valsad,Gym,Valsad,"Dayasagar Apt, 3/4, Dixit St, opp. Bank of India, Mota Taiwad, Valsad, Gujarat 396001",098980 21816,,"20.6161746,72.9262022"
Om Sai Nutrition Center - Valsad,Gym,Valsad,"103,Krishna Complex, Mahatma Gandhi Rd, near Trushna Syrup Mix, Valsad, Gujarat 396001",096627 96428,",vivek@sdtravels.in,","20.6149982,72.9258999"
Trance Yogfitness Studio - Valsad,Gym,Valsad,"Trance YogFitness studio. Tarang Appt ,2nd floor near Halar char rasta opp Head Post Ofice.",074055 11365,,"20.6080201,72.9234541"
Dhani Nutrition - Valsad,Gym,Valsad,"R no.1004, Sardar hights, new gujrat housing board, G wing paar building, Tithal Rd, opposite paali hill, Valsad, Gujarat 396001",084509 42018,",prafulmange1985@gmail.com,csraunakbansal@gmail.com,","20.6029687,72.9082979"
Brahmakumari Centre - Valsad,Gym,Valsad,,,",rofelpharm@gmail.com,abrama.val@bkivv.org,valsad@bkivv.org,umargam@bkivv.org,","20.598027,72.90938"
Sunbeam Nutrition Centre - Valsad,Gym,Valsad,"JW4G+422, Halar Road, Civil Rd, Zinnat Nagar, Valsad, Gujarat 396001",,",admin@idodeli.com,","20.6052608,72.922426"
Rajguru Fitness - Valsad,Gym,Valsad,"3, Bulsar, Kapadia Chal, Valsad, Gujarat 396001",094281 59792,",divyanshpatel854@gmail.com,","20.6150134,72.9293349"
Mamta Gym - Valsad,Gym,Valsad,,,",bce.mohali@gmail.com,","20.6119874,72.9273453"
Xtrreme Martial Art & Self Defence Academy - Valsad,Gym,Valsad,"Lohana Samaj Hall, Tithal Rd, Valsad, Gujarat 396001",096874 07939,,"20.5875552,72.8713039"
Yash's Muscle House - Valsad,Gym,Valsad,"JW5G+VVX, Halar Rd, Dharampur, Government Colony, Valsad, Gujarat 396001",,"patidarankit900@gmail.com,,sunriseipr@gmail.com,","20.6097298,72.9246529"
Om Sai Active Healthy Life Style Centre - Valsad,Gym,Valsad,"JW7H+XCV, Nani Khatriwad, Valsad, Gujarat 396001",099748 96140,",valsad@jvvco.in,cs@corallab.com,rvnawghare@mahindrairrigation.co,","20.6149789,72.9259724"
Mamta Health Ciub - Valsad,Gym,Valsad,,,",bce.mohali@gmail.com,girraj.1963@gov.in,rajesh.trikha@gov.in,divisionb-alwar@gov.in,","20.6066842,72.8475915"
DFC Dhumraketus Fitness Centre & Gym - Valsad,Gym,Valsad,"HWXP+JW7, Garib Nawaz Society, Valsad, Gujarat 396002",081287 10743,",dfcgym.abd@gmail.com,","20.5990429,72.9347146"
Dave Gym - Valsad,Gym,Valsad,"JW6G+7GP, Mullawadi, Nana Taiwad, Valsad, Gujarat 396001",,"cestat08@gmail.com,,sandeep.deshmukh@upl-ltd.com,","20.6107145,72.9237461"
Aeroyog Gym - Valsad,Gym,Valsad,"Dreamland arcade - 2nd Floor - 204, Tithal Road, Valsad, 396001",090333 51987,",Info@aeroyog.com,info@aeroyog.com,ninfo@aeroyog.com,","20.608088,72.9224921"
Maruti Gym - Valsad,Gym,Valsad,"JW6H+R9R, Nani Khatriwad, Valsad, Gujarat 396001",,"bodyfitnesszone@gmail.com,go.rishisinghg@gmail.com,,","20.6121223,72.9258185"
Power Gym - Valsad,Gym,Valsad,"JW8H+47V, Nani Khatriwad, Valsad, Gujarat 396001",,",info@powerhousegym.com,","20.6153529,72.925608"
Fitness And Gym - Valsad,Gym,Valsad,,,",support@gymcompany.co.za,info@powerhousegym.com,go.rishisinghg@gmail.com,","20.6048876,72.9072395"
Unique Fitness Gym - Valsad,Gym,Valsad,"Sonanagar, Valsad, Abrama, Gujarat 396002",096871 95511,",divyanshpatel854@gmail.com,","20.5890808,72.9320664"
One Life Fitness Gym - Valsad,Gym,Valsad,"Shop No.8-10,City Point, Abrama-Dharampur Rd, opp. st workshop, Valsad, 396001",,",onelifefitness786@gmail.com,","20.5941915,72.9362503"
Arnie's Gym - Valsad,Gym,Valsad,"Moghabhai Hall, Govardhan complex, Kapadia Chawl Bechar Rd, near white House hospital ARNIE'S GYM, Valsad, Gujarat 396001",076007 93311,,"20.6116986,72.9288556"
A Fitness Gym - Valsad,Gym,Valsad,,,",go.rishisinghg@gmail.com,info@powerhousegym.com,","20.6039629,72.88105"
