Name,Sector,City,Address,Phone,Email,Lat-Long
Brave Lion's Den MMA Fitness Gym - Gandhinagar - Ahmedabad,Gym,Ahmedabad,"Plot No-863,2nd Floor, Vishvkarma Shopping Center, Sector 21, Gandhinagar, Gujarat 382021",098243 48197,",mmadenindia@gmail.com,","23.233935,72.6652783"
Zeus Fitness Point The Gym - Memnagar - Ahmedabad,Gym,Ahmedabad,"405, APM Shopping Mall, 4th Floor, Opposite Sun N Step Club Road, Memnagar, Ahmedabad 380054, GJ",+91-79-40324755,"vishnu.fitness@gmail.com,,admin@fitnesspoint.in,info@shoppingbazar.in,","23.0594156,72.5272321"
Zeus Fitness Point - Ghatlodiya - Ahmedabad,Gym,Ahmedabad,"On top floor, APM mall, Priyakant Parikh Marg, Memnagar, Ahmedabad, Gujarat 380059",+91-9714107822,"vishnu.fitness@gmail.com,,bavishikeyur@gmail.com,admin@fitnesspoint.in,","23.0619584,72.5204203"
Zeus Fitness Point - Navrangpura - Ahmedabad,Gym,Ahmedabad,"On top floor, APM mall, Priyakant Parikh Marg, Memnagar, Ahmedabad, Gujarat 380059",+91-79-27460105,"vishnu.fitness@gmail.com,,admin@fitnesspoint.in,","23.0619584,72.5204203"
Zeri's Mask2 Fitness Studio - Naranpura - Ahmedabad,Gym,Ahmedabad,"408, Sachet 3, Near Kid's World, Mirambika School Road, Naranpura, Ahmedabad 380013, GJ",+91-9714888819,,"23.0574097,72.5106259"
Z Fitness Studio - Chandkheda - Ahmedabad,Gym,Ahmedabad,"4th Floor, Dev Business Hub, Nr. Vitthal Mall, Above Posh Urban Restaurant, Visat-Koba Highway, Chandkheda, Ahmedabad, Gujarat 382424",088667 09040,",narendrasinghrathod84k@gmail.com,","23.1068423,72.5878175"
Yuva Gym And Physiotheraphy Spa centre - Satellite - Ahmedabad,Gym,Ahmedabad,"2G8G+4GR, Jodhpur Tekra, Ahmedabad, Gujarat 380015",098987 47671,",yuva-gym-and-physiotheraphy-spa-center-ahmedabad-rad@bxyru.html,","23.0153735,72.5159737"
Youthtown Fitness Centre - Ghodasar - Ahmedabad,Gym,Ahmedabad,"2nd Floor Mangalmurti Complex, Opp Ghodasar BRTS Bus Stop, near Mangal Murti Society, Ghodasar, Ahmedabad, Gujarat 380050",+91-9601597660,",viral.youthtown@gmail.com,","22.9788493,72.5995685"
You Fit - Ambawadi - Ahmedabad,Gym,Ahmedabad,"Punita Park Society, Near Vandana School, Bhudarpura Road, Ambawadi, Ahmedabad 380015, GJ",+91-9558753961,",ar.dudes.143@gmail.com,premiumyoga.fitness@gmail.com,","23.0269913,72.4469035"
Yogi Fitness Life - Vastral - Ahmedabad,Gym,Ahmedabad,"Odhav, Vastral, Ahmedabad, Gujarat 382418",+91-9586047671,",feedback@ahmedabadcity.gov.in,","23.0082279,72.6517275"
Y.m.Fitness Studio - Lal Darwaja - Ahmedabad,Gym,Ahmedabad,"2ND FLOOR ABOVE HDFC BANK NR ELECTRICITY HOUSE, Relief Rd, Ahmedabad, Gujarat 380001",092777 56117,,"23.0263906,72.5716229"
Xotika Fitness Club - Thaltej - Ahmedabad,Gym,Ahmedabad,"3F2R+FWX, Thaltej Rd, Thaltej, Ahmedabad, Gujarat 380058",+91-7572822022,",xotikafitnessclub@gmail.com,","23.0512381,72.4820512"
Xotika Fitness Club - Maninagar - Ahmedabad,Gym,Ahmedabad,"Sparsh Building, 1st Floor, Near Akshar Surgical Hospital, Jayhind Cross Road, Maninagar, Ahmedabad 380008, GJ",+91-7572822266,,"22.9957275,72.6004929"
XN Health Club - Rakhial - Ahmedabad,Gym,Ahmedabad,"E-401, Sumel 7 Business Park, 4th Floor, Soni Ni Chawl, Rakhial, Ahmedabad 380023, GJ",+91-8690126340,,"23.0571575,72.5615672"
World Gym - Bodakdev - Ahmedabad,Gym,Ahmedabad,"B - 202 / 203, Shilp Aaron Sindhu Bhavan Road, opp. Armieda, Bodakdev, Ahmedabad, Gujarat 380054",+91-9122006006,",worldgym.ahmedabad76@gmail.com,u003eworldgym.ahmedabad76@gmail.com,worldgym.planet9@gmail.com,","23.0390762,72.4991103"
Women On Wellness - Satellite - Ahmedabad,Gym,Ahmedabad,"242 To 244, Titanium City Centre Mall, 2nd Floor, Curvy Q The Fashion Hub, Satellite, Ahmedabad 380015, GJ",+91-8141652011,",feedback@ahmedabadcity.gov.in,","23.0245512,72.2655989"
Wasila Fitness - Sarkhej - Ahmedabad,Gym,Ahmedabad,"Badar Plaza, 1st Floor, Near City Plus, Sarkhej, Ahmedabad 380055, GJ",,",feedback@ahmedabadcity.gov.in,","23.0233191,72.3651156"
Vyom Yoga And Fitness Studio - Naranpura - Ahmedabad,Gym,Ahmedabad,"313-314, Dev Arcade, Above Havmor Restaurant, Naranpura, Ahmedabad 380013, GJ",+91-9825098892,,"23.0518651,72.5518944"
VR Fitness Point - Naranpura - Ahmedabad,Gym,Ahmedabad,"B-402/403, Shivalik Yash, Opposite Shastrinagar Bus Stop, 132 Feet Ring Road, Naranpura, Ahmedabad 380013, GJ",+91-9978695445,",admin@fitnesspoint.in,","23.0710099,72.5355141"
Vo2 Fitness - Ambawadi - Ahmedabad,Gym,Ahmedabad,"A-318, 3rd Floor, Sakar 7, Near Nehru Bridge, Ashram Road, Ambawadi, Ahmedabad 380009, GJ",+91-79-48948986,",feedback@ahmedabadcity.gov.in,","23.0207144,72.502826"
Virat Gym - Jamalpur - Ahmedabad,Gym,Ahmedabad,"Below Shifa Hospital, Near Jamalpur Overbridge, Virat Nagar Road, Jamalpur, Ahmedabad 380022, GJ",+91-9638093917,"Jayveer78@gmail.com,,","23.022736,72.4654313"
Veer Savarkar Sports Complex - Naroda - Ahmedabad,Gym,Ahmedabad,"Lal Bahadur Shastri Road, near Memco Char Rasta, Hirawadi, Saijpur Bogha, Ahmedabad, Gujarat 382345",+91-79-22823428,",feedback@ahmedabadcity.gov.in,","23.0533394,72.6217037"
Veer Bajrang Health Club - Hansol - Ahmedabad,Gym,Ahmedabad,"3JJF+32V, Sardarnagar, Hansol, Ahmedabad, Gujarat 382475",+91-9376189911,",feedback@ahmedabadcity.gov.in,","23.0802361,72.6122396"
Valas Health Centre - Sola - Ahmedabad,Gym,Ahmedabad,"Centre Plaza, 3rd Floor, Sola Road, Opposite Sarthak School, Ahmedabad, Gujarat 380061",+91-79-27487779,",valasfitnesszone@gmail.com,","23.0554622,72.5330287"
Valas Health Centre - Satellite - Ahmedabad,Gym,Ahmedabad,"Centre Plaza, 3rd Floor, Sola Road, Opposite Sarthak School, Ahmedabad, Gujarat 380061",+91-79-40327779,,"23.0554622,72.5330287"
Valas Gym - Memnagar - Ahmedabad,Gym,Ahmedabad,"Center Plaza, Near Sun & Club, Sattadhar Cross Road, Sola Road, Memnagar, Ahmedabad 380061, GJ",+91-79-40097779,"valasgym@gmail.com,info@valasgym.com,,","23.0527752,72.4859382"
V-10 Health Club - Rakhial - Ahmedabad,Gym,Ahmedabad,"E-401, Sumel 7 Business Park, 4th Floor, Soni Ni Chawl, Rakhial, Ahmedabad 380023, GJ",+91-8347048826,,"23.0203813,72.6245802"
V R Ultimate Fitness - Ranip - Ahmedabad,Gym,Ahmedabad,"303, Cluster_ranip 7 Aarya Arcade, Anand Party Plot Rd, above Zesty Treat Restaurant, New Ranip, Ahmedabad, Gujarat 382470",+91-9724001828,,"23.0875194,72.5499678"
Urban Bodybuilder - Fitness House - Naranpura - Ahmedabad,Gym,Ahmedabad,"419 , 420 Binali Complex, Opposite Torrent Power AEC Cross Road NEAR AEC NEAR AEC OVER BRIDGE, Naranpura, Ahmedabad, Gujarat 380013",075738 55855,",dhirenshah66@yahoo.com,","23.052386,72.5382536"
Unique Gym - Ghodasar - Ahmedabad,Gym,Ahmedabad,"501, 5th Floor, Kansas Complex, Ghodasar Cross Rd, opp. Cadila Road, Ghodasar, Ahmedabad, Gujarat 380050",097279 74099,",uniquegym.ghodasar17@gmail.com,","22.9784105,72.6012337"
Unique Fitness World - Ambawadi - Ahmedabad,Gym,Ahmedabad,"Opposite Chimanbhai Patels Bunglow, Octroi Naka, Niyojan Nagar, Ambawadi, Ahmedabad 380015, GJ",+91-79-65431423,",worldgym.ahmedabad76@gmail.com,","23.0012716,72.4223859"
Umar's Gym - Juhapura - Ahmedabad,Gym,Ahmedabad,"Umar's Gym, Near Sonal Cinema, Shrinand Nagar, Juhapura, Ahmedabad 380055, GJ",+91-9909417868,,"22.9952862,72.5041133"
Ultra Fitness Gym - Maninagar - Ahmedabad,Gym,Ahmedabad,"6, Vidita Avenue, Besides Pramukh Palace, Jai Hind Cross Road, Mani Nagar, Ahmedabad 380008, GJ",+91-9033489200,,"22.9787852,71.9762316"
The Masters Gym - Rakhial - Ahmedabad,Gym,Ahmedabad,"2nd floor F, M.Gym Building, Royal Estate, near Amrapali Cinema, Rajpur Hirpur, Gomtipur, Ahmedabad, Gujarat 380021",070968 62686,,"23.0170016,72.6039357"
The Little Gym - Sabarmati - Ahmedabad,Gym,Ahmedabad,"Graziana Towers, Rabarivas, Near Dandi Bridge, Ashram Road, Sabarmati, Ahmedabad 380051, GJ",,",gm.pah1@lemontreehotels.com,feedback@ahmedabadcity.gov.in,","23.0647888,72.4025927"
The Gymnasium - Vastrapur - Ahmedabad,Gym,Ahmedabad,"Mahavir Nagar Society, 2nd Floor, Near The Bright Chef, Vastrapur, Ahmedabad 380015, GJ",,",support@gymcompany.co.za,feedback@ahmedabadcity.gov.in,","23.0375235,72.4839787"
The Fitness Culture - Ellis Bridge - Ahmedabad,Gym,Ahmedabad,"F-9, World Business House, Besides Mercedes Benz Showroom, Parimal Garden Cross Roads, Ellisbridge, Ahmedabad, Gujarat 380006",079 2646 4692,"info@ellisbridgegymkhana.com,,info@thefitnessculture.in,","23.0193344,72.5485708"
The Fitness Club - Bopal - Ahmedabad,Gym,Ahmedabad,"301, Jaymadi Darshan Complex, 3rd Floor, Near Kabir Enclave, Bopal-Ghuma Road, Bopal, Ahmedabad 380058, GJ",+91-7490983388,,"23.02415,72.4345521"
The Club Gym - Paldi - Ahmedabad,Gym,Ahmedabad,"Vikas Gruh Rd, near Shandilya Complex, opposite Vikasgruh, Opera Society, Sharda Nagar, Paldi, Ahmedabad, Gujarat 380007",082382 22620,",bankerangad21@gmail.com,","23.0100091,72.5421927"
The Ashoka Gym - Sola - Ahmedabad,Gym,Ahmedabad,"276, 2nd Floor, Shukan Mall, Science City, Sola,, Ahmedabad - 380060, near CIMS H, Ahmedabad, Gujarat 380060",096871 19922,",tejaspatel405@yahoo.com,","23.0716702,72.5056981"
Talwalkars Fitness Solution - Mitha Khali - Ahmedabad,Gym,Ahmedabad,"3rd Floor, Mega House, near pantaloons, Mithakhali, Navrangpura, Ahmedabad, Gujarat 380009",+91-8000718899,,"23.0302324,72.5522641"
Synergy Gym - Ghodasar - Ahmedabad,Gym,Ahmedabad,"1st floor, Shiv corner, above Bharat Vikas Parishad( Physiotherapy centre near Municipal water tank, Smruti Mandir Rd, Samrat Nagar, Ghodasar, Ahmedabad, Gujarat 382445",063543 36658,",synergygym2015@gmail.com,","22.9751344,72.5981567"
Symbo Gym And Fitness Centre - Satellite - Ahmedabad,Gym,Ahmedabad,"Neelkanth Palace B, 5th Floor, Opposite Vodafone Store Seema Hall, 100 Feet Ring Road, Satellite, Ahmedabad 380015, GJ",+91-79-40084242,",symbogym@gmail.com,","23.0197297,72.4944116"
Sway Dance Studio - Satellite - Ahmedabad,Gym,Ahmedabad,"309A, Shital Varsha, Shivranjani Cross Rd, opp. PC Jewelers, Satellite, Ahmedabad, Gujarat 380015",099241 88155,,"23.0252677,72.5191951"
Surya Yoga Center - Satellite - Ahmedabad,Gym,Ahmedabad,"4H6P+772, Durga Krupa Society, Nigam Nagar, Chandkheda, Ahmedabad, Gujarat 382424",+91-7405299984,,"23.1106288,72.575326"
Sun N Sand Gym - Nikol - Ahmedabad,Gym,Ahmedabad,"14, Shyamved Residency, Near Manmohan Cross Road, Viratnagar Road, Nikol, Ahmedabad 382350, GJ",,",feedback@ahmedabadcity.gov.in,","23.0359615,72.6100007"
Sun Fitness Gym - Sarkhej - Ahmedabad,Gym,Ahmedabad,"Maulana Arcade, Sarkhej Makarba Rd, Makarba, Ahmedabad, Gujarat 382210",097147 47472,,"22.9879721,72.4945918"
Sujivan Center For Wellness - Bopal - Ahmedabad,Gym,Ahmedabad,"Bungalow No 35, Prakash School, Opposite Tulip School, Sterling City Road, Sector D-2, Bopal, Ahmedabad 380058, GJ",+91-9909700660,,"23.0172409,72.3504402"
Studio DE Physique - Sarkhej - Ahmedabad,Gym,Ahmedabad,"Sarkhej - Gandhinagar Hwy, Ramdev Nagar, Ahmedabad, Gujarat 380015",079 6631 0522,,"23.0268876,72.4978849"
Strength The Ultimate Gym - Chandkheda - Ahmedabad,Gym,Ahmedabad,"101, Vithhal The Mall, Visat-Gandhinagar Highway, Chandkheda, Ahmedabad, Gujarat 382424",098244 47107,,"23.1067244,72.5878247"
Step Shooters The Crew - Vadaj - Ahmedabad,Gym,Ahmedabad,"3, Utsav Complex, Opposite Bhavsar Hostel, Vadaj, Ahmedabad 380013, GJ",+91-8460457810,,"23.0327103,72.5007681"
Step 2 Well Fitness Centre - Meghani Nagar - Ahmedabad,Gym,Ahmedabad,"Patel Society, Asarwa, Ahmedabad, Gujarat 380016",098249 56259,,"23.0489067,72.5955582"
Stay Fit - Motera - Ahmedabad,Gym,Ahmedabad,"202 URJA COMPLEX, near Devpriya Complex, Motera, Ahmedabad, Gujarat 380005",096625 38088,"mairyahitendra@yahoo.com,,fitfab7@gmail.com,info@healthismplus.com,","23.1008096,72.5910817"
Stallions Fitness - Bopal - Ahmedabad,Gym,Ahmedabad,"412, Gala Mart, nr. Sobo Centre, South Bopal, Bopal, Ahmedabad, Gujarat 380058",097148 20748,",Umeshgym2013@gmail.com,","23.0169727,72.4626035"
Sport Fitness World - Naroda - Ahmedabad,Gym,Ahmedabad,"Pushpak Arcade, 4th Floor, Opposite Hirawadi Brts Bus Stop, Thakkarbapa Nagar Road, Naroda, Ahmedabad 382350, GJ",,",worldgym.ahmedabad76@gmail.com,jpmalviya78@yahoo.com,","23.0589476,72.5708923"
Sport Fitness Word - Chandkheda - Ahmedabad,Gym,Ahmedabad,"Nashtra Arcade, 4th Floor, Near Manikrupa School, IOC Road, Chandkheda, Ahmedabad 382424, GJ",+91-9898552020,",feedback@ahmedabadcity.gov.in,","23.0799034,72.4589389"
Spectra Gym - Juhapura - Ahmedabad,Gym,Ahmedabad,"Circle, Shop No. 1, 2, 3, Fourth Floor, Al Muqaam, Jawaharlal Nehru Road, Nr. APMC Market Vishala, Ahmedabad, Gujarat 380055",099980 62666,",feedback@ahmedabadcity.gov.in,","22.9957847,72.5229404"
Spark Fitness - Bodakdev - Ahmedabad,Gym,Ahmedabad,"303, 3rd Floor, Sapath Complex, Sarkhej - Gandhinagar Hwy, opp. Rajpath Rangoli Road, Highway Park Society, Bodakdev, Ahmedabad, Gujarat 380053",+91-9512990303,,"23.0358992,72.5008897"
Songars Gym - Naranpura - Ahmedabad,Gym,Ahmedabad,"B-409,410 Shivalik Yash Complex, Shastrinagar Cross Road, 132 Feet Ring Rd, Naranpura, Ahmedabad, Gujarat 380013",097243 70580,,"23.0619886,72.5429598"
Silver Gym - Hansol - Ahmedabad,Gym,Ahmedabad,"Ashray Apartment, Near Sardar Nagar, Airport Road, Hansol, Ahmedabad 382475, GJ",,",silverlifegym4@gmail.com,","23.0531964,72.4362913"
Shri Ambubhai Purani Vyayam Vidyalaya - Kankaria - Ahmedabad,Gym,Ahmedabad,"Gate No 3, Near Football Ground, Kankaria Road, Kankaria, Ahmedabad 380022, GJ",+91-79-25453591,,"23.00185,72.5627309"
Shree Golden Fitness Health Club - Naroda - Ahmedabad,Gym,Ahmedabad,"Dipika Tower, 1st Floor, Near Amts Bus Stop, Naroda, Ahmedabad 382330, GJ",+91-9979872829,,"23.0764988,72.6426"
Shape Up Gym - Juhapura - Ahmedabad,Gym,Ahmedabad,"ROYAL AKBAR TOWER, Al Kamar Society, Juhapura, Ahmedabad, Gujarat 380055",088665 09736,",feedback@ahmedabadcity.gov.in,","22.9937598,72.5140531"
Shape In Slimming Center - Gota - Ahmedabad,Gym,Ahmedabad,"15, Vandematram Arcade, 2nd Floor, Near Vandematram, New S G Road, Gota, Ahmedabad 382481, GJ",+91-9152809546,,"23.0790917,72.5222791"
Shape In Nutrition Center - Vastrapur - Ahmedabad,Gym,Ahmedabad,"128, Advait Mall, Next To Bellezza Salon, Sandesh Press Road, Vastrapur, Ahmedabad 380015, GJ",+91-7875036469,,"23.029653,72.5176779"
Shain Fitness - Sola - Ahmedabad,Gym,Ahmedabad,"276, Shukan Mall, 2nd Floor, Near CIMS Hospital, Science City Road, Sola, Ahmedabad 380060, GJ",+91-7990802830,",feedback@ahmedabadcity.gov.in,","23.0842949,72.4826189"
SFW The Gym Platinum - Gota - Ahmedabad,Gym,Ahmedabad,"601, NY Square, NR Vandematram Cross Rd, above SBI Bank, Gota, Ahmedabad, Gujarat 382481",097277 33388,,"23.0990973,72.5407235"
SFW The Gym - Paldi - Ahmedabad,Gym,Ahmedabad,"First floor, Hi-Tech Building, Opp NID, Nr. Diwan Ballubhai School, Bhagtacharya Rd, Paldi, Ahmedabad, Gujarat 380007",095371 60521,",info@sfwthegym.com,","23.0122593,72.5579877"
SFW The Gym - Naroda - Ahmedabad,Gym,Ahmedabad,"4th Floor, Neelkanth Paradise, Naroda Rd, near Galaxy Cinema, Naroda, Ahmedabad, Gujarat 382330",099984 62039,",info@sfwthegym.com,","23.0776759,72.6431688"
SFW The Gym - Chandkheda - Ahmedabad,Gym,Ahmedabad,"Ganga Heights, 601/602, nr. KB ROYAL PHOENIX, opp. AMC Garden, Chandkheda, Ahmedabad, Gujarat 382424",+91-9152622514,,"23.1205037,72.5612946"
SFW The Gym - Vastrapur - Ahmedabad,Gym,Ahmedabad,"5th Floor Shukhshine complex Above,Chocolate Room Opp,Freezland, Sunrise Park Road, Vastrapur, Ahmedabad, Gujarat 380015",099984 62039,",Info@sfwthegym.com,","23.0444815,72.5190703"
Scorpians Gym - Maninagar - Ahmedabad,Gym,Ahmedabad,"Shop No.9 10 A-6A-8 3rd Floor Nandanvan Complex Jawahar Chowk Vallabhwadi, Bhairavnath Road, Nirankar Society, Maninagar, Ahmedabad, Gujarat 380008",094292 01910,",feedback@ahmedabadcity.gov.in,","22.9955522,72.590126"
Samurai Fitness - Bodakdev - Ahmedabad,Gym,Ahmedabad,"4th Floor, Primate Complex, samurai fitness, Satya Marg, near Gormoh Restaurant, off Judges Bunglow Road, Bodakdev, Ahmedabad, Gujarat 380054",070698 59951,",info@samuraifitness.in,samuraifitnessstudio@gmail.com,smile@samuraifitness.in,","23.0354779,72.5058486"
Sabbir gym trainer - Navrangpura - Ahmedabad,Gym,Ahmedabad,"Near Reliance Fresh, Darpan Cross Roads, Navrangpura, Ahmedabad 380009, GJ",+91-9328777000,,"14.5146934,34.9762924"
Royal Fitness - Amraiwadi - Ahmedabad,Gym,Ahmedabad,"1st Floor, Mama Complex, Rewa Bhai Road, C.T.M, Amraiwadi, Ahmedabad, Gujarat 380026",097243 34234,,"22.9922615,72.6242756"
Rockstar Gym - Maninagar - Ahmedabad,Gym,Ahmedabad,"FF-01, Haridwar Residency, Mira Cinema Rd, near meera crossroad, above Adc bank, Pragati Society, Bhairavnath, Maninagar, Ahmedabad, Gujarat 380028",085115 84048,,"22.9980587,72.5830262"
Remeny Fitness Gym - Ambli - Ahmedabad,Gym,Ahmedabad,"Shop No 365, Gala Gymkhana Road, Off. S.P, Sardar Patel Ring Rd, South Bopal, Bopal, Ahmedabad, Gujarat 380058",+91-9974443839,,"23.0173688,72.4653401"
Re Fuel Health and Gym - Paldi - Ahmedabad,Gym,Ahmedabad,"310, Nilkanth Plaza, 3rd Floor, Near Honest Bhaji-Pao, Paldi-Bhattha, Maharana Pratap Road, Paldi, Ahmedabad 380007, GJ",+91-7567310047,",feedback@ahmedabadcity.gov.in,","23.0199044,72.2497515"
Reform Health Centre - Ghatlodiya - Ahmedabad,Gym,Ahmedabad,"2nd Floor, Water Tank, Hirakunj Complex, near Ghatlodia, Ghatlodiya, Ahmedabad, Gujarat 380061",098247 54760,",feedback@ahmedabadcity.gov.in,","23.0686427,72.5285045"
Re Create - Paldi - Ahmedabad,Gym,Ahmedabad,"101, Karma Complex Suvidha &, New Mahalaxmi Cross Rd, next to Kaushambi, apts, Paldi, Ahmedabad, Gujarat 380007",098245 43609,"recreatehealth@yahoo.com,,","23.0129124,72.5499411"
Ramas Gym And Fitness - Gota - Ahmedabad,Gym,Ahmedabad,"B-28, Vande Mataram Arcade, Near Pizza Tune, SG Road, Gota, Ahmedabad 382481, GJ",+91-9714174650,",vipulramas@gmail.com,u003evipulramas@gmail.com,","23.1024773,72.5317956"
Raj Gym And Body Fitness Studio - Khanpur - Ahmedabad,Gym,Ahmedabad,"2Hhj+Mhh, Road, Old City, Khanpur, Ahmedabad, Gujarat 380001",095866 33301,",rkfitnessdwarka@gmail.com,","23.0292585,72.571088"
Pro Fitness - Vastral - Ahmedabad,Gym,Ahmedabad,"5-A, 5th Floor, Near Sanjeevani Hospital, Mahadev Nagar Tekra, Vastral Road, Vastral, Ahmedabad 380024, GJ",,",feedback@ahmedabadcity.gov.in,","23.0071695,72.4530892"
Pro Fitness - Naroda - Ahmedabad,Gym,Ahmedabad,"Cine Pride Multiplex, 3rd Floor, Near Prathna Surgivcal Apartment, Krishna Nagar, Naroda, Ahmedabad 382345, GJ",,",feedback@ahmedabadcity.gov.in,","23.0219093,72.4678851"
Pro Fitness - Ellis Bridge - Ahmedabad,Gym,Ahmedabad,"Shaival Plaza, 3rd Floor, Above Tasty Restaurant, Parimal Garden Ellisbridge Road, Ellis Bridge, Ahmedabad 380009, GJ",+91-9152583246,,"23.0206827,72.5538966"
Pro Fitness - Isanpur - Ahmedabad,Gym,Ahmedabad,"403-404, Shrimad Complex, Near Swaminarayan Nagar 1, Narol-Aslali Highway, Isanpur, Ahmedabad 382405, GJ",+91-9825653380,",feedback@ahmedabadcity.gov.in,","23.0048497,72.4038446"
Prime Health Club - Ghatlodiya - Ahmedabad,Gym,Ahmedabad,"Kalindi Park, KK Nagar Rd, near patidar chowk, Ghatlodiya, K K Nagar, Ahmedabad, Gujarat 380061",091738 60233,"nishith1984@yahoo.com,,","23.0721513,72.5402146"
Prime Fitness Studio - Nikol - Ahmedabad,Gym,Ahmedabad,"Pavilion Mall, Opposite Axis Bank ATM, New India Colony, Nikol, Ahmedabad 382345, GJ",+91-7698157698,,"23.0526982,72.6593106"
Power Gym - Ranip - Ahmedabad,Gym,Ahmedabad,"A-401,402, 403 Radhika Residency, Chenpur Rd, New Ranip, Ahmedabad, Gujarat 380081",097262 01440,",info@gymlounge.in,feedback@ahmedabadcity.gov.in,","23.0974379,72.5490238"
Power Fitness Zone Shyam Shikhar - Bapunagar - Ahmedabad,Gym,Ahmedabad,"A-35, Shaktidhara Society, Near Dinesh Chamber, Shaktidhara Road, Bapunagar, Ahmedabad 380024, GJ",+91-9638478736,,"23.0416983,72.6152432"
Power Fitness Zone - Bapunagar - Ahmedabad,Gym,Ahmedabad,"7,8,9, Bhavani Complex, 2nd Floor, Opposite Khodiyarnagar, BRTS Bus Stop, Bapunagar, Ahmedabad 380024, GJ",+91-8849469560,,"23.0366792,72.6241112"
Plus Fitness 24/7 - Bopal - Ahmedabad,Gym,Ahmedabad,"Binori Gracia, Level 1, Opposite Sobo Center, South Bopal, Ahmedabad 380058, GJ",+91-7575089999,",southbopal@plusfitness.co.inFranchisee,","23.046039,72.4067074"
Plus Fitness 24/7 - Memnagar - Ahmedabad,Gym,Ahmedabad,"Level 1, Yash Aryan, YASH ARIAN, 15, Memnagar Rd, Bhuyangdev Society, Memnagar, Ahmedabad, Gujarat 380052",075750 69999,",memnagar@plusfitness.co.in,nmemnagar@plusfitness.co.in,","23.0521458,72.5279372"
Plus Fitness 24/7 - Bodakdev - Ahmedabad,Gym,Ahmedabad,"Devashish Business Park, Level 1, above Mocha Cafe, Bodakdev, Ahmedabad, Gujarat 380015",075750 29999,",info@plusfitness.co.in,ninfo@plusfitness.co.in,","23.031919,72.5008324"
Physio Fitness - Maninagar - Ahmedabad,Gym,Ahmedabad,"Cortiyark Complex, Basement No 10, Opposite LG Hospital, Maninagar, Ahmedabad 380008, GJ",+91-9586743888,,"22.9958653,72.5966486"
Perfect Gym And Fitness Centre - Shahibaug - Ahmedabad,Gym,Ahmedabad,"Neelkanth Plaza, Upper Floor, Opp, Dr Ambedkar Rd, New Madhavpura Market, Jain Colony, Shahibag, Ahmedabad, Gujarat 380004",+91-9825599394,,"23.0484405,72.580037"
Parvs AR Fitness - Shahibaug - Ahmedabad,Gym,Ahmedabad,"B-244, Advance Business Park, Opposite Swaminarayan Temple, Police Commissioner Office Road, Shahibaug, Ahmedabad 380004, GJ",+91-8866001386,,"23.0571248,72.4256018"
Panchani Fitness - Nikol - Ahmedabad,Gym,Ahmedabad,"4th Floor, Plam Arcade, Shukan Cross Road, Nikol - Naroda Rd, Ahmedabad, Gujarat 382350",075674 35040,,"23.0503837,72.6542376"
Panchani Fitness - Bapunagar - Ahmedabad,Gym,Ahmedabad,"4th Floor, Plam Arcade, Shukan Cross Road, Nikol - Naroda Rd, Ahmedabad, Gujarat 382350",075674 35040,,"23.0503837,72.6542376"
Panchani Fitness - Naroda - Ahmedabad,Gym,Ahmedabad,"1 To 7, Vitthal Plaza, 4th Floor, Near Haridarshan, Dehgam Highway Road, Naroda, Ahmedabad 382330, GJ",+91-7567435040,,"23.0651289,72.6479793"
Oxygen Gym - Nikol - Ahmedabad,Gym,Ahmedabad,"403-4th Floor,Platinium Plaza, Opp. Macdonald & Rajhans Cinema Shukan Cross Road, Nikol, Ahmedabad, Gujarat 382340",097373 43534,,"23.0499976,72.6573618"
Orange Fitness - Navrangpura - Ahmedabad,Gym,Ahmedabad,"4TH Floor ""A"" Wing, Akshar Arcade, Fire Station, Vijay Cross Rd, opp. Memnagar, above Dinner Bell Restaurant, Sarvottam Nagar Society, Navrangpura, Ahmedabad, Gujarat 380014",098250 20079,",feedback@ahmedabadcity.gov.in,","23.0457142,72.5422306"
Optimus Health And Fitness - Paldi - Ahmedabad,Gym,Ahmedabad,"Mahavir Tower, 2/B First Floor, Arun Society ,Mahalaxmi Char Rasta, Opp, Paldi Rd, Paldi, Ahmedabad, Gujarat 380007",+91-8487970408,,"23.0113825,72.5530966"
One Life The Hub Of Fitness - Isanpur - Ahmedabad,Gym,Ahmedabad,"Ganesh Park, A/31, 2, Gowindwadi Cir, Isanpur, Ahmedabad, Gujarat 382443",+91-8511447030,",feedback@ahmedabadcity.gov.in,","22.9805954,72.5862872"
Nine Fitness Studio - Bodakdev - Ahmedabad,Gym,Ahmedabad,"304, ARISTA, 3rd Floor, Opposite HOF Showroom, Sindhu Bhavan Road, Bodakdev, Ahmedabad 380054, GJ",+91-8320609825,",feedback@ahmedabadcity.gov.in,","23.0227831,72.4034697"
New Body Shape Gym And Fitness Centre - Vadaj - Ahmedabad,Gym,Ahmedabad,"4th Floor, Sweni complex, Nava Wadaj Rd, near Akhbar Nagar Circle, Khat Colony, Nava Vadaj, Ahmedabad, Gujarat 380013",097119 34923,,"23.0662414,72.552567"
Nehas Fitness Studio - Bodakdev - Ahmedabad,Gym,Ahmedabad,"Bajrang Super Market, K 158, Abv ICICI Bank, Bodakdev, 201/202, Sindhubhavan Marg, Thaltej, Ahmedabad, Gujarat 380054",098250 13357,,"23.0401861,72.4939134"
Naturayog Healthcare Center - Maninagar - Ahmedabad,Gym,Ahmedabad,"1, Nehrupark Society, Temple Cross Road, near Bhairavnath, opp. Bhairavnath Bus Station, Pragati Society, P & T Colony, Maninagar, Ahmedabad, Gujarat 380028",073591 91004,",naturayog@gmail.com,","22.9954315,72.5859072"
Nadooozzz Way to Fitness - Hansol - Ahmedabad,Gym,Ahmedabad,"272, Maharathi Society, Behind Municiple Community Hall, Airport Road, Sardar Nagar, Hansol, Ahmedabad 382475, GJ",,",feedback@ahmedabadcity.gov.in,","21.0757212,70.2830402"
My Self Health Centre - Maninagar - Ahmedabad,Gym,Ahmedabad,"7, Nandanvan Complex, 2nd Floor, Opposite Gopal Chowk, Bhairavnath Road, Maninagar, Ahmedabad 380008, GJ",+91-79-65416876,,"22.9910259,72.5715958"
My Gym - Sarkhej - Ahmedabad,Gym,Ahmedabad,"Avalon House, Sarkhej-Gandhinagar Highway, Near Karnavati Club, Sarkhej, Ahmedabad 380054, GJ",+91-8000069496,",ahmedabad@mygym-india.com,feedback@ahmedabadcity.gov.in,x3einfo@gymcompany.co.za,info@gymcompany.co.za,","23.0101988,72.3624796"
My Fitness Hub - Ghatlodiya - Ahmedabad,Gym,Ahmedabad,"Shayona City Shopping Center, Opp Akshar Vidhaylaya, Ghatlodiya, Chanakyapuri, Ahmedabad, Gujarat",070415 87195,",info@gymcompany.co.za,x3einfo@gymcompany.co.za,","23.0788336,72.5266835"
Muscular Gym - Maninagar - Ahmedabad,Gym,Ahmedabad,"4rth Floor, Elegance Complex, besides Nr. Gopal Tower, Station road, Karnavati Pagarkha Bazaar, Near Railway Station, Maninagar Cross Road, Ahmedabad, Gujarat 380008",+91-9898420111,",info@gymlounge.in,office@iitram.ac.in,","22.9961693,72.5892868"
Muscle Garaage - Hansol - Ahmedabad,Gym,Ahmedabad,"136/b, Airport Rd, Near Patanjali swadeshi Bazar, Sardarnagar, Hansol, Ahmedabad, Gujarat 382475",079000 79888,",memberexperience@anytimefitness.in,","23.0824379,72.6081255"
Muscle Fitness Studio - Sola - Ahmedabad,Gym,Ahmedabad,"201, Shafalya Complex, Opposite Water Tank, Science City Road, Sola, Ahmedabad 380060, GJ",+91-9998809241,,"23.0821688,72.3933393"
Muntazims Ultimate Gym - Juhapura - Ahmedabad,Gym,Ahmedabad,"D-Block Basement, Sunrise Arcade, Circle, Unit Hills Society, Rehnuma Society, Vishala, Ahmedabad, Gujarat 380055",097145 53800,,"22.994551,72.5232619"
Monty's Fitness Studio - Satellite - Ahmedabad,Gym,Ahmedabad,"12, Ratnadeep Complex, Above Planet Health, Prernatirth Derasar Cross Road, Satellite, Ahmedabad 380051, GJ",+91-8153002888,",feedback@ahmedabadcity.gov.in,","23.0225929,72.4614318"
Mission Health Multi Speciality Physiotherapy Centre - Chandkheda - Ahmedabad,Gym,Ahmedabad,"4th Floor, AARON ELEGANCE, New CG Rd, opp. Radhe Bunglows, Shrinath Bungalows-I, Nigam Nagar, Chandkheda, Ahmedabad, Gujarat 382424",079 2329 6001,,"23.1087945,72.5849228"
Millionaires Health Club - Bopal - Ahmedabad,Gym,Ahmedabad,"Aaradhya Business Temple, Gala Gymkhana Rd, opp. CELEBRATION CITY CENTER, Chittavan, South Bopal, Bopal, Ahmedabad, Gujarat 380058",+91-9998894133,,"23.0231831,72.4611599"
Marshal Gym - Meghani Nagar - Ahmedabad,Gym,Ahmedabad,"2nd Floor, Dinesh Commercial Centre, Meena Bazar, Meghaninagar, Ahmedabad, Gujarat 380016",099911 67991,",feedback@ahmedabadcity.gov.in,","23.0535295,72.6078261"
Mann Health And Fitness - Prahlad Nagar - Ahmedabad,Gym,Ahmedabad,"Prahlad Nagar, Ahmedabad, Gujarat 380051",090810 26260,",admin@fitnesspoint.in,","23.0118743,72.4973596"
Malhar Gym - Sola - Ahmedabad,Gym,Ahmedabad,"Malhar Complex, 4th Floor, Below Sola Science City Overbridge, Off S G Road, Sola, Ahmedabad 380060, GJ",+91-8141949494,",feedback@ahmedabadcity.gov.in,","23.0724479,72.4971064"
Mac Fitness - Ellis Bridge - Ahmedabad,Gym,Ahmedabad,"4th & 5th Floor, Shri Vardhman, Nr. Shambhu cafe, H.L College, road, Navrangpura, Ahmedabad, Gujarat 380009",+91-9924233355,"info@ellisbridgegymkhana.com,,","23.0316896,72.544864"
Life Style Gym - Naranpura - Ahmedabad,Gym,Ahmedabad,"3, Tejendra Park Society, Near Mirambica School, Gharda Ghar Road, Naranpura, Ahmedabad 380013, GJ",+91-79-26461583,",silverlifegym4@gmail.com,","23.0991015,72.2300307"
Life Solutions Club - Vastrapur - Ahmedabad,Gym,Ahmedabad,"105,Himalaya Arcade A,Near Vastrapura lake",097147 33653,,"23.0372182,72.5191221"
Life Fitness Point - Bopal - Ahmedabad,Gym,Ahmedabad,"Orchid Shopping Mall, Thaltej Rd, South Bopal, Thaltej, Ahmedabad, Gujarat 380058",070439 22666,",southbopal@plusfitness.co.inFranchisee,","23.0167291,72.4598022"
Life Fitness Point - Shyamal - Ahmedabad,Gym,Ahmedabad,"411/411-A/411-B, Shangrila Arcade, Near Shyamal Crossroad, Shyamal, Ahmedabad 380015, GJ",+91-9726722666,,"23.009042,72.4849005"
Life Fitness Point - Bodakdev - Ahmedabad,Gym,Ahmedabad,"Orchid Plaza, Judges Bungalow Road, beside Pride Hotel, Ahmedabad, Gujarat 388504",072268 13666,,"23.0379161,72.5040749"
Life fitness point - Thaltej - Ahmedabad,Gym,Ahmedabad,"Orchid Shopping Mall, Bhagwatikrupa Society, Near Tree House Play Group, Thaltej Road, Thaltej, Ahmedabad 380054, GJ",,",admin@fitnesspoint.in,","23.0517113,72.2451827"
Life Fitness Point - Paldi - Ahmedabad,Gym,Ahmedabad,"101, Scarlet business hub, opp. Aankur high school, near Paldi, Bhatta, Paldi, Ahmedabad, Gujarat 380007",084011 22443,,"23.0080588,72.5502185"
Life Fitness Point - Prahlad Nagar - Ahmedabad,Gym,Ahmedabad,"105 to 107, 1st Floor, Ratnanjali Square, Prernatirth Derasar Rd, near Gloria Restaurant, Jodhpur Village, Ahmedabad, Gujarat 380015",+91-7226081666,,"23.0144059,72.5072001"
Life Fitness Point - Nikol - Ahmedabad,Gym,Ahmedabad,"SHANTI NIKETAN BUSINESS CENTER, 301/302, Gangotri Cir Rd, Nikol, Ahmedabad, Gujarat 382350",076001 31766,,"23.0455261,72.6591168"
Life Fitness Point - Maninagar - Ahmedabad,Gym,Ahmedabad,"5/6/7th floor, Attrey Rudra Business Hub, opposite Sankalp Restaurant, Maninagar, Ahmedabad, Gujarat 380008",06355 056 702,,"22.9967905,72.5935235"
Life Fitness Point - Ambawadi - Ahmedabad,Gym,Ahmedabad,"Sigma Legacy, 2nd Floor, Near Panjrapole, IIM Road, Ambawadi, Ahmedabad 380015, GJ",+91-9898666652,",lifecustomercare@gmail.com,","23.0247133,72.409279"
Leo Gym And Nutrition - Maninagar - Ahmedabad,Gym,Ahmedabad,"A-21, 2nd Floor, Radhe Mall, Near Khokhra Circle, Khokhra Road, Maninagar, Ahmedabad 380008, GJ",+91-9099067116,,"22.9885763,72.5647885"
Krishna gym and health center - Vastral - Ahmedabad,Gym,Ahmedabad,"204, Radhe Complex, Opposite Madhav Park, Vastral Road, Vastral, Ahmedabad 382418, GJ",+91-7819942286,,"22.9541014,72.1898624"
Khan's Gym - Juhapura - Ahmedabad,Gym,Ahmedabad,"Green Plaza, 2nd Floor, Near Asal Ambavadi Sarkhej Road, Tawa, Juhapura, Ahmedabad 380055, GJ",+91-9173561565,",feedback@ahmedabadcity.gov.in,","22.9932586,72.5139565"
KFS Gym And Total Fitness Studio - Thaltej - Ahmedabad,Gym,Ahmedabad,"1st Floor, Narayan Chambers, India Colony Rd, Thakkarbapanagar, Bapunagar, Ahmedabad, Gujarat 380024",+91-7698985998,",info@kfsfitness.com,","23.0389347,72.6253028"
KFA Fitness Studio - Paldi - Ahmedabad,Gym,Ahmedabad,"501/5, Shivalik Complex, Near Mahalaxmi Cross Road, Paldi, Ahmedabad 380004, GJ",+91-9157962000,",kfaspa2026@gmail.com,","23.0317987,72.2600466"
Keval Rinni's Fitness Studio - Gandhinagar - Ahmedabad,Gym,Ahmedabad,"1, Rajdhani Complex, 1st Floor, Near Reliance Cross, Gandhi Nagar, Ahmedabad 382421, GJ",+91-9974182877,,"23.1902051,72.6225753"
Kandhari Health Club - Naroda - Ahmedabad,Gym,Ahmedabad,"Kandhari Chambers, 2nd Floor, Opposite ST Workshop, Naroda Road, Naroda, Ahmedabad 382330, GJ",+91-79-22816550,",feedback@ahmedabadcity.gov.in,","23.0739079,72.6277352"
IT Figures - Navrangpura - Ahmedabad,Gym,Ahmedabad,"A/43, Purnima Apartment, Ishwar Bhavan, Navrangpura, Navrangpura, Ahmedabad, Gujarat 380009",079 2646 5706,",feedback@ahmedabadcity.gov.in,","23.0366743,72.565914"
Iron Gym N Studio - Khokhra Mehmadabad - Ahmedabad,Gym,Ahmedabad,"2nd Floor, Rohit Mill Cir, above Bank Of Baroda, Ahbab Nagar, Maninagar East, Khokhra, Ahmedabad, Gujarat 380008",084878 79995,,"23.0017289,72.6082512"
Iron Fitness Zone - Naroda - Ahmedabad,Gym,Ahmedabad,"4th Floor, Shantiniketan Business Center, Gangotri Circle Nikol, Gujarat 382350",094095 20141,",powerfitnesszoneabd@gmail.com,feedback@ahmedabadcity.gov.in,","23.0209394,72.6272649"
Intensity Gym - Bopal - Ahmedabad,Gym,Ahmedabad,"Commercial Basement, Amrapali Exiom, Near Dominos, SP Ring Road, Bopal, Ahmedabad 380058, GJ",+91-7567244488,,"23.0323206,72.3468155"
Intensity Beyond Fitness - Naranpura - Ahmedabad,Gym,Ahmedabad,"401, Ratna High Street, Near, Naranpura Cross Road, Parshwanath Society, Sundar Nagar, Naranpura, Ahmedabad, Gujarat 380013",1800 123 3866,",ninfo@intensity.net.in,info@intensity.net.in,","23.0527489,72.5489036"
Inspiration - Ranip - Ahmedabad,Gym,Ahmedabad,"Radhika Residency, 5th Floor, Chainpur Petrol Pump, Radhaswami Road, Ranip, Ahmedabad 382470, GJ",+91-9909090301,",info@hulkboosters.com,info@gymlounge.in,","23.0770697,72.5081815"
I Lift Gym - Prahlad Nagar - Ahmedabad,Gym,Ahmedabad,"100 Feet Rd, above Kotak Mahindra Bank, Prahlad Nagar, Ahmedabad, Gujarat 380015",095121 34563,,"23.0121732,72.497683"
I Gymholic Makarba - Sarkhej - Ahmedabad,Gym,Ahmedabad,"XGV7+752, Makarba Rd, Shri Ram Nagar, Juhapura, Ahmedabad, Gujarat 380051",+91-9512662664,",feedback@ahmedabadcity.gov.in,","22.9931496,72.5025943"
I Gymholic - Bopal - Ahmedabad,Gym,Ahmedabad,"Amrapali Axiom, 4th Floor, Above Domino's, Bopal Ambli Cross Road, Bopal, Ahmedabad 380058, GJ",+91-7574899666,,"22.992634,72.4837493"
I Fit Yoga and Fitness Studio - Nirnay Nagar - Ahmedabad,Gym,Ahmedabad,"23, Local Rd, Nirnay Nagar Sector VII, Nirnay Nagar, Ahmedabad, Gujarat 382481",,",dbanv76@gmail.com,admin@fitnesspoint.in,","23.0770388,72.5484146"
I Can Health Club - Hansol - Ahmedabad,Gym,Ahmedabad,"401, Business Hub, opp. Ved Bungalow, Nana Chiloda, Ahmedabad, Gujarat 382330",097120 17111,,"23.0974422,72.6536402"
Hunk Health Club - Odhav - Ahmedabad,Gym,Ahmedabad,"2JCQ+CG6, Soham Complex, block B, seller, apposite vatsalya hospital, Soni ni chali, G I D C Industrial Area, Odhav, Ahmedabad, Gujarat 382415",081408 30157,",feedback@ahmedabadcity.gov.in,","23.0210415,72.6284583"
Hercules Fitness Club - Rakhial - Ahmedabad,Gym,Ahmedabad,"Above naseeb medical store, Rakhial, Ahmedabad, Gujarat 380023",093276 53476,"support@herculesfitness.com,,","23.0213317,72.5827999"
Hellocity Gyms - Satellite - Ahmedabad,Gym,Ahmedabad,"401,Shivalik Corporate Park,132 Feet Ring Road, Near IOC Petrol Pump,Satellite, Ahmedabad, Gujarat 380015",+91-79-40065635,",feedback@ahmedabadcity.gov.in,","23.0195312,72.5189967"
Healthy Recharge Fitness Studio - Satellite - Ahmedabad,Gym,Ahmedabad,"basement, Iscon Center, Shivranjani Cross Rd, Shivranjani, Satellite, Ahmedabad, Gujarat 380015",+91-79-48993530,",feedback@ahmedabadcity.gov.in,","23.0240242,72.5196625"
Health Plus Gym - Satellite - Ahmedabad,Gym,Ahmedabad,"2nd floor, Santorini Square, opp. Star Bazaar, Satellite, Ahmedabad, Gujarat 380015",091040 40498,"info@health-plus.co.in,,healthplus24716@gmail.com,","23.024912,72.5129647"
Health Plus - Usmanpura - Ahmedabad,Gym,Ahmedabad,"Today Square, 5th Floor, Near Usmanpura Bridge, Ashram Road, Usmanpura, Ahmedabad 380013, GJ",+91-9104040498,"info@health-plus.co.in,,healthplus24716@gmail.com,","23.0459465,72.563586"
Health Club Slims - Chandkheda - Ahmedabad,Gym,Ahmedabad,"Swagat Status, 3rd Floor, Above Eat Punjab Restaurant, New CG Road, Chandkheda, Ahmedabad 382424, GJ",+91-99009912439,,"23.112789,72.5630355"
Happy Living Gym - Satellite - Ahmedabad,Gym,Ahmedabad,"141, Satyam Mall, Near Kameshwar School, Mansi Cross Road, Satellite, Ahmedabad 380015, GJ",+91-9152163273,,"23.0188575,72.3895046"
Gym Lounge - Shahibaug - Ahmedabad,Gym,Ahmedabad,"Ghevar Complex, Siddhi Vinayak Complex, 2nd, Circle, Shahibag, Ahmedabad, Gujarat",099099 40064,,"23.0565492,72.5887318"
Gym Lounge - Motera - Ahmedabad,Gym,Ahmedabad,"S Mall, 1st Floor, Above Tapovan Furniture, Motera Road, Motera, Ahmedabad 380005, GJ",+91-9909980971,,"23.1063836,72.5804179"
Gym Lounge - Gota - Ahmedabad,Gym,Ahmedabad,"502, NY square, NR Vandematram Cross Rd, above SBI Bank, Gota, Ahmedabad, Gujarat 380081",074338 67283,",gymloungegota0112@gmail.com,","23.0992069,72.5408224"
Gym Lounge - Chandkheda - Ahmedabad,Gym,Ahmedabad,"United Square, 1st & 2nd Floor, Durga Krupa Society, Opposite Shiv Shakti BRTS Bus Stop, Chandkheda, Ahmedabad 382424, GJ",,",info@gymlounge.in,","23.1076036,72.5490666"
Gym Lounge - Naroda - Ahmedabad,Gym,Ahmedabad,"Shree Ram chock, SHYAM ENCLAVE, 4th floor, opp. Green Mewada Party plot, Nava Naroda, Ahmedabad, Gujarat 382330",+91-9737005599,,"23.0601658,72.6492101"
Gvs Gym World - Ghodasar - Ahmedabad,Gym,Ahmedabad,"SF1,SF2,Rupala Complex,Opp.ICICI Bank,Nr. BRTS Above Royal Enfield Showroom,Ghodasar,Ahmedabadrat, Ghodasar, Ahmedabad, Gujarat 380043",074055 28220,",worldgym.ahmedabad76@gmail.com,","22.9778978,72.5984972"
Guru Hemang MMA Gym - Satellite - Ahmedabad,Gym,Ahmedabad,"408,shitalvarsha complex, Shivranjani Cross Rd, opp. Harit Zaveri, Satellite, Ahmedabad, Gujarat 380015",098330 86986,,"23.0249755,72.5190812"
Genesis Fitness Centre - Bodakdev - Ahmedabad,Gym,Ahmedabad,"202, Shilp Aaron, Sindhu Bhavan Road, Bodakdev, Off S. G. Highway, Ahmedabad, Gujarat 380054",+91-7698622223,,"23.059036,72.5064929"
Full Throttle Gym - Ranip - Ahmedabad,Gym,Ahmedabad,"GSRTC 5th floor, Arved Transcube plaza, Bandhu Nagar, Vijay Nagar, Ranip, Ahmedabad, Gujarat 382480",099798 66678,,"23.0684087,72.5658237"
Forever Fitness - Motera - Ahmedabad,Gym,Ahmedabad,"403, Tarang Safayar, 4th Floor, Near Shajanand Park, Koteshwar Mahadev Road, Motera, Ahmedabad 380005, GJ",+91-9826293089,",feedback@ahmedabadcity.gov.in,","23.4110178,71.837326"
Focus The Gym - Bopal - Ahmedabad,Gym,Ahmedabad,"X9PQ+WQW, Narmada Vasahat, Sanand, Gujarat 382110",070698 14625,,"22.9873554,72.3791486"
Fitt Wave Gym - Ellis Bridge - Ahmedabad,Gym,Ahmedabad,"GLS Campus, Gate, no 4, Netaji Rd, Ahmedabad, Gujarat 380006",097125 91145,"info@ellisbridgegymkhana.com,,","23.026497,72.548424"
Fitness X Stream - Chandlodiya - Ahmedabad,Gym,Ahmedabad,"Dhuliba Complex, 3rd Floor, Near Chandlodiya Nagarpalika, Jagatpur Road, Chandlodiya, Ahmedabad 382481, GJ",+91-9638601494,,"23.0899687,72.4815319"
Fitness Solution - Lal Darwaja - Ahmedabad,Gym,Ahmedabad,"char rast, Relief Rd, opp. Ahmedabad inn hotel, near Gheekanta, Old City, Gheekanta, Bhadra, Ahmedabad, Gujarat 380001",090336 10199,,"23.0274204,72.5763184"
Fitness Point - Ranip - Ahmedabad,Gym,Ahmedabad,"Arjun Complex, DD Care Hospital, Near Saurabh School, Vijay Nagar, Ranip, Ahmedabad 380013, GJ",,",admin@fitnesspoint.in,","23.0697561,72.5633274"
Fitness Fuel - Memnagar - Ahmedabad,Gym,Ahmedabad,"2ND FLOOR, Shreeji Complex, Gurukul Rd, opp. SWAMINARAYAN TEMPLE, Nilmani Society, Memnagar, Ahmedabad, Gujarat 380052",097143 32244,,"23.0465322,72.5230304"
Fitness Fuel - Gulbai Tekra - Ahmedabad,Gym,Ahmedabad,"1st Floor, Heritage Square, Panchvati, Gulbai Tekra Rd, Gulbai Tekra, Ahmedabad, Gujarat 380009",099099 39123,",thefitnessfuel.hr@gmail.com,","23.0266084,72.5424791"
Fitness Forever - Satellite - Ahmedabad,Gym,Ahmedabad,"Wide Angle, SG Hwy Service Rd, Ramdev Nagar, Ahmedabad, Gujarat 380015",089800 05050,,"23.0246047,72.4971051"
Fitness Factory Gym - Gheekanta - Ahmedabad,Gym,Ahmedabad,"2HGM+XX9, Old City, Gheekanta, Bhadra, Ahmedabad, Gujarat 380001",+91-7779099995,",memberexperience@anytimefitness.in,","23.0274172,72.5746857"
Fitness Battalain The Gym - Maninagar - Ahmedabad,Gym,Ahmedabad,"First, Second & Third Floor, Love Complex, Swaminarayan College Rd, opposite Apsara Cinema, Pushpkunj, Maninagar, Ahmedabad, Gujarat 380008",070162 16911,,"23.0031614,72.5868579"
Fitness Batallion - Maninagar - Ahmedabad,Gym,Ahmedabad,"First, Second & Third Floor, Love Complex, Swaminarayan College Rd, opposite Apsara Cinema, Pushpkunj, Maninagar, Ahmedabad, Gujarat 380008",070162 16911,,"23.0031614,72.5868579"
Fitness At Ur Home - Ranip - Ahmedabad,Gym,Ahmedabad,"Ganesh Park, A/31, 2, Gowindwadi Cir, Isanpur, Ahmedabad, Gujarat 382443",+91-7383394676,",memberexperience@anytimefitness.in,feedback@ahmedabadcity.gov.in,","22.9805954,72.5862872"
Fit Formance - Ambawadi - Ahmedabad,Gym,Ahmedabad,"204-206, 3rd Eye Vision, Above Nexa Showroom, IIM Road, Ambawadi, Ahmedabad 380006, GJ",+91-7043643690,",contact@fitformance.in,","23.0372324,72.438701"
Fit And Fab - Motera - Ahmedabad,Gym,Ahmedabad,"402, Vithal Mall,, Nr. Vishvakram Government Collage,, Koba Highway, Motera, Ahmedabad, Gujarat 380005",097144 48849,",bhupendaaryan.786@gmail.com,fitfab7@gmail.com,","23.1066328,72.5871222"
Fit 365 Nutrition Hub - Navrangpura - Ahmedabad,Gym,Ahmedabad,"202, Sigma Balaji Complex, Opposite CP Chamber, Navrangpura, Ahmedabad 380009, GJ",+91-9909222281,,"23.0573651,72.4634079"
Figure Maker Gym And Fitness Club - Isanpur - Ahmedabad,Gym,Ahmedabad,"Kalapi Complex, 3rd Floor, Opposite Danilimda BRTS Bus Stop, Danilimda, Isanpur, Ahmedabad 380028, GJ",+91-9723273027,,"22.969328,72.5593946"
Feel Perfect the Fitness Club - Memnagar - Ahmedabad,Gym,Ahmedabad,"F-6, Balaji Centre, Nilmani Society, Gurukul Road, Memnagar, Ahmedabad 380052, GJ",+91-8866520942,,"23.046318,72.5230001"
Ezeeslim Fitness Health Centre - Gulbai Tekra - Ahmedabad,Gym,Ahmedabad,"Samarpan Flats, 102 Aatish Annexe, Near, Gulbai Tekra Rd, Gulbai Tekra, Ahmedabad, Gujarat 380006",092272 33934,,"23.0269266,72.5430796"
Ezeeslim Fitness Centre - Paldi - Ahmedabad,Gym,Ahmedabad,"202, 203, Shukh Shanti Complex Opp Bhatta Post Office, Pankaj Society, Freniben Desai Marg, Dungarshinagar, Paldi, Ahmedabad, Gujarat 380007",079 6541 1637,",feedback@ahmedabadcity.gov.in,","23.0064793,72.5469962"
Ezeeslim Fitness Centre - Maninagar - Ahmedabad,Gym,Ahmedabad,"2nd Floor , Sumeru complex , Opp Tulsi Dining Hall , Station Road, Lala Lajpat Rai Marg, Rambagh, Maninagar, Ahmedabad, Gujarat 380008",079 6605 5709,,"22.9976316,72.596256"
Extreme Fitness - Bodakdev - Ahmedabad,Gym,Ahmedabad,"Stellar, 204, Sindhu Bhavan Marg, PRL Colony, Bodakdev, Ahmedabad, Gujarat 380054",099798 66651,",feedback@ahmedabadcity.gov.in,","23.039791,72.4972017"
Ellisbridge Gymkhana - Ellis Bridge - Ahmedabad,Gym,Ahmedabad,"2HF6+54G, Netaji Rd, Near Law Garden Ellisbridge Law Garden, Ellisbridge, Ahmedabad, Gujarat 380006",079 2642 5240,"info@ellisbridgegymkhana.com,,","23.0229252,72.5500157"
Elite Health And Fitness - Isanpur - Ahmedabad,Gym,Ahmedabad,"3rd, Floor Block- A, Radhekishan Business Park Near NH No.8, Narol - Naroda Rd, Isanpur, Ahmedabad, Gujarat 382443",+91-9624016061,,"22.973816,72.5831913"
Easy Burn - Paldi - Ahmedabad,Gym,Ahmedabad,"near the club gym, Shandilya Complex, Satguru house , opposite vikas gruh main gate , besides, Paldi, 380007",094263 54680,,"23.009889,72.5420001"
Diyus Fitness Point - Chandkheda - Ahmedabad,Gym,Ahmedabad,"Motera, Ahmedabad, Gujarat 382424",096876 85550,,"23.102182,72.583396"
Diyus Fitness Point - Bodakdev - Ahmedabad,Gym,Ahmedabad,"Heritage Plaza, Bodakdev Rd, Above @home by Nilkamal - Furniture and Homeware Store, Bodakdev, Ahmedabad, Gujarat 380054",079 4037 3555,",diyusfitnesspoint@gmail.com,","23.0429271,72.504505"
Country Club - Navrangpura - Ahmedabad,Gym,Ahmedabad,"207, Sachet 2, Opposite GLS College, Chimanlal Girdharlal Road, Navrangpura, Ahmedabad 380009, GJ",+91-79-40032282,",Secretary@agraclub.org,customercare@piyushpalace.com,feedback@ahmedabadcity.gov.in,","22.9743258,71.7470268"
Conquer Wellness Gym - Kankaria - Ahmedabad,Gym,Ahmedabad,"302, Sigma Esquire, Above Dominos Pizza, Rambaug Kankariya Road, Kankaria, Ahmedabad 380008, GJ",+91-79-25433309,,"18.5249103,73.7301893"
Comfortable Life Academy - Odhav - Ahmedabad,Gym,Ahmedabad,"D-152, Anantnath Krupa Society, Near Punjab National Bank, Odhav Road, Odhav, Ahmedabad 380010, GJ",+91-8141369392,,"23.0234391,72.6439229"
Classic Gym - Vastral - Ahmedabad,Gym,Ahmedabad,"5th Floor,Shashvat Mahadev Opp. Suryam Green Vastral, RTO Rd, Vastral, Ahmedabad, Gujarat 380038",096621 71748,",feedback@ahmedabadcity.gov.in,","22.9940706,72.6416209"
Body Fuel Gym - Gota - Ahmedabad,Gym,Ahmedabad,"1, Shayona Tilak Complex, 4th Floor, Near Vande Matram Cross Road, Gota Road, Ahmedabad 382481, GJ","+91-79-48001990, +91-9664980728",,"23.0920719,72.5361256"
Body Fuel Gym - Bopal - Ahmedabad,Gym,Ahmedabad,"2FJ9+W8X, Bopal, Ahmedabad, Gujarat 380058",+91-79-79489030,,"23.0323536,72.4580454"
Body Challenge Health Club - Khanpur - Ahmedabad,Gym,Ahmedabad,"Basment Jashwant Chamber, opp. Sidi Saiyed Masjid, nr. Central Bank Of India, Lal Darwaja, Ahmedabad, Gujarat 380001",097249 61984,,"23.0274954,72.5702363"
Body Carpenters Gym - Maninagar - Ahmedabad,Gym,Ahmedabad,"8, Lala Lajpat Rai Marg, Prankunj Society, Pushpkunj, Maninagar, Ahmedabad, Gujarat 380008",096387 09070,",info@bodycarpentergym.com,ninfo@bodycarpentergym.com,","23.0004313,72.5897721"
Body Carpenter Gym - Thaltej - Ahmedabad,Gym,Ahmedabad,"4th Floor, Vardhaman House, Opposite Rajhans Society Near Shambhu Cafe, H.L, College Road, Navrangpura, Ahmedabad, Gujarat 380009",096387 09070,",info@bodycarpentergym.com,ninfo@bodycarpentergym.com,lovizta@gmail.com,","23.0315912,72.5449673"
Body Care Health Centre - Vastral - Ahmedabad,Gym,Ahmedabad,"2nd Floor Tejendra Compkex, Vastral, Ahmedabad, Gujarat 382418",085300 33206,",mani.d.m68@gmail.com,","22.9961789,72.645789"
Bliss Personal Fitness - Motera - Ahmedabad,Gym,Ahmedabad,"505, Dwarkesh Business Hub, Visat - Gandhinagar Highway, above Tomato's Restaurant, Motera, Ahmedabad, Gujarat 380005",094088 76512,,"23.1093522,72.5931031"
Binaifer's Lifestyle Management Solution - Prahlad Nagar - Ahmedabad,Gym,Ahmedabad,"407, Ashirwad Paras, Corporate Rd, behind Sales India, Prahlad Nagar, Ahmedabad, Gujarat 380015",098243 99912,",info@blms.in,binaifer10@yahoo.com,","23.0108237,72.4967512"
B4 Body Fitness Gym - Nikol - Ahmedabad,Gym,Ahmedabad,"A-1 ANKUR COMPLEX, NR. KELAVANIDHAM, B/H D-MART, New India Colony, Nikol, Ahmedabad, Gujarat 382350",+91-8487015809,",b4bodyfitnessgym@gmail.com,","23.0553716,72.6644555"
B1 Crossfit - Vastral - Ahmedabad,Gym,Ahmedabad,"XMV7+458, Vastral, Ahmedabad, Gujarat 380038",+91-9558882229,",feedback@ahmedabadcity.gov.in,","22.9927857,72.6526432"
B Star Gym - Thaltej - Ahmedabad,Gym,Ahmedabad,"Ahmedabad Racquet Academy (ARA), Sindhu Bhavan Marg, near PRL, PRL Colony, Thaltej, Ahmedabad, Gujarat 380058",098250 09860,,"23.0420519,72.4826066"
Aum Yoga Vedanta - Ambawadi - Ahmedabad,Gym,Ahmedabad,"208-209, 3rd Eye Vision, Panjrapole Char Rasta, opp. Shivalik Plaza, near AMA, Ahmedabad, Gujarat 380015",096620 25225,,"23.028384,72.5334172"
Aum Health Care - Bopal - Ahmedabad,Gym,Ahmedabad,"208-9-10, New York Arcade, Near Bhavya Park, Government Tubewell, Bopal Rd, Bopal, Ahmedabad, Gujarat 380058",+91-9974767674,",info@aumhealthcare.com,","23.0314422,72.4620885"
Army fitness Gym - Ambawadi - Ahmedabad,Gym,Ahmedabad,"1st Floor, CTM, Near Bharvi Tawer, Ambawadi, Ahmedabad 380026, GJ",+91-7990946239,,"22.9917749,72.5340773"
Armstrong - Satellite - Ahmedabad,Gym,Ahmedabad,"Gulmohar Park Mall, 3rd Floor, Near Satellite Police Station, Satellite Road, Satellite, Ahmedabad 380015, GJ",+91-7575016063,"ninfo@armstrongthegym.com,info@armstrongthegym.com,,","23.0072148,72.4110601"
AR Fitness Studio - Vastrapur - Ahmedabad,Gym,Ahmedabad,"C- 409, A- Wing, STRATUM at Venus Ground, Nr. Jhansi Ki Rani, Nehru Nagar, Satellite, Ahmedabad, Gujarat 380015",081414 08439,,"23.0225581,72.5264489"
AR Fitness - Ellis Bridge - Ahmedabad,Gym,Ahmedabad,"C- 409, A- Wing, STRATUM at Venus Ground, Nr. Jhansi Ki Rani, Nehru Nagar, Satellite, Ahmedabad, Gujarat 380015",081414 08439,,"23.0225581,72.5264489"
Anytime Fitness - Vastrapur - Ahmedabad,Gym,Ahmedabad,"Alpha One Mall, Lake, No A/205, Amrapali Lake View Tower, opposite Hyatt International, Vastrapur, Ahmedabad, Gujarat 380015",099799 78249,",memberexperience@anytimefitness.in,John.Smith@anytimefitness.com,x3eJohn.Smith@anytimefitness.com,","23.0397122,72.5193225"
Angur Gym - Vatva - Ahmedabad,Gym,Ahmedabad,"A-14, New Vatva Rd, Paras Nagar, Isanpur, Ahmedabad, Gujarat 380043",096244 53156,",feedback@ahmedabadcity.gov.in,","22.9599533,72.59833"
Ambubhai Vyayam Vidyalay Kakriya Sanchalit - Vejalpur - Ahmedabad,Gym,Ahmedabad,"Near Mukesh Park Society, Vejalpur Road, Vejalpur, Ahmedabad 380051, GJ",+91-9824899461,",feedback@ahmedabadcity.gov.in,","23.0094925,72.4831666"
Always Fit Gym - Juhapura - Ahmedabad,Gym,Ahmedabad,"1, 2, Al Muqaam Complex, 3rd Floor, Near APMC Market, Vishala Circle, Juhapura, Ahmedabad 380055, GJ",+91-9714549162,",fitness@alwaysfitgym.com,","22.9874804,72.4816401"
Ahmedabad Racquet Academy - Thaltej - Ahmedabad,Gym,Ahmedabad,"Sindhu Bhavan Marg, opp. Murli Restaurant, PRL Colony, Thaltej, Ahmedabad, Gujarat 380059",084600 44222,",info@racquetacademy.in,jayendra@racquetacademy.in,","23.0421395,72.4826038"
Afa Gym - Shahpur - Ahmedabad,Gym,Ahmedabad,"Above Bank of Baroda, NIZAM COURT, near MUNICIPAL DISPENSARY, Halim Ni Khadki, Shahpur, Ahmedabad, Gujarat 380001",099786 92601,,"23.0379486,72.5699893"
Aero Fit Studio - Naranpura - Ahmedabad,Gym,Ahmedabad,"114, First Floor, Binali Complex, Opp. AEC Zonal Office,, Naranpura, Ahmedabad, Gujarat 380013",097128 88819,",aerofit.info@gmail.com,","23.0551877,72.5172999"
Aeramax Fitness Point - Ghatlodiya - Ahmedabad,Gym,Ahmedabad,"201, Kalasagar Shopping Hub, opp. Sai Temple, nr. Sattadhar Cross Road, Ghatlodiya, Chanakyapuri, Ahmedabad, Gujarat 380061",072279 75600,",aeramaxfitnesspoint@gmail.com,admin@fitnesspoint.in,","23.0664123,72.5218203"
Ads F Club - Sabarmati - Ahmedabad,Gym,Ahmedabad,"Krishna Complex, 5th Floor, Acher Char Rasta, Opposite HP Petrol Pump, Sabarmati, Ahmedabad 380005, GJ",+91-9152826915,",dhanraj.dagar@zyduswellness.co,Axayshroff7@gmail.com,feedback@ahmedabadcity.gov.in,a.d.corporation1233@gmail.com,","23.0836402,72.5838811"
Activelife Medical Gym - Shahibaug - Ahmedabad,Gym,Ahmedabad,"siddhivinayak complex, 401-b, Ghewar circle, Rahasya Society, Arihant Nagar, Shahibag, Ahmedabad, Gujarat 380004",079 2286 8023,,"23.0566993,72.5889329"
Active Life Gym - Shahibaug - Ahmedabad,Gym,Ahmedabad,"siddhivinayak complex, 401-b, Ghewar circle, Rahasya Society, Arihant Nagar, Shahibag, Ahmedabad, Gujarat 380004",079 2286 8023,,"23.0566993,72.5889329"
Active Fitness Zone - Isanpur - Ahmedabad,Gym,Ahmedabad,"Shop No.201, Empire Hub, Above Marutinandan Restaurant, Nr, Kankaria Bank, Ghodasar Cross Rd, Ahmedabad, Gujarat",+91-9998550478,",feedback@ahmedabadcity.gov.in,","22.9783941,72.6008236"
Active Body - Ghatlodiya - Ahmedabad,Gym,Ahmedabad,"M-301, Devnandan Commercial & Housing Co -operative Society, 3rd Floor, Near Chanakyapuri Over Bridge, Ghatlodiya, Ahmedabad 380061, GJ",+91-9067342306,,"23.0781707,72.5319076"
7 Star Gym - Navrangpura - Ahmedabad,Gym,Ahmedabad,"5/A, Shrimali Society, Navrangpura, Ahmedabad, Gujarat 380009",+91-7820087777,",feedback@ahmedabadcity.gov.in,","23.0357862,72.5517598"
365 Fitness Club - Nikol - Ahmedabad,Gym,Ahmedabad,"5th floor 501 Silver Square, Silver Cross Road, near Deepak School, Vrundavan Party Road, Nikol, Nikol, Ahmedabad, Gujarat 382350",+91-9825028998,",hardcorefitnessamd@gmail.com,csjaikishan@gmail.com,infanmombasawala@hotmail.com,reverencelegal@gmail.com,","23.0465537,72.6568172"
Sawajraj Gym - Maninagar - Ahmedabad,Gym,Ahmedabad,"6 & 7, Love complex, Opposite Apsara Cinema, Maninagar, Ahmedabad 380008, GJ",+91-8487077739,"sawajrajgym@gmail.com,,",
Veer Savarkar Sports Club - Ahmedabad,Gym,Ahmedabad,,,",feedback@ahmedabadcity.gov.in,",
Zeus Fitness Point The Gym & Spa - Ahmedabad,Gym,Ahmedabad,"Hall A & B, 4th Floor, Galaxy Bazaar, Near Himalaya Mall, Drive-In-Road, Bodakdev, Ahmedabad 380052, GJ","+91-9725444587, +91-9724888850",,
Zeus Fitness Point The Gym & Spa - Ahmedabad,Gym,Ahmedabad,"4th Floor, APM Shopping Center, Opposite Sun-N-Step Club, Gurukul, Ahmedabad 380052, GJ","+91-79-40081640, +91-9898980000",,
Yogi Fitness Zone & Gym Equipments Mfrs - Paldi - Ahmedabad,Gym,Ahmedabad,"9, Mahalaxmi Society, Mahalaxmi Five Road, Paldi, Ahmedabad 380007, GJ",+91-9898071967,,
Yogi Fitness Center - Nikol - Ahmedabad,Gym,Ahmedabad,"305, Pancham Mall, Jivanvadi, Nikol, Ahmedabad 380024, GJ","+91-9898071967, +91-9998551164",,
Tamanna Health & Fitness Centre - Gandhinagar - Ahmedabad,Gym,Ahmedabad,"A-183, Near CH 6 Circle, Sector 29, Gandhi Nagar, Ahmedabad 382010, GJ",+91-9898596277,,
Talwalkars Gym - Maninagar - Ahmedabad,Gym,Ahmedabad,"2nd Floor, Haridwar Enclave, Opposite Ravibhai Tower, Maninagar Cross Road, Ahmedabad 380008, GJ","+91-79-40304197, +91-79-40304198",",satellite.ahmedabad@goldsgymindia.com,teamjackedmuscle20@gmail.com,",
Talwalkars Gym - Navrangpura - Ahmedabad,Gym,Ahmedabad,"Kshitij Complex, Opposite Swati Housing Society & Paras Traders, Navrangpura, Ahmedabad 380009, GJ",+91-79-40044556,,
Prozone Gym And Fitness Point - Krishna Nagar - Ahmedabad,Gym,Ahmedabad,"7/8, 1st Floor, Nilam Complex, Opposite Dagina Jewellers, Sardar Chock, Krishna Nagar, Ahmedabad 382345, GJ",+91-79-66155421,,
Parsana Health Centre - Sabarmati - Ahmedabad,Gym,Ahmedabad,"4th Floor, Balaji Complex, Ramnagar Chowk, Sabarmati, Ahmedabad 380005, GJ",,",drdeepharipatel1981@gmail.com,",
Parsana Health Centre - Bapunagar - Ahmedabad,Gym,Ahmedabad,"Sardar Patel Mall, 3rd Floor, Nikol Gam Road, Bapunagar, Ahmedabad 380024, GJ","+91-79-22700300, +91-9898021010",,
Parsana Health Centre - Bopal - Ahmedabad,Gym,Ahmedabad,"4th Floor, Jai Madi Shantismruti Complex, Near India Colony, Bopal, Ahmedabad 380058, GJ",+91-9825232666,",dilipparsana@gmail.com,arfitnessstudio@gmail.com,info@parsana.in,",
Parsana Health Centre - Bodakdev - Ahmedabad,Gym,Ahmedabad,"C/401, Rudra Square, Judges Bunglow Cross Road, Bodakdev, Ahmedabad 380054, GJ",+91-79-26873200,",parsana-health-centre-pvt-ltd-ahmedabad-qj@e1xxkg.html,",
Parsana Health Centre - Maninagar - Ahmedabad,Gym,Ahmedabad,"301, Maruti Complex, 3rd Floor, Near Railway Crossing, Swaminarayan Temple Road, Maninagar, Ahmedabad 380008, GJ","+91-79-25460813, +91-9898021010",,
Parsana Health Centre - Navarangpura - Ahmedabad,Gym,Ahmedabad,"301-303, Akshar Arcade, Opposite Memnagar Fire Station, Vijay Cross Road, Navrangpura, Ahmedabad 380009, GJ",+91-9898025208,,
Parsana Health Centre - Ahmedabad,Gym,Ahmedabad,,,",info@parsana.in,",
New Look Health - Vadaj - Ahmedabad,Gym,Ahmedabad,"D 304, Sweni Complex, Near Akhbarnagar Circle, Vadaj, Ahmedabad 380013, GJ","+91-79-27643234, +91-79-65491594",,
Magnum Fitness Studio - Sabarmati - Ahmedabad,Gym,Ahmedabad,"305, Sanghath Mall, Near Visat Petrol Pump, Sabarmati, Ahmedabad 380005, GJ","+91-79-27509849, +91-9978972299",",suppart@magnumfitnessstudio.com,udayasari2@gmail.com,",
Fitness Zone - Chandkheda - Ahmedabad,Gym,Ahmedabad,"209, Sarjan 2, Near Punjab National Bank, New C G Road, Chandkheda, Ahmedabad 382424, GJ",+91-9825466153,",powerfitnesszoneabd@gmail.com,force24gym@gmail.com,",
Fitness Works Gym & Health Center - Drive In Road - Ahmedabad,Gym,Ahmedabad,"C101 To 104, Indraprasth Tower, Near Himalaya Mall, Drive In Road, Ahmedabad 380052, GJ","+91-79-27460577, +91-9998902352",,
Fitness Mark Health Club - Naranpura - Ahmedabad,Gym,Ahmedabad,"Vinimaya Complex, Near Manish Hall, Sundarnagar Cross Road, Naranpura, Ahmedabad 380013, GJ","+91-79-27472852, +91-9825029403",,
Fitness & Stream - Chandlodiya - Ahmedabad,Gym,Ahmedabad,"Dhuliba Complex, Near Chandlodiya Nagarpalika, Chandlodiya, Ahmedabad 382481, GJ",+91-7698111786,,
Exhale Yoga School - Vanitarama - Ahmedabad,Gym,Ahmedabad,"Zanzaree Dance Class, Valence Diet Centre, Vanitarama, Ahmedabad 380015, GJ",+91-9033820360,,
Body Temple Gym & Health Centre - Ghodasar - Ahmedabad,Gym,Ahmedabad,"F 1, Shyam Appartment, Near Mangleshwar Mahadev, Ghodasar, Ahmedabad 380050, GJ",+91-9825187324,,
Body Shape Health & Fitness Zone - Chandkheda - Ahmedabad,Gym,Ahmedabad,"301, Sona Complex, Behind Ankini School, New 100 Feet, T P Road, Chandkheda, Ahmedabad 382424, GJ","+91-9824405080, +91-9824099430",,
Black Panther Gym - Chandkheda - Ahmedabad,Gym,Ahmedabad,"201, Chanakya Plaza, Behind Swagat Park Bunglow, New C G Road, Chandkheda, Ahmedabad 382424, GJ","+91-79-40194015, +91-9978728811, +91-9879529446, +91-9173715348",",satellite.ahmedabad@goldsgymindia.com,",
Basant Bahar Gymkhana - Bopal - Ahmedabad,Gym,Ahmedabad,"Near Basant Bahar Bunglows Part 1, Bopal, Ahmedabad 380058, GJ","+91-2717-237801, +91-2717-237800, +91-9898531999",",hiteshbasantbahar@gmail.com,",
Anantaa Wellness - Prahlad Nagar - Ahmedabad,Gym,Ahmedabad,"2-3, 2nd Floor, Campus CornerII, Opposite Prahladnagar Garden, Prahlad Nagar, Ahmedabad 380015, KA","+91-79-40065950, +91-79-40065951, +91-79-40065953, +91-79-40067766",,
Talwalkars Gym - Navrangpura - Ahmedabad,Gym,Ahmedabad,"Kshitij Complex, 1st Floor, Oppssite Swati Housing Society, Navrangpura, Ahmedabad 380009, GJ",+91-79-49011341,,
Talwalkars Gym - Bodakdev - Ahmedabad,Gym,Ahmedabad,"202-203, Maurya Atria, Opposite Atithi Dining Hall, Judges Bungalow Road, Bodakdev, Ahmedabad 380054, GJ",+91-79-40038556,",ahmedabad@talwalkar.net,",
Zeus Fitness Point - Prahladnagar - Ahmedabad,Gym,Ahmedabad,"101, Venus Atlantis, 1st Floor, Near Reliance Petrol Pump, Anandnagar Road, Prahladnagar, Ahmedabad 380015, GJ",+91-79-40081640,"vishnu.fitness@gmail.com,,admin@fitnesspoint.in,info@shoppingbazar.in,",
Yogi Fitness Center - Nikol - Ahmedabad,Gym,Ahmedabad,"305, Pancham Mall, Jivanvadi, Nikol, Ahmedabad 380024, GJ",+91-9898071967,,
Valas Health Centre - Sola Road - Ahmedabad,Gym,Ahmedabad,"Centre Plaza, Opposite Sarthak School, Sola Road, Ahmedabad 380063, GJ",+91-79-27487779,",valasfitnesszone@gmail.com,",
Umars Power Gym - Vejalpur - Ahmedabad,Gym,Ahmedabad,"Saiyed Sultan Complex, Near Sonal Cinema, Vejalpur, Ahmedabad 380051, GJ",+91-9909417868,,
Talwalkars - Paldi - Ahmedabad,Gym,Ahmedabad,"Shantivan Society, P N House, 2nd Floor, Opposite Jethabhai Park, NID Road, Paldi, Ahmedabad 380007, GJ",+91-79-65228556,,
Talwalkars Gym - Mithkhali - Ahmedabad,Gym,Ahmedabad,"Megha House, 3rd Floor, Mayors Bungalow, Mithakhali Six Road, Mithakhali, Ahmedabad 380009, GJ",+91-79-49011341,,
Talwarkars Gym - Maninagar - Ahmedabad,Gym,Ahmedabad,"Haridwar Enclave, 2nd Floor, Opposite Ravji Bhai Tower, Maninagar Cross Road, Maninagar, Ahmedabad 380008, GJ",+91-79-40304197,",satellite.ahmedabad@goldsgymindia.com,teamjackedmuscle20@gmail.com,",
Silver Life Health Centre - Ambavadi - Ahmedabad,Gym,Ahmedabad,"The Corner Complex, 4th Floor, Above Bhagwati Emporium, Nehru Nagar, Ambavadi, Ahemdabad 380015, GJ",+91-9879314680,,
Scorpians Gym And Toning Centre - Maninagar - Ahmedabad,Gym,Ahmedabad,"9/10, Nandanvan Complex, 3rd Floor, Vallabhwadi, Jawahar Chowk, Maninagar, Ahmedabad 380008, GJ",+91-79-65496414,,
Recharge Fitness Center - Satellite - Ahmedabad,Gym,Ahmedabad,"411-412, Shangrila Arcade, 100 Feet Road, Satellite, Ahmedabad 380015, GJ",+91-9377553600,",feedback@ahmedabadcity.gov.in,",
Raaree Health Club and Swimming Pool - Shahibaug - Ahmedabad,Gym,Ahmedabad,"Spectrum Tower, Basement, Opposite Police Stadium, Shahibaug, Ahmedabad 380004, GJ",+91-79-25633645,,
Nutrilite Centres - Thaltej - Ahmedabad,Gym,Ahmedabad,"19, Manthan Complex, 1st Floor, Sun And Step Club Road, Sattadhar Cross Road, Thaltej, Ahmedabad 380054, GJ",+91-9998202922,",feedback@ahmedabadcity.gov.in,",
Life Fitness Point - Navrangpura - Ahmedabad,Gym,Ahmedabad,"Abhilasha Business Centre, 3rd & 4th Floor, Near Sardar Patel Statue, Stadium Road, Navrangpura, Ahmedabad 380009, GJ",+91-79-40300738,,
I Shree Health Club - Ghatlodia - Ahmedabad,Gym,Ahmedabad,"203, Shivam Complex, Near Shree Mahakali Mataji Temple, Bhuyangdev Cross Road, Sola Road, Ghatlodiya, Ahmedabad 380061, GJ",+91-7947067606,,
Hitech Gym - Mirzapur - Ahmedabad,Gym,Ahmedabad,"Prince Prabhat Complex, 4th Floor, Mirzapur, Ahmedabad 380001, GJ",+91-9898534599,,
Gain New Vitality - Bodakdev - Ahmedabad,Gym,Ahmedabad,"Pride Hotel, Opposite NRI Tower, SG Road, Bodakdev, Ahmedabad 380054, GJ",+91-79-30115555,,
Fitness Fame - Satellite - Ahmedabad,Gym,Ahmedabad,"4th Floor, Sahjanand Palace, Oppssite Rahul Tower, 100 Feet Road, Satellite, Ahmedabad 380051, GJ","+91-9825934088, +91-79-26933212",,
Fitness And Stream - Chandlodia - Ahmedabad,Gym,Ahmedabad,"Dhuliba Complex, 3rd Floor, Near Chandlodiya Nagarpalika, Chandlodia, Ahmedabad 382481, GJ",+91-7698111786,,
Ezee Slim Fitness Centre - Satellite - Ahmedabad,Gym,Ahmedabad,"403, Iscon Plaza, Near Sundervan, Satellite Road, Satellite, Ahmedabad 380015, GJ","+91-9227233934, +91-9227233935, +91-79-65493441",,
Crunch Gymnasium - Chandkheda - Ahmedabad,Gym,Ahmedabad,"5th Floor, Rudraksh Complex, Oppssite Chandkheda Bus Stop, Chandkheda, Ahmedabad 382424, GJ","+91-9426759599, +91-9426759928",,
Bodyline Health Club - Navrangpura - Ahmedabad,Gym,Ahmedabad,"29, Suvas Colony, ST Xaviers School Road, Navrangpura, Ahmedabad 380014, GJ","+91-9376112106, +91-79-26448919",,
Black Panthers Health Club - Thaltej - Ahmedabad,Gym,Ahmedabad,"2nd Floor, The Acropolis Mall, Thaltej Cross Road, Thaltej, Ahmedabad 380055, GJ","+91-79-65226501, +91-79-65226502",,
Be Fit The Gym - Bopal - Ahmedabad,Gym,Ahmedabad,"301, 3rd Floor, Trimurti Complex, Bopal Cross Road, Bopal, Ahmedabad 380058, GJ",+91-9426664343,,
Ageta Tennis Academy - Memnagar - Ahmedabad,Gym,Ahmedabad,"Near Raymond Showroom, Gurukul Road, Memnagar, Ahmedabad 380052, GJ","+91-9824062002, +91-79-27432782",",ageta_tennis@yahoo.com,",
Planet Sports - Ramdevnagar - Ahmedabad,Gym,Ahmedabad,"Satellite Road, Ramdevnagar, Ahmedabad 380015, GJ",,",feedback@ahmedabadcity.gov.in,",
Fitness Point - Prahladnagar - Ahmedabad,Gym,Ahmedabad,"101, 1st Floor, Venus Atlantis, Near Reliance Petrol Pump, Anandnagar Road, Prahlad Nagar, Ahmedabad 380015, GJ",+91-79-40031639,"vishnu.fitness@gmail.com,,admin@fitnesspoint.in,info@shoppingbazar.in,",
Gala Gymkhana - Bopal - Ahmedabad,Gym,Ahmedabad,"Near Basant Bahaar, Bopal, Ahmedabad 380058, GJ","+91-79-7237800, +91-79-7237801, +91-9825435743, +91-9879076999",,
Face And Figure - Main Road - Ahmedabad,Gym,Ahmedabad,"Main Road, Ahmedabad 380001, GJ",+91-79-26569216,",teamdevaki@gmail.com,feedback@ahmedabadcity.gov.in,",
Parsana Body Care and Gym - Shahibagh - Ahmedabad,Gym,Ahmedabad,"Ausht Mangal, Near Rajasthan Hospital, Shahibagh, Ahmedabad 380004, GJ",+91-9898021010,,
New Body Shape Gym & Fitness Center - Nava Wadaj - Ahmedabad,Gym,Ahmedabad,"Sweni Complex, 4th Floor, Near Akhbarnagar Circle, Nava Wadaj, Ahmedabad 380013, GJ",+91-79-27643234,,
Appex Gym & Fitness World - Bapunagar - Ahmedabad,Gym,Ahmedabad,"1st Floor, Shree Ganesh Avenue, Lal Bahadur Shastri Road, Bapunagar, Ahmedabad 380024, GJ",+91-9227222377,,
Universal Gym and Fitness Centre - Naranpura - Ahmedabad,Gym,Ahmedabad,"Rang Jyot Society, Khodiyar Complex, 3rd Floor, Opposite Company Petrol Pump, Vijaynagar Road, Naranpura, Ahmedabad 380013, GJ",+91-9898733221,",dhirenshah66@yahoo.com,",
Golds Gym - Satellite - Ahmedabad,Gym,Ahmedabad,"Arjun Tower, Satellite Road, Satellite, Ahmedabad 380015, GJ",+91-79-65125626,"WeCare@GoldsGym.in,,satellite.ahmedabad@goldsgymindia.com,ds-Gym-India-Actress-Pooja-Chopra-G-Ramachandran-Director-Golds-Gym-India-Karan-Valecha-Director-Golds-Gym-India-@-Pune-Hadapsar-Golds-Gym-launch1.jpg,",
Shatayu Ayurvedic Clinic - Maninagar - Ahmedabad,Gym,Ahmedabad,"13, Mahalaxmi Market 1, Maninagar Cross Road, Maninagar, Ahmedabad 380008, GJ",+91-79-25450063,,
Country Club Fitness Centre - Satellite - Ahmedabad,Gym,Ahmedabad,"144, Shangrila Arcade, 1st Floor, Shayamal Cross Road, Anand Nagar, Satellite, Ahmedabad 380015, GJ",+91-9033145999,,
