Name,Sector,City,Address,Phone,Email,Lat-Long
Viva Bakes and Restaurant,Retail,Manjeri,Opposite Panchayath Office Chungathara; Ooty Main Road Chungathara; 679334,8401884780.0,"info@olenecanto.com,",11.3368321; 76.2766697
Farsa Restaurant,Retail,Tirur,Near Sree Sumo Auditorium Manjeri Kla; Gandhi Bypass Road Manjeri Kla; 676121,,"deliciahotel@gmail.com,farsarestaurant@gmail.com,",11.1236636; 76.1147933
Ritzy Restaurant Kuttippuram,Retail,Malappuram,Near Signal Junction Kuttippuram Kuttippuram; Junction Kuttippuram Kuttippuram; 679571,,"asa.acs@gmail.co,",10.8431243; 76.0303983
Bonfire,Retail,Tirur,Near Kendra Vidhyalayam Civil Station; Up Hill Civil Station; 676505,,"neethulakshmigr@gmail.com,br0426@sib.co.in,tirurtso@gmail.com,",11.0429994; 76.0766208
Delicia Hotel,Retail,Manjeri,Near Municipal Bus Stand Downhill; Delicia Complex Downhill; 676519,,"catering@deliciahotel.com,",11.0445239; 76.075963
Olene Canto Bakes & Restaurant,Retail,Thrissur,Opposite New Bus Stand Manjeri; Manjeri Locality Manjeri; 676122,,"info@olenecanto.com,",11.1201655; 76.1225205
Ali Baba & 41 Dishes,Retail,Thrissur,Opposite to Veekay Tower Kuruppam Road; Kuruppam Road Kuruppam Road; 680001,8123380725.0,,10.518934694444; 76.211155388889
Indian Palace Restaurant,Retail,Thrissur,Near Old Police Station Pudukad; NH-544 Pudukad; 680301,8485956917.0,"arfcs@gmail.co,",10.437262527778; 76.253707861111
Moosas Biriyani House,Retail,Thrissur,Near By Mosque; Ring Road; 680021,8460484798.0,"moosasbiryani@gmail.com,",10.5164823; 76.2126947
Kallada Restaurant,Retail,Kunnamkulam, Mannuthy; Santosh Nagar Mannuthy; 680651,,"arfcs@gmail.co,",10.5294325; 76.2595367
Charcoal Delights,Retail,Thrissur,Near Mathews Auditorium Kunnamkulam; Wadakkanchery Road Kunnamkulam; 680503,,"a1greens.india@gmail.com,",10.662898; 76.099108
The Yellow Chilli,Retail,Varkala,Near Narmada Shopping Complex Kowdiar; Toll Junction Kowdiar; 695003,8460529934.0,,8.5137123; 76.9524661
Zeit Resturant,Retail,Attingal,Opposite Reliance Trends Varkala; Beach Road Varkala; 695141,9054767593.0,,8.737643055556; 76.701843055556
Lafolei Clicks,Retail,Indi,Near Alamcode Juma Masjid Alamcode; NH Alamcode Alamcode; 695102,9054775312.0,,8.7238894; 76.8124237
The AFC(American Fried Chicken),Retail,Kollam,Mar Ivanios College Nalanchira; MC Road Nalanchira Nalanchira; 695015,7947463286.0,"queries@afc.world,",8.5488101; 76.940597
Zam Zam Restaurant,Retail,Munnar,Opposite to MLA Hostel Palayam; Palayam; 695034,,"customercare@zamzamrestaurants.com,zamzamresources@gmail.com,",8.5035931; 76.9497251
Sree Krishna M G Hotel,Retail,Munnar,Near Sujata Inn Munnar Ho; A Meeting Road Munnar Ho; 685612,,"mv.krishna@newindia.co.in,",10.081457; 77.061617
Annapoorna Restaurant,Retail,Munnar,Fghfg; nan; 685612,,"mccmunnar@dishnetdsl.net,mccmunnar@vsnl.net,",10.091065; 77.05965
Hotel Gurubhavan ,Retail,Munnar,Near KTDC Tea County Ikka Nagar; Colony Road Munnar Ikka Nagar; 685612,,"hello@munnarbookings.com,",10.0877749; 77.0649531
Mummy's Kitchen,Retail,Munnar, munnar ho; munnar ho; 685612,,"info@amberdalemunnar.com,fom@amberdalemunnar.com,",10.07851835; 77.06294654
Hotel Sangeetha,Retail,Nagar, Munnar Colony; Ikka Nagar Munnar Colony; 685612,,"sangeethaveg@gmail.com,svrchennai@yahoo.com,binishpanicker@sangeethaveg.com,",10.0875812; 77.0659096
Oryx Village,Retail,Indi,Near Kanhangad South Jn Kanhangad South; Main Road Kanhangad South; 671531,8488918253.0,"info@oryxvillage.com,",12.2967941; 75.1021772
Toddy Parlour,Retail,Ambad, Periyar Lake; Periyar Lake; 685509,,"sunriseipr@gmail.com,",9.529316; 77.228193
Vasant Vihar Veg,Retail,Kottayam, Kumily; Kottayam-Kumily Road Kumily; 685509,,"krishna@freshfarmsexim.com,",9.6067057; 77.164549
Sri Ganapathi Bhojanalaya,Retail,Ambad, Thekkady; K K Road Thekkady; 685509,,"aturdr2106@gmail.com,advprashantrp@gmail.com,",9.606138222222; 77.16885375
Ambadi Restaurant,Retail,Kollam, Thekkady; Ambadi Junction Thekkady; 685509,,"aarun@damoagro.com,raksansh2003@gmail.com,",9.60296; 77.171454
Hotel Royal Treat,Retail,Palakkad,Near Victoria College Road Tharekkad; College Road Tharekkad; 678001,7947173415.0,"support@clicktoindia.com,",10.782253; 76.653368
London Bakes N Grills,Retail,Palakkad,Near Ksrtc Stand Noorani; ACM Aboobacker Road Noorani; 678004,,"londonbng@gmail.com,",10.767505972222; 76.648162972222
Arabian grill & fry ( Idam restaurant),Retail,Kozhikode,Near Chennai Mobile Stadium Bypass Road; Bypass Road Stadium Bypass Road; 678001,8401046599.0,,10.769795416667; 76.661666861111
Kadal Restaurant,Retail,Palakkad,Near Trinity Hospital Palakkad Ho; Kozhikode By Pass Palakkad Ho; 678001,9725533997.0,"mail@mykeralatravel.com,dils7967@gmail.com,aalbertfrere@gmail.com,",10.7768891; 76.6701423
Hotel Green Star,Retail,Cherpulassery, Pirayiri; Pirayiri; 678004,,"bookingsbclub7hotel@gmail.com,aliyainternational@gmail.com,sdi.gkp@gmail.com,",10.7744939951; 76.6114335135
The Sky Bar (The Leela Kovalam A Raviz Hotel),Retail,Varkala,Below The Main Pooldeck Area Kovalam Beach; Kovalam Beach Road Kovalam Beach; 695527,,"sales.kovalam@theleela.com,reservations@theleela.com,hari.mohan@theleela.com,",8.393606; 76.971826
Kairali Restraurant,Retail,Kollam,Near Indhira Park Varkala; Varkala Beach Rd Varkala; 695141,7947234345.0,"war@gmail.com,",8.7353845014; 76.7172608813
Lekshmi Edibles Gourmet Restaurant,Retail,Kollam,Near Sngc School Ezhukone; Kollam Road Ezhukone; 691505,8128139562.0,,8.982355; 76.724130833333
Spicy Food Court,Retail,Kollam, Ayur; Ayoor Ayur; 691533,8128437557.0,"dfikollam@gmail.com,",8.8955736; 76.8617718
Hotel Taste And Taste,Retail,Pollachi, Kollengode; Fnbgk Kollengode; 678506,,"pollachipapyrus@gmail.com,",10.6125112; 76.6833685
Winter Heaven Cottage,Retail,Aluva, Pattaline; Pattaline Pattaline; 685612,,"hckerala@nic.in,",10.0880875; 77.0669309
Hotel Sn,Retail,Munnar, Aluva Munnar Road; Aluva Munnar Road; 685612,,"team@snmunnar.com,snannex@rediffmail.com,info@keralatourism.org,",10.0877481; 77.0641631
Hotel Mugal Palace,Retail,Munnar, Moolakadai; Munnar Moolakadai Moolakadai; 685612,,"junaidmukadam@hotelmogulpalace.com,junaid.m1983@gmail.com,garotrichy@canarabank.com,mccmunnar@vsnl.net,mccmunnar@dishnetdsl.net,",10.0782404; 77.0628221
New York Fried Chicken,Retail,Aluva,Near Dtpc Parking Ground; Old; 685612,,"nbquestions@momofuku.com,",10.0762248; 77.0632278
Winter Yard,Retail,Munnar, Munnar HO; A M Road Munnar HO; 685612,,"crs@travelnotehotels.com,wintergardenresorts@gmail.co,",10.0746257; 77.0617694
Blackberry Hills Munnar Resorts Hornbill Restaurant,Retail,Nagar, Pothamedu; Bison Valley Road Pothamedu; 685612,,"reservations@blackberryresorts.com,",10.0537706; 77.0671134
S N Restaurant,Retail,Aluva,Opposite To KDHP Store Munnar HO; Old Munnar Munnar HO; 685612,,"hotelperiyaraluva@gmail.com,co@gmail.com,mail@rajagirihospital.com,",10.0747858; 77.0633572
India Gate,Retail,Indi, Vythiri; Vythiri Vythiri; 673576,,"NCCD.India@gmail.com,social@vprotectindia.com,",11.5585579; 76.0404556
Royal Retreat,Retail,Munnar, Munnar Ho; Hills A.M. Road Munnar Ho; 685612,,"info@keralatourism.org,royalretreatcok@gmail.com,",10.07279; 77.06172
King Food Corner,Retail,Cherthala,Near Spinn Mill Kareelakulangara; NH 47 Kareelakulangara; 690572,8971543312.0,"gwaplants@gmail.com,",9.1998211; 76.4844504
Onion Food Mall,Retail,Alappuzha,Near Ksrtc Bus Stand Cherthala; Kodathikavila Road Cherthala; 688524,8490920536.0,,9.6860654; 76.3429787
Asoka Bakers,Retail,Cherthala,Near District Court Bridge Mullakkal; Mullackal Road Mullakkal; 688011,8488910966.0,"anishapannyott@gmail.com,days@gmail.co,",9.5004966; 76.3424958
Kayees Rahmathulla Hotel,Retail,Cochin, Mattancherry; New Road Mattancherry; 682002,,"support@tastes2plate.com,",9.9627537; 76.2548934
Hoy Punjab,Retail,Basi,Kacheripady Hotel Garden Inn Kochi; TA Beerankunju Road Kochi; 682001,,"saroj.semt@punjab.gov.in,manuj.syal@punjab.gov.in,",9.987093; 76.285226
Mother's Kitchen,Retail,Nagar, Karunagappally; Road Karunagappally; 690518,,"meghalisahu@gmail.com,info@mothersspicesproducts.com,",9.06305867025; 76.534719988694
Rahmaniya Kethels Chicken,Retail,Kannur, Mayyanad; Umayanalloor Mayyanad; 691303,,"kethelschicken2018@gmail.com,",8.833959849; 76.64671362
Hotel Green Park,Retail,Kannur, Cherupuzha; Main Road Cherupuzha; 670511,,"greenparkresidency@rediffmail.com,",12.2720947; 75.361051
Broad Bean Hotel,Retail,Kannur, Thavakkara; Kannur Locality Thavakkara; 670012,,"broadbeanpvtltd@gmail.com,kkbuilderskerala@gmail.com,broadbeankannur@gmail.com,",11.866618; 75.372364
Naaz Arabia,Retail,Kannur,nan; nan; 670691,,"jamil.78663@gmail.com,goodlinkconsultancy@gmail.com,albarkatfoods@yahoo.com,",11.8131247; 75.5545513
Cafe Ghazal,Retail,Kannur,Opposite Hotel Savoy Payyambalam; SN Park Road Payyambalam; 670001,,"ghazalkannur@gmail.com,privilegecard@manorama.com,",11.868707638889; 75.3587265
Edassery Farmyard Restaurant,Retail,Munnar,Chattupara Adimali; V/537 Adimali; 685561,,"don@indiansummerhouse.co,madhuvayattu@yahoo.com,",10.0196731; 76.9342187
Cafe Malabar,Retail,Madurai,Adjacent To Bharath Petroleum Pump Thodupuzha; Thodupuzha Locality Thodupuzha; 685584,,"care.in@malabargoldanddiamonds.com,maniraja@mysorefiltercoffee.com,mgdmadurai@malabargroup.com,x3ecare.in@malabargoldanddiamonds.com,",9.9005650974; 76.7123559863
Jannah Bakery And Food Court,Retail,Kottayam, Adimali; Madurai Dhanushkodi Road Adimali; 685561,,"keltravelss@gmail.com,",10.0157142; 76.9530669
Hotel Sangamam,Retail,Palakkad,Near Sanil Workshop Kalapatti; Kuzhalmannam-i Kalapatti; 678702,,"ksbcpkd@gmail.com,",10.6969854; 76.5894778
Hotel Gopika,Retail,Kannur,Near Sbk Hospital Chelavoor; Highway Chelavoor; 673571,8485904057.0,"reservations@magnethotelkannur.com,gopikaregencygvr@gmail.com,info@magnethotelkannur.com,ollur@vaidyaratnam.com,varma.gopika@gmail.com,",11.298155555556; 75.849977777778
Cita Pani,Retail,Kunnamangalam,Bombay Hotel Cherooty Road; Silk Street Cherooty Road; 673032,,"pani@itat.nic.in,vinoopn@hotmail.com,athulbhearts@gmail.com,pn.devadasan@incometax.gov,",11.2514849; 75.7732073
Upper Crust Bakery,Retail,Malappuram, Jawaharnagar; Kowdiar Jawaharnagar; 695003,,"hameedcrust@gmail.com,John@ucbakery.com,gssc72ipr@gmail.com,JSmith@ucbakery.com,crustfoods@gmail.com,",8.5228212185; 76.9511654601
Madhavs Modern Dental Speciality Clinic,Retail,Varkala,Beside A J Hospital Kazhakuttam; Amman Kovil Rd Kazhakuttam; 695582,9725816824.0,"Koshyjoseph@yahoo.co.in,",8.568339972222; 76.872653972222
Smile Design The Orthodontic Dental Care,Retail,Varkala,Vythuthi Bhavan Pattom; Rd Medical College Pattom; 695004,8904783581.0,"info@smiledzign.com,",8.51722947222; 76.9399590833
Harry's Dentistry Family Dental Clinic,Retail,Varkala, Temple Road; Temple Road Temple Road; 695141,062384 02439,"reception@lakelandsfamilydental.com.au,",8.732027777778; 76.718319444444
Aadhi Dental Clinic,Retail,Varkala, Cherunniyoor; Mananakku Road Cherunniyoor; 695142,099952 17638,"ahalya.vg@gmail.com,mugalthaha@icloud.com,contact@aadhidentalclinic.com,dr.ajay@aadhidentalclinic.com,drajay.chettiar@gmail.com,",8.7312728; 76.746108
Vijay Dental Clinic,Retail,Varkala,Near Muncipal Park Varkala; Madathara road Varkala; 695141,,"vidyasp25@gmail.com,",8.7351082; 76.7253617
P K Dental Clinic,Retail,Varkala, Varkala; Temple  Road Varkala; 695141,098468 61526,"pkdentvarkala@gmail.com,sanettoz@yahoo.com,info@pkdentvarkala.com,mmquickerala@gmail.com,",8.733416; 76.722722
Chitra Multispeciality Dental Centre,Retail,Indi,Opposite to Elamkulam Mahadevar Temple Sreekaryam; Sreekaryam; 695017,094474 78775,"drminijose@gmail.com,",8.5484805; 76.9198061
PMS College OF Dental Science AND Research,Retail,Kottayam, Vattappara; Golden Hills Venkode Vattappara; 695028,0472 258 7878,"info@pmscollege.ac.in,principal@gdckottayam.org,info@igids.org,info@pmscollege.org,",8.60311374; 76.95486322
Dentique The Dental Studio,Retail,Indi,Above Chiyang Restaurant Banerji Road; Pharmacy Junction Banerji Road; 682018,8460473864.0,"dentiquedentalstudio@gmail.com,dentique.smiles@gmail.com,",9.98583; 76.281069
Implantree International Dental Hospital,Retail,Kalamassery, Kaloor; Deshabhimani Junction Kaloor; 682017,8485950451.0,"cbeimplantree@gmail.com,",9.9999183; 76.2980044
Dr. Sunnys Dental Clinic,Retail,Nagar,Metro Pillar No 596 Beside Gokulam Park Inn Kaloor; Banerji Road Kaloor; 682017,8460411137.0,"drsunnyahluwalia@gmail.com,sunnydentalhospital@gmail.com,sunnyclinickochi@gmail.com,",9.993942; 76.2907905
Dr Pradeepa @ Dental Speciality and Implant Center,Retail,Cochin,Opposite Uparika Malika Thevara; Santi Nagar Thevara; 682013,7411837641.0,,9.9344127; 76.2982856
Dr. Nevin's Family Dental Clinic And Orthodontic Centre,Retail,Cochin,Opposite Stmarys Church Palluruthy; Palli Junction Palluruthy; 682006,,"drnevinsfdc@gmail.com,",9.928998; 76.269751
Multi Speciality Dental Clinic,Retail,Munnar, Moolakadai; Old Am Road Moolakadai; 685612,,"drriyasdentalclinic@gmail.com,info@msdcss.com,",10.0785044; 77.0629245
Koonath Medical and Dental Center,Retail,Kunnamkulam,Post Office Chittilapilly; Chittilapilly; 680551,095441 05480,"kuruvillasdental@gmail.com,",10.5599917; 76.1451849
Dr Sagirs Dentistry,Retail,Thrissur,Near Lulu Convention Centre Ayyanthole; Ayyanthole Road Ayyanthole; 680003,099956 77777,"sevensmelody@gmail.com,drsagirsdentistry@gmail.com,sagirdr@gmail.com,",10.5423673; 76.1845825
Coop Dental Clinicl,Retail,Kottayam, Kumily; Chelimada Kumily; 685509,,"n@rediffmail.com,nobinipe@gmail.co,",9.6170355; 77.1575458
Care 32 Dental Clinic,Retail,Kottayam, Kumily; Kottayam Road Kumily; 685509,086068 63333,"designs@radiancedf.com,dr.archana@care32dentalcentre.com,dentist@doctor32.com,dr.soham@care32dentalcentre.com,",9.609736; 77.1587098
Tooth Care Multispeciality Dental Clinic,Retail,Un,Anakkara Bus Stand Anakkara; Church Road Anakkara; 685512,,"info@krisheesdental.in,zeeshaan25@gmail.com,rhlnandakumar@gmail.com,",9.6652078; 77.1595058
Bheemanady Dental Care,Retail,Thiruvananthapuram,Opposite Ayurvedic Dispensary Bus Stand Bheemanady; Karimpanackal Arcade Bheemanady; 671314,,"shafikadachira3220@gmail.com,",12.3237934; 75.2878676
J R Multi Speciality Dental Clinic,Retail,Indi,Opp Ayyappan Kovil Thampanoor; S S Kovil Road Thampanoor; 695001,7947350236.0,"786supreme.dental@gmail.com,info.dental@smbt.edu.in,smbtdental@rediffmail.com,",8.4893782; 76.9504126
SAF Hospital,Retail,Nagar,Near Police Station Vattappara; MC Road Vattappara; 695028,0755 244 3649,"wecare@hiranandanihospital.org,roc.chennai@mca.gov.in,firozabad@dcdc.co.in,hridaypalmedical@gmail.com,safgamesvillagedn@gmail.com,sjncoir@gmail.com,",8.5930742; 76.952186
Ident Dental Clinic,Retail,Ooty,Near 3g Mobiles Mananthavady; Calicut Road Mananthavady; 670645,,"name@gmrt.ncra,roc.chennai@mca.gov.in,disp-ondipudur.tn@esic.nic.in,name@ncra.tifr,",11.8013876; 76.0035454
Pilakkal Dental Clinic,Retail,Indi,Opposite Petrol Pump Meppadi; Ooty Road Meppadi; 673577,070257 59934,"alqaeedenterprises@gmail.com,",11.5534012; 76.1370785
Malabar Dental Clinic,Retail,Annur,Above Jamboo Books Cannanore; Fort Road Cannanore; 670001,,"veeyesdentalhospital@gmail.com,info@veeyesdental.com,",11.8688802; 75.3671302
Curls & Curves Cosmetic Hospital,Retail,Kannur,Opposite New Bus Stand Payyanur; New Bus Stand Payyanur; 670307,8401632584.0,,12.1086071; 75.2152552
Dental Avenue Multispeciality Dental Clinic,Retail,Kannur,Opposite JTS Thottada; Near Thottada Thottada; 670007,094005 42397,"psaji1000@gmail.com,soumithran@hotmail.com,",11.853677722222; 75.414230333333
Uv Dental Care Centre,Retail,Alappuzha,Near Vee Ess Tiles Gallery Kakkazhom; Valajavazhi Kakkazhom; 688005,8460429983.0,"info@whitepeacockcompany.com,",9.399536199722; 76.352681
K G Ortho Cosmetic Dental Clinic,Retail,Cherthala, Mavelikara; Pookada Junction Mavelikara; 690101,,"kgortho@yahoo.com,drsalunke@hotmail.com,",9.2491738; 76.5361656
Dr. J Dental Care,Retail,Cherthala,Opposite Punnapara Juma Masjid Punnapra; Market Road Punnapra; 688004,8123746158.0,"panayamayurveda@gmail.com,lallabvtkl@gmail.com,",9.4319220387; 76.3479144735
Iris Dental Care,Retail,Cherthala,Near Govt Hospital Chengannur; MC Road Chengannur; 689121,8460409676.0,"irisdentalcare88@gmail.com,kadakkarappallyaphcnhmh@gmail.com,",9.3147844; 76.6175309
Aspire Dental Care,Retail,Alappuzha,South Of Government Hospital Cherthala Cherthala; Hospital Road Cherthala; 688524,9724909582.0,"ndr.anandraj.8939@gmail.com,aspirepolyclinic@gmail.com,aspiredentalbangalore@gmail.com,dr.anandraj.8939@gmail.com,",9.6808777; 76.3399775
Bhavani Multi Speciality Dental Clinic,Retail,Cherthala,NEAR EVM CINEMAS Kalavankodam; NH66 THANKI Kalavankodam; 688524,7947079868.0,"maxfacdentalspeciality@gmail.com,",9.703769; 76.324761
Crystal Dental Care,Retail,Cherthala,Near By St Andrews Church; Cherthala; 688530,094968 42183,,9.685115; 76.302449
D Care Dental Clinic,Retail,Aroor,Near Government Homeo Hospital Cherthala; Cherthala Cherthala; 688524,,"query@decaredental.ie,",9.687815972222; 76.325231
St Gregorious Dental Clinic,Retail,Indi,0pp Metropolitan High School Puthencavu; Road Puthencavu; 689123,095449 43586,"info@infonlive.com,stgregorious1994@gmail.com,",9.325674899722; 76.633399999722
Colonels Dental World,Retail,Indi,Near Lords Junior School Venganoor; Venganoor; 695523,,"info@dentalworldofficial.com,drmc_sharma@yahoo.co.in,",8.39643; 77.0034
Dr. Smile Dental Lounge,Retail,Nagar,Pallichal Kalliyoor; Punnamoodu Road Kalliyoor; 695042,,"drsmile@singnet.com.sg,",8.4322986; 77.0178237
Meditrina Hospitals,Retail,Nagar,Opposite Cpim Office Ayathil; Kannanallur Road Ayathil; 691577,7487892972.0,"insurance@meditrinahospital.com,hospital@godrej.com,info@meditrinahospital.com,recruitment@meditrinahospital.com,",8.892185; 76.632508
Holy Angels Dental Clinic,Retail,Indi,Christhuraj Church Ayur; Anchal Road Ayur; 691533,,"clinicmatrix@gmail.com,roc.chennai@mca.gov.in,mmquickerala@gmail.com,enquiry@avionship.com,",8.9011869; 76.8651369
CHELAT RAM'S MULTISPECIALITY DENTAL CLINIC,Retail,Coimbatore,Opp Rakesh Marble Koppam; Calicut BY-pass Road Koppam; 678001,9054650636.0,"veeyesdentalhospital@gmail.com,",10.772349; 76.672454972222
Dr Roots Denta Care,Retail,Palakkad,Opposite Volkswagen Service Centre Sultanpet; Mathakovil Road Sultanpet; 678001,9725561460.0,"sreejithethanur@gmail.com,dr.abrahamthomas@yahoo.com,",10.772857; 76.6600957
Dr. Manoj.s Multi Speciality Dental Clinic,Retail,Coimbatore,Opp Patambi Guruvayoor Temple Pattambi; Guruvayur Road Pattambi; 679303,,"drvnmanojkumar@gmail.com,",10.800625432077; 76.177120467975
Perfect Dental Care,Retail,Tirur,Near Aswini Hospital Ottapalam; Pattambi Road Ottapalam; 679101,,"faisalsrelief@gmail.com,perfectdentalcareny@gmail.com,idealdentaltirur@gmail.com,",10.7725883; 76.3730478
Misir Dental Clinic & Cosmetic Centre,Retail,Tirur,Near Dist GovtHospital Tirur; Chirakkal Building Tirur; 676101,8460512742.0,,10.912033333333; 75.922394444444
Dental Hom Tirur,Retail,Indi,Opposite P M K Supermarket Tirur; GOVT. HOSPITAL ROAD Tirur; 676101,8460390038.0,"denispaulk@gmail.com,",10.9098347; 75.9228377
Noble Dental Clinic,Retail,Manjeri,Opposit Sini Studio Puthanathani; Road Puthanathani; 676552,7411835572.0,"office@noblepublicschool.org,kreatekm@gmail.com,",10.8876884; 76.0728228
Al Zeefa Dental Clinic,Retail,Manjeri,Vettichiria Kadambuzha Road Vettichira; Vettichiri Vettichira; 676552,9725805956.0,"midacmathottam@gmail.com,Aliaskarpk@gmail.com,",10.929154; 76.023487
Ayisha Dental Care,Retail,Wai,Near Tb Road Wandoor; Wandoor Kalikavu Road Wandoor; 679328,8460540061.0,"mail@tharayilgroup.com,info@carillondentalcare.com,",11.194838333333; 76.239051666667
Royal Multi Speciality Dental Clinic,Retail,Manjeri, Pandikkad; Perinthalmanna Pandikkad; 676521,,"iob3641@iob.in,ameenalikp313@gmail.com,revathymuraliv@gmail.com,midacmathottam@gmail.com,",11.0929606; 76.2244822
