Name,Sector,City,Address,Phone,Email,Lat-Long
Kris Gethin Gyms,Gym,Kolkata,"Salt Lake City Sector 1,Beside ILS HOSPITAL Salt Lake City Sector 1",9606194558.0,"info@krisgethingym.com,,ninfo@krisgethingym.com,saltlake@gethingyms.com,","22.5892722222,88.4111444444"
Karma Fitness Studio,Gym,Kolkata,"Basanta Roy Sarat Bose Road,Near Mudiali Sarat Bose Road",9606280257.0,",karmafitnesslakeavenue@gmail.com,karmafitness@gmail.com,nkarmafitness@gmail.com,","22.5152013,88.357769"
Edge Fitness Gym,Gym,Kolkata,"New Town Action Area 1,Near Aahirini Market New Town Action Area 1",9606179841.0,"contact@edgefitnessgym.com,,krishna@edgefitnessgym.com,","22.5794354,88.4527555"
Stamina Unleashed,Gym,Kolkata,"Darga Road Circus Avenue,Beniapukur Circus Avenue",9606177203.0,,"22.540708333333,88.370633333333"
Baral Multi Gym,Gym,Kolkata,"Jagatpur Main Road Aswini Nagar,Opposite Roy Market Aswini Nagar",8045787830.0,,"22.605300888889,88.435020444444"
The Fitness Factory,Gym,Kolkata,"18/ N Block A New Alipore,Near Udayan Club New Alipore New Alipore",9606226689.0,,"22.5160929,88.3246158"
Encore Fitness,Gym,Kolkata,"Anwar Shah Road Tollygunge,Opposite Sangeet Academy Tollygunge",9606170949.0,,"22.5016787,88.3518846"
Body Shaper Gym,Gym,Kolkata,"K Saha House, 63, Becharam Chatterjee Rd, Near B, Arcadia, Behala, Kolkata, West Bengal 700034",098306 16135,,"22.4958109,88.3106041"
Trifit Studio,Gym,Kolkata,"New Town Action Area 1,Near DLF 1 New Town Action Area 1",9606221604.0,,"22.5847875,88.4507223"
Al Misbah Gym,Gym,Kolkata,"G R Road Garden Reach,Near Metiabruz High School Garden Reach",9606225985.0,",typeindia.com@gmail.com,","22.5493774,88.278078"
New Alipore Red Star Fitness Centre,Gym,Kolkata,"No 214 Block J New Alipore,Opposite State Bank Of India New Alipore",7411849467.0,,"22.5120694444,88.3267361111"
Life & Fitness Gym,Gym,Kolkata,"Nsc Bose Road Naktala,Near Bansdroni Metro Naktala",9606246102.0,,"22.474574,88.36057"
Ufs Ultimate Fitness Studio,Gym,Kolkata,"Palli Shree Road Regent Park,Near 12 Bhuter Mela Ground Regent Park",9036215599.0,,"22.481772222222,88.345788888889"
Wynnfit Gym,Gym,Kolkata,"Chowringhee Road Park Street,Near Croma Showroom Park Street Park Street",9036216883.0,"info@wynn.fit,,","22.554014287828,88.350940325168"
Shape and Strength,Gym,Kolkata,"16C, Bipin Pal Rd, Manoharpukur, Kalighat, Kolkata, West Bengal 700026",096740 04799,",shapeandstrength@gmail.com,","22.5194101,88.3483453"
One More Gym,Gym,Kolkata,"ThakDari Road Krishnapur,New Town Box Bridge Das Medical Krishnapur",9606201943.0,",saltlakedd30.kolkata@goldsgym.in,Inquiry@wellnessclub.co.in,","22.579914277778,88.445518083333"
Grit Fitness,Gym,Kolkata,"Near Mahajati Sadan Burrabazar,Near Mahajati Sadan Burrabazar",7947408182.0,",gritfitnesskolkata@gmail.com,ngritfitnesskolkata@gmail.com,","22.5834203,88.3566387"
THE FIT WAY GYM,Gym,Kolkata,"Nalini Ranjan Avenue New Alipore,Opposite Triangular Park New Alipore",9845428864.0,",info@kfsfitness.com,","22.5126305556,88.3291055556"
Spark Family Fitness Studio,Gym,Kolkata,"Cossipore Road Baranagar,Baranagar Bazar Corossing Baranagar",8904941685.0,,"22.6323295,88.3710723"
O2 Workout Studio,Gym,Kolkata,"R.N.T ROAD Sodepur,B T Road Swadeshi More Sodepur",9606194562.0,"admin@o2healthstudio.com,,enquiry@o2healthstudio.com,","22.6950026,88.3748387"
Fitness Hotspot,Gym,Kolkata,"Tarak Dutta Road Ballygunge,Beside Karaya Police Station Ballygunge",7947084075.0,"contact@countryclubmail.com,,","22.537272222222,88.362936111111"
Majumders Workout,Gym,Kolkata,"Pansila, Kolkata, Khardaha, West Bengal 700112",089812 52759,",bodylinesports@gmail.com,","22.7115913,88.3830746"
Skulpt,Gym,Kolkata,"5th Floor, 57, Jawaharlal Nehru Rd, Elgin, Kolkata, West Bengal 700071",033 4071 6035,",frontdesk@skulpt.in,","22.5418493,88.3454036"
Being Fit Being Gymnast,Gym,Kolkata,"Thakurpukur Joka,Near Ultra Instinct FitnessUIF GymOpposite Joka Indian Instutute Of Management Joka",7947254956.0,",frontdesk@futurefit.in,","22.444983333333,88.297044444444"
Xystus,Gym,Kolkata,"Selimpur Road Dhakuria,Near Dhakuria Railway Station Dhakuria",,",xystus.subho@gmail.com,","22.504631,88.372744"
A Builder Hut,Gym,Kolkata,"Batanagar Maheshtala,Near Jagtala Maheshtala",7947237025.0,,"22.498722222222,88.229294444444"
Nxt Fitness,Gym,Kolkata,"115 DH Road Thakurpukur,Opposite Panchanan Tala Mandir Thakurpukur",8867820438.0,,"22.46081,88.320244"
Mantra Lifestyle Health Club,Gym,Kolkata,"S N Bannerjee Road Barrackpore,Axis Bank Building Barrackpore",9606283036.0,,"22.7628174,88.3644007"
Bodybuilding Kolkata Supplements,Gym,Kolkata,"CA5/11, Deshbandhu Nagar Rd, Baguiati, Kolkata, West Bengal 700059",090515 12975,,"22.6126089,88.4239951"
The Fitness World,Gym,Kolkata,"Kestopur Krishnapur,Newtown Bridge Krishnapur",,"manish.singh@fitness-world.in,,info@transformationfitnessworld.com,","22.581518,88.44355"
The Fitness Factory,Gym,Kolkata,"Park Rash Behari Avenue,Gariahat Crossing Above Reliance Digital Trands Showroom Rash Behari Avenue",9606249425.0,,"22.518651944444,88.3604965"
Srija Fitness,Gym,Kolkata,"Navapally,Near Boys School Navapally",7947244403.0,,"22.721847,88.475061"
Iron Fitness,Gym,Kolkata,"Jessore Road Barasat,Beside PNB Barasat",9036215597.0,,"22.718438,88.484402"
Chandrani Yoga Centre,Gym,Kolkata,"Gobra, Gobra",9980784468.0,"rajkamal.yoga@gmail.com,,info@yogawithsapna.com,kolkata@ishayoga.org,","22.5461,88.375622222222"
THE MAJUMDER'S WORKOUT,Gym,Kolkata,"H C DUTTA ROAD Sukchar,Opposite Xaviers School Sukchar",9036233727.0,",bodylinesports@gmail.com,majumdersworkout@gmail.com,","22.703261111111,88.371725"
Fitnet,Gym,Kolkata,"Main Road East Kolkata Township,Near Biryani Hut Block GB14 Block BE Sector B East Kolkata Township",7947159664.0,",fitnetgroup@gmail.com,","22.513141,88.3992769722"
Kolkata Multi Gym,Gym,Kolkata,"Girish Avenue Bagbazar,Near Girish Ghosh House Bagbazar",9606291023.0,",bodylinesports@gmail.com,","22.6022652,88.3676716"
Xystus,Gym,Kolkata,"Bijoygarh Regent Estate,Near Pallysree More We Also Have Branches At Garia and Selimpur Regent Estate",,",xystus.subho@gmail.com,","22.485262,88.36048"
The Fitness Zone,Gym,Kolkata,"BRS Three Kankurgachi,Near Galaxy 67 Hotel Near HUDCO Kankurgachi",7947077871.0,,"22.590431111111,88.395950277778"
School Of Fitness & Personality Development,Gym,Kolkata,"Selimpur Road-Dhakuria,Backside Of Khosla Electric Selimpur Road Dhakuria",9606296539.0,,"22.505306,88.368465972222"
Forza Fitness,Gym,Kolkata,"14/3, North Road, Poddar Nagar, Jadavpur, Kolkata, West Bengal 700032",074777 14200,,"22.4973448,88.3645628"
Slim N Fit Gym,Gym,Kolkata,"Road Lala Lajpat Rai Sarani,Besides Bhowanipore College Lala Lajpat Rai Sarani",,"info@slimntrim.co.in,,","22.5382345,88.3528693"
Hindustan Club Ltd,Gym,Kolkata,"4, G9Q4+892 Lansdown Tower, 1, Sarat Bose Rd, Near Minto park, Sreepally, Bhowanipore, Kolkata, West Bengal 700020",033 4017 5555,",info@jodhpurclub.com,admin@hindusthanclub.com,darjeelinggymkhanaclub1909@yahoo.com,","22.5383386,88.3522694"
Edge Fitness,Gym,Kolkata,"AB 425 Keshtopur,Near 206 Footbridge Opposite 206 Foot Bridge Kestopur Keshtopur",,"contact@edgefitnessgym.com,,krishna@edgefitnessgym.com,edgeforfitness@gmail.com,","22.593097222222,88.430788888889"
Fit Wit Alpha,Gym,Kolkata,"Ukhila Paikpara 209, Netaji Subhash Chandra Bose Road Ramchandrapur, Narendrapur, Rajpur Sonarpur, West Bengal 700103",070034 56625,",usalphaomega.combatsports@gmail.comCall,","22.4362132,88.3970409"
Muscle Up Gym,Gym,Kolkata,"Salt Lake City Sector 1,Near Swimming Pool Middle Of 1st Avenue and 2nd Avanue Salt Lake City Sector 1",,"nmuscleupgym19@gmail.com,,muscleupgym19@gmail.com,","22.5938392,88.4198718"
The Fitness Arena,Gym,Kolkata,"4, 2, SN Banerjee Road, Esplanade, Dharmatala, Sodepur, Kolkata, West Bengal 700120",,",waytofitnessgym@gmail.com,","22.7629952,88.364428"
The Pep Fitness,Gym,Kolkata,"59, Balaji Tower, KN Sen Rd, New Ballygunge, Kasba, Kolkata, West Bengal 700042",087777 25122,"tapas_dikpati@yahoo.in,,pepfitness.kasba@gmail.com,","22.5197216,88.3745177"
Rave Fitness Studio,Gym,Kolkata,"220, Acharya Jagdish Chandra Bose Rd, Elgin, Kolkata, West Bengal 700017",033 4004 2500,",contact@ravefitnessstudio.com,","22.5417609,88.3571031"
Rayan's Muscle Unit,Gym,Kolkata,"Nagar Road Ultadanga Main Road,Near Muchibajar Bus Stop Muchibazar Yuba Binda Ultadanga Main Road",,",rajdippatra623@gmail.com,","22.5944951,88.383831"
VLCC Willow Towers,Gym,Kolkata,"Biren Roy  Road Behala Chowrasta,Near Players Corner Behala Chowrasta",,",kolkata.wt@vlccwellness.com,","22.486988888889,88.313677777778"
Fit N Fine,Gym,Kolkata,"Salt Lake City Sector 1,Near PNB Crossing Salt Lake City Sector 1",,",fitnfineinfo@gmail.com,nurain_khurshid2009@rediffmail.com,","22.5883917,88.4082403"
Legion Fitness Studio,Gym,Kolkata,"13/6 Maharaja Nanda Kumar Road (S) kol - 700036 Near Baranagar Ramakrishna mission High school, Baranagar, West Bengal 700036",080174 72871,,"22.6348892,88.3680752"
Vfa Gym,Gym,Kolkata,"167A, Vivekananda Rd, near paul dhaba, Manicktala, Azad Hind Bag, Machuabazar, Kolkata, West Bengal 700006",098306 16358,,"22.585508,88.3701218"
Energizer Fitness Centre,Gym,Kolkata,"350, Rajarhat Main Rd, Kalipark, Bablatala, Newtown, Kolkata, West Bengal 700136",090513 07559,",sales@acmefitness.com,","22.6355926,88.4516017"
The Pilates Studio,Gym,Kolkata,"2nd Floor, Swarn Building, 44/6, Hazra Rd, Ballygunge, Kolkata, West Bengal 700019",098995 57223,"thepilatesstudiodelhi@gmail.com,,thepilatesstudioenq@gmail.com,thepilatesstudiokolkata@gmail.com,","22.5252184,88.3564269"
Bnb Fitness Solutions (Pgdfm Certified Trainer Bijoy Sarkar),Gym,Kolkata,"36/C, Kalimuddin Sarkar Ln, Kulia, Beleghata, Kolkata, West Bengal 700010",099031 13555,,"22.5629043,88.391148"
Gladiator Fitness Studio,Gym,Kolkata,"1/7, Kali Bari Ln, Jadavpur, Kolkata, West Bengal 700032",033 2414 4418,,"22.4939265,88.3669267"
Dynamic Fitness,Gym,Kolkata,"P 131 Parnasree Pally,Near Agomoni Community House Parnasree Pally",,",contact@ravefitnessstudio.com,","22.505583,88.3061545"
Fast Fitness Health Club,Gym,Kolkata,"68 Bhupen roy road, James long sarani, beside national gems school, Kolkata, West Bengal 700034",098312 34454,,"22.4915239,88.3155051"
Taton's Bodywork Gym,Gym,Kolkata,"59/60 Bagmari Road,, 1st Floor of Bagmari Progati Sangha, Near Ultadanga Hudco Police Quarter Bus Stop, BRS 3, Kolkata, West Bengal 700054",070037 98676,,"22.5901617,88.3929788"
Danger Dance Academy,Gym,Kolkata,"Narendra Nagar Narendra Nagar,L9 Bus Stand Narendra Nagar",,",jyotidas8820@gmail.com,","22.6565827,88.3773519"
Fitness Code,Gym,Kolkata,"Anwar Shah Road Jodhpur Park,Beside South City Mall Jodhpur Park",,",fitnesscode@yahoo.com,","22.5022458,88.363878"
Physiomax,Gym,Kolkata,"Salt Lake Sector 2 Bidhan Nagar,Near Karunamoyee Wipro Circle Bidhan Nagar",,",physiomax@live.com,Copyright@physiomaxgym.com,","22.5831126,88.4287618"
Gold's Gym,Gym,Kolkata,"B T Road Sukchar,Near Sodepur Girja More Sukchar",,"WeCare@GoldsGym.in,,sodepur.kolkata@goldsgym.in,","22.7078411,88.3739235"
The Soleus Gym,Gym,Kolkata,"BD 203, Kamal Park Rd, Rabindrapally, Kestopur, Kolkata, West Bengal 700101",090071 19119,",gymthesoleus@yahoo.co.in,","22.6027455,88.4235783"
Physiomax,Gym,Kolkata,"Jessore Road Dum Dum,Near Nagerbazaar More Clive House Dum Dum",,",physiomax@live.com,Copyright@physiomaxgym.com,","22.634313888889,88.416288888889"
Gld's Gym,Gym,Kolkata,"Salt Lake City-bidhan Nagar,Near City Centre 1 Salt Lake City bidhan Nagar",,"WeCare@GoldsGym.in,,sodepur.kolkata@goldsgym.in,","22.589817,88.408803"
Rush Fitness,Gym,Kolkata,"144, Remount Rd, opp. to Toni and Guy Salon, Majherhat, Alipore, Kolkata, West Bengal 700027",098307 73100,",hr@rushfitness.co.in,nhr@rushfitness.co.in,","22.5244877,88.315157"
Rush Fitness,Gym,Kolkata,"144, Remount Rd, opp. to Toni and Guy Salon, Majherhat, Alipore, Kolkata, West Bengal 700027",098307 73100,",hr@rushfitness.co.in,nhr@rushfitness.co.in,","22.5244877,88.315157"
Goal Evolution Fitness,Gym,Kolkata,"First floor,8/3-A, Hati Bagan Rd, Hatibagan Rd N, Paddapukur, Beniapukur, Kolkata, West Bengal 700014",098361 13535,,"22.5509105,88.3683497"
Amplified Fitness Centre,Gym,Kolkata,"63/1/2B, Sarat Bose Rd, opp. Motor Vehicles, Ballygunge, Kolkata, West Bengal 700025",098301 37403,"info@amplifiedfitnesscentre.com,,afcsaratboseroad@gmail.com,","22.5293963,88.3498412"
Fitness Magnifico,Gym,Kolkata,"15, Bangur Ave, next to Florence's Flower Shop, Block B, Block A, Lake Town, Kolkata, West Bengal 700055",089100 77433,,"22.6078553,88.4079267"
A & M Arena,Gym,Kolkata,"P-348, 3RD FLOOR, CIT Rd, beside PANTALOONS, Scheme VI-M, Kankurgachi, Kolkata, West Bengal 700054",081007 25420,,"22.5745506,88.3869616"
Asian Fitness,Gym,Kolkata,"Ruby, 33, RR Plot Main Rd, near Rail Vihar, Anandapur, East Kolkata Twp, Kolkata, West Bengal 700107",084209 26009,",asianfitness0@gmail.com,asianfitnesskolkata@gmail.com,","22.5109735,88.4043121"
Kick Fitness Gym,Gym,Kolkata,"Park Street Circus Avenue,Near Park Sweet Circus Avenue",,",kickfitnessgym@gmail.com,","22.5443111,88.3646344"
Urbanfit,Gym,Kolkata,"AE-140, Rabindra Pally Market, Rabindrapally, Kestopur, Kolkata, West Bengal 700101",033 7962 5592,"feedback@urbanfit.in,,","22.6010756,88.4258725"
Soumen Fitness Zone,Gym,Kolkata,"S S Township Sarsuna,Near Sarsuna College Sarsuna",,",soumendas.dev@gmail.com,","22.4801907,88.2839112"
Yogam,Gym,Kolkata,"Andromeda, DD-30, 7th Floor, Bidhannagar, Kolkata, West Bengal 700064",085848 41111,",yogamfitness@gmail.com,info@phoenixgym.in,","22.5897755,88.4062478"
Anytime Fitness,Gym,Kolkata,"Salt Lake City Sector 1,Opposite To Balle Balle Dhaba Near Iis Hospital Salt Lake City Sector 1",,",memberexperience@anytimefitness.in,John.Smith@anytimefitness.com,x3eJohn.Smith@anytimefitness.com,","22.589852,88.408752"
Amplified Fitness Centre,Gym,Kolkata,"63/1/2B, Sarat Bose Rd, opp. Motor Vehicles, Ballygunge, Kolkata, West Bengal 700025",098301 37403,"info@amplifiedfitnesscentre.com,,afcsaratboseroad@gmail.com,","22.5293963,88.3498412"
Anytime Fitness,Gym,Kolkata,"New Town,Near City Centre 2 New Town",,",memberexperience@anytimefitness.in,John.Smith@anytimefitness.com,x3eJohn.Smith@anytimefitness.com,","22.623697,88.442656"
Anytime Fitness,Gym,Kolkata,"Sarat Bose Road,Opposite Sarat Bose Road",,",memberexperience@anytimefitness.in,John.Smith@anytimefitness.com,x3eJohn.Smith@anytimefitness.com,","22.517303,88.3532583"
One2One Fitness,Gym,Kolkata,"57/1c, Topsia Rd, near Jin Masjid, Topsia, Kolkata, West Bengal 700046",096745 80826,",JohnSmith@one2one-fitness.co.uk,","22.5334553,88.3855522"
The Fitnes,Gym,Kolkata,"Beharilal Ghosh Road Ariadaha,Near Palki Car Decora Building Ariadaha",,"manish.singh@fitness-world.in,,waytofitnessgym@gmail.com,","22.667222222222,88.376388888889"
Crossfit360,Gym,Kolkata,"46, Motilal Gupta Rd, opposite Mirchi Restaurant, Sakher Bazar, Barisha, Kolkata, West Bengal 700008",096743 08769,",contact@ravefitnessstudio.com,","22.4814906,88.3163794"
Gold's Gym,Gym,Kolkata,"Jessore Road Bangur Avenue,Near HP Petrol Pump Bangur Avenue",,"WeCare@GoldsGym.in,,sodepur.kolkata@goldsgym.in,","22.6080893,88.4104082"
Snap Fitness,Gym,Kolkata,"5, (Dover Lane, Junction, Ramani Chatterjee Rd, Dover Terrace, Ballygunge, Kolkata, West Bengal 700029",098741 44166,",saltlake@gethingyms.com,","22.520599,88.3603499"
Jdfc Fitness Centre,Gym,Kolkata,"Banerjee Road Shibachal,Birati Shibachal",,",tlgkolkata@thelittlegym.in,","22.6634537,88.4234512"
Gold's Gym,Gym,Kolkata,"V I P Road Baguiati,Near Big Bazar Above KFC Building Raghunathpur Bus Stop Baguiati",,"WeCare@GoldsGym.in,,sodepur.kolkata@goldsgym.in,","22.6180993,88.4325955"
Gold's Gym,Gym,Kolkata,"Banerjee Road Belgharia, Belgharia",,"WeCare@GoldsGym.in,,sodepur.kolkata@goldsgym.in,","22.6625931,88.3947967"
National Multi Gym,Gym,Kolkata,"13/1, Majherpara - Roypara Rd, Noapara, Hatiara, Rajarhat, Kolkata, West Bengal 700157",098365 86606,",bodylinesports@gmail.com,","22.6153224,88.4437195"
Kings Gym,Gym,Kolkata,"63 R.N. Avenue, Opposite Rathindra Cinema Hall, Ground Floor, Kolkata, West Bengal 700110",098305 87251,",sodepur.kolkata@goldsgym.in,","22.7017517,88.3797503"
360 Degree Sports,Gym,Kolkata,"Jadavpur,Beside Senco Gold Showroom Jadavpur",,",u003e360degreesports@gmail.com,360degreesports@gmail.com,","22.4890197,88.3674022"
Way to Fitness,Gym,Kolkata,"Shova Bazar Beadon Street,Near Girish Park Metro Station Beadon Street",,",bodylinesports@gmail.com,waytofitnessgym@gmail.com,","22.5919072,88.3639229"
Fitness Booster Studio,Gym,Kolkata,"Sodepur,Beside Trends Mall Sodepur",,",contact@ravefitnessstudio.com,","22.7025,88.373333333333"
GRIT FITNESS,Gym,Kolkata,"5+ years in business Â· 174, Chittaranjan Ave",Open â‹… Closes 11â€¯pm Â· 033 4602 2555,",gritfitnesskolkata@gmail.com,ngritfitnesskolkata@gmail.com,","22.582025,88.3592951"
LIFE THE FITNESS STUDIO,Gym,Kolkata,"5+ years in business Â· 36, 21, Chandra Nath Roy Rd",Open â‹… Closes 11â€¯pm Â· 085840 88349,",info@onelifefitness.in,onelifefitness786@gmail.com,","22.5309906,88.3819225"
Skulpt Gym,Gym,Kolkata,"7+ years in business Â· 5th Floor, 57, Jawaharlal Nehru Rd",Open â‹… Closes 10â€¯pm Â· 033 4071 6035,",frontdesk@skulpt.in,","22.5418444,88.3454036"
ABSolute Fitness GYM - Kolkata,Gym,Kolkata,"5+ years in business Â· Prantik Palli 205 1A, Bosepukur Purba Para Road",Open â‹… Closes 9:45â€¯pm Â· 087770 80798,,"22.4991924,88.3254161"
Anytime Fitness,Gym,Kolkata,"3+ years in business Â· 138, 6th Flr, Subh Sri, Rash Behari Ave",Open 24 hours Â· 098301 15665,",memberexperience@anytimefitness.in,John.Smith@anytimefitness.com,x3eJohn.Smith@anytimefitness.com,","22.5608945,88.3035825"
Iron Addict Gym2,Gym,Kolkata,"3+ years in business Â· 39, Kustia Rd",Open â‹… Closes 11:30â€¯pm Â· 070035 11514,,"22.5305466,88.3765223"
ROAR FITNESS,Gym,Kolkata,"3+ years in business Â· 83A, Elliot Rd, above IBRAH BANQUET",Open â‹… Closes 11:30â€¯pm Â· 074395 23009,",jane@roar-fitness.com,clients@roar-fitness.com,u003eclients@roar-fitness.com,athershafi1@gmail.com,","22.5513616,88.357739"
Karma Fitness Studio,Gym,Kolkata,"15+ years in business Â· P-23, Raja Basanta Roy Rd",Open â‹… Closes 10â€¯pm Â· 033 4060 3006,",karmafitnesslakeavenue@gmail.com,karmafitness@gmail.com,nkarmafitness@gmail.com,","22.5127147,88.346137"
Oxy Gym,Gym,Kolkata,"4th and 5th floor, Archade Building, 25 B, Chandni Chowk St",Open â‹… Closes 10:30â€¯pm Â· 098313 63981,",baigferoze@gmail.com,","22.5658311,88.3527472"
Kick Fitness Gym 3,Gym,Kolkata,"5+ years in business Â· 4B, Little Russel St",Open â‹… Closes 11â€¯pm Â· 033 4602 0502,,"22.5476519,88.3483044"
Fitness Addiction,Gym,Kolkata,"P-252, 3RD FLOOR, CIT Rd, above IDBI BANK",Open â‹… Closes 10:30â€¯pm Â· 089816 47118,,"22.5725463,88.3884802"
PERFORMYX GYM & FITNESS STUDIO,Gym,Kolkata,"5th Floor, Swami Swarupananda's Ashram, P-348, Kabi Sukanta Sarani, beside Pantaloons",Open â‹… Closes 10â€¯pm Â· 098316 82029,,"22.5745445,88.3869721"
The Calcutta Fitness Studio Plus Park Circus,Gym,Kolkata,"14, Syed Amir Ali Ave",Open â‹… Closes 11:30â€¯pm,",hr.tcfchainofgyms@gmail.com,","22.541707,88.3628081"
Iron Armour Fitness Studio,Gym,Kolkata,"1st Floor, 79, Vivekananda Rd",Open â‹… Closes 11â€¯pm Â· 078902 32914,,"22.5862642,88.3620978"
STARMARK FITNESS STUDIO PRIVATE LIMITED,Gym,Kolkata,"3+ years in business Â· City High, FIRST FLOOR, 85, Prince Anwar Shah Rd, near Navina Cinema Hall",Open â‹… Closes 12:30â€¯am Â· 098311 30003,",info@starmarkfitnessstudio.com,","22.4934293,88.3445384"
Zest Fitness Studio,Gym,Kolkata,"7+ years in business Â· 71, Karaya Rd",Open â‹… Closes 8â€¯pm,",baptistvinit11@gmail.com,zestfitnessstudio2022@gmail.com,","22.5408307,88.3456046"
Moksha Gym,Gym,Kolkata,"3+ years in business Â· ICICI Bank, 28/ 3A, Convent Rd",Open â‹… Closes 10â€¯pm Â· 082406 96885,",mokshagym786@gmail.com,fahmsha@rediffmail.com,","22.5606086,88.3661892"
Stark Fitness Studio,Gym,Kolkata,"5+ years in business Â· B-77, Sammilani Park Near- Bengal Ambuja 1no. Gate/ Near Highland Park",Open â‹… Closes 10â€¯pm Â· 081009 14446,",contact@starkfitnessstudio.co.in,","22.4655495,88.3849359"
Rush Fitness Studio,Gym,Kolkata,"7+ years in business Â· 144, Remount Rd, opp. to Toni and Guy Salon",Open â‹… Closes 10â€¯pm Â· 098307 73100,",hr@rushfitness.co.in,payal@hul.net.in,nhr@rushfitness.co.in,","22.5244828,88.315157"
Rave Fitness Studio,Gym,Kolkata,"7+ years in business Â· 220, Acharya Jagdish Chandra Bose Rd",Open â‹… Closes 10â€¯pm Â· 033 4004 2500,",contact@ravefitnessstudio.com,","22.541756,88.3571031"
Friction Gym,Gym,Kolkata,"3+ years in business Â· 88 Shyama Prasad Mukherjee Road Landmark: Above Central Bank of India To The Left of Bhowanipore P. S, next to Ashutosh College, opposite Chittaranjan seva sadan",Open â‹… Closes 12â€¯am Â· 082729 89608,"u003erahulsinha18jan@gmail.com,,rahulsinha18jan@gmail.com,soumencfit@gmail.com,","22.5151594,88.3317801"
Amplified Fitness Centre,Gym,Kolkata,"7+ years in business Â· 63/1/2B, Sarat Bose Rd, opp. Motor Vehicles",Open 24 hours Â· 098301 37403,",afcsaratboseroad@gmail.com,","22.5293914,88.3498412"
Asian Fitness,Gym,Kolkata,"7+ years in business Â· Ruby, 33, RR Plot Main Rd, near Rail Vihar",Open â‹… Closes 9:30â€¯pm Â· 084209 26009,",asianfitness0@gmail.com,asianfitnesskolkata@gmail.com,","22.5109686,88.4043121"
Forza Fitness,Gym,Kolkata,"5+ years in business Â· 14/3, North Road",Open 24 hours Â· 074777 14200,",gymxfitness.studio@gmail.com,","22.4973399,88.3645628"
Sturdy Fitness - III,Gym,Kolkata,"18, 2, Vidyasagar St",Open â‹… Closes 9â€¯pm Â· 090380 61922,,"22.5808105,88.3696213"
One Life Fitness - Gym Center Near Me | Fitness Center Near Me,Gym,Kolkata,"5th Floor, Rehmatvai nursing home, 36/a, Ganesh Chandra Ave",Open â‹… Closes 10:30â€¯pm Â· 098316 24018,",info@onelifefitness.in,onelifefitness786@gmail.com,","20.1891639,70.0796281"
CROSSFIT FITNESS STUDIO | Best Gym in Garia | Fitness Center in Garia,Gym,Kolkata,"park, A/1 GARIA Dj vata, Tripura Sundari Rd",Open â‹… Closes 10:30â€¯pm Â· 062896 46116,,"22.4577406,88.3712863"
Karma - The Fitness Studio,Gym,Kolkata,"15+ years in business Â· 19, Lake Ave, near Menoka Cinema",Open â‹… Closes 10â€¯pm Â· 098301 22334,",karmafitnesslakeavenue@gmail.com,karmafitness@gmail.com,nkarmafitness@gmail.com,","22.5127147,88.346137"
Muscle Up Gym,Gym,Kolkata,"3+ years in business Â· DB-17, First Floor",Open â‹… Closes 10â€¯pm Â· 086177 77413,"nmuscleupgym19@gmail.com,,muscleupgym19@gmail.com,","18.4760628,73.9007086"
Kick Fitness Gym,Gym,Kolkata,"7+ years in business Â· 3rd floor, 82, Mother Teresa Sarani",Open â‹… Closes 10â€¯pm Â· 090380 13485,",kickfitnessgym@gmail.com,","18.4760628,73.9007086"
Road To Fitness,Gym,Kolkata,"5+ years in business Â· 70, Beck Bagan Row 1st Floor Opposite Quest Mall (Gate",Open â‹… Closes 12â€¯am Â· 033 4603 6800,",bodylinesports@gmail.com,contact@ravefitnessstudio.com,","22.5379435,88.3631816"
Muscle Up Gym,Gym,Kolkata,5+ years in business Â· IB - 20,Open â‹… Closes 10â€¯pm Â· 086177 77413,"nmuscleupgym19@gmail.com,,muscleupgym19@gmail.com,","22.5939304,88.3826725"
Muscle Arena Gym,Gym,Kolkata,"Momina House, 1W, Sapgachi 1st Ln",Open â‹… Closes 10:30â€¯pm Â· 098832 24867,",TheMuscleArenaGym@gmail.com,u003eTheMuscleArenaGym@gmail.com,","22.5316272,88.3869982"
Body Basic Gym (G.C.AVENUE),Gym,Kolkata,"5+ years in business Â· P-15, Ganesh Chandra Ave",Open â‹… Closes 11â€¯pm Â· 098303 22509,",kajalkumar.dutta@gmail.com,typeindia.com@gmail.com,sunriseipr@gmail.com,macsheair@gmail.com,","22.5656696,88.3553424"
The Fitness Factory,Gym,Kolkata,"7+ years in business Â· 9th floor, About Reliance Digital & Reliance Trends, TFF The Fitness Factory, 26, Gariahat Rd",Open â‹… Closes 10â€¯pm Â· 074398 61142,,"22.5172517,88.2680768"
"Cult Park Street - Gyms in Park Street Area, Kolkata",Gym,Kolkata,"3+ years in business Â· 3rd Floor Bangur Bfl estate east gate, 31, Jawaharlal Nehru Rd",Open â‹… Closes 10â€¯pm,",hello@cultfit.com,hello@cult.fit,x3ehello@cult.fit,","22.5539264,88.3486336"
Fitness Xpress Gym 2 | Best Gym in Golf Green |,Gym,Kolkata,"5+ years in business Â· Ground Floor, 60/123, H.P, Haripada Dutta Ln, near Old Better High School Shooting Bari",Open â‹… Closes 10:30â€¯pm Â· 078902 85711,,"22.49862,88.3528331"
Revive Fitness,Gym,Kolkata,"2/1/1A, Munshi Bazaar Rd",Open â‹… Closes 10â€¯pm,,"22.5648488,88.3751627"
Endorphins - Corrective Exercise Studio,Gym,Kolkata,"5+ years in business Â· Building 7th Floor, Park Centre, 24, Mother Teresa Sarani",Open â‹… Closes 10â€¯pm Â· 033 4604 8040,,"22.5360605,88.3298493"
The Calcutta Fitness Studio Chain Of Gyms,Gym,Kolkata,"5+ years in business Â· 1, Motilal Gupta Rd",Open â‹… Closes 11â€¯pm Â· 096740 41906,,"22.4820344,88.314025"
COMBAT FITNESS,Gym,Kolkata,"5+ years in business Â· 8/3, Harish Chandra Paul Ln",Open â‹… Closes 10â€¯pm Â· 062914 69887,",combatfitness2018@gmail.com,","22.6292415,88.3784558"
Encore Fitness Studio,Gym,Kolkata,"40, 1, Prince Anwar Shah Rd, near Dhaka Kalibari, opposite Sangit Kala Academy",Open â‹… Closes 10â€¯pm Â· 091631 56777,,"22.5016787,88.3493097"
The Energy Hub Gym Kolkata,Gym,Kolkata,"428, Deb Banerjee Rd",Open â‹… Closes 10:30â€¯pm,,"22.52379,88.3921521"
Power Hour Gym,Gym,Kolkata,"56, CIT Rd",Open â‹… Closes 11â€¯pm Â· 091230 98737,,"22.5850759,88.1529534"
Anytime Fitness,Gym,Kolkata,"No 53, Magnum Aura, Nilani, 371, Nalini Ranjan Ave",Open 24 hours Â· 093300 27001,",memberexperience@anytimefitness.in,John.Smith@anytimefitness.com,x3eJohn.Smith@anytimefitness.com,","22.5608945,88.3035825"
UFC - Universal Fitness Centre Acharya Prafulla Chandra Road,Gym,Kolkata,"3+ years in business Â· 1st Floor, 94 A, Acharya Prafulla Chandra Rd",Open â‹… Closes 10â€¯pm Â· 093308 49538,",sandimasgm@ufcgym.com,","22.5803567,88.3712781"
Endorphins - Corrective Exercise Studio,Gym,Kolkata,"7+ years in business Â· 23/1, Rustamjee St",Open â‹… Closes 9:30â€¯pm Â· 033 4073 3696,,"22.5360605,88.3298493"
VFA GYM- BurnToShine,Gym,Kolkata,"3+ years in business Â· 167A, Vivekananda Rd, near paul dhaba",Open â‹… Closes 11â€¯pm Â· 098306 16358,,"22.5855031,88.3701218"
The Fitness Zone,Gym,Kolkata,"59/60, Bagmari Rd",Open â‹… Closes 10â€¯pm,",krishna.jishnu13@gmail.com,","22.5904095,88.393333"
Evergreen Fitness India- Fitness Class |Gym center in South Kolkata,Gym,Kolkata,"5+ years in business Â· Raksha Kali Mandir, 82/C, Karunamoyee Ghat Road(Tollygunge Land Mark",Open â‹… Closes 9:30â€¯pm Â· 090516 27778,,"22.4848806,88.3335709"
Muscle Fitness Gym 2,Gym,Kolkata,"3+ years in business Â· 67, Basanta Lal Saha Rd",Open â‹… Closes 10â€¯pm Â· 070034 33661,",vpviky07@gmail.com,","22.4987316,88.3375131"
Rival Fitness Studio - Jodhpur Park,Gym,Kolkata,"5+ years in business Â· 1/280, Jodhpur Park Rd",Open â‹… Closes 11â€¯pm Â· 090387 11540,,"22.5044306,88.3604063"
The Calcutta Fitness Studio Plus Gariahat,Gym,Kolkata,"4th Floor, 16, Leela, Jamini Roy Sarani",Open 24 hours Â· 090739 05215,"Gymwiki.in@gmail.com,,souravdas2206@gmail.com,","22.5205707,88.3627906"
Strength Fitness,Gym,Kolkata,"2nd Floor, 8/3B, Hatibagan Rd N",Open â‹… Closes 10â€¯pm Â· 082408 00927,",contact@ravefitnessstudio.com,nirupamkar8@gmail.com,","22.5596753,88.344406"
Stamina Unleashed,Gym,Kolkata,"289D, Darga Rd",Open â‹… Closes 10â€¯pm Â· 089101 15782,,"22.5406971,88.3680748"
Mettle Fitness Studio,Gym,Kolkata,"5+ years in business Â· 15, Lake Place Rd",Open â‹… Closes 10â€¯pm Â· 083370 44611,,"22.5149509,88.3471062"
Diamond Fitness,Gym,Kolkata,"5+ years in business Â· Hotel Diamond Plaza, Basement",Open â‹… Closes 10:30â€¯pm Â· 098047 77816,",diamond.gym.yoga@gmail.com,","22.5655301,88.3570593"
BEAST FITNESS GYM,Gym,Kolkata,"3+ years in business Â· Kolkata, West Bengal",Open â‹… Closes 10â€¯pm Â· 085829 92569,",bodylinesports@gmail.com,","22.559327,88.4025127"
Transformation Fitness Studio,Gym,Kolkata,"3+ years in business Â· 1st Floor, Satyam Enclave, 174/33A, Netaji Subhash Chandra Bose Rd",Open â‹… Closes 11â€¯pm Â· 070036 93573,",info@transformationfitnessworld.com,","22.4803779,88.3541416"
The Flex Fitness,Gym,Kolkata,"3+ years in business Â· 25, Bosepukur Rd, near light house, opposite petrol pump",Open â‹… Closes 10â€¯pm Â· 099032 77071,",satabdichanda@gmail.com,","22.5507829,88.2769484"
Slim N Fit Gym & Yoga,Gym,Kolkata,"30+ years in business Â· Lala Lajpat Rai Sarini, 6D, Elgin Rd",Open â‹… Closes 10â€¯pm Â· 088517 94236,,"22.538214,88.3502895"
BODY LIFE GYM,Gym,Kolkata,7+ years in business Â· CA 198,Open â‹… Closes 9â€¯pm Â· 080170 83216,",bodylifegym@rediffmail.com,onelifefitness786@gmail.com,","22.5914093,88.398657"
Fitness Code,Gym,Kolkata,"7+ years in business Â· 391, 122, Prince Anwar Shah Rd",Open â‹… Closes 10:30â€¯pm Â· 083349 06066,",fitnesscode@yahoo.com,","22.5033279,88.3620429"
Castlewood Gym,Gym,Kolkata,"7+ years in business Â· G-1, 725, Salt Lake Bypass",Open â‹… Closes 10â€¯pm Â· 098300 92309,",castlewoodgym@gmail.com,castlewood_india@rediffmail.com,","22.559194,88.4116611"
Fitness Nation Studio | Best GYM In Tollygunge,Gym,Kolkata,"5+ years in business Â· 4, Baburam Ghosh Rd, near Technician Studio, near Nanu",Open â‹… Closes 10â€¯pm Â· 082403 30838,,"22.4858458,88.3431831"
Zest : The Next Level,Gym,Kolkata,"50, Chowringee Rd",Open â‹… Closes 10â€¯pm,,"22.5448493,88.3454704"
J M FITNESS,Gym,Kolkata,"3+ years in business Â· 49, Jatindas Rd",Open â‹… Closes 10â€¯pm,,"22.517094,88.3521041"
Fitness Point 2,Gym,Kolkata,"Belal Complex, 26, Topsia Rd, beside myMD Polyclinic",Open â‹… Closes 11:30â€¯pm,",fitness_point@yahoo.com,fitnesspoint0101@gmail.com,","22.5329729,88.3840402"
Vihan Fitness,Gym,Kolkata,"7+ years in business Â· 60 / 128 / 1 Golfgardens, Besides, Golfgarden park, near Madhartala",Open â‹… Closes 9:30â€¯pm Â· 098360 16215,",info@vihanfitness.com,","22.4983957,88.3532098"
Gym X Fitness Studio (Kankurgachi) Near kankurgachi,Gym,Kolkata,5+ years in business Â· P-252CIT,Open â‹… Closes 10â€¯pm Â· 084209 13720,",gymxfitness.studio@gmail.com,","18.4760628,73.9007086"
Body Kingdom,Gym,Kolkata,"7+ years in business Â· Kolkata, West Bengal",Open â‹… Closes 10â€¯pm Â· 090382 87130,,"22.5860379,88.3682966"
Fitness First,Gym,Kolkata,"5+ years in business Â· 90a, Beltala Rd",Open â‹… Closes 9â€¯pm Â· 011 4949 7000,",x3emembership.services@fitnessfirst.co.uk,membership.services@fitnessfirst.co.uk,","22.5129559,88.2709578"
The Calcutta Fitness Studio Plus Bhowanipore,Gym,Kolkata,"6, Ramesh Mitra Rd",Open â‹… Closes 12â€¯am,"Gymwiki.in@gmail.com,,","22.5288012,88.343687"
Fitlife Gym,Gym,Kolkata,"P, 81, CIT Rd Scheme 6M",Open â‹… Closes 10â€¯pm Â· 082829 66678,",info@fitlineindia.com,bodylinesports@gmail.com,","22.5753887,88.3886903"
Goal Evolution Fitness,Gym,Kolkata,"3+ years in business Â· First floor,8/3-A, Hati Bagan Rd, Hatibagan Rd N",Open â‹… Closes 10â€¯pm Â· 098361 13535,,"22.5509056,88.3683497"
SWEAT & FITNESS,Gym,Kolkata,"15, Madan Mitra Ln, nr. Ration Office",Open â‹… Closes 1â€¯am Â· 096747 64271,,"22.5689086,88.3497679"
Pep Fitness,Gym,Kolkata,"5+ years in business Â· 59, Balaji Tower, KN Sen Rd",Open â‹… Closes 10â€¯pm Â· 087777 25122,"tapas_dikpati@yahoo.in,,","22.5197167,88.3745177"
AP fitness Gym,Gym,Kolkata,"3+ years in business Â· 63, Christopher Rd",Open â‹… Closes 10â€¯pm,,"22.547473,88.3830251"
Mantra Lifestyle Health Club,Gym,Kolkata,"10+ years in business Â· Ground Floor, 29F, Barrackpore Trunk Rd",Open â‹… Closes 10:30â€¯pm Â· 090077 63533,,"22.6206157,88.3742565"
Austere Fitness,Gym,Kolkata,"5+ years in business Â· 7, 41, Netaji Nagar Rd",Open â‹… Closes 2â€¯am Â· 090518 37728,,"22.4815632,88.3591851"
Iron addict gym3,Gym,Kolkata,"35/3k, Topsia Rd",Open 24 hours Â· 070035 11514,,"22.5335095,88.3868823"
Catalyst Fitness Hub,Gym,Kolkata,"Just a 2 min walk from Armstrong gym, 40b, Garfa Main Rd",Open â‹… Closes 11â€¯pm,"Corey@gocatalystfitness.com,,","22.5090396,88.3799406"
Fast Fitness Health Club,Gym,Kolkata,"7+ years in business Â· 68 Bhupen roy road, James long sarani, beside national gems school",Open â‹… Closes 10â€¯pm Â· 098312 34454,,"22.491519,88.3155051"
Rival Fitness Studio - Baghajatin,Gym,Kolkata,"7+ years in business Â· Ground Floor, 118, Raipur Rd E",Open â‹… Closes 10:30â€¯pm Â· 090387 11540,,"22.4861285,88.3664985"
Fit N Fine Multi-gym,Gym,Kolkata,"5+ years in business Â· 14, Mansatala Row, near Mohsin School",Open â‹… Closes 10:30â€¯pm Â· 089610 38201,",nurain_khurshid2009@rediffmail.com,","22.5376345,88.3229842"
Ufit Gym,Gym,Kolkata,"5+ years in business Â· bata more, 16, Royd Street near Assembly of God church School ( junior section",Open â‹… Closes 10â€¯pm,,"22.5519372,88.3544336"
Samurai Uni Gym,Gym,Kolkata,08-Apr,Open â‹… Closes 10â€¯pm,,"22.5041357,88.3756431"
Asish & Deb Profitness,Gym,Kolkata,"7+ years in business Â· 189, Grey St",Open â‹… Closes 9â€¯pm Â· 085840 91007,,"22.5905328,88.3665568"
Benefit Fitness,Gym,Kolkata,"4th Floor, Raikva Building, Eastern Metropolitan Bypass, opposite Salt Lake Stadium Road",Open â‹… Closes 11â€¯pm,,"22.5634605,88.4041105"
BNB Fitness Solutions(Beleghata),Gym,Kolkata,"7+ years in business Â· 36/C, Kalimuddin Sarkar Ln",Open â‹… Closes 10â€¯pm Â· 099031 13555,",u003ebnbfitnesssol@gmail.com,bnbfitnesssol@gmail.com,","18.4760628,73.9007086"
FITNESS ADDICTION STUDIO - BEST GYM l BEST FITNESS CENTER IN BELEGHATA KOLKATA,Gym,Kolkata,"GROUND FLOOR, P-49, CIT Rd",Open â‹… Closes 10â€¯pm Â· 086974 16184,,"22.5655398,88.3940161"
C5 gym,Gym,Kolkata,"3+ years in business Â· 2, Jannagar Rd",Open â‹… Closes 10â€¯pm,",Email-reformsclubamt@gmail.com,","22.5450629,88.3631612"
Fitness Extreme,Gym,Kolkata,"5+ years in business Â· 3rd Floor, 36",Open â‹… Closes 10â€¯pm Â· 079805 80820,,"18.4760628,73.9007086"
X-FIT GYM,Gym,Kolkata,"5+ years in business Â· 7, Sachin Mitra Ln",Open â‹… Closes 9:30â€¯pm,,"22.5905877,88.3597744"
Raw Fitness Gym,Gym,Kolkata,"51/A, Dr Sudhir Bose Rd",Open â‹… Closes 12â€¯am,,"22.5149131,88.3035426"
Tatons Bodywork Gym,Gym,Kolkata,"5+ years in business Â· 59/60 Bagmari Road,, 1st Floor of Bagmari Progati Sangha, Near Ultadanga Hudco Police Quarter Bus Stop",Open â‹… Closes 10â€¯pm Â· 070037 98676,",tatonbiswajit2014@gmail.com,","22.5901568,88.3929788"
Add Life Fitness & Health Spa,Gym,Kolkata,"10+ years in business Â· Block-'A', 5th. Floor, 22, Camac St",Open â‹… Closes 9â€¯pm Â· 090511 11778,,"22.546736,88.3512039"
Fitnes2x,Gym,Kolkata,"28A, Gobinda Ghosal Ln",Open â‹… Closes 10â€¯pm,",support@gymcompany.co.za,info@phoenixgym.in,contact@ravefitnessstudio.com,","22.5276472,88.3401768"
92 LEO FITNESS,Gym,Kolkata,"7+ years in business Â· 1H, Chatu Babu lane, beside SBI ( CIT Road Branch)",Open â‹… Closes 10:30â€¯pm Â· 098369 79493,",kartickdas2901@gmail.com,","22.5576577,88.3710797"
Equinox Fitness,Gym,Kolkata,"33c, Manohar Pukur Rd",Open â‹… Closes 10:30â€¯pm Â· 084202 91117,",concierge@Equinox.com,x3eConcierge@Equinox.com,Concierge@Equinox.com,","22.5189342,88.3528966"
ROBUST FITNESS,Gym,Kolkata,"10+ years in business Â· Prasad Square Building, 164, Acharya Jagdish Chandra Bose Rd",Open â‹… Closes 10â€¯pm Â· 098305 05132,",apexinternational56@gmail.com,","22.5566593,88.3632494"
Just Fitness,Gym,Kolkata,"4, Dabur Park, near SBI Branch",Open â‹… Closes 10â€¯pm Â· 089109 81331,,"22.4994393,88.3101691"
Proportion Gym,Gym,Kolkata,"3+ years in business Â· 12/1A, Townshend Rd",Open â‹… Closes 9â€¯pm,",proportion-gym-kolkata-cjr@ark1u.html,waytofitnessgym@gmail.com,","22.5268108,88.3468564"
Force Gym,Gym,Kolkata,"7+ years in business Â· 26/1Z, Prasanna Kumar Tagore St",Open â‹… Closes 9:30â€¯pm Â· 090514 23247,,"22.5909569,88.3543491"
Roy's Fitness,Gym,Kolkata,"3+ years in business Â· South Dumdum, West Bengal",Open â‹… Closes 10:30â€¯pm Â· 080136 28907,,"22.6111645,88.3990885"
SOLID GYM,Gym,Kolkata,"5A, 5, Bedia Danga 2nd Ln, near Jahaj Bari or SBI",Open â‹… Closes 10â€¯pm Â· 089811 74101,"manish.singh@fitness-world.in,,solidfitnessvelachery@gmail.com,","22.5229819,88.3779213"
Kaushiki Gym | Gym in South Kolkata | Fitness Centre in South Kolkata,Gym,Kolkata,"5+ years in business Â· BL- SPD 2nd-FR, P, 630, Baghajatin Station Rd",Open â‹… Closes 10â€¯pm Â· 098300 63553,,"22.4837287,88.3735322"
Gyms Fitness Studio Chiriamore,Gym,Kolkata,"3+ years in business Â· Om Enclave, 59/2, Barrackpore Trunk Rd",Open â‹… Closes 11â€¯pm Â· 079801 68603,,"22.6156967,88.3767116"
Viva Fitness Zone,Gym,Kolkata,"3+ years in business Â· Carnival Cinema, HA-265, Salt Lake City, Sector 3, Near Salt Lake Big Bazaar",Open â‹… Closes 9:30â€¯pm,",customercare@viva-fitness.in,info@vivafitness.net,u003ecustomercare@viva-fitness.in,","22.5793403,88.4037686"
NCORE FITNESS,Gym,Kolkata,"5+ years in business Â· 118, Karl Marx Sarani Rd",Open â‹… Closes 10â€¯pm,,"22.539094,88.3189631"
RULES GYM,Gym,Kolkata,"47, Christopher Rd, near Hanuman Mandir",Open â‹… Closes 10:30â€¯pm Â· 091239 79057,",mmafiofficial@gmail.com,info@camphealth.co.in,","22.5484679,88.3814968"
Shakti Sangha Gym,Gym,Kolkata,"5+ years in business Â· 16/1/1, Biplabi Barin Ghosh Sarani",Open â‹… Closes 10â€¯pm Â· 070037 98676,,"22.5913739,88.3819874"
Tarun Fitness - Multi Gym,Gym,Kolkata,"51/A, Sarkar Ln",Open â‹… Closes 11â€¯pm Â· 098309 14485,",Tarun.Kapoor900@gmail.com,","22.5828879,88.3622243"
Kt,Gym,Kolkata,"5+ years in business Â· 5A, Bidhannagar Rd, near muchibajar bus stop",Open â‹… Closes 10:30â€¯pm,"info@krisgethingym.com,,ninfo@krisgethingym.com,","22.5392836,88.2504812"
Sweat Out,Gym,Kolkata,"25+ years in business Â· 12, Park Street Queens mansion Room # 11, Gate#2 1st floor, opp. Park Hotel",Open â‹… Closes 10â€¯pm Â· 079801 40749,,"22.5748544,88.3158028"
FLEX PLEX FITNESS,Gym,Kolkata,"3+ years in business Â· 2nd floor, 82, Harish Mukherjee Rd",Open â‹… Closes 10â€¯pm,,"22.531237,88.3405847"
Absolution Fitness Studio,Gym,Kolkata,"5+ years in business Â· 10/1, Ghosh Ln",Open â‹… Closes 10â€¯pm Â· 089816 53980,,"22.5847218,88.3680328"
Health & Fitness Center,Gym,Kolkata,5+ years in business Â· GC53+XXQ,Open â‹… Closes 10â€¯pm,,"22.5191505,88.3323853"
Lifestyle & Fitness,Gym,Kolkata,"20+ years in business Â· Shivamani Apartment, 47C, Diamond Harbour Rd",Open â‹… Closes 9â€¯pm Â· 098303 21169,,"22.5037604,88.3201732"
I Feel Fitness - Gym,Gym,Kolkata,"3+ years in business Â· 1st Floor, 113J, Matheswartala Road",Open â‹… Closes 9â€¯pm Â· 098300 15203,",ifeelfitness@ilead.net.in,","22.5432053,88.3862069"
F3 fire fit fitness,Gym,Kolkata,Raja Dinendra St,Open â‹… Closes 10â€¯pm,,"22.5955469,88.3750234"
Fit & Fitness,Gym,Kolkata,"93/3/9, Hari Ghosh St",Open â‹… Closes 10:30â€¯pm,,"22.5910828,88.3655266"
The Fit Way Gym,Gym,Kolkata,"51, Nalini Ranjan Ave",Open â‹… Closes 10â€¯pm,",info@kfsfitness.com,","22.5126953,88.3264866"
NU Apex Fitness Studio,Gym,Kolkata,"28B, Samsul Huda Rd",Open â‹… Closes 9â€¯pm Â· 087778 59498,,"22.5377108,88.365278"
Body basic gym,Gym,Kolkata,"3+ years in business Â· 258, 16, SH 1",Open â‹… Closes 10â€¯pm,",waytofitnessgym@gmail.com,","22.5821546,88.3457835"
Xystus,Gym,Kolkata,"7+ years in business Â· 105 B, Selimpur Rd",Open â‹… Closes 10:30â€¯pm Â· 087682 07029,",xystus.subho@gmail.com,","22.4948243,88.3560918"
Body Shaper Gym and Fitness Studio,Gym,Kolkata,"3+ years in business Â· K Saha House, 63, Becharam Chatterjee Rd, Near B",Open â‹… Closes 10:30â€¯pm Â· 098306 16135,,"22.495806,88.3106041"
One2One fitness gym,Gym,Kolkata,"7+ years in business Â· 57/1c, Topsia Rd, near Jin Masjid",Open 24 hours Â· 096745 80826,",JohnSmith@one2one-fitness.co.uk,","22.5334504,88.3855522"
Fitness Track,Gym,Kolkata,"61B, Matheswartala Road, near Kim Pou Restaurant",Open â‹… Closes 10â€¯pm,",bodylinesports@gmail.com,care@myfitness.co.in,","22.5478333,88.3886928"
Bansdroni Gymkhana Fitness Centre,Gym,Kolkata,"15+ years in business Â· 46, Adiganga Rd",Open â‹… Closes 11â€¯pm Â· 098316 75830,"indradas76@gmail.com,,gymkhanafitnesscentre@gmail.com,","22.4727095,88.359097"
Flash Fitness,Gym,Kolkata,"7+ years in business Â· 3rd Floor, 3 A, Camac St",Open â‹… Closes 8:30â€¯pm Â· 098300 20888,",behnaz@flashfitness.in,","22.5489783,88.3508951"
Kolkata Multi Gym And Yoga Centre,Gym,Kolkata,"10+ years in business Â· 22, Girish Ave",Open â‹… Closes 10â€¯pm Â· 033 2555 3923,,"22.6022652,88.3650967"
Pulse Fitness,Gym,Kolkata,"10+ years in business Â· 101, Rajdanga Main Rd",Open â‹… Closes 10â€¯pm Â· 090510 26635,",info@pulsefitness.in,","22.514781,88.3885592"
S. S. Fitness Gym,Gym,Kolkata,"3+ years in business Â· 126, Acharya Prafulla Chandra Rd, near Manicktalla",Open â‹… Closes 10â€¯pm Â· 070035 51090,",ss_associates2003@rediffmail.com,","22.5492765,88.3423959"
AVIJIT FITNESS CENTRE,Gym,Kolkata,"232, near BUNDEL BRIDGE",Open 24 hours,",tlgkolkata@thelittlegym.in,","22.5286501,88.3726174"
HEALTH CLUB LADIES FITNESS CENTRE,Gym,Kolkata,"H/106, 49/5, 1, Karl Marx Sarani Rd",Open â‹… Closes 9:30â€¯pm,,"22.5371633,88.3169264"
FITNESS FACTORY SAHAPUR,Gym,Kolkata,"5+ years in business Â· Post Office, 74 A, SN Roy Rd",Open â‹… Closes 10â€¯pm Â· 098319 25855,,"22.5068197,88.321141"
Anytime Fitness,Gym,Kolkata,"3+ years in business Â· No DD/7, 2nd Floor, Prangan",Open 24 hours Â· 083369 77572,",memberexperience@anytimefitness.in,John.Smith@anytimefitness.com,x3eJohn.Smith@anytimefitness.com,","22.5608945,88.3035825"
SMFG (GYM) Sanjay murli fitness gym,Gym,Kolkata,"59B, Chowringee Rd",Open â‹… Closes 11:30â€¯pm,,"22.5410736,88.3448154"
Rival Fitness Studio - Ballygunge,Gym,Kolkata,"3+ years in business Â· First Floor, 1B, Panditiya Rd, Hazra Rd",Open â‹… Closes 11â€¯pm Â· 090387 11540,,"22.5246759,88.3547579"
F1 Gym,Gym,Kolkata,"7, H/1, Dum Dum Rd",Open â‹… Closes 11â€¯pm Â· 084810 07687,",manish.mishra321@gmail.com,","22.6189434,88.388081"
YA Dumble Complex Unisex AC GYM,Gym,Kolkata,"South Dumdum, West Bengal",Open â‹… Closes 10:30â€¯pm Â· 090881 42711,,"22.5938281,88.3916907"
Rival Fitness Studio - Beleghata,Gym,Kolkata,"14B, Beleghata Main Rd",Open â‹… Closes 10â€¯pm,",sjpc2012@gmail.com,","22.5649946,88.3857762"
The Strength Code,Gym,Kolkata,"44/2, Nimtala Ghat St, Opposite Gyan Bharati school",Open â‹… Closes 10â€¯pm Â· 081005 89963,",bnbfitnesssol@gmail.com,info@wavesgym.com,","22.5915853,88.3565091"
Wynn fitness,Gym,Kolkata,"3rd Floor, Bangur Bfl estate east gate, 31, Jawaharlal Nehru Rd",Open â‹… Closes 10â€¯pm,"info@wynn.fit,,","22.5539337,88.348599"
à¦œà¦¿à¦®à¦–à¦¾à¦¨à¦¾ Gymkhaana,Gym,Kolkata,"7+ years in business Â· P, 91/1, Nani Gopal Roy Chowdhury Ave",Open â‹… Closes 10:30â€¯pm Â· 094330 44020,",khargym@hotmail.com,accounts@khargymkhana.com,","22.5410922,88.2898616"
AweFitness,Gym,Kolkata,"10+ years in business Â· 25/1, Dr Rajendra Rd",Open â‹… Closes 10â€¯pm Â· 098302 84399,",u003eanwarwahhab@awefitness.com,anwarwahhab@awefitness.com,","22.5431177,88.3462888"
Labanya Fitness Centre,Gym,Kolkata,"5+ years in business Â· 2 2, Raja Bagan Lane, DumDum Rd",Open â‹… Closes 9:30â€¯pm Â· 083349 64408,,"22.6207734,88.3880455"
WTF,Gym,Kolkata,"7+ years in business Â· 2, Gauri Shankar Ln",Open â‹… Closes 10â€¯pm Â· 098311 10333,",waytofitnessgym@gmail.com,","22.5874258,88.3087413"
Alpha Training Studio,Gym,Kolkata,"101L, Karaya Rd, near Karaya",Open â‹… Closes 10â€¯pm,",usalphaomega.combatsports@gmail.comCall,","22.5395525,88.3601582"
The Fettle Fitness,Gym,Kolkata,"3+ years in business Â· P25 Darga Road,Galaxy House,4th Floor, Beside Don Bosco School",Open â‹… Closes 11â€¯pm Â· 074391 04901,",sales@fettlefitness.com,","22.5434493,88.3687679"
Atma Shakti Byam Samity,Gym,Kolkata,"10+ years in business Â· 118, Linton St, near Linton Post office",Open â‹… Closes 10â€¯pm Â· 085840 54918,,"22.5500132,88.3663905"
The Camp Fitness Studio,Gym,Kolkata,"2nd floor, 9, Elgin Rd, opp. Anita Dongre",Open â‹… Closes 10â€¯pm Â· 062898 74613,",info@camphealth.co.in,","22.5381095,88.3495945"
SB Fitness,Gym,Kolkata,"148B, Martin Para Rd",Open â‹… Closes 10:30â€¯pm,,"22.5309402,88.3986763"
Dilip Mukherjee Gym Kendro,Gym,Kolkata,"10+ years in business Â· Kolkata, West Bengal",Open â‹… Closes 11â€¯pm,",ade.klzo1-enforce@gov.in,","22.5284478,88.3838031"
Max Fitness Gym,Gym,Kolkata,42/C,Â· 079807 98464,",info@maxfitnessindia.com,alphamaxgym@gmail.com,","22.5421903,88.2000752"
BioHak Fitness Studio,Gym,Kolkata,"3rd Floor, 38A, Darga Rd, opposite Mahadevi Birla World Academy",Open â‹… Closes 9:30â€¯pm Â· 099035 10741,,"22.541497,88.3680114"
Endorfins- Salt Lake,Gym,Kolkata,7+ years in business Â· Plot No.2,Open â‹… Closes 10â€¯pm Â· 091632 62499,",saltlake@gethingyms.com,","22.5856279,88.4057973"
Fight4Fitness,Gym,Kolkata,"78/2G, 5th Floor Ocean Center building, Mansatala Row, opposite Phalwan Tailors, near Fancy Market",Open â‹… Closes 11:45â€¯pm Â· 062896 98172,",sodepur.kolkata@goldsgym.in,waytofitnessgym@gmail.com,","22.5381576,88.3210823"
Cuts and Curves Fitness,Gym,Kolkata,7+ years in business Â· 4,Open now,,"22.5617393,88.380271"
Federation Gym,Gym,Kolkata,"10+ years in business Â· G9MJ+MV5, Topsia Rd",Open â‹… Closes 11â€¯pm Â· 093312 37623,",mmafiofficial@gmail.com,","22.5341345,88.3796561"
KOLKATA PHYSICAL FITNESS ACADEMY,Gym,Kolkata,"3+ years in business Â· Kolkata, West Bengal",Open â‹… Closes 10â€¯pm Â· 089818 75970,,"22.5654464,88.3999145"
BURNOUT,Gym,Kolkata,"7+ years in business Â· 46, Beck Bagan Row",Open â‹… Closes 10â€¯pm Â· 098366 65292,",burnoutcorporate@gmail.com,","22.5391985,88.3610482"
YOUNG CORNER GYM,Gym,Kolkata,"7+ years in business Â· 10/2, Rai Charan Pal Ln",Open â‹… Closes 10â€¯pm,",anuj14sanganeria@gmail.com,","22.5428856,88.3735273"
Glory Gym,Gym,Kolkata,"56L, Ultadanga Main Rd",Open â‹… Closes 10â€¯pm Â· 086975 64739,,"22.5936448,88.3861018"
Fitness Today - Kasba,Gym,Kolkata,"3 Bediadanga Masjidbari Lane, 39",Open â‹… Closes 11â€¯pm Â· 078901 03803,",chintan.daxxxxx@gmail.com,","22.527811,88.3802663"
NXT Fitness,Gym,Kolkata,"115, Diamond Harbour Rd",Open â‹… Closes 11â€¯pm Â· 087770 82727,,"22.4672349,88.3055467"
Starke Gym,Gym,Kolkata,"P89, CIT Rd",Open â‹… Closes 11â€¯pm,",dipak.shaw81@gmail.com,","22.5459283,88.3577499"
Khalsa Gym,Gym,Kolkata,"5+ years in business Â· Beleaghata auto stand, CIT building",Open â‹… Closes 10â€¯pm Â· 089102 77216,",xxxx@khalsagymnastics.net,","22.558831,88.4077131"
The Park Fitness,Gym,Kolkata,"Platform no. 1, 58, 3, SN Banerjee Road, beside Godrej Interior, near Aminia Restaurant",Open â‹… Closes 10â€¯pm Â· 070037 60060,,"22.562895,88.3498126"
Gold's Gym,Gym,Kolkata,"10+ years in business Â· Andromeda Building, 8th Floor",Open â‹… Closes 10â€¯pm Â· 070442 01202,"WeCare@GoldsGym.in,,sodepur.kolkata@goldsgym.in,","22.6144535,88.2887363"
Crazy Fitness,Gym,Kolkata,"1/6-B, S Purbachal Hospital Rd, opposite side of Udayan Sangha Club",Open â‹… Closes 10â€¯pm Â· 079803 07076,,"22.4807444,88.3647427"
Spark Family Fitness Studio,Gym,Kolkata,"57, Cossipore Rd",Open â‹… Closes 10â€¯pm Â· 087775 05299,,"22.6323295,88.3684974"
MAM GYM,Gym,Kolkata,"5+ years in business Â· 4-66, CIT Rd",Open â‹… Closes 10â€¯pm,",Inquiry@wellnessclub.co.in,maidagym@mail.com,","22.5765626,88.3894108"
Muzl Mania Gym,Gym,Kolkata,"10+ years in business Â· P7/8, C.I.T Road, Beside Senco Gold Mega Shop",Open â‹… Closes 10â€¯pm,"muzl-mania-kolkata-zi@3arylr.html,,fahmsha@rediffmail.com,","22.560587,88.3653441"
Maxsan Gym,Gym,Kolkata,"1a, 4, Prabhu Ram Sarkar Ln",Open â‹… Closes 10â€¯pm,,"22.5544719,88.3879814"
KETUZ GYM - PAIKPARA,Gym,Kolkata,"7, Uma Kanta, Umakanta Sen Ln, opposite Orbit Subham",Open â‹… Closes 10â€¯pm,,"22.6161828,88.3827211"
Australian Fitness Centre,Gym,Kolkata,7+ years in business Â· G97X+66G,Open â‹… Closes 10â€¯pm Â· 072784 94057,,"22.5130722,88.3954946"
DK Fitness,Gym,Kolkata,"46a, Topsia Rd",Open â‹… Closes 11â€¯pm,",rkfitnessdwarka@gmail.com,","22.5335632,88.3866211"
Ketuz Gym-DumDum,Gym,Kolkata,"3+ years in business Â· New Market, Dum Dum Rd, near Theism",Open â‹… Closes 10â€¯pm Â· 070039 26754,,"22.6191342,88.3900905"
Oswal Sports & Health Club,Gym,Kolkata,"10+ years in business Â· Between Nopany High School and Sri Chaitanya School, 2B, Nanda Mullick Ln",Â· 033 2530 6074,",9414461261@gmail.com,","22.5882055,88.357143"
FITNESS ADDICTION ARENA -BEST GYM l BEST FITNESS CENTER IN GARIAHAT BALLYGUNGE,Gym,Kolkata,"3 Rd floor, 195, Rashbihari Avenue, Foot Bridge, near Gariahat",Open â‹… Closes 11â€¯pm Â· 062911 07589,,"22.5210349,88.3656069"
UFC - Universal Fitness Centre Tala Prattoy,Gym,Kolkata,"Orbit Northview, 3, Khelat Babu Ln",Open â‹… Closes 10â€¯pm Â· 087770 79899,",jason.foxworth@ufcgym.com,","22.6092882,88.3776716"
Fitness Hotspot,Gym,Kolkata,"1, Tarak Dutta Rd",Open â‹… Closes 10â€¯pm,"contact@countryclubmail.com,,","22.5380841,88.3603115"
Strength,Gym,Kolkata,99/5/8D,Open â‹… Closes 10â€¯pm Â· 098367 21507,",contact@ravefitnessstudio.com,nirupamkar8@gmail.com,","22.571836,88.2789122"
Bagh Bazar Gym,Gym,Kolkata,"7+ years in business Â· H9X7+JPX, Sovabazar",Open â‹… Closes 8:30â€¯pm,,"22.6006831,88.3634411"
Physiomax,Gym,Kolkata,"10+ years in business Â· CL-236, 2nd FLOOR",Open â‹… Closes 10â€¯pm Â· 090515 18213,",physiomax@live.com,Copyright@physiomaxgym.com,","22.6133383,88.3421476"
The FITNESS STATION,Gym,Kolkata,"817/3, Kalikapur Rd, above Avon Cycle Shop, opposite Kolkata Kidney Institute",Open â‹… Closes 10:30â€¯pm Â· 070030 97292,"manish.singh@fitness-world.in,,","22.504207,88.395236"
Vivekananda Fitness,Gym,Kolkata,"3+ years in business Â· Shitala Mandir, 43, Dhapa Rd, near Dhapa",Open â‹… Closes 10â€¯pm,"vivekanandasports78@gmail.com,,","22.552562,88.3924408"
Figure Up Workout,Gym,Kolkata,"7+ years in business Â· 7/2K, Jamir Lane, (Balligunge)",Open â‹… Closes 9â€¯pm Â· 033 2460 0017,,"22.5231109,88.3682374"
Rayan's Muscle Unit,Gym,Kolkata,"5A, Bidhannagar Rd",Open â‹… Closes 10â€¯pm,",rajdippatra623@gmail.com,","22.5981222,88.3740172"
The best gym - Kolkata,Gym,Kolkata,3+ years in business Â· Chittaranjan Ave,Open 24 hours,",bnbfitnesssol@gmail.com,","22.5525058,88.3383944"
Gold Gym,Gym,Kolkata,"3+ years in business Â· No. 57, Jawaharlal Nehru Rd",Open â‹… Closes 10â€¯pm,"WeCare@GoldsGym.in,,sodepur.kolkata@goldsgym.in,","22.6037799,88.2796804"
NUJS Gym,Gym,Kolkata,5+ years in business Â· HC65+CX7,Open â‹… Closes 10â€¯pm,",ar.finance@nujs.edu,a.r.admin@nujs.edu,info@nujs.edu,","22.5610495,88.4073318"
Kris Gethin Gyms - Saltlake,Gym,Kolkata,"3+ years in business Â· prangan, 9th Floor, DD- 7, Salt Lake Rd",Open 24 hours Â· 097486 54545,"info@krisgethingym.com,,ninfo@krisgethingym.com,saltlake@gethingyms.com,","22.5891639,88.4086346"
"Cult Salt Lake Stadium - Gyms in Beleghata, Kolkata",Gym,Kolkata,"On, Cult Salt Lake Stadium, 4th Floor, Raikva Building, Eastern Metropolitan Bypass, opp. Salt Lake Stadium Road, Beleghata, Kolkata, West Bengal 700010",,",x3ehello@cult.fit,hello@cult.fit,","22.5634794,88.4043321"
RBW Fitness Studio,Gym,Kolkata,"22, Ashutosh Chowdary Ave",Open â‹… Closes 9â€¯pm,,"22.5286649,88.3629671"
Oorja Fitness,Gym,Kolkata,"10+ years in business Â· Sri Vinayak, Umananda Rd",Â· 098300 70696,,"22.5237745,88.3390039"
FitNet Muscle Den | Saltlake | Affordable & best Gym center near in Saltlake,Gym,Kolkata,"3+ years in business Â· CF-140, 4th Cross Rd",Open â‹… Closes 10:30â€¯pm Â· 083348 72460,,"22.5942298,88.4125204"
EDGE Fitness,Gym,Kolkata,"7+ years in business Â· 425/1, 206 Foot Bridge, opposite Kolkata",Open â‹… Closes 10â€¯pm Â· 098317 89789,"contact@edgefitnessgym.com,,krishna@edgefitnessgym.com,edgeforfitness@gmail.com,","22.5862501,88.4212804"
Soumen_coach,Gym,Kolkata,5+ years in business Â· Rani Rashmoni Garden Ln,Open â‹… Closes 10â€¯pm,",tlgkolkata@thelittlegym.in,bodylinesports@gmail.com,","22.5573005,88.3894755"
Flex Fit Gym,Gym,Kolkata,5+ years in business Â· 1/3,Open â‹… Closes 10â€¯pm Â· 098311 20392,,"22.6120701,88.4046703"
Ministry of Fitness,Gym,Kolkata,"Howrah, West Bengal",Open â‹… Closes 10â€¯pm,",bodylinesports@gmail.com,info@keleven.com,","22.592633,88.3395862"
"Physiomax Gym, Dum Dum, Kolkata",Gym,Kolkata,"10+ years in business Â· North Dumdum, West Bengal",Open â‹… Closes 10â€¯pm Â· 090513 58213,",physiomax@live.com,","22.6342031,88.4139515"
SAS FITNESS .,Gym,Kolkata,7+ years in business Â· AA/22 Lipjit Apartment,Open â‹… Closes 11â€¯pm Â· 086974 16184,,"22.6372891,88.35746"
Fit 'N' Fine Salt lake,Gym,Kolkata,HCQ5+975,Â· 033 4001 4222,,"22.58133,88.4042469"
Xtreme Cross2 Fitness Studio,Gym,Kolkata,"7+ years in business Â· South Dumdum, West Bengal",Open â‹… Closes 10â€¯pm Â· 090516 14988,",xtremecross2fitnessstudio@gmail.com,","22.6116797,88.395093"
The Friend's United Club,Gym,Kolkata,"213B, Chittaranjan Ave",Open â‹… Closes 9:30â€¯pm Â· 093392 09327,",sales@princeton.in,","22.6012687,88.3577992"
GEN-X Gym,Gym,Kolkata,"10+ years in business Â· bus stand, near 3 no camp",Open â‹… Closes 10:30â€¯pm Â· 098749 35180,,"22.5911071,88.4317008"
BFF - Bond Fitness Factory,Gym,Kolkata,"1st Floor, Sundrop Co Operative Society, DC-200, opp. Biswa Bangla Sarani",Open â‹… Closes 11â€¯pm Â· 099036 74877,",kolkatatrekkersyouth@gmail.com,dcernakulamregion@gmail.com,","22.5779458,88.4697904"
AV's Fitness Studio,Gym,Kolkata,"Tirath, Ground, 122/2",Open â‹… Closes 10â€¯pm,",avfitnessstudio2023@gmail.com,avsfitnessco@gmail.com,","22.602446,88.4070763"
Perfect Gym,Gym,Kolkata,CK-2,Open â‹… Closes 9:30â€¯pm,",contact@perfectgym.com,bodylinesports@gmail.com,Inquiry@wellnessclub.co.in,","22.5864227,88.4219335"
BODY BASIC GYM (Maniktala),Gym,Kolkata,"256, 16, Acharya Prafulla Chandra Rd",Open â‹… Closes 10â€¯pm,,"22.5986422,88.3718256"
Gym X Fitness Studio+,Gym,Kolkata,"3rd Floor, Block-B, Madhuban Apartment, 48/8, Jessore Rd",Open â‹… Closes 10â€¯pm Â· 090073 16666,",gymxfitness.studio@gmail.com,","22.6089281,88.4057797"
Hyatt Gymnasium,Gym,Kolkata,"SH 1, JA Block, Sector 3, Bidhannagar, Kolkata, West Bengal 700015",,",consumeraffairs@hyatt.com,x3econsumeraffairs@hyatt.com,kolka.regency@hyatt.com,","22.570499,88.4030124"
"The Fitness World, NEWTOWN",Gym,Kolkata,5+ years in business Â· Shantiniketan Apartment Mahisgot,Open â‹… Closes 10â€¯pm Â· 097759 95300,"manish.singh@fitness-world.in,,","22.5814965,88.4408796"
Kolkata Police Open Air Gym,Gym,Kolkata,"HC93+WCR, Subhas Sarobar Park, Phool Bagan, Beleghata, Kolkata, West Bengal 700010",,",x3edctp@kolkatatrafficpolice.gov.in,x3ejtcptp@kolkatapolice.gov.in,dctp@kolkatatrafficpolice.gov.in,occomputercellbdnpc@gmail.com,jtcptp@kolkatapolice.gov.in,","22.5698671,88.4009357"
INDOOR BOXING,Gym,Kolkata,"THE CRICKET ASSOCIATION OF BENGAL, EDEN GARDEN",080018 68754,,"22.5503399,88.3298043"
DELTA FITNESS - BEST GYM I BEST FITNESS CENTER I BEST HEALTH CLUB IN BAGUIATI KOLKATA,Gym,Kolkata,"1stfloor, No 117/1, Baguihati, VIP Rd",Open â‹… Closes 11â€¯pm Â· 097483 94999,,"22.6085776,88.4243101"
The Calcutta Fitness Studio,Gym,Kolkata,"1, Motilal Gupta Rd",Open â‹… Closes 11â€¯pm,"Gymwiki.in@gmail.com,,","22.5060528,88.3049589"
The Body Gym,Gym,Kolkata,"25+ years in business Â· bus stop, Rc/16/6, near exide office",Open â‹… Closes 9â€¯pm Â· 092318 91786,",bodylinesports@gmail.com,waytofitnessgym@gmail.com,","22.6228727,88.4289924"
TRIFIT Gym & Yoga Studio,Gym,Kolkata,"5+ years in business Â· New Town, West Bengal",Open â‹… Closes 10â€¯pm Â· 098825 73869,,"22.5847875,88.4481474"
EXCEL FITNESS HUB - Best gym in dumdum,Gym,Kolkata,"3+ years in business Â· 31, PK Guha Rd",Open â‹… Closes 10â€¯pm Â· 062899 73939,",technical.texcial@gmail.com,","22.6434677,88.4234133"
GYMS FITNESS STUDIO CHINARPARK,Gym,Kolkata,"4th floor, Meena Tower, above Aminia Rest aurant",Open â‹… Closes 11:30â€¯pm Â· 079801 68603,,"22.6235027,88.4391218"
Rebel Fitness Functional Gym,Gym,Kolkata,"3+ years in business Â· GROUND FLOOR, 9-G/2, NEW, Panchanantala Rd, beside Shishu Niketan School",Open â‹… Closes 10â€¯pm Â· 079806 84996,,"22.6652806,88.3772668"
Carbon Fitness Studio,Gym,Kolkata,"H-1/16,S.L. Sarani, Anuj Complex",Open â‹… Closes 10â€¯pm Â· 062904 79604,,"22.6093755,88.3971339"
Tiger fitness gym,Gym,Kolkata,"Howrah, West Bengal",Open â‹… Closes 10:30â€¯pm Â· 096746 32401,",Primerafitnessprivatelimited@gmail.com,x3eservice@tigerfitness.com,service@tigerfitness.com,Tigerfitnessclub139@gmail.com,","22.53753,88.1780792"
THE SAS FITNESS - BEST GYM l BEST FITNESS CENTER IN BELGHORIA KOLKATA,Gym,Kolkata,"56, Beharilal Ghosh Rd",Open â‹… Closes 10â€¯pm Â· 086974 16184,",ABHISHEK.AGARWALLA16JAN@GMAIL.COM,","22.6645882,88.3760403"
Power Multi Gym,Gym,Kolkata,"3+ years in business Â· Howrah, West Bengal",,",bodylinesports@gmail.com,Inquiry@wellnessclub.co.in,","22.5769522,88.0769015"
Anytime Fitness,Gym,Kolkata,"3+ years in business Â· Unit B, 3rd floor, Newton square",Open â‹… Closes 12â€¯am Â· 098301 15664,",memberexperience@anytimefitness.in,John.Smith@anytimefitness.com,x3eJohn.Smith@anytimefitness.com,","22.5608945,88.3035825"
SSR FITNESS,Gym,Kolkata,"52, H / 10, Chaulpatty Rd, Kulia, Beleghata, Kolkata, West Bengal 700010",,",sanghasandeep555@gmail.com,","22.560482,88.3934891"
Women Gyms,Gym,Kolkata,"1/504 Gariahat Road, Gol Park",,",soumendas0103@gmail.com,","22.5726224,88.2682212"
Bilay's Fitness Plus,Gym,Kolkata,7+ years in business Â· 13/2,Open â‹… Closes 10â€¯pm Â· 092306 32004,,"22.6328602,88.4341642"
A Builder Hut,Gym,Kolkata,"Budge Budge Trunk Rd, Jagtala, Batanagar, Maheshtala",Open 24 hours Â· 082769 03867,,"22.4998413,88.2297217"
Taponomics Xtreme MMA Gym,Gym,Kolkata,"3+ years in business Â· 28, 3A",Closes soon,",info@taponomics.com,","22.5510954,88.3539484"
"Weightloss, Fitness, in Kolkata",Gym,Kolkata,"3+ years in business Â· Musalman para, Dharmatala panchuria, K LC shout",,",contact@ravefitnessstudio.com,","22.5319672,88.3275036"
A Builder Hut,Gym,Kolkata,"Budge Budge Trunk Rd, Jagtala, Batanagar, Maheshtala",Open 24 hours Â· 082769 03867,,"22.4998413,88.2297217"
Taponomics Xtreme MMA Gym,Gym,Kolkata,"3+ years in business Â· 28, 3A",Closes soon,",info@taponomics.com,","22.5510954,88.3539484"
"Weightloss, Fitness, in Kolkata",Gym,Kolkata,"3+ years in business Â· Musalman para, Dharmatala panchuria, K LC shout",,",contact@ravefitnessstudio.com,","22.5462198,88.2343076"
Lifting Hours Gym,Gym,Kolkata,Rajarhat Main Rd,Open â‹… Closes 9:30â€¯pm Â· 070034 06170,",rajib.bar994@gmail.com,","22.6300938,88.4143125"
BARBELL CLUB,Gym,Kolkata,"1st floor, Rajarhat 211 Main Road Rajarhat kathgola, near hdfc bank",Open â‹… Closes 10â€¯pm Â· 062919 11535,",contact@challengebarbell.com,","22.6293596,88.4836577"
Zing Fit Clinic - Bosepukur Road - Kolkata,Gym,Kolkata,"Ground Floor, 59A/3, Bosepukur Rd, next to Santanu Apartment, Tal Bagan, Bosepukur, Kasba, Kolkata, West Bengal 700042",086177 44241,,"22.5181564,88.3834849"
TEZ Gym - Bankura - Kolkata,Gym,Kolkata,"Bankura, Chak Purohit, West Bengal 713103",079080 14950,",tlgkolkata@thelittlegym.in,","23.1874387,87.8277058"
Pulse Fitness Zone - East Kolkata Township - Kolkata,Gym,Kolkata,"101, Rajdanga Main Rd, Rajdanga Nabapalli, Sector A, East Kolkata Twp, Kolkata, West Bengal 700107",090510 26635,,"22.514781,88.3885592"
Ss Yoga Classes - Kodalia - Kolkata,Gym,Kolkata,"Near Sonarpur Hospital, Pragatipally, KP Bose Road, Kodalia, Kolkata 700146, WB",+91-8584800944,,"22.5654427,88.2371778"
Body Life Gym - Bidhan Nagar - Kolkata,Gym,Kolkata,"CA-198, Near CA Market, Salt Lake City, Bidhan Nagar, Kolkata 700064, WB",+91-9883556319,",bodylifegym@rediffmail.com,","22.5914093,88.398657"
Goal Evolution Fitness - Hatibagan Road North - Kolkata,Gym,Kolkata,"First floor,8/3-A, Hati Bagan Rd, Hatibagan Rd N, Paddapukur, Beniapukur, Kolkata, West Bengal 700014",098361 13535,,"22.5509056,88.3683497"
Bangiya Yoga Pratisthan - Garia - Kolkata,Gym,Kolkata,"23, Sonali Park Sports & Cultural Society, Sonali Park, Near Chatra Sangha Cricket Academy, Bidhanpally, Garia, Kolkata 700084, WB",+91-8013589367,,"22.4681066,88.3643068"
Openhouse - Midletonrow - Kolkata,Gym,Kolkata,"1, 7th Floor, Inside AC Market, Shakerpeare Sarani, Midletonrow, Kolkata 700071, WB",+91-9073223854,",tlgkolkata@thelittlegym.in,","22.5462182,88.2852885"
Patanjali Chikitsalaya - Motijhil - Kolkata,Gym,Kolkata,"105/7-B, Near SIL Bagan, Motijhil, Kolkata 700074, WB",+91-9433532864,"BKDUGAR@YAHOO.CO.IN,PATANJALI.AMBALACANTT@GMAIL.COM,EMAIL-patanjalimbd@gmail.com,,","22.5495966,88.2740442"
Yoga Plus - Bangur Avenue - Kolkata,Gym,Kolkata,"29/1, Block-C, Near Super Market, Bangur Avenue, Bangur, Lake Town, Kolkata, West Bengal 700055",098747 50006,,"22.6048877,88.408002"
The Art Of Living - Salt Lake City - Kolkata,Gym,Kolkata,"Sector 2, Salt Lake City, Kolkata 700091, WB",+91-9820358627,",secratariat@artofliving.org,saltlakecity@us.artofliving.org,","22.5641668,88.3504171"
Itz Yoga For Mind - Tollygunge - Kolkata,Gym,Kolkata,"3/17-B, Near Dhaka Kali Bari, Rajendra Prasad Colony, Tollygunge, Kolkata 700033, WB","+91-8240045610, +91-7347016939",,"22.501914,88.3395311"
Fitness In Motion - Birati - Kolkata,Gym,Kolkata,"4, Madhusudan Banerjee Rd, Pratiraksha Nagar, Birati, Kolkata, North Dumdum, West Bengal 700051",+91-9051030617,",info@phoenixgym.in,","22.662937,88.4173591"
Yoga Samadhan - Kalighat - Kolkata,Gym,Kolkata,"11A/1 B.L GANGULI LANE, 33, Tollygunge, Kolkata, West Bengal 700033",090020 02959,"info@yogasamadhan.com,,yogasamadhan18@gmail.com,","22.5056921,88.341411"
Apple Infomedia Private Limited - Regent Park - Kolkata,Gym,Kolkata,"80, Opposite BSNL Telephone Exchange, Regent Park, Kolkata 700040, WB","+91-33-65556554, +91-9782486199",",infoegpl@eicher.in,","22.5735994,88.3401246"
Atins - Gariahat Road - Kolkata,Gym,Kolkata,"30-B, Near AMRI Hospital & Allahabad Bank, Golpark, Gariahat Road, Kolkata 700029, WB","+91-7980551069, +91-9831316829",",soumendas0103@gmail.com,","22.520134,88.3559053"
Fit Wit Alpha - Narendrapur - Kolkata,Gym,Kolkata,"Ukhila Paikpara 209, Netaji Subhash Chandra Bose Road Ramchandrapur, Narendrapur, Rajpur Sonarpur, West Bengal 700103",070034 56625,,"22.4362083,88.3970409"
Chandra Saraswat - Lake Town - Kolkata,Gym,Kolkata,"173, Block – C, Bangur Avenue, Bangur, Kolkata, West Bengal 700055",098360 74754,",anjan.r@dastur.com,","22.6024135,88.4069687"
Patanjali Chikitsalaya - Deshbandhunagar - Kolkata,Gym,Kolkata,"Kajol Apartment, Near Jora Mandir, Vip Road, Deshbandhunagar, Kolkata 700059, WB","+91-33-27116454, +91-9836610260",",x3ecustomercare@orderme.co.in,customercare@orderme.co.in,jaimatadi010101@yahoo.com,Customercare@orderme.co.in,","22.5979276,88.3183304"
Freedom Yoga & Fitness - Bansdroni - Kolkata,Gym,Kolkata,"5/5, New Shivtala, New Shibtala Road, Bansdroni, Kolkata 700070, WB",+91-8240589766,,"22.4708643,88.3440422"
Yoga Swasthya Kendra - Baranagar - Kolkata,Gym,Kolkata,"207, 180, Barrackpore Trunk Rd, Mallick Colony, Ananya, Joyshree, Cinema Hall, Baranagar, West Bengal 700036","+91-8335024280, +91-9073302563",,"22.64134,88.3751345"
Yoga Mantra - Kasba - Kolkata,Gym,Kolkata,"6 B, Rajkrishna Chatterjee Rd, Sector 3, Kasba, Kolkata, West Bengal 700042",+91-9903130478,,"22.5180552,88.3796121"
Shivam Yoga Centre - Krishnapur - Kolkata,Gym,Kolkata,"opposite to Milito Sangha Club, kishanagar, Mahish Bathan, Sector V, Bidhannagar, Kolkata, West Bengal 700102",098312 82725,,"22.5743166,88.4422267"
Amplified Fitness Centre - Bhawanipur - Kolkata,Gym,Kolkata,"63/1/2B, Sarat Bose Rd, opp. Motor Vehicles, Ballygunge, Kolkata, West Bengal 700025",098301 37403,",afcsaratboseroad@gmail.com,","22.5293914,88.3498412"
Fit Version Of Life - Barasat - Kolkata,Gym,Kolkata,"near Subhash Maidan, Laxmi Narayan Colony, Chkravartipara, Barasat, Kolkata, West Bengal 700126",091230 84059,",fitversionoflife@gmail.com,","22.723107,88.4750683"
Yoga Mantra - Kasba - Kolkata,Gym,Kolkata,"6 B, Rajkrishna Chatterjee Rd, Sector 3, Kasba, Kolkata, West Bengal 700042",+91-7947405661,,"22.5180552,88.3796121"
Soumens Workout - Laketown - Kolkata,Gym,Kolkata,"P-910, Adjacent Of UBI Bank, Block A, Jessore Road, Laketown, Kolkata 700089, WB","+91-9830216280, +91-9830070280",",soumendas0103@gmail.com,","22.5732726,88.297549"
Active Aerobics - Kankurgachi - Kolkata,Gym,Kolkata,"154, CIT Rd, Phool Bagan, Kankurgachi, Kolkata, West Bengal 700054","+91-9339634479, +91-9831955725, +91-9903674018",,"22.5808617,88.3881788"
Energym - Alambazar - Kolkata,Gym,Kolkata,"7, Ariadaha, 1st Floor, Near Dakhineswar Railway Station, Domestic Area, Auto Stand, Dakhineswar, Dunlop, Alambazar, Kolkata 700035, WB",+91-6290463058,",tlgkolkata@thelittlegym.in,","22.6536514,88.3316842"
Life The Fitness Studio - Tiljala - Kolkata,Gym,Kolkata,"36, 21, Chandra Nath Roy Rd, Picnic Garden, Topsia, Kolkata, West Bengal 700039",085840 88349,,"22.5309906,88.3819225"
Shape Up Fitness Studio - Motijhil - Kolkata,Gym,Kolkata,"105/7-B, Near St. Maraige School & Joy Guru Dashakorma Vander, Dum Dum Road, Silk Colony, Motijhil, Kolkata 700074, WB","+91-9674239507, +91-7059523972",,"22.5669261,88.2858112"
Vihan Fitness - - Kolkata,Gym,Kolkata,"60 / 128 / 1 Golfgardens, Besides, Golfgarden park, near Madhartala, Madar Tala Colony, Tollygunge, Kolkata, West Bengal 700033",098360 16215,",bodylinesports@gmail.com,","22.4983957,88.3532098"
Shape And Strength - Kalighat - Kolkata,Gym,Kolkata,"16C, Bipin Pal Rd, Manoharpukur, Kalighat, Kolkata, West Bengal 700026",096740 04799,",shapeandstrengthclinic@gmail.com,shapeandstrength@gmail.com,","22.5194052,88.3483453"
Chinmaya Mission - Sarat Bose Road - Kolkata,Gym,Kolkata,"180-B, Near Canara Bank, Sarat Bose Road, Kolkata 700029, WB","+91-33-24665069, +91-9007362419","ccmt@chinmayamission.com,,divakar.chaitanya2019@gmail.com,corporate@madraschipboard.com,","22.5142191,88.3504852"
Yoga & Physiotherapy Healthcare - Kestopur - Kolkata,Gym,Kolkata,"Near Sabuj Sangha Club, Hanapara, Kestopur, Kolkata 700159, WB","+91-8961976555, +91-8013013308, +91-9836688528, +91-7685880760",,"22.5520932,88.3811751"
The Art Of Living - Bhawanipur - Kolkata,Gym,Kolkata,"40, Ashutosh Mukherjee Rd, Bhowanipore, Kolkata, West Bengal 700020",+91-9831548315,"support@us.artofliving.org,kushal.choksi@artofliving.org,wbapex@vvki.net,,","22.5342324,88.3432196"
Fitnestic - Ariadaha - Kolkata,Gym,Kolkata,"56-BL, Decora Building, Near Palki Car, Beharilal Ghosh Road, Ariadaha, Kolkata 700057, WB",+91-9831480137,",tlgkolkata@thelittlegym.in,","22.6524662,88.3459077"
Fitness Factory - Naktala - Kolkata,Gym,Kolkata,"131-D, Near Ramgarh More, Ramgarh Road, Naktala, Kolkata 700047, WB",+91-9831925855,,"22.4855563,88.2611114"
Bramha Kumari Iswariya Vidiyalaya - Dhapa - Kolkata,Gym,Kolkata,"96-D, Dakshani Co-operative Housing Society, Near Metropolitan Estate, Dhapa, Kolkata 700105, WB",+91-9732947327,"HqOffice.TTW@gmail.com,,behala.kol@bkivv.org,","22.5491378,88.2364008"
Rush Fitness - Alipore- Kolkata,Gym,Kolkata,"144, Remount Rd, opp. to Toni and Guy Salon, Majherhat, Alipore, Kolkata, West Bengal 700027",098307 73100,,"22.5244828,88.315157"
Step By Step Dance Academy - Kalighat - Kolkata,Gym,Kolkata,"18/1b, Kalighat, Kolkata, West Bengal 700026",+91-9681720413,,"22.5218677,88.3399337"
Fast Fitness Health Club - Behala - Kolkata,Gym,Kolkata,"68 Bhupen roy road, James long sarani, beside national gems school, Kolkata, West Bengal 700034",098312 34454,,"22.491519,88.3155051"
Gurukul - Bidhan Nagar - Kolkata,Gym,Kolkata,"CB-187, 1st Floor, Near To Tank No 2, Sector 1, Salt Lake City, Bidhan Nagar, Kolkata 700064, WB","+91-9038001446, +91-7278379471",,"22.593686,88.3521126"
The Fitness Factory - New Alipur - Kolkata,Gym,Kolkata,"18-N, Near Majherhat Bridge, Block A, New Alipur, Kolkata 700053, WB",+91-7947405436,,"22.5115794,88.3189776"
Olympia Gym - Ghughudanga - Kolkata,Gym,Kolkata,"Milan Sangha Club, 54, Bipin Ganguly Rd, behind Seth Bagan Road, Seth Bagan, Ghughudanga, South Dumdum, Kolkata, West Bengal 700030",080175 07040,,"22.6174809,88.3924556"
Focus Fitness Studio - Netaji Nagar - Kolkata,Gym,Kolkata,"No 9/58, Netaji Nagar Rd, Sangati Colony, Netaji Nagar, Kolkata, West Bengal 700040",+91-9831533617,",fitnessnationstudio@gmail.com,","22.4804675,88.3576025"
Barsana Life Style Club - Beliaghata - Kolkata,Gym,Kolkata,"1/1, Raja Rajendra Lal Mitra Rd, behind Alochaya Cinema Hall, Uria Bagan, Beleghata, Kolkata, West Bengal 700085",098305 77442,",sonam.mitra@barsanaclub.com,xxxx@barsanaclub.com,","22.5649851,88.3863856"
Fitness Factory - Garia - Kolkata,Gym,Kolkata,"Fitness Factory, Bratati Apartment, near, Shahid Khudiram Metro Station Rd, Panchasayar, Dehodhor Place, Kolkata, West Bengal 700084",098319 25855,,"22.4648823,88.3864534"
Heal & Tone - Nimta - Kolkata,Gym,Kolkata,"bazaar, 486, Madhusudan Banerjee Rd, Nimta, North Dumdum, West Bengal 700049",089106 94112,,"22.6646441,88.3986662"
Poornaprem Yoga - Camac Street - Kolkata,Gym,Kolkata,"3B, Camac St, Kankaria Estates, Park Street area, Kolkata, West Bengal 700016",+91-7003271310,,"22.5491466,88.3509591"
Neurotherapy Care4U - Lala Lajpat Rai Sarani - Kolkata,Gym,Kolkata,"12-C, Minto Park, Near AAI Club, Chakraberia Road, Lala Lajpat Rai Sarani, Kolkata 700020, WB",+91-9331935169,,"22.5705973,88.3423462"
Mantra The Lifestyle Health Club - Cossipore - Kolkata,Gym,Kolkata,"29-F, BT Road, Cossipore, Kolkata 700002, WB","+91-33-25460427, +91-9007763533",,"22.6298831,88.3677953"
Rush Fitness - Kalighat - Kolkata,Gym,Kolkata,"163, Thapar House, 1st Floor, Near Kalighat Metro Station, SP Mukherjee Road, Kalighat, Kolkata 700026, WB","+91-9836723700, +91-7603039972, +91-9073979359",,"22.5175073,88.3113585"
Sree Ram Multi Gym - Joka - Kolkata,Gym,Kolkata,"19 NEAR, Narkel Bagan, Auto Stand, Arabinda Nagar, Chak Thakurani, West Bengal 700104",098361 47993,"info@uifgym.com,,rintubhuinya786@gmail.com,","22.4650129,88.3237173"
Sintha Fitness - New Alipur - Kolkata,Gym,Kolkata,"18/4, New Alipore Rd, Buroshibtalla, New Alipore, Kolkata, West Bengal 700053","+91-9874444060, +91-9073372020",,"22.5063927,88.3326821"
Forever Fit Workout - Lake Gardens - Kolkata,Gym,Kolkata,"22/269, Lake Gardens, Kolkata, West Bengal 700045","+91-7278863222, +91-7003465976",,"22.5069631,88.3473212"
Forza Fitness - Tollygunge - Kolkata,Gym,Kolkata,"14/3, North Road, Poddar Nagar, Jadavpur, Kolkata, West Bengal 700032",074777 14200,,"22.4973399,88.3645628"
Niramoy Ladies Yoga Therapy Centre - Ariadaha - Kolkata,Gym,Kolkata,"6, MM Feeder Rd, 6no. Bagan, SP Paul Pally, Ariadaha, Kolkata, West Bengal 700057",092312 67012,,"22.6656333,88.3673099"
Majumders Workout - Sodepur - Kolkata,Gym,Kolkata,"Harish Chandra Dutta Rd, Sodepur, Panihati, Khardaha, West Bengal 700115","+91-33-25689399, +91-8981252759",,"22.7029223,88.3696778"
Fat 2 Fit - Salt Lake City - Kolkata,Gym,Kolkata,"4, Salt Lake Bypass, BN Block, Sector 1, Bidhannagar, Kolkata, West Bengal 700091",+91-9836254976,,"22.5829065,88.430591"
Silver Fitness - Naktala - Kolkata,Gym,Kolkata,"130-E, 2nd Floor, Near Samsung Mobile Centre, Raja S C Mullick Road, Naktala, Kolkata 700047, WB","+91-33-40636082, +91-9830349908, +91-8100722244, +91-7980458897, +91-9681202110",,"22.4709858,88.3622198"
Pranshakti Organisation - Salt Lake City - Kolkata,Gym,Kolkata,"BA-106, BA Block, Sector 1, Bidhannagar, Kolkata, West Bengal 700064",098749 50451,,"22.5899706,88.3962326"
New Yoga & Ladies Physiotherapy Centre - Budge Budge - Kolkata,Gym,Kolkata,"45A/1, Lokemanya Tilak Road, Koyla Sarak More, beside Mohua Khol Shop, Budge Budge, Kolkata, West Bengal 700137",084209 33844,,"22.4769371,88.1768674"
One Step Yoga - Gopalpur - Kolkata,Gym,Kolkata,"Chek Post, No 259/6, 2nd floor, Neurotech Poly Clinic, Rajarhat Road, Gopalpur, near Atghara, Rajarhat, Kolkata, West Bengal 700136",070033 11408,,"22.6278913,88.4431313"
Gold'S Gym - Sukchar - Kolkata,Gym,Kolkata,"16-F, 4th Floor, Near Sodepur Girja More, B T Road, Sukchar, Kolkata 700115, WB","+91-9800120000, +91-8420019996, +91-8420019995, +91-8334042087","WeCare@GoldsGym.in,,sodepur.kolkata@goldsgym.in,","22.6037168,88.1500353"
Manohar Aich Yoga & Gym Center - Dum Dum - Kolkata,Gym,Kolkata,"23, Jugipara Rd, Satgachi, Kolkata, West Bengal 700028",098301 07567,,"22.6160056,88.4159524"
Castle Corner Health Clinic Private Limited - Circus Avenue - Kolkata,Gym,Kolkata,"5/2, A, Hungar Fort Wstreet, Park Circus, Park Circus, Kolkata, West Bengal 700017",033 2287 2839,",gigisuting9@gmail.com,","22.5413857,88.3561753"
Revolt Fitness - Motijhil - Kolkata,Gym,Kolkata,"468, Jessore Rd, near Satgachi, beside Central Bank, Telipukur, Amarpalli, more, South Dumdum, West Bengal 700074",091635 82414,",info@revoltfitness.in,revoltfitness8@gmail.com,","22.619916,88.4104611"
Transformation - Baguiati - Kolkata,Gym,Kolkata,"Mangolik, H/H - 19/1 , 3rd Floor, Baguihati Main Rd, Kolkata, West Bengal 700159",062899 69403,",info@transformationfitnessworld.com,transformationfitnessworld@gmail.com,","22.6111308,88.4262627"
Zorba - Yoga Studio - Salt Lake City - Kolkata,Gym,Kolkata,"BE 72, Near Complex Swimming Pool Salt Lake City Sector-1 Bidhannagar Kolkata West Bengal IN 700064, Kolkata, West Bengal 700064",098193 10032,,"22.5966642,88.4126551"
The Frameworker - Rash Behari Avenue - Kolkata,Gym,Kolkata,"141-B, 3rd Floor, Beside Basanti Devi College, Rash Behari Avenue, Kolkata 700029, WB","+91-9903016364, +91-8777452280",",mmakolkata@gmail.com,info.dks1928@gmail.com,","22.4958472,88.3360614"
Combat Fitness - Sinthee - Kolkata,Gym,Kolkata,"8/3, Harish Chandra Paul Ln, Sinthee, Kolkata, West Bengal 700050",062914 69887,",combatfitness2018@gmail.com,","22.6292415,88.3784558"
Sattva Yoga Studio - Jodhpur Park - Kolkata,Gym,Kolkata,"249, Jodhpur Park Rd, Jodhpur Park, Kolkata, West Bengal 700068",090880 25226,",sattvayoga5@gmail.com,","22.504944,88.3605762"
Health Mission - Boral - Kolkata,Gym,Kolkata,"Gitanjali Park, Near Boral Telephone Exchange, Boral, Kolkata 700154, WB","+91-9674277491, +91-9064895348",",spmu.nuhm@gmail.com,mkcshyam@hotmail.com,mkclibrarian@gmail.com,","22.5077802,88.2850094"
Temple Of Yoga - Ultadanga - Kolkata,Gym,Kolkata,"10A, Ultadanga Rd, Fariapukur, Ultadanga, Kolkata, West Bengal 700004",098310 95229,",templeofyoga.dolly@gmail.com,","22.5963162,88.3735651"
Raipur Club - Raipur - Kolkata,Gym,Kolkata,"62, Near Ramgarh Bus Stand, Raipur, Kolkata 700084, WB","+91-33-24307829, +91-9883382620",",chandigarhclubltd@gmail.com,","22.5170282,88.3331671"
Active Physio - Laskarpur - Kolkata,Gym,Kolkata,"Near Sonarpur, Kamal Gazi, Peyarabagan Road, Kamal Gazi, Laskarpur, Kolkata 700153, WB","+91-9051158477, +91-8961301963",,"22.4454643,88.385366"
Sas Fitness Studio - Belgharia - Kolkata,Gym,Kolkata,"9, 8, Feeder Rd, Rathtala, Belghoria, Kolkata, West Bengal 700056",086974 16184,,"22.6627013,88.3757605"
The Art Of Living - Sarat Bose Road - Kolkata,Gym,Kolkata,"60, 2nd Floor, Near Triangular Park & City Style, Mahanirban Road, Sarat Bose Road, Kolkata 700029, WB","+91-33-24631018, +91-33-24634676, +91-9830038896, +91-9830083007","office@rpboobnaandco.com,,rpboobna@gmail.com,","22.5358135,88.3032471"
Mystic Yoga Studio - Salt Lake City - Kolkata,Gym,Kolkata,"CD-89, Opposite Seba Hospital, Sector 1, Salt Lake City, Kolkata 700064, WB","+91-33-40621059, +91-9748636195, +91-9748679047, +91-9163365029",",9748649047abhishek@mysticmanagers.com,","22.5941945,88.4086259"
Isha Yogashala - Camac Street - Kolkata,Gym,Kolkata,"1st floor, 5, Russel St, Park Street area, Kolkata, West Bengal 700071",062915 98798,",info@ishafoundation.org,info@ishayogashala.com,ishastay@ishafoundation.org,kolkata@ishayoga.org,","22.5510828,88.3475564"
The Soleus Gym - Kestopur - Kolkata,Gym,Kolkata,"BD 203, Kamal Park Rd, Rabindrapally, Kestopur, Kolkata, West Bengal 700101",090071 19119,",gymthesoleus@yahoo.co.in,","22.6027406,88.4235783"
World Yoga Society - Salt Lake City - Kolkata,Gym,Kolkata,"AA-42, Near PNB Island, Sector 1, Salt Lake City, Kolkata 700064, WB","+91-33-23347599, +91-8820940638, +91-9830020361",",WORLDYOGASOCIETY@GMAIL.COM,info@worldyogasociety.in,","22.587005,88.3953721"
Shivananda Yoga Ashram - Nawpara - Kolkata,Gym,Kolkata,"Police Station, 471, Netaji Colony, Baranagar, Near Bara Nagar, Baranagar, West Bengal 700090",033 2531 1117,",onlinesessions@sivananda.org.in,gudur@sivananda.org.in,","22.6360615,88.3812126"
Yoga Sea - Ballygunge - Kolkata,Gym,Kolkata,"15, Bondel Rd, Ballygunge Park, Ballygunge, Kolkata, West Bengal 700019",098364 43029,,"22.5291592,88.3659136"
Swapna Neel Swimming Club - Behala - Kolkata,Gym,Kolkata,"Behala Simultola, 24/1, Fakir Para Rd, near Shaw Public School, Kolkata, West Bengal 700034",094347 50615,",admin@swapnaneel.com,","22.4922368,88.3077633"
Edge Fitness - Kestopur - Kolkata,Gym,Kolkata,"425/1, 206 Foot Bridge, opposite Kolkata, Samarpally, Krishnapur, Rajarhat, Kolkata, West Bengal 700102",098317 89789,"contact@edgefitnessgym.com,,krishna@edgefitnessgym.com,","22.5930674,88.4284295"
Healthy Billions - Circus Avenue - Kolkata,Gym,Kolkata,"25A, Shakespeare Sarani Rd, Mullick Bazar, Elgin, Kolkata, West Bengal 700017","+91-9073997376, +91-8777875037, +91-8100888888","dwivedi1104@gmail.com,,sales@astraview.in,","22.54514,88.3528661"
Traditional Karate & Martial Art Training Center - Garfa Area - Kolkata,Gym,Kolkata,"2-P/35, Utsav Apartment, Near Bank Plot No 1 Rickshaw Stand, Bank Plot, Jheel Road, Jadavpur, Garfa Area, Kolkata 700075, WB","+91-8335074404, +91-9007313555",,"22.4934172,88.367408"
The Fitness World - Krishnapur - Kolkata,Gym,Kolkata,"Shantiniketan Apartment Mahisgot, Krishnapur, Newtown, Kolkata, West Bengal 700102",097759 95300,"manish.singh@fitness-world.in,,","22.5814965,88.4408796"
Gold'S Gym - Bidhan Nagar - Kolkata,Gym,Kolkata,"Andromeda Building, 8th Floor, DD Block, DD 30, Bidhannagar, Kolkata, West Bengal 700064",070442 01202,"WeCare@GoldsGym.in,,","22.5897253,88.406266"
Healthy Billions - New Town - Kolkata,Gym,Kolkata,"Flat No. G/A ,Ground Floor,Mayur Complex, 3A, Sir UN Brahmachari Sarani, Kolkata, West Bengal 700017",081008 88888,",MANBIRSINGHDHANKAR@GMAIL.COM,","22.5463417,88.3532943"
Fitness Galaxy - Garia - Kolkata,Gym,Kolkata,"Bijoy Kiran Building, Beside Garia Station, Garia Station Road, Garia, Kolkata 700084, WB","+91-33-33024257, +91-9038022838",,"22.4704336,88.4015766"
Sas Fitness - Prafulla Kanan - Kolkata,Gym,Kolkata,"AA/22 Lipjit Apartment, Prafulla Kanan West, Kestopur, Kolkata, West Bengal 700101",086974 16184,,"22.6081137,88.4184243"
Vipassana Centre - Panihati - Kolkata,Gym,Kolkata,"Baro Mandir Ghat, Harish Chandra Dutta Rd, Ramkrishna Pally, Sodepur, Kolkata, Khardaha, West Bengal 700114",033 2583 3910,",dhammaganga@gmail.com,milwaukee.vipassana@gmail.com,","22.7029051,88.3642182"
Urja Gym World - Kolkata,Gym,Kolkata,"Sajirhat, Sodepur Rd, near APC College, Madhyamgram, Kolkata, West Bengal 700131",088922 44839,,"22.697336,88.4381513"
FitNet Studio & Clinic - Kolkata,Gym,Kolkata,"Plot No. - 23, 2061, Rajdanga Main Rd, P.O, Block BE, Sector B, East Kolkata Twp, Kolkata, West Bengal 700107",082409 83892,",info@fitnet.in,","22.5171275,88.3912392"
Fitness Xpress Gym 2 - Kolkata,Gym,Kolkata,"Ground Floor, 60/123, H.P, Haripada Dutta Ln, near Old Better High School Shooting Bari, Golf Gardens, Tollygunge, Kolkata, West Bengal 700033",078902 85711,,"22.49862,88.3528331"
Starmark Fitness Studio - Prince Anwar Shah Road - Kolkata,Gym,Kolkata,"City High, FIRST FLOOR, 85, Prince Anwar Shah Rd, near Navina Cinema Hall, Rajendra Prasad Colony, Tollygunge, Kolkata, West Bengal 700033",098311 30003,",info@starmarkfitnessstudio.com,","22.5010136,88.3457611"
Amplified Fitness Centre - Baguihati - Kolkata,Gym,Kolkata,,,",afcsaratboseroad@gmail.com,",
Bodyline Gym - Netaji Nagar -Kolkata,Gym,Kolkata,,,",cyrus@microfilm-india.com,KPHCYMR@GMAIL.COM,czcranes@bom5.vsnl.net.in,",
Yogoda Satsanga Society Of India - Dakhineswar - Kolkata,Gym,Kolkata,"Near Sharada Mandir, UN Mukherjee Road, Dakhineswar, Kolkata 700076, WB",+91-33-25646208,",info@yssofindia.org,x3einfo@yssofindia.org,yssdak@yssi.org,info@yssdakedu.org,",
Yoga Swasthya Mandir - Paikpara - Kolkata,Gym,Kolkata,"38B/1/A, Near Barrackpore Trunk Road Crossing, Raja Monindra Road, Paikpara, Kolkata 700037, WB",+91-33-25570814,",tusharsil38@gmail.com,",
World Yoga Society - Santoshpur - Kolkata,Gym,Kolkata,"115/A, Survey Park, Santoshpur, Kolkata 700075, WB","+91-33-24165790, +91-33-24166178",",info@worldyogasociety.in,",
VLCC - Shakespeare Sarani - Kolkata,Gym,Kolkata,"33, Opposite Rani Birla College, Shakespeare Sarani, Kolkata 700017, WB","+91-33-22893131, +91-33-22893132, +91-33-22893133",",kolkata.sh@vlccwellness.com,",
VLCC - Salt Lake City - Kolkata,Gym,Kolkata,"K/1/EP/GP, Unit D, Sector 5, RDB Boulevard, Salt Lake City, Kolkata 700091, WB","+91-33-23576565, +91-33-23576566, +91-33-23576567",",kolkata.sh@vlccwellness.com,kolkata.sl@vlccwellness.com,",
VLCC - Gariahat Road - Kolkata,Gym,Kolkata,"1/432, Jodhpur Park, Gariahat Road, Kolkata 700068, WB","+91-33-24292601, +91-33-24292602, +91-33-24292603",",kolkata.jo@vlccwellness.com,",
Vibes - Central Avenue - Kolkata,Gym,Kolkata,"1, Meridian Plaza, Near Girish Park, Central Avenue, Kolkata 700006, WB","+91-33-22696606, +91-33-22696607, +91-33-22696608, +91-33-40078045",",corporate@vibes.co.in,girishpark.cal@vibes.co.in,",
Vibes - Southern Avenue - Kolkata,Gym,Kolkata,"3, Near Kalighat Metro Station, Southern Avenue, Kolkata 700029, WB","+91-33-40064148, +91-33-40064158, +91-33-40064168, +91-9903233296",,
Vibes - Theatre Road - Kolkata,Gym,Kolkata,"47/A, Opposite Kala Mandir, Theatre Road, Kolkata 700017, WB","+91-33-22809221, +91-33-22809222, +91-33-40076730",,
Turn Ur Head - Camac Street - Kolkata,Gym,Kolkata,"5, Camac Street, Kolkata 700017, WB",+91-33-40067955,,
Turn Ur Head - Ballygunge - Kolkata,Gym,Kolkata,"10/C, Ballygunge Circular Road, Ballygunge, Kolkata 700019, WB",+91-33-40056568,,
The Soleus Gym - Krishnapur - Kolkata,Gym,Kolkata,"140/AE, Opposite Kalamandir, Rabindra Pally, Krishnapur, Kolkata 700102, WB","+91-33-25915873, +91-9007119119, +91-9831819290",,
Talwalkars Gym - Alipore - Kolkata,Gym,Kolkata,"14/A, Burdwan Road, Alipore, Kolkata 700027, WB",+91-33-24491930,,
Talwalkars Gym - Salt Lake - Kolkata,Gym,Kolkata,"72/BE, Sector 1, Near Swimming Pool, Salt lake, Kolkata 700064, WB","+91-33-40040640, +91-33-40040650",",avantis@talwalkars.net,",
Talwalkars Gym - Ballygunge - Kolkata,Gym,Kolkata,"101/B/1/43, Ashutosh, Sunny Towers, Sunny Park, Choudhury Avenue, Ballygunge, Kolkata 700019, WB","+91-33-40712151, +91-33-40712152",,
Talwalkars Gym - Kolkata,Gym,Kolkata,,,",avantis@talwalkars.net,",
Sweat Out - Park Street - Kolkata,Gym,Kolkata,"12/11/1, Queens Mansion, Opposite Park Hotel, Park Street, Kolkata 700071, WB","+91-33-22291263, +91-9331004224",,
Sustha Multi Gym - Dum Dum - Kolkata,Gym,Kolkata,"22/1, Near Hanuman Mandir, Jawpur Road, Dum Dum, Kolkata 700074, WB","+91-33-25488803, +91-9830495467, +91-9163350810",,
Soumens Workout - Park Street - Kolkata,Gym,Kolkata,"44/A, Madhayamik Shkha Parishad, Park Street, Kolkata 700016, WB","+91-9830216280, +91-9230527033, +91-9830070820",",soumendas0103@gmail.com,",
Soumens Workout - Tollygunge - Kolkata,Gym,Kolkata,"16/1, Opposite Navina Cinema, P A S Road, Tollygunge, Kolkata 700033, WB",+91-33-40066554,,
Soumens Workout - Ballygunge - Kolkata,Gym,Kolkata,"228/B/3, Petrol Pump Building, Rashbehari Avenue, Ballygunge, Kolkata 700019, WB",+91-9830216280,,
Soumens Workout - Barrackpore - Kolkata,Gym,Kolkata,"61, S N Banerjee Road, Barrackpore, Kolkata 700120, WB",+91-9830070820,,
Soumens Workout - Lake Town - Kolkata,Gym,Kolkata,"146/1/B/2, VIP Sweet, Lake Town, Kolkata 700089, WB",+91-9830216280,,
SK Meditation - Sodepur - Kolkata,Gym,Kolkata,"32/P, Near Durga Mata Mandir, Sodepur, Kolkata 700110, WB",+91-9831847919,,
Sivananda Saraswati Institute Of Yoga - Jodhpur Park - Kolkata,Gym,Kolkata,"204, Near Netaji Sweet Shop, Jodhpur Park, Kolkata 700068, WB","+91-33-24724467, +91-9231967606",",sivananda-saraswati-institute-of-yoga-kolkata-uii@b9nxx.html,",
Shades - Santoshpur - Kolkata,Gym,Kolkata,"4, Near Santoshpur Lake, Lake West Road, Santoshpur, Kolkata 700075, WB",+91-9038071966,,
School Of Fitness & Personality Development - Jodhpur Park - Kolkata,Gym,Kolkata,"379, Near Jadavpur Police Station, Jodhpur Park, Kolkata 700068, WB","+91-33-65367513, +91-9830006456, +91-9830869565",,
Satyananda Mission Of Yoga - Lake Gardens - Kolkata,Gym,Kolkata,"114/A, Near South City Mall, Prince Anwar Shah Road, Lake Gardens, Kolkata 700045, WB","+91-33-24171226, +91-9830862621",,
Sangam Beauty Parlour and Health Care - Kalighat - Kolkata,Gym,Kolkata,"131/A, Near Crossing Of Harish Mukherjee Road And Hazra Road Or Kalighat Fire Station, Harish Mukherjee Road, Kalighat, Kolkata 700026, WB",+91-33-66246492,,
Sahaja Yoga - Barasat - Kolkata,Gym,Kolkata,"Rity, Santosh Sarani, Banamalipur, Barasat, Kolkata 700124, WB","+91-9836163772, +91-9830670740",,
Park Health Club - Kidwai Road - Kolkata,Gym,Kolkata,"54/1, Rafi Ahmed, Kidwai Road, Kolkata 700016, WB",+91-33-22295679,",chintan.daxxxxx@gmail.com,",
Oswal Sports & Health Club - Beadon Street - Kolkata,Gym,Kolkata,"2/B, Nondo Mullick, Beadon Street, Kolkata 700006, WB",+91-33-25306074,,
OM Multi Gym Plaza - Thakurpukur - Kolkata,Gym,Kolkata,"432, James Long Sarani, Near Vivekananda College, Thakurpukur, Kolkata 700063, WB",+91-9831386123,,
Nu Mantra Life Style Health Club - Cossipore - Kolkata,Gym,Kolkata,"36/C, Opposite To Rabindta Bharati University, B T Road, Cossipore, Kolkata 700002, WB",+91-33-66039293,",mantra_health@yahoo.com,",
Nature Cure And Yoga Centre - Diamond Harbour Road - Kolkata,Gym,Kolkata,"24, Near Konchowki Bus Stop, Diamond Harbour Road, Kolkata 743503, WB","+91-33-24533880, +91-33-24533881, +91-9831053823","reservation@naturekon.in,,kgbhat56@gmail.com,",
Namah Gym - Behala - Kolkata,Gym,Kolkata,"99/4, Diamond Harbour Road, Behala, Kolkata 700034, WB","+91-33-23994622, +91-9433107707",,
Nabapally Vyayam Samity - Barasat - Kolkata,Gym,Kolkata,"12, Number Railway Gate, Colony More, Near Maharastra Bhawan, Barasat, Kolkata 700124, WB",+91-33-25427191,,
Muzl Mania - Entally - Kolkata,Gym,Kolkata,"7/8/P, Senco Gold Mega Shop Building Basement, Near Linton Post Office, C I T Road, Entally, Kolkata 700014, WB","+91-9903157672, +91-9831725595","muzl-mania-kolkata-zi@3arylr.html,,",
Moksha Gym Moulali - Dharmatala - Kolkata,Gym,Kolkata,"28/3/A, Convent Road, CIT Road, Dharmatala, Kolkata 700013, WB","+91-33-40606487, +91-9903157672",,
Mahajati Nagar Health Centre - Mahajati Nagar - Kolkata,Gym,Kolkata,"3, Mahajati Nagar, Near Jorapukur, Birati, Kolkata 700051, WB","+91-33-65341683, +91-9231665914",",info@phoenixgym.in,",
Kronos Gym & Slimming Centre - Sarat Bose Road - Kolkata,Gym,Kolkata,"58, Health Point, Sarat Bose Road, Kolkata 700025, WB","+91-33-30575758, +91-9830143283, +91-9831200333",,
Karma Fitness Studio - Mayfair Road - Kolkata,Gym,Kolkata,"7, Punjabee Bradree, Shaheed Bhagat Singh Sarani, Near Ice Skating Ring, Mayfair Road, Kolkata 700019, WB","+91-33-22870188, +91-33-40001509",",nkarmafitness@gmail.com,karmafitness@gmail.com,",
Karma Fitness Studio - Lake Road - Kolkata,Gym,Kolkata,"545/P, Near Viveknanda Park, Lake Road, Kolkata 700029, WB","+91-33-24197387, +91-33-40603006",",nkarmafitness@gmail.com,karmafitness@gmail.com,",
Health & Beauty Parlour - Ballygunge - Kolkata,Gym,Kolkata,"14, Near Jogodbondhu School, Moni Mukherjee Road, Ballygunge, Kolkata 700019, WB","+91-33-24402141, +91-33-24600500, +91-9748714840, +91-9748744840","x22pongans68@gmail.com,,",
H L Slimming Point - Sealdah - Kolkata,Gym,Kolkata,"17/A, Opposite N R S Hospital Emergency Gate, Kabi Nabin Sen Lane, Sealdah, Kolkata 700014, WB","+91-33-22266840, +91-9339310427",",info@hlslimmingpoint.in,u003einfo@hlslimmingpoint.in,chintan.daxxxxx@gmail.com,",
H L Slimming Point - Beandon Street - Kolkata,Gym,Kolkata,"100, Hathibagan junction, Arabindra Sarani, Beadon Street, Kolkata 700006, WB","+91-33-25546351, +91-9331840910, +91-9331840910",",services@investmartindia.com,c_ravi@rocketmail.com,",
H L Slimming Point - Rashbehari Avenue - Kolkata,Gym,Kolkata,"12, Near Lake Market, Prince Golam MD Road, Rashbehari Avenue, Kolkata 700026, WB","+91-33-24645338, +91-9339306582",",info.dks1928@gmail.com,energie.fit@gmail.comH,",
Gurus Dream Gym - Salt Lake - Kolkata,Gym,Kolkata,"AC-9, Near Phanri Bus Stop, Sector 1, Salt Lake City, Bidhan Nagar, Kolkata 700064, WB","+91-33-23342283, +91-9831832383, +91-9163363303",,
Gurukul - Deshbandhu Nagar - Kolkata,Gym,Kolkata,"118/DC, Narayantala, Near ICICI Bank, Deshbandhu Nagar, Kolkata 700059, WB",+91-33-25769291,",deveshshahin@yahoo.co.in,email@dgsm.co.in,quivan.parag@gmail.com,customer.service@makaan.com,",
Golds Gym - Salt Lake - Kolkata,Gym,Kolkata,"30/DD/8, Andreomeda Building, Sector 1, Near City Center-I, Salt Lake City, Kolkata 700106, WB","+91-33-40612222, +91-33-40602222","WeCare@GoldsGym.in,,",
Golds Gym - Jawaharlal Nehru Road - Kolkata,Gym,Kolkata,"57/5, Horizon Building, Jawahar Lal Nehru Road, Kolkata 700071, WB","+91-33-30580300, +91-33-30580301","WeCare@GoldsGym.in,,jnroad.kolkata@goldsgymindia.com,",
Ghoshs Yoga Centre - Rajabazar - Kolkata,Gym,Kolkata,"4/2, Near Science College, Raja Ram Mohan Roy Road, Rajabazar, Kolkata 700009, WB",+91-33-23501358,",muktamala.mitra10@gmail.com,",
Flash Fitness - Camac Street - Kolkata,Gym,Kolkata,"3/A, Opposite Krishna fashions, Camac Street, Kolkata 700016, WB","+91-8017001500, +91-9830020888",",behnaz@flashfitness.in,",
Embodiment Health Club - Behala - Kolkata,Gym,Kolkata,"40, Kazipara Road, Behala, Kolkata 700060, WB",+91-33-24925981,,
Dream Shape - Dhakuria - Kolkata,Gym,Kolkata,"25/B, Selimpur Road, Dhakuria, Kolkata 700031, WB","+91-33-24725693, +91-9831050934",",rtghatak@gmail.com,",
Dream Land Multy Gym - Aswini Nagar - Kolkata,Gym,Kolkata,"9/1, Boral House, Vidyasagar Pally, Aswini Nagar, Kolkata 700159, WB","+91-33-25705016, +91-9836129386, +91-9883156655",,
Divya's Workout - Sebadall Road - Kolkata,Gym,Kolkata,"Nimta, Belgharia, Sebadall Road, Kolkata 411005, WB",+91-9231235611,,
Brahma Kumaris Raj Yoga Meditation Centre - Lala Lajpat Rai Sarani - Kolkata,Gym,Kolkata,"1/A, Opposite Alpha Diagonisis Centre, Asutosh Mukherjee Road, Lala Lajpat Rai Sarani, Kolkata 700020, WB","+91-33-24753521, +91-9831142250",,
Bodyline Gym - New Alipur - Kolkata,Gym,Kolkata,"43/P/H, Opposite HDFC Bank, New Alipur, Kolkata 700053, WB","+91-33-23962750, +91-9836061016",,
Bihar Yoga Bharti - Jagatdal - Kolkata,Gym,Kolkata,"16, Near Alliance Jute Mill, Jagatdal, Kolkata 743125, WB","+91-9883287611, +91-9330983648",,
Atlantica Multi Gym - Parnasree Pally - Kolkata,Gym,Kolkata,"608, Parnasree Pally, Kolkata 700060, WB",+91-9330828846,",bodylinesports@gmail.com,",
Asian Fitness Centre - East Kolkata Township - Kolkata,Gym,Kolkata,"33, RR Plot, Near Ruby General Hospital & Rail Vihar, East Kolkata Township, Kolkata 700107, WB","+91-8420926009, +91-8617721028",",asianfitnesskolkata@gmail.com,",
Anirban Bose Of Institute Of Yoga Culture - Bangur Avenue - Kolkata,Gym,Kolkata,"66/B, Bangur Avenue, Kolkata 700055, WB",+91-9830287734,,
Wake Up Multi Gym - Kolkata,Gym,Kolkata,"38/2, GT Road, Kadamtala, Howrah 711101, WB",+91-33-65407882,,
The Soleus Gym - Kolkata,Gym,Kolkata,"AE-140, Opposite Kalamandir, Rabindrapally, Prafulla Kanan, Kolkata 700101, WB",+91-33-25915873,",gymthesoleus@yahoo.co.in,",
Talwalkars - Ballygunge - Kolkata,Gym,Kolkata,"101-B/43, Sunny Towers, 1st Floor, Sunny Park, Next To Birla Temple, Ashutosh Choudhry Avenue, Ballygunge, Kolkata 700019, WB",+91-33-66246955,,
Talwalkars - Alipore - Kolkata,Gym,Kolkata,"14/A, Near Reliance Web World, Burdwan Road, Alipore, Kolkata 700027, WB",+91-33-24491930,",avantis@talwalkars.net,",
Star Gym - Kolkata,Gym,Kolkata,"East Tarapukur Main Road, Agarpara, Kolkata 700109, WB",+91-9231874905,",thestargym6@gmail.com,",
Soumens Workout - Kolkata,Gym,Kolkata,"CG-231, Near Baishakhi Island, Bidhan Nagar, Sector 2, Salt Lake, Kolkata 700064, WB","+91-9830216280, +91-9230527033",,
Sathyasree - Kolkata,Gym,Kolkata,"250, Manicktala Main Road, Kolkata 700054, WB",+91-9830281837,,
Rohit Kumar Personal Fitness Training - Kolkata,Gym,Kolkata,"39-B, B-4, Creek Row, 4th Floor, Entally, Kolkata 700014, WB",+91-9830412558,,
Reva Puri's Bodyline Gym - Kolkata,Gym,Kolkata,"9/3, Flat No 5-B, Latira Appartment, Near Minto Park, Hungerford Street, Circus Avenue, Kolkata 700017, WB",+91-33-22837842,,
Physiomax - Kolkata,Gym,Kolkata,"240, Aishwarya Apartment, Jessore Road, Dum Dum, Kolkata 700028, WB",+91-33-66037267,",physiomax.org@gmail.com,physiomax@live.com,Copyright@physiomaxgym.com,",
Passion Sports - Kolkata,Gym,Kolkata,"Jobosangha Club, VIP Nagar, Kolkata 700100, WB",+91-9051874256,",info@passionsports.in,sales@acmefitness.com,calcuttapoliceclub2021@gmail.com,bodylinesports@gmail.com,passionsports@gmail.com,",
Orient Multi Gym - Kolkata,Gym,Kolkata,"103, Garfa Main Road, Santoshpur, Kolkata 700075, WB",+91-33-24180616,",Inquiry@wellnessclub.co.in,",
Namah Gym - Kolkata,Gym,Kolkata,"99/4, Beside Ashoka Cinema, Diamond Harbour Road, Behala, Kolkata 700034, WB",+91-33-23994622,,
Nabapally Bayam Samity Multi Gym - Kolkata,Gym,Kolkata,"Colony More, Navapally, Kolkata 700126, WB",+91-33-25427191,",bodylinesports@gmail.com,",
Muscle N Fitns Gym - Kolkata,Gym,Kolkata,"Behala, Kolkata 700034, WB",+91-9231681633,,
Moksha Gym Moulali - Kolkata,Gym,Kolkata,"28/3-A, Beside Ram Lila Park, Convent Road, Dharmatala, Kolkata 700013, WB",+91-33-40606487,,
Institute Of Physical Culture - Kolkata,Gym,Kolkata,"49, Ananda Palit Road, Entally, Kolkata 700014, WB","+91-33-28621082, +91-9831087986, +91-9433260893",,
Hyatt Regency Gym - Kolkata,Gym,Kolkata,"JA-1, Hyatt Regency, Sector 3, Salt Lake City, Kolkata 700098, WB",+91-33-23351234,",KOLKATA-Sales@hyattintl.com,consumeraffairs@hyatt.com,x3econsumeraffairs@hyatt.com,india.reservations@hyattintl.com,",
Health Planet Multi Gym - Kolkata,Gym,Kolkata,"Regent Park, Netaji Subhash Chandra Bose Road, Kolkata 700040, WB",+91-33-24116770,,
Hammer Headz Gym - Kolkata,Gym,Kolkata,"AC-48, Near Balak Brinda Club, Prafulla Kanan, Kestopur, Kolkata 700101, WB","+91-9836376641, +91-9804845822",,
Gym N Slim - Kolkata,Gym,Kolkata,"21, Near Keya More, JK Chatterjee Road, Sodepur, Kolkata 700110, WB","+91-9432211474, +91-33-25658974","info@slimntrim.co.in,,soumendas0103@gmail.com,",
Golds Gym - Alipore - Kolkata,Gym,Kolkata,"19/A, Raj Kiran, Near Durgapur Bridge, Alipore Road, Alipore, Kolkata 700027, WB","+91-33-32474242, +91-33-32934242","WeCare@GoldsGym.in,,",
Glacier Gym - Kolkata,Gym,Kolkata,"274, Criper Road, Konnagar, Hooghly 712235, WB",+91-9831034099,"glaciergym1995@gmail.com,,",
Fit And Fine Gym - Kolkata,Gym,Kolkata,"631/14, James Long Sarani, Thakurpukur, Kolkata 700063, WB",+91-33-24491438,",bnbfitnesssol@gmail.com,",
Dks Gym - Kolkata,Gym,Kolkata,"P-150, Postal Park, Oppssite Arunoday Sangha, Bansdroni, Kolkata 700070, WB","+91-8961075616, +91-9674075723",",info.dks1928@gmail.com,",
Debonair Swimming And Multi Gymi - Kolkata,Gym,Kolkata,"19, Incinerator Road, Dum Dum, Kolkata 700028, WB","+91-9903482262, +91-9231482078",,
Calcutta Fitness Club - Kolkata,Gym,Kolkata,"146-A, Block B, Opposite Laketown Nursing Home, Lake Town, Kolkata 700089, WB","+91-33-30101507, +91-9831351795",,
Barsana Clubs And Resorts - Kolkata,Gym,Kolkata,"1/1, Beside Shree Krishna Garden Apartment, Raja Rajendra LAL Mitra Road, Beliaghata, Kolkata 700085, WB",+91-33-32927050,",feedback@barsanaclub.com,infokol@barsanahotelkolkata.com,",
Barrackpore Gymnasium Library - Kolkata,Gym,Kolkata,"29, A-1, Barrackpore Railway Station, Banerjee Para Road, Kolkata 700123, WB",+91-33-25935214,",apc1960@apccollege.ac.in,",
Ascent - Kolkata,Gym,Kolkata,"P-22, Bangur Avenue, Kolkata 700055, WB",+91-33-25741928,",climb.kiddopreschool@gmail.com,bodylinesports@gmail.com,",
Arijits Workout - Kolkata,Gym,Kolkata,"391/12/C, Near Jodhpur Park, Prince Anwar Shah Road, 700068, WB",+91-9831642065,",ifeelfitness@ilead.net.in,",
Atlanta Health Centre - Kolkata,Gym,Kolkata,"59, South Avenue, Ballygunge, Kolkata 700019, WB",+91-33-24669168,",KOLKATA@PATNI.CO.IN,",
Add Life - Kolkata,Gym,Kolkata,"22, 5th Floor, Block A, Camac Street, Kolkata 700016, WB","+91-33-40013701, +91-33-40013702",",patton@pattonindia.com,addlifespa@gmail.com,u003eaddlifespa@gmail.com,onelifefitness786@gmail.com,",
A.N. John - Kolkata,Gym,Kolkata,,,"ninfo@anjohn.in,,info@anjohn.in,",
Zeus Gym and Health Club - Kolkata,Gym,Kolkata,"14/B, Prince Anwar Shah Road, Jodhpur Park, Kolkata 700068, WB",+91-33-24176630,,
Taj Bengal Health Club - Kolkata,Gym,Kolkata,,,",innercircle@tajhotels.com,",
Spa Deluxe health club - Kolkata,Gym,Kolkata,,,",franchise@ozoneclubs.com,",
Fitness Health Club - Kolkata,Gym,Kolkata,,,",saltlakedd30.kolkata@goldsgym.in,info.dks1928@gmail.com,",
