Name,Sector,City,Address,Phone,Email,Lat-Long
Fun Plus Fit - Kondapur - Hyderabad,Gym,Hyderabad,"F9XQ+VMM, Nizampet Rd, Jai Bharat Nagar, Hyder Nagar, Vasantha Nagar, Hyderabad, Telangana 500090",+91-9989880557,,"17.4997231,78.3788794"
Nir Wayfit Solutions - Kukatpally - Hyderabad,Gym,Hyderabad,"Phase 2, Mahadevpur Colony, Hyderabad, Telangana 500072",070131 32179,",info@nirwayfit.com,","17.5154173,78.4096031"
Fitness King Gym - Liberty Road - Hyderabad,Gym,Hyderabad,"3/120, Flat:120, Sagarview Building, 1-2-524, Liberty Rd, Gagan Mahal, Domalguda, Himayatnagar, Hyderabad, Telangana 500029",098482 76747,",fitnesskinggym@gmail.com,","17.4077976,78.4742256"
Ultimate Fitness Studio - Champapet - Hyderabad,Gym,Hyderabad,"above ICICI Bank ATM, APSRTC Officers Colony, Champapet, Hyderabad, Telangana 500079",090143 88444,,"17.3449669,78.5230003"
Zubaidi Fitness Center - Charminar - Hyderabad,Gym,Hyderabad,"20-4-231/2/A,Rahmat Manzil, Khilwat, Near ChowMohalla Palace,, Charminar, Ghansi Bazaar, Hyderabad, Telangana 500002",097038 98027,,"17.3590011,78.4674887"
Z Fitness - Lb Nagar - Hyderabad,Gym,Hyderabad,"11-21-13,11, 21-14, Rd Number 6, NTR Nagar, L. B. Nagar, Hyderabad, Telangana 500074",090307 69083,",f1fitnessone@gmail.com,","17.3579364,78.5431954"
Your Fitness Pulse - Alwal - Hyderabad,Gym,Hyderabad,"D.no-1-5-154/1, Near Indira Gandhi statue Central Bank of India bilding 2nd floor, Surya Nagar Colony, Old Alwal, Bolarum, Secunderabad, Telangana 500010",098497 78948,,"17.5090932,78.5024299"
Yolo Fitness By Suraj - Abids - Hyderabad,Gym,Hyderabad,"5th Floor PM House, Road, Chirag Ali Ln, Mahesh Nagar, Abids, Hyderabad, Telangana 500001",098480 81347,,"17.3931402,78.471826"
Wow Fitness Studio - Miyapur - Hyderabad,Gym,Hyderabad,"Top Floor, Satyanarayana Enclave, Above Reliance Digital and A-Longe, Madinaguda, near Miyapur, Hyderabad, Telangana 500050",086887 75555,",wow.fitness.studio@gmail.com,","17.4959223,78.3349156"
Workoutz Gym Health Club And Fitness Centre - Nagole - Hyderabad,Gym,Hyderabad,"500068, 2-3-27, Rd Number 1/C, Cooperative Bank Colony, Nagole, Hyderabad, Telangana 500068",090992 87216,"himayatnagar.hyderabad@goldsgym.in,,hello@cultfit.com,workoutzgym@gmail.com,","17.3747467,78.5570241"
wild iron the gym - Manikonda - Hyderabad,Gym,Hyderabad,"Manikonda Rd Sy No. 39, Part Flat No. 103 & 104, First Floor, Srikrishna Heights, opposite Nursery, Hyderabad, Telangana 500089",099855 26377,,"17.4079416,78.3792349"
V-Tone Gym And Fitness Studio - Amberpet - Hyderabad,Gym,Hyderabad,"Ayyappa Swamy Aalayam, beside UPHS, Bathukammakunta Rd, Amberpet, Hyderabad, Telangana 500013",063025 06575,"jittasudhir@gmail.com,,","17.3966276,78.5157104"
Vishwa Fusion Fitness - Erragadda - Hyderabad,Gym,Hyderabad,,,"vivek.help@gmail.com,,","17.4429382,78.4173713"
Vinayaka God's Power Gym - Amberpet - Hyderabad,Gym,Hyderabad,"Shop No.11-3, CGF6+QXP, 292/6, A.N Colony, Srinivasa Nagar, Padmarao Nagar, Secunderabad, Telangana 500061",097003 17444,,"17.4226444,78.5099243"
Vidyoos Aerobics And Fitness Studio - Vanasthalipuram - Hyderabad,Gym,Hyderabad,"Plot No. 41, House No. 5-5-52, Near Community Hall, Kranthi Hills Colony, Vanasthalipuram, Hyderabad, Telangana 500070",094413 43838,",vidyoos@hotmail.com,","17.3339963,78.5698897"
Vibez Gym And Spa - Jeedimetla - Hyderabad,Gym,Hyderabad,"3rd Floor,Plot no 51,Venkateshwara Colony, Suchitra Circle,Beside Mee Seva, Hyderabad, Telangana 500064",093902 72410,",Info@avisirah.com,PVREDDY987@gmail.com,","17.499692,78.4726851"
Venkat Fitness - Jubilee Hills - Hyderabad,Gym,Hyderabad,"8-2-293/82/J/A/52, A, Journalist Colony, Jubilee Hills, Hyderabad, Telangana 500033",096761 46789,,"17.4222859,78.4050705"
Veerus Workout Station - Alwal - Hyderabad,Gym,Hyderabad,"Plot No. 68, 4th Floor, Beside South Indian Bank Lane, Suchitra, Hyderabad, Telangana 500067",097004 81818,",sandhya.jairam@gmail.com,","17.498988,78.4730331"
Vasavi Womens Fitness Studio - Kothapet - Hyderabad,Gym,Hyderabad,"H.NO. 1-5-1133, NEAR JAIN MANDIR OLD MARUTHI NAGAR, KOTHAPET, Dilsukhnagar, Hyderabad, Telangana 500060",089773 96789,",vkksai4564@gmail.com,","17.3739001,78.5378149"
Varun's Fitness Center - Attapur - Hyderabad,Gym,Hyderabad,,,",360degreefitness@gmail.com,","17.3874581,78.4071929"
Vamshis Stepping Club - Nizampet - Hyderabad,Gym,Hyderabad,,,"info@fortunebutterwww.fortunebutterflycity,,","17.5063827,78.3853626"
Vaishnav Fitness Zone - Yousufguda - Hyderabad,Gym,Hyderabad,"8-3-678/42/5, Navodaya Colony Rd, Sri Nagar Colony, Navodaya Colony, Yousufguda, Hyderabad, Telangana 500045",092480 02220,,"17.4334201,78.4306529"
Vaishnav Fitness Zone - Ameerpet - Hyderabad,Gym,Hyderabad,"1st Floor, Divya Shakti Complex, opp. Lal Bungalow, above Andhra Bank, Greenlands, Ameerpet, Hyderabad, Telangana 500016",092462 49721,,"17.4355473,78.4498304"
Vack Fitness Centre And Personal Trainers - Attapur - Hyderabad,Gym,Hyderabad,"20/3-4-174/7/1-1, 2nd Floor, Behind Bantia Furnitures Showroom, Hyderguda Cross Road, Attapur, Hyderabad 500048, TS",+91-8639243694,,"17.3666693,78.4262813"
V R Fit and U - As Rao Nagar - Hyderabad,Gym,Hyderabad,,,"himayatnagar.hyderabad@goldsgym.in,,","17.4932742,78.4894109"
Universe Gym - Malakpet - Hyderabad,Gym,Hyderabad,,,",fsfitness.himayatnagar@gmail.com,","17.4327879,78.3478196"
Universal Fitness Centre - Kompally - Hyderabad,Gym,Hyderabad,"Suraram X Road , IDA Jeedimetla, Medak Rd, Dayanand Nagar, Suraram, Hyderabad, Telangana 500055",098491 77566,,"17.541376,78.4313872"
Ultimate Gym - Chanda Nagar - Hyderabad,Gym,Hyderabad,"Sridevi Theatre Ln, Reddy Colony, Chanda Nagar Colony, Adarsh Nagar, Chanda Nagar, Hyderabad, Telangana 500050",086867 07068,",ultimategym07@gmail.com,","17.5024688,78.3156282"
Turnhalle Fitness Studio - Sainikpuri - Hyderabad,Gym,Hyderabad,"FGQV+332, Sainikpuri 1st Main Rd, SGKS United Residency, Hill Top Colony, Sainikpuri, Secunderabad, Telangana 500056",099631 65468,,"17.4876424,78.5400686"
Touch Fitness - Kphb - Hyderabad,Gym,Hyderabad,,,",info@dial.fit,","17.4652382,78.3763042"
Tone House Gym - Kompally - Hyderabad,Gym,Hyderabad,"P.NO: 162/P jayabheri park near royal meadows, behind cine planet, Kompally, Secunderabad, Telangana 500014",,",info@makutadeveloeprs.com,","17.5520249,78.4943694"
Tone Fitness - Kukatpally - Hyderabad,Gym,Hyderabad,"17, Nizampet Rd, Jai Bharat Nagar, Nagarjuna Homes, Kukatpally, Hyderabad, Telangana 500090",040 4024 0261,,"17.5003705,78.386965"
Tiger Gym - Tolichowki - Hyderabad,Gym,Hyderabad,"1st Floor, Karol Bagh Road, Nanal Nagar X Rd, opp. Premier Hospital, Toli Chowki, Hyderabad, Telangana 500008",097000 56665,",email@yourbusiness.com,","17.3902306,78.4248036"
The Studio - Basheerbagh - Hyderabad,Gym,Hyderabad,,,",basheerbagh@f45training.in,","17.397078,78.4612867"
The Slimline Fitness Studio - Kothapet - Hyderabad,Gym,Hyderabad,"Mahalaxmi theater, 11-10-190,SBI Colony Road, Backside Lane, Kothapet, Hyderabad, Telangana 500035",095532 00450,",theslimlinefitnessstudio@gmail.com,","17.3705747,78.5432142"
The Gymnasium Personal Fitness Studio - Kondapur - Hyderabad,Gym,Hyderabad,"Botanical Garden Road Plot No. 117A, Government Hospital Rd, Sri Ram Nagar, Kondapur, Telangana 500084",095813 69261,",hello@cultfit.com,","17.4618618,78.3503913"
The Gym Zone - Madinaguda - Hyderabad,Gym,Hyderabad,"P V R House, Plot No. 161, Mythri Nagar, Madinaguda, Miyapur, near Eagle Pizza House, Hyderabad, Telangana 500049",,",hello@cultfit.com,","17.4938587,78.3453064"
The Gym Zone - Nizampet - Hyderabad,Gym,Hyderabad,"Sri Surya's Vijaya Icon, Plot 42,43,44, Balaji Nagar Rd, Nizampet, Hyderabad, Telangana 500090",040 4020 2029,,"17.5156393,78.3790975"
The Gym - Himayat Nagar - Hyderabad,Gym,Hyderabad,,,"himayatnagar.hyderabad@goldsgym.in,,fsfitness.himayatnagar@gmail.com,","17.4046875,78.4759663"
The Gym - Nacharam - Hyderabad,Gym,Hyderabad,,,",hello@cultfit.com,","17.426278,78.5378722"
The Force Gym - Yousufguda - Hyderabad,Gym,Hyderabad,,,",banjarahills.hyd@goldsgym.in,","17.4374435,78.4374338"
The Fitness Studio - Dilsukh Nagar - Hyderabad,Gym,Hyderabad,,,",x3einfo@gymcompany.co.za,hello@cultfit.com,vasaviwomensfitnessstudio@gmail.com,info@gymcompany.co.za,","17.3700191,78.5071777"
The Fitness Fiesta - Gachibowli - Hyderabad,Gym,Hyderabad,"HIG A-30, Opp DLF Gate 3,, Andhra Pradesh Housing Board, Gachibowli, Hyderabad, Telangana 500032",099894 00322,,"17.4488042,78.35451"
The Fitness Factory - West Marredpally - Hyderabad,Gym,Hyderabad,"Door No. 3, Charle Outlaw, 9-241, near Police Station, Suman Housing Colony, West Marredpally, Secunderabad, Telangana 500026",040 6050 3040,,"17.4508694,78.5025535"
The Eagels Gym & Fitness Studio - Habsiguda - Hyderabad,Gym,Hyderabad,"Door no 1-5-50/2/1, Narayanamma Complex, 3rd floor, Captain Veera Raja Reddy Marg, opp. Spencers, Habsiguda, Secunderabad, Telangana 500007",099855 82002,,"17.4079595,78.5414281"
The Chisel Gym - Hyderguda - Hyderabad,Gym,Hyderabad,,,"himayatnagar.hyderabad@goldsgym.in,,","17.4277923,78.2980529"
The Best Gym And Fitness Centre - Nagole - Hyderabad,Gym,Hyderabad,,,",hello@cultfit.com,","17.3685306,78.5430819"
The 28 Fitness - Jubilee Hills - Hyderabad,Gym,Hyderabad,"Rangoli Building, 8-2-293/82/A/790, 2nd Floor, Rd Number 36, Jubilee Hills, Hyderabad, Telangana 500033",094928 82828,,"17.4349223,78.3996647"
Target Fitness - Gachibowli - Hyderabad,Gym,Hyderabad,"2-37/141,4th floor, Gachibowli Rd, Vinayak Nagar, Gachibowli, Telangana 500032",099088 30335,,"17.4426688,78.3530253"
Talwalkars - Kukatpally - Hyderabad,Gym,Hyderabad,"H.No. 18/HIG-18, No. 15-29-1000/H-18, M.C.K House, Phase 1 & 2 KPHB Colony, near PRIME Hospital, Kukatpally, Hyderabad, Telangana 500072",040 4260 7812,,"17.4889757,78.3980405"
T81 Fitness Studio - Nagole - Hyderabad,Gym,Hyderabad,"3rd Floor, GVR Plaza, No. 1-2-183, Kothapet Rd, Laxmi Nagar Colony, Kothapet, Hyderabad, Telangana 500060",096764 63636,,"17.3716046,78.5400185"
Synergy Fitness Studio - Alwal - Hyderabad,Gym,Hyderabad,,,"info@fortunebutterwww.fortunebutterflycity,,","17.5084229,78.4902327"
Sweat N Burn - Sainikpuri - Hyderabad,Gym,Hyderabad,"Door No 2, Solanki Residency, 34-131/3a/1, Bharani Colony Rd, Matrupuri Colony, Defence Colony, Sainikpuri, Secunderabad, Telangana 500094",099890 69137,,"17.486181,78.5288945"
SVR Body Architect - Attapur - Hyderabad,Gym,Hyderabad,,,"neha@criesandcrawls.com,,","17.3640158,78.4257115"
Super Flex Gym - Tolichowki - Hyderabad,Gym,Hyderabad,"8-1-523/256, Old Mumbai Hwy, Galaxy, Sabza Colony, Brindavan Colony, Toli Chowki, Hyderabad, Telangana 500008",097051 42534,,"17.4026515,78.4087415"
Super Flex Gym - Uppal - Hyderabad,Gym,Hyderabad,"Plot No. 4, above Union Bank, Balaji Enclave, Beerappagadda, Uppal, Hyderabad, Telangana 500039",099897 14946,,"17.4039444,78.5603886"
Super Flex Gym And Fitness Centre - Uppal - Hyderabad,Gym,Hyderabad,,,",gynaneshwarpastham@gmail.com,","17.4070941,78.5539521"
Strength Fitness Gym - Miyapur - Hyderabad,Gym,Hyderabad,"near Genpact, Old Hafeezpet, Sai Nagar, Hafeezpet, Miyapur, Hyderabad, Telangana 500049",090590 41919,",hello@cultfit.com,jaguargym@gmail.com,","17.4882672,78.3531676"
Steel Gym - Jubilee Hills - Hyderabad,Gym,Hyderabad,"1355, Neharika Jubilee One, Jubilee Hills Road No.1 and Road.45 Junction, adjacent to HDFC bank, Nandagiri Hills, Jubilee Hills, Hyderabad, Telangana 500033",095429 99999,,"17.422453,78.4083191"
Stalwart Gym - Kphb - Hyderabad,Gym,Hyderabad,"KPHB 7th phase, hitech city-jntu road, 2nd floor above Cashew House, kukatpally, Landmark- Ankura hospital, fishermen bar, Hyderabad, Telangana 500072",097031 23037,",kumargaurav@stalwartgym.in,","17.474103,78.3852761"
Srikanth Gym - Nagole - Hyderabad,Gym,Hyderabad,"2-11-118, Balaji Enclave, Srinagar colony, Uppal, Hyderabad, Telangana 500039",090596 00735,"cestat08@gmail.com,,mvramanamu.g095401@gov.in,srikanthrnn@yahoo.com,","17.4066207,78.5616124"
Sri Mathru Mandir - Dilsukh Nagar - Hyderabad,Gym,Hyderabad,,,"himayatnagar.hyderabad@goldsgym.in,,hello@cultfit.com,","17.3645931,78.5159798"
Sri Maruthi Fitness World - Gachibowli - Hyderabad,Gym,Hyderabad,"H-no:3-8, opposite to sbi bank, Gowlidoddy, Telangana 500032",089771 66880,,"17.4295646,78.3227062"
SR Strong - Nizampet - Hyderabad,Gym,Hyderabad,"#3-110, Opp Bhavya's Anand, Nizampet Village, Nizampet, above HDFC Bank, Hyderabad, Telangana 500090",090301 39536,,"17.5103101,78.381975"
Sprinklets - Cubs - Secunderabad - Hyderabad,Gym,Hyderabad,,,"himayatnagar.hyderabad@goldsgym.in,,","17.4362484,78.4795243"
Speed Fitness Gym - Kukatpally - Hyderabad,Gym,Hyderabad,"GC87+RVP, Usha Mullapudi Cardio Hospital Rd, Kailash Hills, Mahadevpur Colony, Hyderabad, Telangana 500055",094412 84548,,"17.5170947,78.4121164"
Soul Spa Salon Gym - Jubilee Hills - Hyderabad,Gym,Hyderabad,"3rd floor,Signature 36, Road Number 10, Jubilee Hills, Hyderabad, Telangana 500033",093476 71805,",info@soulindia.in,","17.4326368,78.4049521"
Solitaire Fitness - Tolichowki - Hyderabad,Gym,Hyderabad,"Shop No. 8-1-351/A/7, M.K Enpires, Opposite Galaxy Theatre, Aditya Nagar Beside Ratndeep Super Market and, above RedTape shoe store, Shaikpet, Hyderabad, Telangana 500008",089563 00300,",info@solitairefitness.com,","17.4039396,78.4047917"
Solitaire Fitness - Manikonda - Hyderabad,Gym,Hyderabad,"2nd Floor, Sataya Building, Lanco Hills Rd, opposite to Marri Chettu Tree, Manikonda Jagir, Telangana 500089",089563 00300,",info@solitairefitness.com,","17.4060478,78.3737259"
Solitaire Fitness - Mehdipatnam - Hyderabad,Gym,Hyderabad,"first floor, Srinivasa Gundluri Complex, Gudi Malkapur Rd, opposite Mandi King, Kantinagar Colony, Mehdipatnam, Hyderabad, Telangana 500028",089563 00300,",info@solitairefitness.com,","17.3890536,78.4370991"
Solitaire Fitness - Kothapet - Hyderabad,Gym,Hyderabad,"Plot no. 37, 38, 39, 4th Floor, Above Sanjeevani Hospital Kothapet Road, New Nagole Main Rd, Hyderabad, Telangana 500068",080990 10120,",info@solitairefitness.com,","17.3741599,78.549586"
Solitaire Fitness - Masab Tank - Hyderabad,Gym,Hyderabad,"3rd floor, Sri Lakshmi Complex, Beside Taiba Bakery, above More Super Market, Shantinagar Colony, Masab Tank, Hyderabad, Telangana 500028",089563 00300,",info@solitairefitness.com,","17.4021955,78.4543334"
Solitaire Fitness - Attapur - Hyderabad,Gym,Hyderabad,"2nd Floor, Archie Building, Above Syndicate Bank, Pillar No. 180, Attapur Rajendra Nagar, Inner Ring Rd, Happy Homes Colony, Upperpally, Telangana 500048",089563 00300,",info@solitairefitness.com,mir@utlines.co,","17.3546373,78.4188786"
Solid Fitness Gym - Kondapur - Hyderabad,Gym,Hyderabad,"4th floor Plot no:1, Gachibowli - Miyapur Road Besides Bajaj Electronics Jubilee Gardens, Kondapur, Telangana 500084",040 4221 3456,",janardhanjaamg@gmail.com,","17.4628351,78.3648368"
Smartpro Fitness - Kondapur - Hyderabad,Gym,Hyderabad,"Masjid Banda Rd, Masjid Banda, CMC Enclave, Kondapur, Hyderabad, Telangana 500084",095815 55841,",360degreefitness@gmail.com,","17.4637508,78.3433327"
Slim Touch Fitness Zone - Ameerpet - Hyderabad,Gym,Hyderabad,"7-1-25 5 & 6, Ameerpet Rd, Leelanagar, Ameerpet, Hyderabad, Telangana 500016",092463 38989,",slimtouchfitnesszone@gmail.com,","17.4355962,78.4524586"
Skies Fitness Studio - Sainikpuri - Hyderabad,Gym,Hyderabad,"38-87, Sainikpuri Rd, A.N Colony, Officers Colony, Sainikpuri, Secunderabad, Telangana 500094",095027 89999,,"17.4838162,78.5460737"
Six Pack Gym - Madhapur - Hyderabad,Gym,Hyderabad,"3rd floor , Plot no, Techno Polis 47, 1-96/8, 13, Hitech City Main Rd, Arunodaya Colony, Madhapur, Hyderabad, Telangana 500081",081061 16161,",hello@cultfit.com,imfit.fitness@gmail.com,psr.icai@gmail.com,","17.4480708,78.3761853"
Siri Muvva Arts - West Marredpally - Hyderabad,Gym,Hyderabad,"152, Quthbullapur Main Rd, Industrial Estate, Sri Krishna Nagar, Quthbullapur, Hyderabad, Telangana 500055",086392 45331,",sirimuvvarts@gmail.com,","17.5058924,78.4650354"
Siri Muvva Arts - Bowenpally - Hyderabad,Gym,Hyderabad,"152, Quthbullapur Main Rd, Industrial Estate, Sri Krishna Nagar, Quthbullapur, Hyderabad, Telangana 500055",086392 45331,,"17.5058924,78.4650354"
Sims Extreme Fitness - Moula Ali - Hyderabad,Gym,Hyderabad,"25-40, 73/12, E Anandbagh Main Rd, ANR Nagar Colony, Ananatha Saraswathi Nagar, Moula Ali, Secunderabad, Telangana 500040",,"himayatnagar.hyderabad@goldsgym.in,,","17.4570551,78.5446185"
Sim Lion Fitness - Uppal - Hyderabad,Gym,Hyderabad,"2-4-123/E/66, Ayyappa Swamy Temple Road, Swaroop Nagar Rd, Hyderabad, Telangana 500092",093919 71537,"simlionfitnessuppal@gmail.com,,simlionfitnessboduppal@gmail.com,simhasalma@gmail.com,","17.4100092,78.5705123"
Sim Lion Fitness - Uppal - Hyderabad,Gym,Hyderabad,"2-4-123/E/66, Ayyappa Swamy Temple Road, Swaroop Nagar Rd, Hyderabad, Telangana 500092",093919 71537,"simlionfitnessuppal@gmail.com,,simlionfitnessboduppal@gmail.com,simhasalma@gmail.com,","17.4100092,78.5705123"
Siddharth Fitness Pro - Madhapur - Hyderabad,Gym,Hyderabad,"Plot No. 1-89/A/3/15, 16G1, Vittal Rao Nagar, Gafoornagar, Telangana 500081",096188 30206,,"17.4394135,78.3841013"
Shape Up - Jubilee Hills - Hyderabad,Gym,Hyderabad,,,",munnawar3578@gmail.com,","17.4257048,78.3998322"
Shanthi Gym - Secunderabad - Hyderabad,Gym,Hyderabad,"manju teatre line, opp. sri devi pochamma temple, somasundaram street, SD Road, Kalasiguda, Secunderabad, Telangana 500003",099089 77440,"himayatnagar.hyderabad@goldsgym.in,,","17.4387911,78.4907681"
Shakthi Gym - Uppal - Hyderabad,Gym,Hyderabad,"Chilka Nagar Main Rd, West Balaji Hill Colony, Chilkanagar, Uppal, Hyderabad, Telangana 500039",098484 96829,"cnubhai@gmail.com,rajesh@waterindia.net,,","17.4179328,78.5635958"
SF Fitness - Kukatpally - Hyderabad,Gym,Hyderabad,"Road No. 3, J.N.T.U, Near Remedy Hospitals, Colony, Kukatpally Housing Board Colony, Hyderabad, Telangana 500072",099590 43115,,"17.4833519,78.3664674"
Saqi Apna Gym - Erragadda - Hyderabad,Gym,Hyderabad,"Shop No.8-4-549/6, Netaji Nagar Lane 1, AG Colony, Vikaspuri, Erragadda, Hyderabad, Telangana 500038",,",hello@cultfit.com,","17.4499498,78.4279186"
Sanjeevini Nature Cure Centre - Yousufguda - Hyderabad,Gym,Hyderabad,,,",sanjeevini4u@gmail.com,","17.4331269,78.4258421"
Salus Fitness - Kothapet - Hyderabad,Gym,Hyderabad,"H No :11-13-878, Plot, No-12/9, Green Hills Colony Rd Number 3, Green Hills Colony, Dwarka Nagar, Kothapet, Hyderabad, Telangana 500035",076740 14383,",salus-fitness-hyderabad-telangana-@oreaxt7a.html,","17.3607002,78.5436107"
Saies Fitness Gym - Secunderabad - Hyderabad,Gym,Hyderabad,"Shop No. 2, Plot No 1, Chakripuram X Road, opposite Sri Ram Bakery, Reddy Colony, SV Nagar, Kushaiguda, Secunderabad, Telangana 500062",098482 43864,,"17.4788514,78.5837618"
Sai Jeevaka Clinic - Kukatpally - Hyderabad,Gym,Hyderabad,"F9QM+J47, 9th Phase Rd, K P H B Phase 6, Kukatpally, Hyderabad, Telangana 500085",090324 18543,,"17.4890306,78.3802146"
Sagars Gym - Ameerpet - Hyderabad,Gym,Hyderabad,"Door No. 7-1-58/1, C Parameswar Towers, Second Floor,Piller, No.BAP23,Opposite Lal bunglow, Ameerpet Road, Ameerpet, Hyderabad, 500016",063001 98502,,"17.4357165,78.4492731"
Saad Studio - Kondapur - Hyderabad,Gym,Hyderabad,"155, 2nd Floor, Gachibowli - Miyapur Rd, above Santosh Dhaba, Land Mark Residency, Prashanth Nagar Colony, Kondapur, Hyderabad, Telangana 500084",070300 30400,",hello@fitzop.com,","17.4614091,78.3642209"
Saad Studio - Madhapur - Hyderabad,Gym,Hyderabad,"metro pillar no: 1762, 1-98/91/1/1, opp. image hospital kaman, beside vodaphone store, VIP Hills, Sri Sai Nagar, Madhapur, Hyderabad, Telangana 500081",096421 51956,"conceptstores_inc001@hotmail.com,,","17.4449753,78.3838784"
S F Fitness Pro - Kphb - Hyderabad,Gym,Hyderabad,"MIG 274 COLONY, Kukatpally Housing Board Colony, Kukatpally, Hyderabad, Telangana 500072",,",hello@cultfit.com,","17.4870751,78.3879419"
RS Fitness Studio - Kukatpally - Hyderabad,Gym,Hyderabad,,,",hello@cultfit.com,mitra_catch@yahoo.com,","17.5041641,78.3942517"
Rockerzz Fitness - Madinaguda - Hyderabad,Gym,Hyderabad,,,",info@kfsfitness.com,","17.499833,78.3349729"
RK Body And Soul - Kondapur - Hyderabad,Gym,Hyderabad,"E 806, Rajapushpa Atria, Kokapet, Hyderabad, Telangana 500075",098669 93858,",dololo6024@cwtaa.com,","17.3905983,78.3357761"
Rize up Fitness - Kondapur - Hyderabad,Gym,Hyderabad,"F968+HP7, Kothguda X Road, Kondapur, Telangana 500084",099856 44264,"rizeup3@gmail.com,,","17.4614093,78.3642122"
Rize up Fitness - Madhapur - Hyderabad,Gym,Hyderabad,"C9VP+WFJ, Vittal Rao Nagar Rd, Jaihind Enclave, Madhapur, Hyderabad, Telangana 500081",086868 77409,,"17.4448319,78.3835648"
Rithus Fitness Studio - Musheerabad - Hyderabad,Gym,Hyderabad,"1-6-1052, Musheerabad, Zamistanpur, Bhoiguda, Hyderabad, Telangana 500080",092465 82833,,"17.419925,78.4988293"
Rising Stars Body Dynamics Studio - Trimulgherry - Hyderabad,Gym,Hyderabad,"Plot # 8, L.B. Nagar Colony, Lal Bazaar, Tirumalagiri, Secunderabad, Telangana 500015",040 6551 6153,,"17.4779654,78.4847733"
Rinku And Tinku Fitness Gym - Secunderabad - Hyderabad,Gym,Hyderabad,"Market Rd, Maruthi Veedhi, Shivaji Nagar, Secunderabad, Telangana 500003",098667 55006,,"17.436636,78.4938821"
Redefine Fitness - Kondapur - Hyderabad,Gym,Hyderabad,"4th & 5th Floors, Sangeetha Land Mark, above Dry Fruit Den, adjacent to Botanical Garden Road, Sri Ram Nagar, Kondapur, Hyderabad, Telangana 500084",090002 90006,,"17.4600445,78.3527791"
Real Fitness Gym - Chanda Nagar - Hyderabad,Gym,Hyderabad,"Plat no 286, Near kks bekery, opp. mithra pharmacy, beside apollo pharmacy, MIG Colony, Gangaram, Chanda Nagar, Hyderabad, Telangana 500050",080962 21717,,"17.4922047,78.3286172"
Rainbow Gym And Aerobics Centre - Kukatpally - Hyderabad,Gym,Hyderabad,"shop 1st floor, Basha, 1, Allwyn Colony Rd, Vijaya Nagar Colony, Kukatpally, Hyderabad, Telangana 500072",096182 25440,,"17.4987373,78.4090241"
Radisson Blu Plaza - Banjara Hills - Hyderabad,Gym,Hyderabad,"8-2-409, Rd Number 6, Green Valley, Banjara Hills, Hyderabad, Telangana 500034",040 6733 1133,",chill@rdhyderabad.com,mukesh@conferencevenue.in,reservations.hyderabad@radisson.com,","17.4222842,78.4388894"
R1 Fitness Centre And Spa - Tolichowki - Hyderabad,Gym,Hyderabad,"8-1-523/240, Shaikpet Rd, Rahul Colony, Deluxe Colony, Janaki Nagar Colony, Toli Chowki, Hyderabad, Telangana 500008",081219 65157,,"17.4023273,78.4094061"
Quad The Fitness Hub - Vanasthalipuram - Hyderabad,Gym,Hyderabad,"H1,H2,H7,H8, S No 58 To 68, 3 rd Floor, 17, NH 65, above Pai Electronics, Agamaiah Nagar Colony, Abhyudaya Nagar, Chintalkunta, Hyderabad, Telangana 500074",096187 64477,,"17.3398988,78.56184"
Pure Fitness Gym And Cardio - Bowenpally - Hyderabad,Gym,Hyderabad,"Mahalaxmi Sri Nivasam, Flat NO : 103 ,Bapuji Nagar 'X'Road , Bowenpally, Secunderabad 500009",094902 35315,",pure-fitness-gym-and-cardio-hyderabad-telangana-4@c3ak55y.html,","17.468881,78.4791131"
Pulse Fitness Studio - Himayat Nagar - Hyderabad,Gym,Hyderabad,"3rd Floor, Anand Arcade, Opp Nike Store, Himayat Nagar Road, Himayat Nagar, Hyderabad, Telangana 500029",099492 44891,"himayatnagar.hyderabad@goldsgym.in,,","17.4045045,78.4782044"
Prs Classic Fitness And Gym - Nacharam - Hyderabad,Gym,Hyderabad,"ABOVE RBL BANK AND POLIMERA VEG MARKET,BALAJI TRADE CENTER, Street Number 1, HMT Nagar, Nacharam, Hyderabad, Telangana 500076",,",admission@dpssecunderabad.in,info@kfsfitness.com,n@dpssecunderabad.in,","17.4228636,78.5435013"
Proquest Fitness - Karkhana - Hyderabad,Gym,Hyderabad,"Balaji Enclave, Plot No. 62, Kadali Park View, New, Diamond Point Rd, Secunderabad, Telangana 500009",040 2772 2992,,"17.4626818,78.4903621"
Professional Boxing And Gym - Sagar Road - Hyderabad,Gym,Hyderabad,,,",banjarahills.hyd@goldsgym.in,","17.4082412,78.310874"
Pro Fitness - Miyapur - Hyderabad,Gym,Hyderabad,"F9V7+3JQ, Mathrusree Nagar, Hafeezpet, Miyapur, Hyderabad, Telangana 500049",077992 98671,,"17.4927659,78.3614338"
Pro Fitness - Kukatpally - Hyderabad,Gym,Hyderabad,"Road no.06,PLOT NO.279,, VIVEKANANDA NAGAR MAIN ROAD,KUKATPALLY,, above GREEN TRENDS, Hyderabad, Telangana 500072",095504 55422,",profitnesskp@gmail.com,","17.4945986,78.4090955"
Pro Fitness - Hitech City - Hyderabad,Gym,Hyderabad,,,",hello@cultfit.com,imfit.fitness@gmail.com,","17.4621345,78.2891312"
Pro 6 Gym - Moula Ali - Hyderabad,Gym,Hyderabad,"S. P. Nagar, Moulalai Shop no:- 42-785, Andal nagar, Ecil Road, SP Nagar, Moula Ali, Secunderabad, Telangana 500040",086868 53242,,"17.4639076,78.5590825"
Power Tek Gym - Nagole - Hyderabad,Gym,Hyderabad,"Powertek Gym, 2nd Floor, # 2-4-705 New Nagole Colony, Nagole, Kothapet, to, Kothapet Rd, Kothapet, Hyderabad, Telangana 500035",099088 00008,",powertekin@gmail.com,","17.3750446,78.5514863"
Power Tek Gym - Chanda Nagar - Hyderabad,Gym,Hyderabad,"22, Patancheru - Chandanagar Rd, Mallikarjuna Nagar, Ramachandrapuram, Hyderabad, Telangana 502032",072077 70913,,"17.5093868,78.2977272"
Power Base Gym - Nizampet - Hyderabad,Gym,Hyderabad,"Kamalaprasanna Nagar, Madhavaram Nagar Colony, Kukatpally, Hyderabad, Telangana 500072",094934 12550,,"17.4991452,78.4131436"
Potens Fitness - Madhapur - Hyderabad,Gym,Hyderabad,"1-89/3/18, Adjacent to InOrbit Mall, Durgam Cheruvu Road Vittal Rao Nagar Hitech City, Madhapur, Telangana 500081",090107 90000,,"17.4344944,78.3850216"
Potens Box - Gachibowli - Hyderabad,Gym,Hyderabad,,,",hello@cultfit.com,","17.4285525,78.2566398"
Pooja Gym And Fitness Centre - Sr Nagar - Hyderabad,Gym,Hyderabad,"7-1-397/128, 5/B, BK Guda Rd, Sanjeeva Reddy Nagar, Hyderabad, Telangana 500038",097038 07494,",adithya.gudsmile@gmail.com,","17.4428478,78.4417929"
Pledge Fitness - Kukatpally - Hyderabad,Gym,Hyderabad,"Plot No. 93, NTR Nagar Rd, opposite KPHB Colony, A.S.Raju Nagar, Vivekananda Nagar, Kukatpally, Hyderabad, Telangana 500037",080006 69999,",sarghnya@gmail.com,","17.4954089,78.4029926"
Plano Gym - Kukatpally - Hyderabad,Gym,Hyderabad,"204/3, Addagutta Society - Jal Vayu Vihar Raod, HMT Hills Rd, Jawaharlal Nehru Technological University, Western Hills, Jal Vayu Vihar, Kukatpally, Hyderabad, Telangana 500090",088850 12304,,"17.4994248,78.3931412"
Plano Gym - Miyapur - Hyderabad,Gym,Hyderabad,"204/3, Addagutta Society - Jal Vayu Vihar Raod, HMT Hills Rd, Jawaharlal Nehru Technological University, Western Hills, Jal Vayu Vihar, Kukatpally, Hyderabad, Telangana 500090",088850 12304,,"17.4994248,78.3931412"
Pinnacle Fitness Studio - Champapet - Hyderabad,Gym,Hyderabad,"H.NO 17, 1-382/P/21, Government Press Colony, Kaman, Champapet, Hyderabad, Telangana 500079",077991 18816,,"17.3451762,78.5211067"
Pinks Ladies Gym - Ashok Nagar - Hyderabad,Gym,Hyderabad,"101, 1st Floor, Y.S.Rao Chambers, Ashok Nagar, Himayat Nagar., Hyderabad, Telangana 500020",,",pinksladiesgym@gmail.com,","17.404967,78.4870531"
Pink Ladies Fitness - Ameerpet - Hyderabad,Gym,Hyderabad,"7-1-71/H, Swathi Avenue, Ameerpet, Hyderabad, Telangana 500016",097909 40304,,"17.4375663,78.4457545"
Perfect Fitness Gym - Moula Ali - Hyderabad,Gym,Hyderabad,,,",perfectfitnessgym@yahoo.com,","17.4580219,78.5630335"
Omer Planet Fitness Gym - Kukatpally - Hyderabad,Gym,Hyderabad,"HIG 188, Road No. 5, K P H B Phase 1, Kukatpally, Hyderabad, Telangana 500072",093463 41206,,"17.492436,78.3937492"
Oasis Fitness And Swimming Pool - Tolichowki - Hyderabad,Gym,Hyderabad,"C95X+54X, Al-Hamra Colony, AP Animal Husbandry Employees Colony, Shaikpet, Hyderabad, Telangana 500008",088863 63301,",info@khelomore.com,","17.4079957,78.3952735"
O2 Gym - Banjara Hills - Hyderabad,Gym,Hyderabad,"Road No. 10, Gouri Shankar Nagar Colony, Banjara Hills, Hyderabad, Telangana 500034",072870 20202,",myo2gym@gmail.com,","17.4160083,78.4367331"
Nizams Fitness Centre - Golconda - Hyderabad,Gym,Hyderabad,"9-8-440/A, Kirti Nagar, Chota Bazar, Golconda Fort, Hyderabad, Telangana 500008",083419 00961,",thenizamclub@gmail.com,","17.3815219,78.4066119"
Nirus Fitness Gym - Moti Nagar - Hyderabad,Gym,Hyderabad,"12-5-124 Moosapet Main Road, Beside Indian Bank, Hyderabad, Telangana 500018",,"tv11live@gmail.com,,","17.4689004,78.4249555"
Next Level Fitness - Himayat Nagar - Hyderabad,Gym,Hyderabad,"3-5-592, Vittalwadi Rd, Vittalwadi, Himayatnagar, Hyderabad, Telangana 500029",,"himayatnagar.hyderabad@goldsgym.in,,maniratnam146@gmail.com,","17.3987893,78.4835611"
New Gold Gym - Kphb - Hyderabad,Gym,Hyderabad,,,"himayatnagar.hyderabad@goldsgym.in,,info@dial.fit,","17.4866804,78.3869637"
Neetrika Fitness - East Marredpally - Hyderabad,Gym,Hyderabad,"Sri Krishna Complex, 10-3-3/3, above Heritage Fresh, near Shenoy Nursing Home, Mamidpalli, East Marredpally, Secunderabad, Telangana 500026",081060 83383,,"17.4484391,78.506343"
Neerajs Fun2fit Fitness - Bowenpally - Hyderabad,Gym,Hyderabad,"Room No 329 & 330, 1st Floor, Diamond Point Rd, beside Bank Of Baroda, Rail Enclave, Radha Swamy Colony, Bowenpally, Secunderabad, Telangana 500009",097012 37717,",neeraj.fun2fit@yahoo.com,","17.4690213,78.4921217"
Nawaz Gym - Banjara Hills - Hyderabad,Gym,Hyderabad,"Above Hero Showroom, Suncity Rd, opposite Prime Furniture, Hyder Shah Kote, Hyderabad, Telangana 500008",099666 67011,",banjarahills.hyd@goldsgym.in,","17.366118,78.3952423"
Nawaz Fitness Pro - Langer House - Hyderabad,Gym,Hyderabad,"9-1-364, B/603, Langar House Rd, opp. Bapu Ghat, Bapu Nagar, Langar Houz, Hyderabad, Telangana 500008",099666 67011,"nawazfitnesspro@gmail.com,,info@fortunebutterwww.fortunebutterflycity,","17.3732858,78.4108471"
Naren Fitness - Srinagar Colony - Hyderabad,Gym,Hyderabad,"8-3-977/4, 4th & 5th floor, Vasudeva Plaza, Sri Nagar Colony Main Road Opp SRC Club, Sri, Srinagar Colony, Hyderabad, Telangana 500073",040 4003 6239,"reachus@shiftfitness.in,,info@narenfitness.com,","17.430294,78.4366121"
Naren Fitness - Kukatpally - Hyderabad,Gym,Hyderabad,"129 & 130, 9th Phase Rd, K P H B Phase 6, Kukatpally, Hyderabad, Telangana 500085",084640 60301,"reachus@shiftfitness.in,,info@narenfitness.com,","17.4865328,78.3835962"
Naren Fitness - Miyapur - Hyderabad,Gym,Hyderabad,,,"reachus@shiftfitness.in,,info@narenfitness.com,","17.4995731,78.3544944"
N Zone - Habsiguda - Hyderabad,Gym,Hyderabad,"Habsiguda Main Rd, New Nagole Colony, Nagendra Nagar, Habsiguda, Hyderabad, Telangana 500007",,",equinoxfitnesshub@gmail.com,","17.418107,78.5403151"
My Gym - Chanda Nagar - Hyderabad,Gym,Hyderabad,,,",gm.gb@lemontreehotels.com,","17.4960961,78.3039735"
My Fitness Zone - Begumpet - Hyderabad,Gym,Hyderabad,"141, 6-3-1216, G5, Kundan Bagh Rd, Methodist Colony, Begumpet, Hyderabad, Telangana 500016",063031 08386,"himayatnagar.hyderabad@goldsgym.in,,","17.435451,78.4592489"
MVR Universal Fitness Zone - Kukatpally - Hyderabad,Gym,Hyderabad,"MIG 344, NH 65, Above KAZANA JEWELLERY SHOP MAINROAD, Kukatpally Housing Board Colony, Hyderabad, Telangana 500085",076808 89920,"suryameduri@yahoo.com,,","17.4949025,78.395541"
Muscle World Gym - Banjara Hills - Hyderabad,Gym,Hyderabad,,,",banjarahills.hyd@goldsgym.in,","17.445227,78.4199831"
Muscle Tech Gym - Chanda Nagar - Hyderabad,Gym,Hyderabad,"2-29/A, NH 65, Gouthami Nagar Colony, Jawahar Colony, Chanda Nagar, Hyderabad, Telangana 500050",099496 46106,,"17.4954088,78.3200845"
Muscle Power Health Care - Padmarao Nagar - Hyderabad,Gym,Hyderabad,"No 6-1-277-3-2, APR Complex, Padmarao Nagar, near Swaraj Printing Press, Hyderabad, Telangana 500025",098484 13038,,"17.4279842,78.5035128"
Muscle Power Gym - Jubilee Hills - Hyderabad,Gym,Hyderabad,"Parimala Residency, Women's Welfare Housing Society, Above State Bank Of Mysore, Road No 2, Jubilee Hills, Hyderabad 500045, TS",+91-9848413038,,"17.4122354,78.3629004"
Muscle Maker Gym - Gachibowli - Hyderabad,Gym,Hyderabad,"Gachibowli, Rajiv gandhi Nagar, Gachibowli, Hyderabad, Telangana 500032",+91-8978873332,,"17.4391307,78.3609657"
Muscle Galaxy Gym - Uppal - Hyderabad,Gym,Hyderabad,"D. No.365, Sarada Nagar, Ramanthapur, Hyderabad, Telangana 500013",098491 10504,,"17.3943738,78.5343105"
Muscle And Fitness Gym - Miyapur - Hyderabad,Gym,Hyderabad,"1-8/B, Friends Colony, Indira Nagar Colony, Miyapur, Hyderabad, Telangana 500049",098858 88807,,"17.4978585,78.3538314"
Muscel & Fitness Gym - Ecil - Hyderabad,Gym,Hyderabad,"FGMQ+2V9, near Radhika multiplex, E.C.I.L, Shiva Nagar Colony, Madhura Nagar, A. S. Rao Nagar, Secunderabad, Telangana 500062",+91-40-64589955,,"17.4825428,78.5371568"
Multifit Jubilee Hills - Jubilee Hills - Hyderabad,Gym,Hyderabad,"3rd Floor, Axis Towers, Rd Number 36, above BDubs, CBI Colony, Jubilee Hills, Hyderabad, Telangana 500033",020 6747 3400,,"17.4334776,78.4025332"
Mubis Aerobics - Vanasthalipuram - Hyderabad,Gym,Hyderabad,"N.G.O, s Colony, Main Road, opp. Vivekananda Park, above Wonder Herbal, Sachivalaya Nagar, Hyderabad, Telangana 500070",088865 00344,,"17.3272514,78.5631865"
Mr World Mohtesham Fitness Club - Chanda Nagar - Hyderabad,Gym,Hyderabad,"Khali khabar, Bus Stop, 22-1-171/1, Chaderghat Rd, near Abid Ali Eye Hospital Back side MGBS, Kali Kaber, Fedak Inclave, Imlibun, Chaderghat, Hyderabad, Telangana 500024",078428 29313,",info@instituteofmaths.in,","17.3757499,78.482981"
Movez Fitness Studio - Kothapet - Hyderabad,Gym,Hyderabad,"Vasavi Bhavan Building, 14-91, beside, Hanuman Nagar Rd, Chaitanyapuri, Hyderabad, Telangana 500060",084998 50261,,"17.368161,78.5271109"
Moses Fitness Centre - Secunderabad - Hyderabad,Gym,Hyderabad,"3rd floor, 1, 8-50/G, Penderghast Street No 12, Krishna Nagar Colony, Ramgopalpet, Hyderabad, Telangana 500003",+91-9701117755,"mosesfitnesscentre7@gmail.com,,","17.4385631,78.4790935"
Morning Fitness Party - Banjara Hills - Hyderabad,Gym,Hyderabad,"Hyderabad Marriott Hotel & Convention Centre, Opposite Hussain Sagar Lake, Lower Tank Bund Road, Banjara Hills, Hyderabad 500080, TS",,",banjarahills.hyd@goldsgym.in,","17.4246359,78.4163566"
Morning Fitness Party - Jubilee Hills - Hyderabad,Gym,Hyderabad,"Hyderabad Marriot Hotel & Convention Centre, Opposite Hussain Sagar Lake, Lower Tank Bund Road, Jubilee Hills, Hyderabad 500080, TS",,",hello@cultfit.com,jhic1987@gmail.com,","17.4336985,78.3763182"
Mighty Fitness Centre - Vanasthalipuram - Hyderabad,Gym,Hyderabad,"25, NH 65, Hill Colony, Prashanth Nagar, Chintalkunta, Hyderabad, Telangana 500070",+91-40-60507779,"mightyfitnesshyd@gmail.com,,","17.3369472,78.5690028"
Michaels Fitness Centre - Sainikpuri - Hyderabad,Gym,Hyderabad,"FGQQ+XC9, Defence Colony, Sainikpuri, Secunderabad, Telangana 500056",040 2711 2258,,"17.4899194,78.5360253"
MGR Fitness Point - Kachiguda - Hyderabad,Gym,Hyderabad,"3-4-878, Opp City Diagnostic Center, Nallakunta Main Rd, Kachiguda, Hyderabad, Telangana 500027",098664 76883,,"17.3946046,78.49704"
Masters Fitness Gym - Champapet - Hyderabad,Gym,Hyderabad,"NVS Complex, 2nd Floor, Beside Sama Narsimha Reddy Gardens, RTC Officers Colony Arch, Champapet, Hyderabad 500079, TS",+91-9346663359,,"17.3456044,78.5194812"
Master and Health Gym - Shamshabad - Hyderabad,Gym,Hyderabad,"Madina Complex, Near, MRO Office Rd, Shamshabad, Hyderabad, Telangana 501218",099484 09091,",Hyd.dom@encalm.com,","17.2624734,78.3870437"
Mass Masters Gym - Lb Nagar - Hyderabad,Gym,Hyderabad,"Sk center building thard floor Besides Majid lane and rayan school, beside flyover, L. B. Nagar, Hyderabad, Telangana 500074",099120 05060,",mastersgym.lbnagar@gmail.com,","17.348318,78.54694"
Manjari And Anand Personal Fitness Trainers - Banjara Hills - Hyderabad,Gym,Hyderabad,"311/A, MLA Colony, Banjara Hills, Hyderabad, Telangana 500034",092472 85601,,"17.4111697,78.422808"
M S Fitness Gym Oly For Men - King Koti - Hyderabad,Gym,Hyderabad,"9FVM+7FJ, King Koti, Hyderguda, Hyderabad, Telangana 500001",+91-7013450735,",salman_u648@yahoo.com,","17.3932103,78.4810746"
Live Fit Gym - Kphb - Hyderabad,Gym,Hyderabad,"3rd & 4th Floor, Kolan Veera Reddy Complex, Auto Stand, near 9th Phase, K P H B Phase 9, Kukatpally, Hyderabad, Telangana 500085",+91-40-42224214,",hello@cultfit.com,","17.4877396,78.3802495"
Lion Guts Fitness - Balkampet - Hyderabad,Gym,Hyderabad,"7-2-49/A/24, DNM Colony, Tulasi Nagar, Balkampet, Hyderabad, Telangana 500018",+91-9290138734,"simlionfitnessuppal@gmail.com,,","17.4510821,78.447482"
LIon Fitness Pro - Shamshabad - Hyderabad,Gym,Hyderabad,"2nd floor, opp union Bank of India,sv complex, Rallaguda Rd, Shamshabad, Hyderabad, Telangana 501218",083175 07530,,"17.2629157,78.382397"
Life Track Gym - Chanda Nagar - Hyderabad,Gym,Hyderabad,"85, Gachibowli Rd, Anand Nagar, Gulmohar Park Colony, Serilingampalle (M), Telangana 500019",+91-9640668627,,"17.4776167,78.3177016"
Life Style Fitness - Kothapet - Hyderabad,Gym,Hyderabad,"3rd Floor, Kontham Ram Reddy Complex, opp. Fruit Market, Kothapet, Hyderabad, Telangana 500060",098859 26353,",lifestyle.abr@gmail.com,","17.368029,78.5324509"
Life Fitness Gym - Secunderabad - Hyderabad,Gym,Hyderabad,"55, 2nd Floor, Above Mediplus Medical Shop, Dammaiguda Cross Medchal Road, Secunderabad, Hyderabad 500083, TS",+91-9908188654,",consumerproducts@lifefitness.com,customersupport@lifefitness.com,","17.5312446,78.3288185"
Liana Fitness Centre - Mehdipatnam - Hyderabad,Gym,Hyderabad,"12-2-458/7/1, Near Foodworld & Ambatheatre, Hills Colony, Alapati Nagar Road, Murad Nagar, Mehdipatnam, Hyderabad 500028, TS",+91-40-49487572,,"17.3976433,78.4401332"
Levin Dance Studio - Mettuguda - Hyderabad,Gym,Hyderabad,"Plot No 1, Sunandha Residency, Opp. Pochamma Temple Mettikaniguda, Sriven Enclave Road, Beside Chittaramma Temple, Near, UMCC Road, Gajularamaram, Hyderabad, Telangana 500055",088970 78883,,"17.527324,78.4260681"
Leona's Fitness Studio - Kukatpally - Hyderabad,Gym,Hyderabad,"Plot No:77/8, Gate No :01, Besides Church, Usha Mullapudi Rd, Vivekananda Nagar, Kukatpally, Hyderabad, Telangana 500072",094417 81602,,"17.4957717,78.4031785"
Leads Functional Fitness - Kothapet - Hyderabad,Gym,Hyderabad,"Speed Badminton Academy, New Nagole Main Rd, beside Srinivasa Function Hall, polkampally, Dwarka Nagar, Kothapet, Hyderabad, Telangana 500060",090304 82260,",shashank.pallati86@gmail.com,","17.3601214,78.5422235"
Lanvigor Gym and Fitness Centre - Dilsukh Nagar - Hyderabad,Gym,Hyderabad,"Flat No 4 & 6, Lorven Complex, Sainagar Rd, Chaitanyapuri, Dilsukhnagar, Hyderabad, Telangana 500060",090006 76786,,"17.369082,78.5309141"
KVN Dance And Fitness Studio - Banjara Hills - Hyderabad,Gym,Hyderabad,"Mantris Building, 283/A, Jubilee Hills Check Post Rd, MLA Colony, Banjara Hills, Hyderabad, Telangana 500034",+91-40-40265199,,"17.4141364,78.4206737"
Kumar's Fitness Studio - Kukatpally - Hyderabad,Gym,Hyderabad,"HIG-H-36, KPHB 5th Phase, Kukatpally, Hyderabad, Telangana 500072",+91-9849098467,,"17.4817689,78.3901022"
Kshtr Health And Fitness For Women - Tarnaka - Hyderabad,Gym,Hyderabad,"12-13-89, Inner Ring Rd, Shri Mitra Ramana Classic Enclave, Krishna Giri Enclave, Tarnaka, Secunderabad, Telangana 500017",+91-40-27017222,,"17.4256531,78.5317124"
Krunch Gym - Saidabad - Hyderabad,Gym,Hyderabad,"Vinay Nagar, Saroor Nagar West, Saidabad, Hyderabad, Telangana 500253",072869 79797,",360degreefitness@gmail.com,","17.3548738,78.5087379"
Krishna Vikas Fitness Trainer - Karkhana - Hyderabad,Gym,Hyderabad,"36, Gate No 05, Opposite Lane To Axis Bank, P & T Colony, Manovikas Nagar, Vikrampuri, Karkhana, Hyderabad 500009, TS",+91-9160601040,"rkctrp07@yahoo.co.in,,csr@innbizment.com,","17.4168408,78.2876573"
Krishna Studio - Gachibowli - Hyderabad,Gym,Hyderabad,"13, Opposite Nexa Showroom, Anjanay Nagar, Gachibowli, Hyderabad 500032, TS",+91-9542646900,,"17.4780144,78.3139072"
Krish Fitness & Wellness Spa - Madhapur - Hyderabad,Gym,Hyderabad,"H # 1-90/2, Plot # 92/1, Charan Chambars, above Jockey showroom, Opp: nandini cafe, Vinayak Nagar, Hi-tech City, Srinagar Colony Main Rd, Madhapur, Telangana 500081",088859 07444,,"17.4432186,78.3847787"
Kris Gethin Gym - Banjara Hills - Hyderabad,Gym,Hyderabad,"4th Floor, Jyoti Majestic, Road number 2, Banjara hills, Hyderabad, Telangana 500034",+91-8121330777,",hyd@gethingyms.com,info@gethingyms.com,","17.4250897,78.4323025"
Kris Gethin Gym - Kothapet - Hyderabad,Gym,Hyderabad,"4th floor, Jaihind Plaza, above kritunga, Prabhat Nagar, SBI Colony, Kothapet, Hyderabad, Telangana 500035",081213 30555,"admission@gethingyms.com,,","17.3678538,78.5375564"
KK Gym - Secunderabad - Hyderabad,Gym,Hyderabad,"8-7, Ayappa Colony, Near Sri Sai Residency, Nagaram Road, Phase 2, Dammaiguda, Secunderabad, Hyderabad 500083, TS",+91-9550862993,",enrich.hyd@gmail.com,vikram@nrandassociates.in,","17.4700532,78.4592262"
King Gym - Kukatpally - Hyderabad,Gym,Hyderabad,"5-2-1, 2nd Floor, Near Ramalayam Arch, Sumitra Nagar Colony, Ramalayam Road, Vivek Nagar, Kukatpally, Hyderabad 500072, TS",+91-9160099848,",support@kingsunitedgym.in,","17.4936231,78.380367"
Kilaris Athlete Gym And Fitness Centre - Kukatpally - Hyderabad,Gym,Hyderabad,"G92V+9RH, Pragathi Nagar Rd, Addagutta, Western Hills, Jal Vayu Vihar, Kukatpally, Hyderabad, Telangana 500085",+91-9700243567,,"17.5009493,78.3920487"
Keep Fit Ladies Fitness Centre - Abids - Hyderabad,Gym,Hyderabad,"Near Sisu Montessori School, Chapel Road, Fateh Maidan, Abids, behind West-Side, Hyderabad, Telangana 500001",099492 15686,,"17.3974944,78.4701943"
Kaushik Dhwanee - Kondapur - Hyderabad,Gym,Hyderabad,"3rd floor, Harsha Pride Building, Plot 34a/35a, Botanical Garden Rd, above KS Bakers, Landmark:, Kondapur, Hyderabad, Telangana 500084",099892 68453,",kaushikdhwnee@gmail.com,","17.4601101,78.3524723"
Kanna Santosh Gym - Kachiguda - Hyderabad,Gym,Hyderabad,"3-4-267/4/1, Parvarish Bagh Colony, Lingampally, Kachiguda, Hyderabad, Telangana 500027",097055 73812,",kanna-santosh-gym-hyderabad-telangana-g25@1ktsx.html,","17.391024,78.4878844"
Kalpataa Fitness Studio - Begum Bazar - Hyderabad,Gym,Hyderabad,"Begum Bazar, Afzal Gunj, Hyderabad, Telangana 500012",+91-9731339827,,"17.3718699,78.4665857"
Kalpataa Fitness Studio - Attapur - Hyderabad,Gym,Hyderabad,"1st floor,house no .104,pillar no .119, Adjacent hanuman tample lane,opp. To m- cube mall,attapur, Hyderabad, Telangana 500048",097313 39827,,"17.371051,78.4217644"
Kalpataa Fitness Studio - Himayat Nagar - Hyderabad,Gym,Hyderabad,"101-102, 1st floor no 19, 3-6-108/1, Himayat Nagar Rd, AP State Housing Board, Himayatnagar, Hyderabad, Telangana 500029",097313 39827,,"17.4049803,78.4775733"
K - Fit Gym - Chanchalguda - Hyderabad,Gym,Hyderabad,"17-1-32, Near Kareem Kirana Store, Saidabad Main Road, Chanchalguda, Hyderabad 500024, TS",+91-7416057199,",info@solitairefitness.com,360degreefitness@gmail.com,","17.3856094,78.4356879"
JS Olympic Gym - Alwal - Hyderabad,Gym,Hyderabad,"4, 1st Floor, Opposite To Andhara Bank Lane, Golnaka Alwal Road, Alwal, Hyderabad 500010, TS",+91-9515274302,,"17.4971631,78.5075679"
Jos Fitness - Moosarambagh - Hyderabad,Gym,Hyderabad,"16-11-20, 4/28, Moosarambagh Rd, Sripuram Colony, Malakpet Extension, Old Malakpet, Hyderabad, Telangana 500036",+91-7075570775,,"17.376179,78.5118282"
JN Fitness Center - Madhapur - Hyderabad,Gym,Hyderabad,"Metro Pillar No 1723 H. No: 2-56/33/6, flot no:28, above Canara Bank, Madhapur, Hyderabad, Telangana 500081",+91-9700039998,",hello@cultfit.com,madhapur.hyderabad@goldsgym.in,","17.4407963,78.3910398"
Jaguar Gym - Kukatpally - Hyderabad,Gym,Hyderabad,"5-3-309/142, Near Narayana Junior College, Venkat Rao Nagar Colony, Ramalayam Road, Shanthi Nagar, Kukatpally, Hyderabad 500072, TS",+91-9849729545,",jagurgym@gmail.com,gaguargym@gmail.com,jaguargym@gmail.com,","17.4948406,78.3804974"
Jaguar Gym - Kukatpally - Hyderabad,Gym,Hyderabad,"5-3-309/142, Near Narayana Junior College, Venkat Rao Nagar Colony, Ramalayam Road, Shanthi Nagar, Kukatpally, Hyderabad 500072, TS",+91-9849729545,",jagurgym@gmail.com,gaguargym@gmail.com,jaguargym@gmail.com,","17.4948406,78.3804974"
Jackson Den - East Marredpally - Hyderabad,Gym,Hyderabad,"10-4-B/21, Above Naveen Super Market, Adddagutta Road, East Marredpally, Hyderabad 500026, TS",+91-7842180676,",dcp-trf1-hyd@tspolice.gov.in,acp-trf1-hyd@tspolice.gov.in,","17.448538,78.5076346"
Inner Strength - Tarnaka - Hyderabad,Gym,Hyderabad,"2rd, Amity Ville, beside spencers, Krishna Giri Enclave, Tarnaka, Hyderabad, Secunderabad, Telangana 500017",099669 27316,",INNERSTRENGTH002@gmail.com,","17.4285934,78.5313851"
Inner Strength - Malkajgiri - Hyderabad,Gym,Hyderabad,"5-39/1, 2nd Floor, Opposite To Gandhi Park Cross Roads, Main Road, Malkajgiri, Hyderabad 500047, TS",+91-40-65969596,,"17.4435661,78.5250378"
Infiniti Fitness - Mehdipatnam - Hyderabad,Gym,Hyderabad,"Pillar Number 53, 12-2-717/A/15, Sapthagiri Colony, Rethibowli, Hyderabad, Telangana 500028",097035 73111,,"17.3922424,78.4280984"
Infiniti Fitness - Gachibowli - Hyderabad,Gym,Hyderabad,"City Pearl, Gachibowli Rd, opp. Kindle Clinics, Vinayak Nagar, Indira Nagar, Gachibowli, Hyderabad, Telangana 500032",097035 73111,,"17.4415426,78.3555156"
Indianpro Fitness Zone - Ashok Nagar - Hyderabad,Gym,Hyderabad,"1-1-18/60, Beside Sudershan Theatre, RTC Cross Roads, Ashok Nagar, Hyderabad 500020, TS",+91-9866666435,,"17.9257687,73.5158138"
I-Fit Gym And Fitness Centre - Khairatabad - Hyderabad,Gym,Hyderabad,"Diamond Towers, 4th Floor, Beside Shadan College, Khairatabad, Hyderabad 500004, TS",+91-40-49533775,,"17.4632668,78.4165659"
I Fitness Zone - Manikonda - Hyderabad,Gym,Hyderabad,"263, A Square Building, Near Tuljaram Temple, Road No 23, Neknampur, Manikonda, Hyderabad 500089, TS",+91-8499899991,,"17.3954278,78.3643432"
HY Dance Studios - Madhapur - Hyderabad,Gym,Hyderabad,"202, 2nd Floor, SBR CV Towers, Above Karachi Bakery, Madhapur, Hitech City Rd, HITEC City, Hyderabad, Telangana 500081",099855 70615,"contact@hydance.in,,","17.4450471,78.3830148"
House of Pain Gym - Bowenpally - Hyderabad,Gym,Hyderabad,"Near Gulf Bakery, AL- Hai Mansion, Noble Pharmacy, 3rd Floor, New Bowenpally, Secunderabad, 500011",+91-7981720638,",hello@cultfit.com,lakhanguts@gmail.com,","17.4632736,78.4712444"
House Of Champions - Banjara Hills - Hyderabad,Gym,Hyderabad,"Plot no.253/A, #8-2-293/82/L, Ground and First floor, Lane No. 12, Venkateswara Colony, Banjara Hills, Hyderabad, Telangana 500034",099496 96946,,"17.4133511,78.4206461"
High Gear Fitness Studio - Bowenpally - Hyderabad,Gym,Hyderabad,"Ghanshyam super market building,3rd floor, Center Point, Old Bowenpally, Secunderabad, Telangana 500011",085200 44780,",info@kfsfitness.com,","17.461472,78.4766043"
Hi-Fi Muscle Line Gym - Himayat Nagar - Hyderabad,Gym,Hyderabad,"3-6-151/153, Himayat Nagar Rd, AP State Housing Board, Himayatnagar, Hyderabad, Telangana 500029",098857 79691,",musclelinegym@gmail.com,","17.401718,78.4815963"
Hi-Fi Muscle Line Gym - Tolichowki - Hyderabad,Gym,Hyderabad,"9-4-84/7, Near Nanal Nagar Chowrastha, Nanal Nagar Main Road, Kakatiya Nagar, Tolichowki, Hyderabad 500008, TS",+91-9885779691,,"17.3980737,78.4091939"
Heavenly Muscle Gym - Amberpet - Hyderabad,Gym,Hyderabad,"2-2-1075/25/C, 2nd Floor Tilak Nagar X Road, Amberpet, Hyderabad, Telangana 500013",090008 84142,,"17.3940021,78.5084265"
Healthy Nutz Gym - Kapra - Hyderabad,Gym,Hyderabad,"14-15, Surya PPR Towers, Opposite To Towers, Saket, Kapra, Hyderabad 500062, TS",+91-9381002338,,"17.4869078,78.5642589"
Health Zone Fitness Studio - Kukatpally - Hyderabad,Gym,Hyderabad,"15-21, 32/31, Post Office Road, Balaji Nagar, Kukatpally, Hyderabad 500072, TS",+91-9703730700,,"17.4957352,78.3926565"
Health Quest Fitness Centre - Amberpet - Hyderabad,Gym,Hyderabad,"Durgabai Deshmuk Colony, Aziz Bagh, Amberpet, Hyderabad, Telangana 500013",083741 82589,,"17.4010861,78.5157007"
Health Avenue Gym - Kondapur - Hyderabad,Gym,Hyderabad,"Shop No 1, Masjid Banda, NCB Enclave, Gachibowli, Kondapur, Hyderabad, Telangana 500084",090003 69333,",360degreefitness@gmail.com,","17.4655623,78.339081"
Health Avenue Gym - Secunderabad - Hyderabad,Gym,Hyderabad,"Diamond Towers, 210 & 11, SD Road, Krishna Complex, Kalasiguda, Secunderabad, Telangana 500003",040 6631 7675,,"17.4418259,78.490953"
Hayath Fitness - Jeedimetla - Hyderabad,Gym,Hyderabad,"Hayath Fitness, 2nd Floor, Beside IBP Petrol Pump, Qutubullapur Main Road, Jeedimetla, Hyderabad 500054, TS",+91-8096521203,,"17.5869703,78.373044"
Hayath Fitness - Bowenpally - Hyderabad,Gym,Hyderabad,"157/01/401, Beside Vegetable Market, Bapuji Nagar, Bowenpally, Hyderabad 500011, TS",+91-9391036116,,"17.4607206,78.4686845"
Hayath Fitness - Bowenpally - Hyderabad,Gym,Hyderabad,"157/01/401, Beside Vegetable Market, Bapuji Nagar, Bowenpally, Hyderabad 500011, TS",+91-9391036116,,"17.4607206,78.4686845"
Hayath Fitness - Bowenpally - Hyderabad,Gym,Hyderabad,"157/01/401, Beside Vegetable Market, Bapuji Nagar, Bowenpally, Hyderabad 500011, TS",+91-9391036116,,"17.4607206,78.4686845"
Hayath Fitness - Moti Nagar - Hyderabad,Gym,Hyderabad,"53, Rajeev Nagar Rd Number 4, Rajeev Nagar, Hyderabad, Telangana 500045",098859 03821,,"17.4502877,78.4220448"
Hayath Fitness - Ameerpet - Hyderabad,Gym,Hyderabad,"Shop No. 173/A, Ground Floor, Aditya Trade Center, Ameerpet, Hyderabad, Telangana 500016",097004 47766,",samad@hayathfitness.com,","17.4369349,78.4440418"
Hard Rock Gym - Begumpet - Hyderabad,Gym,Hyderabad,"1-8-515/1 & 2-A, Laxmi Residency, Near ICICI ATM, Prakash Nagar Road, Prakash Nagar, Begumpet, Hyderabad 500016, TS",+91-8886713113,",rockfitnessstudio999@gmail.com,","17.4388422,78.4536448"
Hamsa Yoga Kendra - Amberpet - Hyderabad,Gym,Hyderabad,"2-2-18/18/3/14, DD colony, K-9, Bagh Amberpet, Amberpet, Hyderabad, Telangana 500013",099492 37732,,"17.4011527,78.5195275"
Gym Health Club Body Art - Dilsukh Nagar - Hyderabad,Gym,Hyderabad,"9G99+R78, Dilsukh Nagar Main Rd, beside Axis Bank Branch, Indira Nagar, Dilsukhnagar, Hyderabad, Telangana 500060",040 2404 9988,",shravani.bodithala@gmail.com,","17.369537,78.5156392"
Gws Yoga - Manikonda - Hyderabad,Gym,Hyderabad,"83, KB Regency, Near Dream Vally, Tanisha Nagar, Manikonda, Hyderabad 500089, TS",+91-9000887019,",hello@cultfit.com,jatinsriraj@yahoo.co.in,","17.4371751,78.3569671"
Guts Gym - Sanath Nagar - Hyderabad,Gym,Hyderabad,"Sat Sanathnagar opp to tata showroom, Telangana 500018",099590 22509,,"17.4555883,78.4446877"
Guts Gym - Yousufguda - Hyderabad,Gym,Hyderabad,"A-29, Opposite Savera Bar, Sri Nagar Colony, Krishna Nagar Main Road, Krishna Nagar, Yousufguda, Hyderabad 500045, TS",+91-9885229950,",gutsgym@outlook.com,","17.4370259,78.4184177"
Grace Fitness Studio - Kukatpally - Hyderabad,Gym,Hyderabad,"Surya Plaza, Pragathi Nagar Rd, Pragathi Nagar, Hyderabad, Telangana 500090",078422 41558,",grace-fitness-studio-hyderabad-telangana-hpk@bkd6s.html,","17.5188369,78.3935485"
Gold's Gym - Himayat Nagar - Hyderabad,Gym,Hyderabad,"Plot No.3-6-289, 3rd Floor, Hyderguda Main Rd, Himayatnagar, Hyderabad, Telangana 500029",090000 26767,",WeCare@GoldsGym.in,banjarahills.hyd@goldsgym.in,himayatnagar.hyderabad@goldsgym.in,himayatnagar.hyderabad@goldsgymindia.com,","17.3989292,78.4788612"
Gold's Gym - Madhapur - Hyderabad,Gym,Hyderabad,"Plot number 8, CSR Estate, 2nd Floor, Madhapur Rd, Sector 1, HUDA Techno Enclave, HITEC City, Hyderabad, Telangana 500081",088821 19900,"WeCare@GoldsGym.in,,banjarahills.hyd@goldsgym.in,","17.4454324,78.382581"
Gold's Gym - Banjara Hills - Hyderabad,Gym,Hyderabad,"8-2 701/2, Road No. 12, Amudi Nagar, Bhola Nagar, Banjara Hills, Hyderabad, Telangana 500034",095504 10111,"WeCare@GoldsGym.in,goldsgymbanjarahills@gmail.com,goldsgymbanjarahills12@gmail.com,,","17.4073703,78.4414722"
Golden Gym - Sr Nagar - Hyderabad,Gym,Hyderabad,"153/2, Flat No 402, SR Nagar Main Road, Ameerpet, SR Nagar, Hyderabad 500873, TS",+91-8885458581,"himayatnagar.hyderabad@goldsgym.in,,WeCare@GoldsGym.in,","17.4475503,78.4346253"
Gods Power Gym - Attapur - Hyderabad,Gym,Hyderabad,"18, 1, Nehru Outer Ring Rd, Praneeth Natures Bounty, Attapur, Hyderabad, Telangana 500048",+91-9505687873,",banjarahills.hyd@goldsgym.in,","17.5661366,78.3613727"
Go Fitness Club - Miyapur - Hyderabad,Gym,Hyderabad,"8-9-14-15, 3rd Floor, Opposite Globe Furnitures, Miyapur Main Road, Ambedkar Nagar, Miyapur, Hyderabad 500049, TS",+91-9573201570,,"17.5048898,78.3077405"
GMR's Fitzone - Nizampet - Hyderabad,Gym,Hyderabad,"2-1, Panchayati Road, Bandari Layout, Enterance, Nizampet, Hyderabad, Telangana 500090",099855 32732,,"17.519178,78.3807254"
GMR's Fitzone - Nizampet - Hyderabad,Gym,Hyderabad,"2-1, Panchayati Road, Bandari Layout, Enterance, Nizampet, Hyderabad, Telangana 500090",099855 32732,,"17.519178,78.3807254"
Gladiator Fitness Studio - Borabanda - Hyderabad,Gym,Hyderabad,"Prince Complex, Hitech City, Main Rd, opp. Leaf Hospital, Sri Vivekananda Nagar, Borabanda, Hyderabad, Telangana 500018",099483 13442,"me@nehaagarwal.in,,","17.4595952,78.3981193"
Getfit Fitness Centre - Champapet - Hyderabad,Gym,Hyderabad,"Champapet Rd, Government Press Colony, BN Reddy Nagar, Saroor Nagar East, Saroornagar, Hyderabad, Telangana 500079",070368 68787,",jatinsriraj@yahoo.co.in,","17.3454847,78.5201387"
Get Fit Aerobics - Ashok Nagar - Hyderabad,Gym,Hyderabad,"Rajamani Chambers, Near Andhra Bank, Street No 8, Ashok Nagar, Hyderabad 500020, TS",+91-9700666652,,"17.3561304,78.442948"
Gen X Fitness Studio - Banjara Hills - Hyderabad,Gym,Hyderabad,"10-5-2, 7/2, Rd Number 1, Bhagath Singh Nagar, Ambedkar Nagar, Chintal, Hyderabad, Telangana 500004",099599 89866,,"17.4064445,78.4491051"
Gavinz Gym - Yapral - Hyderabad,Gym,Hyderabad,"Generals Rd, Sai Krupa Colony, Yapral, Secunderabad, Telangana 500087",092465 32078,,"17.5020863,78.5364797"
Gain Fitness Studio - Secunderabad - Hyderabad,Gym,Hyderabad,"CGJ3+6VM, Railway Officer Colony, Botiguda, Bhoiguda, Hyderabad, Secunderabad, Telangana 500025",094934 99595,,"17.4305978,78.5021046"
Fusion And Fitness - Mehdipatnam - Hyderabad,Gym,Hyderabad,"Flat no302 Aries plaza Pillar no19 pv expressway, road, above ratnadeep St Anne's college, Mehdipatnam, Hyderabad, Telangana 500028",091007 99880,"himayatnagar.hyderabad@goldsgym.in,,","17.3942786,78.4353188"
Fun Plus Fit - Madhapur - Hyderabad,Gym,Hyderabad,"Plot No. 20, Door No. 1-90/2/9/1, Arunodaya Colony, Madhapur, near Image Hospital, Hyderabad, Telangana 500081",099898 80557,,"17.444415,78.3838791"
FS Fitness Gym - Malakpet - Hyderabad,Gym,Hyderabad,"16-10-108, Century Square, 3rd Floor, Opposite Classic Ice Cream Parlour, Jamal Colony, Malakpet, Hyderabad 500036, TS",+91-7416228830,",fsfitness.himayatnagar@gmail.com,","17.3755985,78.4808136"
Free To Fly Dance Academy - Secunderabad - Hyderabad,Gym,Hyderabad,"1-4-38-A, Opposite IRIS Play School, Sheshachala Colony, Marredpally Road, Secunderabad, Hyderabad 500026, TS",+91-8328608014,,"17.4496647,78.5057869"
Fitplus Health Club - Chanda Nagar - Hyderabad,Gym,Hyderabad,"SBI Bank, APARNA SAROVAR GRANDE, Nallagandla Rd Fourth Floor, Nallagandla, Telangana 500019",096402 44355,,"17.4622692,78.3060802"
FitnessXSport - Lb Nagar - Hyderabad,Gym,Hyderabad,"Vinayakanagar Colony, Mansoorabad, Hyderabad, Telangana 500068",083412 10212,",memberexperience@anytimefitness.in,hello@cultfit.com,himayatnagar.hyderabad@goldsgym.in,f1fitnessone@gmail.com,","17.3515142,78.5598362"
Fitness9 Studio - Secunderabad - Hyderabad,Gym,Hyderabad,"Plot No. 7&8, Gunrock Enclave Karkhana Behind Narne Estate Building, Old Bowenpally Cross Rd, Mudfort, Secunderabad, Telangana 500009",081795 95959,,"17.4577952,78.4934913"
Fitness Zone - Secunderabad - Hyderabad,Gym,Hyderabad,"1-8-32/60-A, Meher Manzil, 2nd Floor, Opposite VLCC Slimming Centre, PG Road, Sindhi Colony, Secunderabad, Hyderabad 500003, TS",+91-9951988632,",pulse8gym@gmail.com,","17.4583966,78.4695493"
Fitness World - Dilsukh Nagar - Hyderabad,Gym,Hyderabad,"2nd Floor, Above Raghavendra Hotel, Red Cross Road, Dilsukh Nagar, Hyderabad 500060, TS",,"manish.singh@fitness-world.in,,","17.3667687,78.4707691"
Fitness Trust Multi Gym And Yoga - Gachibowli - Hyderabad,Gym,Hyderabad,"Hi-Fi Hotel H.No 2-64/13/1, beside Zara, P Janardhan Reddy Nagar, Gachibowli, Telangana 500032",+91-7799440903,,"17.4397058,78.3611717"
Fitness Time - Begumpet - Hyderabad,Gym,Hyderabad,"31/2/2-RT, Beside Line Of Prakashnagar Water Tank, Street No 5, Prakash Nagar, Begumpet, Hyderabad 500016, TS",+91-9000009393,,"17.4402962,78.4549246"
Fitness Stroke - Sainikpuri - Hyderabad,Gym,Hyderabad,"Fitness Stroke, plot No. 135 B, 2nd and 3rd Floor, Hi-Tension Rd, Eshwaripuri Colony, Sainikpuri, Secunderabad, Telangana 500094",099891 79847,,"17.4891416,78.5485634"
Fitness Solutions - Banjara Hills - Hyderabad,Gym,Hyderabad,"8-2-466, Road No.4, 2nd Floor, Opposite GVK One, Banjara Hills, Hyderabad, Telangana 500034",040 4020 8830,",support@4fitz.com,fitnessolutionsbanjara@gmail.com,","17.4203783,78.4436039"
Fitness Reloaded - Manikonda - Hyderabad,Gym,Hyderabad,"Plot no 81, Hanuman Nagar to LH Road Beside Sampoorna Super Market, OU Colony, Manikonda Jagir, Telangana 500089",070931 38920,",fitnessreloaded@gmail.com,fitnesreloaded@gmail.com,","17.4075467,78.3795038"
Fitness Pro Gym - Nacharam - Hyderabad,Gym,Hyderabad,"10-451/1, Near Shiva Hotel, Lane No 4, Raghavendra Nagar, Nacharam, Hyderabad 500076, TS",+91-8143219450,",hello@cultfit.com,","17.4245541,78.5452548"
Fitness Plus Gym - Kukatpally - Hyderabad,Gym,Hyderabad,"Plot No.199/A, Addagutta Society - HMT Hills Rd, opposite ICICI BANK ATM, Western Hills, Kukatpally, Hyderabad, Telangana 500072",099084 38866,",hello@cultfit.com,","17.5005645,78.3926076"
Fitness Planet - Attapur - Hyderabad,Gym,Hyderabad,"13-6-431/D/77, Hyder Shah Kote, Near Kali Mandir, Kali Mandir Road, Attapur, Hyderabad 500008, TS",+91-9177917798,",sajidbinbilal@gmail.com,","17.3696981,78.3542155"
Fitness Mania - Mehdipatnam - Hyderabad,Gym,Hyderabad,"2-800/216, Sapthagiri Nagar Colony, Brindawan Colony, Rethibowli, Mehdipatnam, Hyderabad, Telangana 500008",+91-9152175861,,"17.3915604,78.4263311"
Fitness Lounge - Lb Nagar - Hyderabad,Gym,Hyderabad,"9, Janapriya Homes, 4th Floor, Beside Surabhi Restaurant, LB Nagar, Hyderabad 500068, TS",+91-9618388988,"himayatnagar.hyderabad@goldsgym.in,smfitnesslounge@gmail.com,f1fitnessone@gmail.com,,","17.3350987,78.5138812"
Fitness Hub - Gachibowli - Hyderabad,Gym,Hyderabad,"Near Subham Fast Food Centre, Nallagandla, Gopanapalli Post Office, Gachibowli, Hyderabad 500019, TS",+91-9491744417,",memberexperience@anytimefitness.in,","17.5013894,78.2959919"
Fitness Hub - Chanda Nagar - Hyderabad,Gym,Hyderabad,"F8PC+M2J, Lingampalli Sta Rd, Lingampally, Chanda Nagar, Hyderabad, Telangana 500019",099122 31212,"himayatnagar.hyderabad@goldsgym.in,,","17.4867214,78.3174271"
Fitness Freak - Balapur - Hyderabad,Gym,Hyderabad,"Door No. 9, 9-10-3/33/1, 10-3/33/1, RCI Rd, Subhodaya Nagar, Hyderabad, Telangana 500069",098663 30213,",info@khelomore.com,fitnessfreaksgym4all@gmail.com,","17.3135407,78.5068317"
Fitness First Gym - Yousufguda - Hyderabad,Gym,Hyderabad,"8-3-676/3, 1st Floor, Beside RBI Quarters, Yousufguda Basthi Road, Engineers Colony, Yousufguda, Hyderabad 500073, TS",+91-9346673507,,"17.4398048,78.4163395"
Fitness First Gym - Dilsukh Nagar - Hyderabad,Gym,Hyderabad,"1-8-13 & 14, Appaji Arcade, Moosa Ram Bagh, Opposite Dilsukhnagar Community Hall, Dilsukh Nagar, Hyderabad 500060, TS",+91-9133290700,"ramuyadavgym@gmail.com,,x3emembership.services@fitnessfirst.co.uk,membership.services@fitnessfirst.co.uk,hello@cultfit.com,","17.3762295,78.5074927"
Fitness First Gym - Kondapur - Hyderabad,Gym,Hyderabad,"1-112/85, 1st Floor, Block B, Near Chirac Public School, Sri Ram Nagar Colony, Botanical Garden Road, Kondapur, Hyderabad 500084, TS",,",goldsgymkondapur@gmail.com,hello@cultfit.com,","17.4630442,78.3345217"
Fitness Fast - Jubilee Hills - Hyderabad,Gym,Hyderabad,"Jubilee Hills Check Post Rd, Film Nagar, Hyderabad, Telangana 500096",090323 26253,",info@fitnessfast.in,","17.4149507,78.4062217"
Fitness Factory - Madhapur - Hyderabad,Gym,Hyderabad,"Plot No, 68, Rd No. 19, near CGR International School, Ayyappa Society, Chanda Naik Nagar, Madhapur, Hyderabad, Telangana 500081",099512 29595,"conceptstores_inc001@hotmail.com,support@gymcompany.co.za,,","17.446775,78.3892105"
Fitness Edge Gym - Abids - Hyderabad,Gym,Hyderabad,"4-3-539/40, Sk Sana Square Complex, 1st Floor, Next To Bank Of India ATM, Hanuman Tekdi Road, Abids, Hyderabad 500001, TS",+91-9985295243,",fitnessedgee@gmail.com,","17.3881858,78.4768475"
Fitness Den - Secunderabad - Hyderabad,Gym,Hyderabad,"15-21, Bansilalpet Rd, Old Ghasmandi, Bhoiguda, Secunderabad, Telangana 500003",096666 69999,,"17.4285539,78.490318"
Fitness Court Gym - Ameerpet - Hyderabad,Gym,Hyderabad,"8-944/10, 3rd Floor Mahboob Commercial Complex Opp Pillar Number AMEPUN 12, Ameerpet, Hyderabad, Telangana 500073",099085 74037,",living.fitness09@gmail.com,","17.4322232,78.4444216"
Fitness Club KPHB - Kphb - Hyderabad,Gym,Hyderabad,"HIG-208, Above Green Trends Saloon, Dharma Reddy Colony, Phase 1, Road No 5, KPHB, Hyderabad 500085, TS",+91-9346611179,",support@4fitz.com,","17.4894971,78.3720218"
Fitness Club And Gym - Uppal - Hyderabad,Gym,Hyderabad,"4, NR Arcade, BSNL Colony, Ferozguda Road, Uppal, Hyderabad 500039, TS",+91-9849262536,",support@gymcompany.co.za,","17.4096047,78.5378378"
Fitness At Home - Begumpet - Hyderabad,Gym,Hyderabad,"6-3-795, Telangana IAS Office, Green Lands, Opposite Grand Kakatiya Hotel, Begumpet, Hyderabad 500082, TS",+91-9346573832,",hello@cultfit.com,","17.4377584,78.4444932"
Fitness Academy - Attapur - Hyderabad,Gym,Hyderabad,"BSR Complex, Pillar No 137, Above West Face, Attapur, Hyderabad 500048, TS",+91-40-24012402,",fitnessacademy.attapur@gmail.com,","17.3664608,78.4185772"
Fitness 9 Secunderabad - Secunderabad - Hyderabad,Gym,Hyderabad,"Plot No. 7&8, Gunrock Enclave Karkhana Behind Narne Estate Building, Old Bowenpally Cross Rd, Mudfort, Secunderabad, Telangana 500009",081795 95959,",info@fitness9gym.com,","17.4577952,78.4934913"
Fitness 9 Gym - Barkatpura - Hyderabad,Gym,Hyderabad,"2nd & 5th Floor, Legend Commercial Complex, Barkatpura, Kachiguda, Hyderabad, Telangana 500027",089785 95959,"ramfitness9gym@gmail.com,,","17.391351,78.4938738"
Fitness 9 Gym - Dilsukh Nagar - Hyderabad,Gym,Hyderabad,"9-75, 2nd Floor, Sai Baba Temple Lane, Beside G Pulla Reddy Memorial School Premises, Dilsukh Nagar, Hyderabad 500035, TS",+91-9346670540,",hello@cultfit.com,","17.3641029,78.5242044"
Fitness 7 - Moti Nagar - Hyderabad,Gym,Hyderabad,"Plot No. 28 Moti Nagar X Road, opposite More Supermarket - New Motinagar, Rama Rao Nagar, Hyderabad, Telangana 500018",083093 06989,,"17.4550232,78.419756"
Fitness 10 - Banjara Hills - Hyderabad,Gym,Hyderabad,"8-2-602/29/3, 1st Floor, Above Cartech Wheels, Road No 10, Zahara Nagar, Banjara Hills, Hyderabad 500034, TS",+91-9866022021,",banjarahills.hyd@goldsgym.in,myo2gym@gmail.com,","17.4115133,78.431954"
Fitgirl Fitness Only For Women - Himayat Nagar - Hyderabad,Gym,Hyderabad,"305, Sai Datta Arcade, Street No 6, Behind Mithra Agency, Himayat Nagar, Hyderabad 500029, TS",+91-9505509528,"himayatnagar.hyderabad@goldsgym.in,,","17.4002349,78.4636565"
Fitbuzz Gymnasiums - Somajiguda - Hyderabad,Gym,Hyderabad,"Munawar Chambers, Opposite Villa Mary Busstop, Raj Bhavan Road, Somajiguda, Hyderabad 500082, TS",+91-8008236611,",fitbuzz@celebrityhospitality.com,","17.4334084,78.4531702"
Fitbuzz Gymnasiums - Malakpet - Hyderabad,Gym,Hyderabad,"9GF4+28M, Dayanand Nagar, Malakpet, Hyderabad, Telangana 500036",+91-40-66285566,,"17.3725847,78.5032354"
Fit Republic - Madhapur - Hyderabad,Gym,Hyderabad,"402, Ivy Terrace, Police Station, Kavuri Hills Rd, next to PBEL Office, opposite Madhapur, CBI Colony, Madhapur, Hyderabad, Telangana 500033",096186 83806,,"17.4366572,78.3931482"
Fit Plus Connect - Gachibowli - Hyderabad,Gym,Hyderabad,"4, Beside Aparna Towers, Nallagandla, Gopanapalli, Hyderabad 500019, TS",+91-9100906311,",hello@cultfit.com,","17.4416218,78.2809671"
Fit Max Gym - Vivekananda Nagar - Kukatpally - Hyderabad,Gym,Hyderabad,"Road No. 2, Vivekananda Nagar, Kukatpally, Hyderabad, Telangana 500072",+91-40-23169192,,"17.4949916,78.4086877"
Fit Max Gym - Kukatpally - Hyderabad,Gym,Hyderabad,"Road No. 2, Vivekananda Nagar, Kukatpally, Hyderabad, Telangana 500072",+91-40-40209192,",sivafitmax@gmail.com,","17.4949916,78.4086877"
Fit Lounge - Nizampet - Hyderabad,Gym,Hyderabad,"1285, Pragathi Nagar Rd, Pragathi Nagar, Hyderabad, Telangana 500072",040 4017 2857,,"17.5199668,78.393562"
Fit Lifez - Secunderabad - Hyderabad,Gym,Hyderabad,"11, National Highway 9, Near Cake Town, Bowenpally, Secunderabad, Hyderabad 500011, TS",,",shivt690@gmail.com,","17.4708509,78.4870323"
Fit Lifez - Secunderabad - Hyderabad,Gym,Hyderabad,"11, National Highway 9, Near Cake Town, Bowenpally, Secunderabad, Hyderabad 500011, TS",,",shivt690@gmail.com,","17.4708509,78.4870323"
Fit For Life - Bowenpally - Hyderabad,Gym,Hyderabad,"1st Floor, Sri Sai Nilayam, Above ICICI ATM, Opposite Muthoot Finace, X Roads, Bowenpally, Hyderabad 500011, TS",+91-7842483464,"fit4lifeindia@gmail.Com,,","17.4742088,78.4774003"
Fit Dock: Fit Your Strength - Saroor Nagar - Hyderabad,Gym,Hyderabad,"8-10-16, Plot No. 28 & 29, 1st Floor, Naredla Sudhakar Reddy Complex Near Venkateshwara Swamy Temple, Meerpet Road, Jillelaguda, Saroornagar, Telangana 500097",096403 33386,,"17.3333707,78.5235133"
Fit Dock: Fit Your Strength - Ramanthapur - Hyderabad,Gym,Hyderabad,"Pragathi Nagar Main Road, opposite D Mart, Sai Chitra Nagar, Ramanthapur, Hyderabad, Telangana 500013",097015 75454,,"17.3999671,78.5359017"
Fit Dock: Fit Your Strength - Madhapur - Hyderabad,Gym,Hyderabad,"3rd Floor, Sun Towers, Plot No.22 Sector-1, HUDA Techno Enclave, HITEC City, Hyderabad, Telangana 500081",088860 12289,",hello@cultfit.com,","17.4464743,78.3816834"
Fit and Win Gym - Secunderabad - Hyderabad,Gym,Hyderabad,"Near Sudha Hospital, Dattatreya Colony, Nagaram, Aravind Nagar, Cherlapalli, Secunderabad, Hyderabad 500083, TS",+91-8978679252,,"17.4829101,78.5356021"
Fit And Fit Fitness Studio - Yousufguda - Hyderabad,Gym,Hyderabad,"Plat no F2 ,Esha enclave,2nd floor Beside Ratnadeep supermarket, Madhura nagar, Yousufguda, Hyderabad, Telangana 500045",099851 29298,"himayatnagar.hyderabad@goldsgym.in,,","17.4367623,78.4309429"
Fit And Fit Fitness Studio - Kphb - Hyderabad,Gym,Hyderabad,"Plot No : 20/6, 4th Floor,, Opp : Sujana Forum Mall, 6th Phase, KPHB Colony,, Kumar pally, Kukatpally Housing Board Colony, Kukatpally, Hyderabad, Telangana 500082",099664 57329,",hello@cultfit.com,","17.4851481,78.3864145"
FB 12 Fitness Studio - Hitech City - Hyderabad,Gym,Hyderabad,"Flat no.302, 3rd floor, SBR towers, near, Image Hospital Rd, above Karachi Bakery, HUDA Techno Enclave, Madhapur, Hyderabad, Telangana 500050",+91-9502799777,",hello@cultfit.com,","17.4449179,78.3832483"
Fast Fit Gym - Indira Nagar - Hyderabad,Gym,Hyderabad,"69/70, Satya Sai Enclave, 2nd Floor, Above Bank Of Baroda, Military Dairy Farm Road, Indira Nagar, Hyderabad 500007, TS",+91-40-65890188,,"17.4203757,78.4820335"
Fab Fit N Fun - Malkajgiri - Hyderabad,Gym,Hyderabad,"26-75/1, 1st Floor, Chanakyapuri Colony, Safilguda, Malkajgiri, near Vijaya Diagnostic Centre, Hyderabad, Telangana 500056",081210 11473,,"17.4607891,78.5318502"
F60 Fitness Training - Sainagar - Hyderabad,Gym,Hyderabad,"Plot no 231, Above to Doner bro, First Floor Reliance petrol bunk lane, Road No. 3, Rock Town Residents Colony, L. B. Nagar, Hyderabad, Telangana 500074",099496 92451,"himayatnagar.hyderabad@goldsgym.in,,","17.36005,78.5571609"
F5 Gym And Fitness - Trimulgherry - Hyderabad,Gym,Hyderabad,"Military Dairy Farm Road, Sai Nagar, Indira Nagar, Bowenpally, Secunderabad, Telangana 500015",099080 90879,"simlionfitnessuppal@gmail.com,,","17.4856317,78.4888317"
F45 Training - Secunderabad - Hyderabad,Gym,Hyderabad,"1-144, Saroja Enclave, 3rd Floor, Above Ratnadeep Super Market, PG Road, Sindhi Colony, Begumpet, Secunderabad, Hyderabad 500003, TS",+91-9849667778,",basheerbagh@f45training.in,kukatpally@f45training.in,","17.4402739,78.2306097"
F45 Training - Madhapur - Hyderabad,Gym,Hyderabad,"2nd floor, Xenospace Building, opposite Karachi Bakery, Madhapur, main road, adjacent to Pizza Hut, HITEC City, Hyderabad, Telangana 500081",091605 40545,",pradeep@f45training.com,","17.4454969,78.3837021"
F45 Training - Kukatpally - Hyderabad,Gym,Hyderabad,"Level 1, Manjeera Trinity Corporate, eSeva Ln, Kukatpally Housing Board Colony, Kukatpally, Hyderabad, Telangana 500072",088868 74545,",kukatpally@f45training.in,","17.4892289,78.3899265"
F45 Training - Jubilee Hills - Hyderabad,Gym,Hyderabad,"Level 2, Starbucks Coffee Building, Jubilee Hills Check Post Rd, MLA Colony, Film Nagar, Hyderabad, Telangana 500033",073308 34545,",pradeep@f45training.com,u003epradeep@f45training.com,","17.4168818,78.4137447"
F45 Training - Gachibowli - Hyderabad,Gym,Hyderabad,"4th Floor, Mega Archade, Old Mumbai Hwy, Sri Shyam Nagar, Telecom Nagar, Gachibowli, Hyderabad, Telangana 500032",073060 24545,",info@f45training.in,","17.4348079,78.3648642"
F45 Training - Basheerbagh - Hyderabad,Gym,Hyderabad,"1st floor, Skyline & Sterling Residency, Shaheed Yar Jung Rd, Chandra Nagar, Basheer Bagh, Hyderabad, Telangana 500029",090529 24545,",basheerbagh@f45training.in,","17.402529,78.4748242"
F45 Training - Srinagar Colony - Hyderabad,Gym,Hyderabad,"4th Floor, 8-3-988, 34/7, Srinagar Colony Main Rd, SBH Colony, Banjara Hills, Hyderabad, Telangana 500073",073308 94545,,"17.4302911,78.4320982"
F 18 Fitness - Lb Nagar - Hyderabad,Gym,Hyderabad,"3-11, 128/2, RTC Colony, Next To AM Diesel Services, Inner Ring Road, LB Nagar, Hyderabad 500074, TS",+91-9676700681,",f1fitnessone@gmail.com,","17.3608766,78.4954672"
F1 Fitness One - Moosarambagh - Hyderabad,Gym,Hyderabad,"16-11-16/V/15/A Ramkoti, East Prasanth Nagar, Moosarambagh, Hyderabad, Telangana 500034",097007 77888,",f1fitnessone@gmail.com,manish.mishra321@gmail.com,memberexperience@anytimefitness.in,","17.3781076,78.5132199"
Extreme Fitness Centre - Nizampet - Hyderabad,Gym,Hyderabad,"3rd Floor, Near Sangamitra High School, Top Of Axis Bank ATM, Nizampet, Hyderabad 500090, TS",+91-40-42011025,,"17.4938586,78.364142"
Ethno Fitness Centre - Madhapur - Hyderabad,Gym,Hyderabad,"Cyber Pearl, Opposite Tata Consultancy, Madhapur, Hyderabad 500081, TS",+91-40-66835050,",hello@cultfit.com,info@ethnohelpclub.com,","17.4209801,78.3504286"
Endurance Workout Lounge - Madhapur - Hyderabad,Gym,Hyderabad,"Plot No:17, Inorbit Mall Road, APIIC Software Layout, Mind Space,, Madhapur, Hyderabad, Telangana 500081",040 4003 6216,,"17.4354497,78.3834887"
Elite Gym - Vanasthalipuram - Hyderabad,Gym,Hyderabad,"No.298, No. 298, Vanasthalipuram Rd, above reliance fresh, Prashanth Nagar, Hastinapuram, Hyderabad, Telangana 500070",082977 71122,",elitegym.ravinder@gmail.com,","17.3348926,78.5667867"
Elite Fitness Studio - Kompally - Hyderabad,Gym,Hyderabad,"4-77, Doolapally Rd, Srinivas Nagar, Kompally, Hyderabad, Telangana 500100",082473 83103,",ninfo@elitefitnessstudio.com,info@elitefitnessstudio.com,","17.5411578,78.4837529"
DZE Dance Studio - Gachibowli - Hyderabad,Gym,Hyderabad,"Plot No 127, Grace Tower, Vinayak Nagar, Indira Nagar, Gachibowli, Hyderabad, Telangana 500032",097045 19664,,"17.4413444,78.3563153"
Dynamic Fitness Centre - Alwal - Hyderabad,Gym,Hyderabad,"12, Venkata Sai Residency, 2nd Floor, Bharathi Nagar Colony, Alwal, Secunderabad, Hyderabad 500010, TS",+91-9010327080,,"17.5085346,78.497827"
Dumbbells Gym - Ashok Nagar - Hyderabad,Gym,Hyderabad,"above Vijetha supermarket, Ashok Nagar, Bharat Heavy Electricals Limited, Hyderabad, Telangana 502032",097016 97788,,"17.5038557,78.3063839"
DSF Fitness - Jeedimetla - Hyderabad,Gym,Hyderabad,"Sri Nilayam, Quthbullapur Main Rd, Bhagya Lakshmi Colony, Jeedimetla, Hyderabad, Telangana 500055",097034 99326,",dsffitness2009@gmail.com,fsfitness.himayatnagar@gmail.com,360degreefitness@gmail.com,","17.5079163,78.4597546"
Dream Dance And Fitness Studio - Alwal - Hyderabad,Gym,Hyderabad,"Lane No. 2, Kandlakoya, Panchsheel Enclave, Caton Residential Twp, Jeedimetla, Hyderabad, Secunderabad, Telangana 500015",086393 02513,,"17.513939,78.489354"
Dinesh Transformation Point The Gym - Jubilee Hills - Hyderabad,Gym,Hyderabad,"1217-A, 2nd Floor, Opposite Jaguar Showroom, Road No 36, Jubilee Hills, Hyderabad 500033, TS",+91-9000961764,",banjarahills.hyd@goldsgym.in,","17.422596,78.3945031"
Digg Gym - Secunderabad - Hyderabad,Gym,Hyderabad,"1-1-305/4-A/1, Opposite Sri Ram Nagar Colony Kaman, Sri Ram Nagar Colony, Saket-Kapra, Saket Road, Secunderabad, Hyderabad 500062, TS",+91-8886799930,"himayatnagar.hyderabad@goldsgym.in,,dnraj231283@gmail.com,sixpax2004@yahoo.co.in,","17.4380073,78.4305242"
Devoir Womens Fitness Club - Himayat Nagar - Hyderabad,Gym,Hyderabad,"3-6-476, Flat No 301, 3rd Floor, Arvind Store Building, Next To HDFC BANK, Himayat Nagar, Hyderabad 500029, TS",+91-40-40075288,,"17.4041844,78.4792998"
Deltoids Fitness Studio And Spa - Kompally - Hyderabad,Gym,Hyderabad,"1, NCL Enclave South, Caton Residential TWP, Bolarum, Rangareddy, Besides Balaji Hospital, Suchitra X Road, Kompally, Hyderabad 500015, TS",+91-7893023801,",deltoidsfitness@gmail.com,","17.5355898,78.4573595"
Deejay's Fitness World - Banjara Hills - Hyderabad,Gym,Hyderabad,"6-3 248 1, Rd Number 1, beside Karachi Bakery, Prem Nagar, Banjara Hills, Hyderabad, Telangana 500004",+91-9247352228,",banjarahills.hyd@goldsgym.in,","17.410623,78.4473901"
Deadlift Fitness Studio - Secunderabad - Hyderabad,Gym,Hyderabad,"26-113, B N 219, BALRAM NAGAR NEAR SAFILGUDA RAILWAY STATION, above LUCID DIAGNOSTIC, Safilguda, Malkajgiri, Secunderabad, Telangana 500047",086866 74922,,"17.4616983,78.5312568"
Dazz Fitness Zone - Ameerpet - Hyderabad,Gym,Hyderabad,"Shop No. 21 - 26, 1st Floor, Shobha Pavani Apartments, opposite Durgabhaideshmuk Hospital, Vidya Nagar, Ram Nagar Gundu, Adikmet, Hyderabad, Telangana 500044",099496 98006,,"17.402792,78.5071983"
Daksha Fitness Studio - Habsiguda - Hyderabad,Gym,Hyderabad,"1-89, Keshava Towers, 4th Floor, Hotel Suprabath Lane, Above Bata Showroom, Habsiguda, Hyderabad 500039, TS",+91-9000983178,",anirudhkonda16@gmail.com,","17.432607,78.4805677"
Daksha Fitness Studio - Secunderabad - Hyderabad,Gym,Hyderabad,"1st Floor, Opp Heritage Fresh, Ganeash Temple Lane, West Maredpally, Secunderabad, Telangana 500026",090103 30911,,"17.4466535,78.4994749"
Curves Key Ladies Gym - Khairatabad - Hyderabad,Gym,Hyderabad,"CF73+8GX, SVR Colony, Veera Reddy Colony, Khairtabad, Hyderabad, Telangana 500004",+91-9177402623,,"17.4133606,78.4512856"
Cult The Workout Station - Kondapur - Hyderabad,Gym,Hyderabad,,,",hello@cultfit.com,hello@cult.fit,x3ehello@cult.fit,","17.4652235,78.3350755"
Cult The Workout Station - Kothaguda - Hyderabad,Gym,Hyderabad,,,",hello@cultfit.com,hello@cult.fit,u003ehello@cultfit.com,x3ehello@cult.fit,","17.4629528,78.3350755"
Cult The Workout Station - Hitech City - Hyderabad,Gym,Hyderabad,,,",hello@cultfit.com,hello@cult.fit,u003ehello@cultfit.com,x3ehello@cult.fit,","17.4472915,78.3764872"
Cult The Workout Station - Madinaguda - Hyderabad,Gym,Hyderabad,"4th Floor Cult, Padma Arcade, opp. IOCL Petrol Pump, ICRISAT Colony, Madeenaguda, Hyderabad, Telangana 500049",099164 74916,",hello@cultfit.com,hello@cult.fit,x3ehello@cult.fit,","17.496029,78.3343826"
Cult The Workout Station - Banjara Hills - Hyderabad,Gym,Hyderabad,"3rd Floor Road Number 1 above AB's Barbecue, Krishe Amethyst, Banjara Hills, Hyderabad, Telangana 500034",099164 75840,",hello@cultfit.com,hello@cult.fit,u003ehello@cultfit.com,x3ehello@cult.fit,","17.4122636,78.4467977"
Cult The Workout Station - Kukatpally - Hyderabad,Gym,Hyderabad,,,",partner.support@cult.fit,careers@curefit.com,hello@cult.fit,x3ehello@cult.fit,","17.4831616,78.3901524"
Cult The Workout Station - Begumpet - Hyderabad,Gym,Hyderabad,,,",x3ehello@cult.fit,hello@cult.fit,","17.4388925,78.4476122"
Cult The Workout Station - Gachibowli - Hyderabad,Gym,Hyderabad,"3rd Floor, Jyothi Imperial, Main Road, above South India Shopping Mall, near Flyover, Diamond Hills, Lumbini Avenue, Gachibowli, Hyderabad, Telangana 500032",099164 75188,",hello@cultfit.com,hello@cult.fit,x3ehello@cult.fit,","17.4350463,78.3660327"
Cult The Workout Station - Jubilee Hills - Hyderabad,Gym,Hyderabad,,,",hello@cultfit.com,hello@cult.fit,u003ehello@cultfit.com,x3ehello@cult.fit,","17.4324698,78.3963554"
Crossroads Fitness - Kondapur - Hyderabad,Gym,Hyderabad,"sri kanya hotel, 2nd floor, sri Balaji Capitals, Besides, above relaince super market, Kondapur, Hyderabad, Telangana 500084",098490 30482,",info@powermaxfitness.net,","17.46363,78.3670849"
Cross15 Gym - Madhapur - Hyderabad,Gym,Hyderabad,"Do. No.2-56/3, above Andhra Bank, Ayyappa Society, Madhapur, Telangana 500081",+91-7660099369,",cross15madhapur@gmail.com,","17.443782,78.3895471"
Cross Roads Fitness Studio - Madinaguda - Hyderabad,Gym,Hyderabad,"403, Madhavapuri Hils, Beside HDFC ATM, Madhavapuri Hills, Madinaguda, Hyderabad 500049, TS",+91-8019798055,",hello@cultfit.com,","17.4792886,78.3382383"
Cross Roads Fitness - Kondapur - Hyderabad,Gym,Hyderabad,"sri kanya hotel, 2nd floor, sri Balaji Capitals, Besides, above relaince super market, Kondapur, Hyderabad, Telangana 500084",098490 30482,,"17.46363,78.3670849"
Creed Gym - Madinaguda - Hyderabad,Gym,Hyderabad,"25-105, 4th Floor, National Highway 65 Viswaswara Nagar Colony, Miyapur, opp. Madinaguda, Arch, Hyderabad, Telangana 500050",098660 41082,,"17.4949493,78.3454412"
Crazy Gym - Uppal - Hyderabad,Gym,Hyderabad,"CH26+FJ3, Hyderabad - Warangal Hwy, Venkateswara Colony, Vijayapuri Colony, Uppal, Hyderabad, Telangana 500039",085229 48421,",customer.service@makaan.com,","17.401136,78.5589671"
CP Fitness And Dance Studio - Madinaguda - Hyderabad,Gym,Hyderabad,"1-58/7, NH 65, Ramakrishna Nagar, Hafeezpet, Madeenaguda, Hyderabad, Telangana 500049",095022 19944,,"17.494693,78.3416901"
Core Fitness Station - Gachibowli - Hyderabad,Gym,Hyderabad,"19, Old Mumbai Hwy, Vinayak Nagar, Indira Nagar, Gachibowli, Hyderabad, Telangana 500032",040 2300 8899,",hello@cultfit.com,","17.4428251,78.3523876"
Core Fitness Station - Jubilee Hills - Hyderabad,Gym,Hyderabad,"3rd floor, Hotel Daspalla, Rd Number 37, CBI Colony, Jubilee Hills, Hyderabad, Telangana 500033",093332 34999,,"17.4371863,78.3955542"
"Combat Club, Gym and Physique Studio - Vanasthalipuram - Hyderabad",Gym,Hyderabad,"Hyderabad - Nagarjuna Sagar Rd, Raji Reddy Colony, AV Nagar, Hastinapuram, Hyderabad, Telangana 500070",+91-9133419314,,"17.3289595,78.552202"
Cloud Fitness - Banjara Hills - Hyderabad,Gym,Hyderabad,"No 14, Road, near to Jubilee Hills, behind Cinemax, GS Nagar, KBR Park, Banjara Hills, Hyderabad, Telangana 500034",073825 25777,,"17.4217506,78.4295015"
Cloud Fitness - Gachibowli - Hyderabad,Gym,Hyderabad,"Kondapur Main Road, opposite Le Meridien, Banjara Basthi, Jayabheri Enclave, Gachibowli, Hyderabad, Telangana 500032",080191 91777,,"17.4497328,78.3616047"
Chozen Fitness and Gym - Malkajgiri - Hyderabad,Gym,Hyderabad,"13-186/5/1, 2nd Floor, Opposite Jagruthi Degree College, Brindavan Colony, Malkajgiri Road, Malkajgiri, Hyderabad 500047, TS",+91-9032573456,"himayatnagar.hyderabad@goldsgym.in,,","17.4543501,78.5269804"
Chizel Fitness Studio Jubilee Hills - Jubilee Hills - Hyderabad,Gym,Hyderabad,"Film Nagar, Hyderabad, Telangana 500033",098498 81967,,"17.4175326,78.4082028"
Chizel Fitness Studio - Nagole - Hyderabad,Gym,Hyderabad,"Sai Nagar Colony Road, IRR Service Rd, Road No. 2, Adarsh Nagar Colony, Nagole, Hyderabad, Telangana 500068",080740 71249,,"17.3662542,78.5549471"
Chizel Fitness Studio - Kothapet - Hyderabad,Gym,Hyderabad,"Sai Nagar Colony Road, IRR Service Rd, Road No. 2, Adarsh Nagar Colony, Nagole, Hyderabad, Telangana 500068",080740 71249,",pavan4one@gmail.com,","17.3662542,78.5549471"
Chikky Gym And Fitness Centre - Sr Nagar - Hyderabad,Gym,Hyderabad,"House No. 7, 1-396/147/B, near Community Hall, near Venkateshwara Temple, BK Guda, Sanjeeva Reddy Nagar, Hyderabad, Telangana 500038",098499 43982,",adhimay1@gmail.com,","17.4450044,78.4441642"
Chandus Gym - Kukatpally - Hyderabad,Gym,Hyderabad,"GC28+7P6, Allwyn Colony Rd, Madhavaram Nagar Colony, Kukatpally, Hyderabad, Telangana 500072",089774 41981,",tlgkukatpally@thelittlegym.in,chandusgym@gmail.com,","17.5006593,78.4141989"
CBA Fitness - Chanda Nagar - Hyderabad,Gym,Hyderabad,"Ingeium school, opp. Kidzee Pre School, HUDA Layout, Nallagandla, Telangana 500019",090522 22034,"himayatnagar.hyderabad@goldsgym.in,,cbafitnessin@gmail.com,","17.4738274,78.3055034"
BRS New Generation Gym - Sagar Road - Hyderabad,Gym,Hyderabad,"A, Near BNX Road, Sagar Road, BN Reddy Nagar, Hyderabad 500070, TS",+91-7386840715,,"17.4208645,78.319647"
Breathe The Functional Training - Secunderabad - Hyderabad,Gym,Hyderabad,"11-B, Opposite Rainbow Children's Hospital, Vasavi Colony, Kharkhana, Secunderabad, Hyderabad 500015, TS",+91-8639367540,,"17.4554435,78.4966493"
Bodyline Gym - Miyapur - Hyderabad,Gym,Hyderabad,"Near HDFC Bank, Bollaram Road, JP Nagar, Miyapur Hyderabad 500049, TS",+91-9885323079,",info@narenfitness.com,","17.5260975,78.3166711"
Bodyline Gym - Miyapur - Hyderabad,Gym,Hyderabad,"Near HDFC Bank, Bollaram Road, JP Nagar, Miyapur Hyderabad 500049, TS",+91-9885323079,",info@narenfitness.com,","17.5260975,78.3166711"
Body Workout Fitness And Spa Pvt Ltd - Shaikpet - Hyderabad,Gym,Hyderabad,"SUJA PLAZA, 8-1-284/OU/279/1, OU Colony, Shaikpet, Manikonda Jagir, Telangana 500008",096762 37210,"naveen_ca@ymail.com,,","17.4075408,78.3906579"
Body N Soul Fitness - Banjara Hills - Hyderabad,Gym,Hyderabad,"Plot No 564-A, 32, Uma Nagar, Banjara Hills, Hyderabad, Telangana 500016",+91-9553883883,,"17.436556,78.4573501"
Body Makers Gym - Malakpet - Hyderabad,Gym,Hyderabad,"2-585-12-3,, 15, Malakpet Gunj Rd, Sri Krupa Market, Old Malakpet, Hyderabad, Telangana 500036",+91-7416504253,,"17.374134,78.504363"
Body Line Gymnasium - Miyapur - Hyderabad,Gym,Hyderabad,"1-141, Ananth Ram Building, Old Police Station Lane, Near SBI Atm, Miyapur, Hyderabad 500049, TS",+91-9152196735,,"17.5040744,78.3421872"
Body Home Work Pvt Ltd - Gachibowli - Hyderabad,Gym,Hyderabad,"8-2-37/11, Vinayak Nagar, Indira Nagar, Gachibowli, Hyderabad, Telangana 500032",099851 36567,,"17.4415198,78.355258"
Body Granite Gym - Kapra - Hyderabad,Gym,Hyderabad,"1-1-243/205, Srinivas Nagar Colony, Hi-tension Road, Opp Sai Ganga Functional Hall, Hyderabad, Telangana 500062",099853 63636,,"17.4798029,78.5602123"
Body Flex Fitness - Chanda Nagar - Hyderabad,Gym,Hyderabad,"H.NO:1926, MIG Phase 1, 4th batch, near Thayal School, MIG Colony, MIG Phase II, MIG Colony, Bharat Heavy Electricals Limited, Serilingampalle (M), Hyderabad, Telangana 502032",086864 85959,,"17.4828865,78.302764"
Body Dynamic Fitness Solutions - Saidabad - Hyderabad,Gym,Hyderabad,"Moghalpura, Kotla Alijah, Opposite Noor Cafe, Saidabad, Hyderabad 500002, TS",+91-9966590412,,"17.3741294,78.4487644"
Body Care Enterprises - Alwal - Hyderabad,Gym,Hyderabad,"124/127, Alwal Rd, Srinagar Colony, Alwal, Secunderabad, Telangana 500010",+91-9391020773,",bodycare@gmail.com,","17.50901,78.5013041"
Bodies Looks Skin Clinic Fitness Centre - Charminar - Hyderabad,Gym,Hyderabad,"23-6-1021, Opposite Baba Petrol Pump, Shaliabanda, Charminar, Hyderabad 500065, TS",+91-9152173505,,"17.3526833,78.4696115"
Bodies And Looks - Santosh Nagar - Hyderabad,Gym,Hyderabad,"Y R Tower, 4, Santosh Nagar Main Rd, New Santoshnagar, Santosh Nagar, Hyderabad, Telangana 500059",081067 17814,",kathe.kanady@yahoo.com,","17.3511536,78.5045735"
Bodhi Yoga Institute - Manikonda - Hyderabad,Gym,Hyderabad,"OU Colony, Sampoorna Super Market, Manikonda Road, Shaikpet, Manikonda, Hyderabad 500008, TS",+91-9133281888,,"17.4526276,78.3293482"
Bodhi Yoga Institute - Gachibowli - Hyderabad,Gym,Hyderabad,"Plot no. 24, Lumbini Avenue, Opp Care Hospital Lane, beside HDFC Bank, Gachibowli, Telangana 500081",092050 11012,,"17.4318433,78.3708456"
Bodhi Yoga Institute - Chanda Nagar - Hyderabad,Gym,Hyderabad,"3rd Floor, Uma Chambers, Gangaram, Chanda Nagar, Hyderabad, Telangana 500050",092050 11012,,"17.4947369,78.3188135"
Bodhi Yoga Institute - Jubilee Hills - Hyderabad,Gym,Hyderabad,"352-A, Venkatagiri, Sri Vijaya Bharathi High School, Road No 24, Jubilee Hills, Hyderabad 500033, TS",+91-7036020011,",info@bodhischoolofyoga.com,","17.4285885,78.3851222"
BN Dance And Fitness Studio - Himayat Nagar - Hyderabad,Gym,Hyderabad,"2nd Floor , Patel Chambers , Beside HDFC Bank, East Marredpally, Secunderabad, Telangana 500026",081878 22505,"himayatnagar.hyderabad@goldsgym.in,,","17.4440478,78.5048977"
Bikram Yoga - Banjara Hills - Hyderabad,Gym,Hyderabad,"8-2-292/174/104, 2nd Floor, Guv Vivilash Chambers, Road No. 14, Hyderabad, Telangana 500034",089775 59642,",naveen@bikramyogaindia.com,","17.4221623,78.4256566"
Big Gym Zone - Nizampet - Hyderabad,Gym,Hyderabad,"3-110, Nizampet Rd, Nizampet Colony, Nizampet, Hyderabad, Telangana 500090",083748 35556,",chinna.koti.m@gmail.com,","17.5111246,78.3821743"
Best Gym And Fitness Centre - Secunderabad - Hyderabad,Gym,Hyderabad,"3-90, Best Gym & Fitness Centre, Venkateswara Colony, Near Al Madina Bakery, Nagaram Road, Shilpa Nagar, Nagaram, Secunderabad, Hyderabad 500083, TS",+91-9848136172,",support@gymcompany.co.za,","17.4787752,78.4740936"
Beeryani Fitness - Jubilee Hills - Hyderabad,Gym,Hyderabad,"2nd Floor, SVM Mall, Rd Number 36, CBI Colony, Jubilee Hills, Hyderabad, Telangana 500033",089779 00300,",heliosgym@yahoo.co.in,batman@beeryanifitness.com,","17.431549,78.4041629"
Beats And Steps - Kukatpally - Hyderabad,Gym,Hyderabad,"3/2/1/60, 1st Floor, Opposite Bhashayam School, Road No 02, Viveknada Nagar, Kukatpally, Hyderabad 500072, TS",+91-9640935218,,"17.4954581,78.3972656"
Be Fit Gyms - Madinaguda - Hyderabad,Gym,Hyderabad,"5th Floor, Kosal Sai Plaza, above Vijetha Supermarket, Madeenaguda, Telangana 500050",076440 19999,",hello@cultfit.com,","17.4950981,78.3394961"
BCUBE Boxing - Madhapur - Hyderabad,Gym,Hyderabad,"1-120/2/504/NR, Terrace 5th Floor, SBRS Towers, above Karachi Bakery, HITEC City, Telangana 500081",077023 24321,",team@bcube.in,","17.4450278,78.3829894"
BCUBE Boxing - Begumpet - Hyderabad,Gym,Hyderabad,"1-120/2/504/NR, Terrace 5th Floor, SBRS Towers, above Karachi Bakery, HITEC City, Telangana 500081",077023 24321,",bigbangevolve@gmail.com,","17.4450278,78.3829894"
BCUBE Boxing - Gachibowli - Hyderabad,Gym,Hyderabad,"1-57/78/4, 5 th floor Kondapur, Gachibowli Rd, Gachibowli, Hyderabad, Telangana 500081",077023 24321,",patrickcholewa@hotmail.com,info@sanshinkan.org,","17.4438069,78.360592"
BBC Gym - Malakpet - Hyderabad,Gym,Hyderabad,"Near Meridian Function Hall, Judges Colony, New Malakpet, Hyderabad, Telangana 500036",099487 28815,",bbc_gym@yahoo.com,","17.3712663,78.4982529"
Banda's Fitness World - Himayat Nagar - Hyderabad,Gym,Hyderabad,"Prime Plaza, 1st Floor, Above KFC Restaurant, Main Road, Himayat Nagar, Hyderabad 500029, TS",+91-40-40077333,,"18.4760628,73.9007086"
Baba Bros - Miyapur - Hyderabad,Gym,Hyderabad,"Cine Town Stright Lane, Opposit To Hanuman Temple, Indera Nagar, Miyapur, Hyderabad 500049, TS",+91-9701887040,"himayatnagar.hyderabad@goldsgym.in,,jaguargym@gmail.com,","18.4760628,73.9007086"
Ba 6 Gym And Spa - As Rao Nagar - Hyderabad,Gym,Hyderabad,"14, Beside Andhra Bank, Lakshmipuram Colony, Sainik Enclave Road, AS Rao Nagar, Hyderabad 500062, TS",+91-9885777789,"himayatnagar.hyderabad@goldsgym.in,,","17.4477559,78.4795222"
B Fitness Gym - Madhapur - Hyderabad,Gym,Hyderabad,"1-98/9, 65, Jai Hind Gandhi Rd, VIP Hills, Jaihind Enclave, Madhapur, Hyderabad, Telangana 500081",073307 05353,",hello@cultfit.com,","17.4473029,78.3785927"
B Fit Gym - Kompally - Hyderabad,Gym,Hyderabad,"401 & 402, Vensai Towers, 4th Floor, Near Cine Planet, Rangareddy, Medchal Road, National Highway 44, Kompally, Hyderabad 500014, TS",+91-9160685555,,"17.5381947,78.4797777"
B Fit Fitness Studio - Jeedimetla - Hyderabad,Gym,Hyderabad,"109-P/1, 2nd Floor, Opposite Konark Hospital, Petbasheerabad, Pipeline Road, Jeedimetla, Hyderabad 500055, TS",+91-9885883131,,"17.5451221,78.3750432"
B Fit 365 Strength And Fitness Gym - Nallakunta - Hyderabad,Gym,Hyderabad,"1-9-110, 3rd Floor, Opposite Shankarmutt Temple, Nallakunta Main Road, Vidya Nagar, Nallakunta, Hyderabad 500044, TS",+91-9052255588,"me@nehaagarwal.in,,","17.4008671,78.4980153"
Azaraiahs Gymnasium - East Marredpally - Hyderabad,Gym,Hyderabad,"Beside Ratnadeep, Above Health And Glow Store, Main Road, Maredpally East, Hyderabad 500026, TS",+91-40-66445575,,"17.4483891,78.4761116"
Ayaan Fitness Studio - Moti Nagar - Hyderabad,Gym,Hyderabad,"Anjaneya, AGI Colony, Moosapet, Hyderabad, Telangana 500018",092483 68826,"pratikjain882@gmail.com,,","17.4689834,78.4076261"
Awon Dance N Fitness Studio - Sr Nagar - Hyderabad,Gym,Hyderabad,"4th. Floor, 215, towards, Vengal Rao Nagar Rd, above Union bank, Kalyan Nagar Phase 1, Siddarth Nagar, Sanjeeva Reddy Nagar, Hyderabad, Telangana 500038",098660 39134,,"17.4438357,78.4238525"
Awfis - Gachibowli - Hyderabad,Gym,Hyderabad,"126-P, Shanta Sriram Tech Park, 5th Floor, Adjacent To DLF Cyber City, Gachibowli, Hyderabad 500032, TS",+91-9100633386,",press@awfis.com,info@awfis.com,amit.ramani@awfis.com,x3eamit.ramani@awfis.com,","17.4348859,78.310375"
Aswin Fitness - Sr Nagar - Hyderabad,Gym,Hyderabad,"CCQR+VXV, Srinivasa Nagar W, Srinivasa Nagar West, Sanjeeva Reddy Nagar, Hyderabad, Telangana 500038",092463 38271,,"17.439729,78.4321212"
Aruna Yoga - Madhapur - Hyderabad,Gym,Hyderabad,"104, Rd Number 44, Kavuri Hills, Madhapur, Hyderabad, Telangana 500033",094406 98003,"rudrayogpeeth@gmail.com,,info@www.arunayoga.co.in,","17.4353346,78.3864851"
Arnold's Classic Gym - Vanasthalipuram - Hyderabad,Gym,Hyderabad,"Near Bakers Den Bakery, BN Reddy Nagar, Vanasthalipuram, Hyderabad 500070, TS",+91-9502264364,,"17.3973982,78.1936667"
Arnold Fun Fitness Studio - Kphb - Hyderabad,Gym,Hyderabad,"9th Phase Road, K P H B Phase 9, Auto Stand, Kukatpally, Hyderabad, Telangana 500085",099892 62334,",jpk.darling@gmail.com,","17.487434,78.3730288"
Apollo Life Studio - Madhapur - Hyderabad,Gym,Hyderabad,"plot 34-35, 35, Guttala_Begumpet, Kavuri Hills, Madhapur, Hyderabad, Telangana 500081",040 2355 4800,"alsinfo@apollolife.com,,","17.4405944,78.3878273"
Apollo Gym - Jubilee Hills - Hyderabad,Gym,Hyderabad,"Life Science Building, 5th Floor, Road No 10, Apollo Health City, Jubilee Hills, Hyderabad 500033, TS",+91-40-23559090,,"17.4278776,78.3853959"
Apollo Fitness 1st - Malakpet - Hyderabad,Gym,Hyderabad,"East Prasanth Nagar, Moosarambagh, Hyderabad, Telangana 500036",099858 78857,"alsinfo@apollolife.com,,","17.3776967,78.5053762"
Anytime Fitness - Jubilee Hills - Hyderabad,Gym,Hyderabad,"71, Park View Enclave, Besides TV 5 Office, Road No 1 & 9, Jubilee Hills, Hyderabad 500033, TS",+91-9640989888,",hello@cultfit.com,John.Smith@anytimefitness.com,x3eJohn.Smith@anytimefitness.com,","17.4266112,78.3739026"
Anytime Fitness - Jeedimetla - Hyderabad,Gym,Hyderabad,"2, 1st Floor, Opposite Lakshmi Sailaja Hospital, Suchitra Road, Jeedimetla, Hyderabad 500090, TS",+91-8686803503,",memberexperience@anytimefitness.in,","17.5211539,78.3758325"
Anahata Yoga Zone - Kondapur - Hyderabad,Gym,Hyderabad,"9-7-101/42, Tirumala Subash Arcade, 2nd Floor, Whitefields, Above Aerofit, Kothaguda X Roads, Kondapur, Hyderabad 500084, TS",+91-9000911808,",Lifecontact@anahatayoga.in,","17.4589533,78.3396633"
Anahata Yoga Zone - Sainikpuri - Hyderabad,Gym,Hyderabad,"Bakery, Anahata Yoga Zone ,1st Floor,Plot No.105,defence Colony,Tejas Dream Plaza,Sainikpuri,(besides, 5th Ave, Secunderabad, Telangana 500094",063045 53028,",pratibha@anahatayoga.in,","17.4872447,78.5327982"
Anagha Fitness World Gym And Aerobics - Sr Nagar - Hyderabad,Gym,Hyderabad,"No 7, 1-392, Balkampet Rd, East Srinivas Nagar Colony, Srinivasa Nagar, Sanjeeva Reddy Nagar, Hyderabad, Telangana 500038",+91-9703807494,"manish.singh@fitness-world.in,,info@fitness-world.in,","17.4398508,78.4377291"
Amys Gympac Only For Ladies - Moti Nagar - Hyderabad,Gym,Hyderabad,"120, Kalyan Nagar, Erragadda, Hyderabad, Telangana 500045",+91-9848117177,,"17.4513956,78.4141992"
Al-Nasar Gym Only For Men - Charminar - Hyderabad,Gym,Hyderabad,"Al Rahman Plaza, Shop No. 19-2-81/8/4, Ansari Rd, Rajan Colony, Nawab Saheb Kunta, Hyderabad, Telangana 500053",091604 75893,,"17.3408263,78.4461354"
All Tym Fit Health Club - Gachibowli - Hyderabad,Gym,Hyderabad,"80, Near Shanghai Chef 2, Vinayak Nagar, Gachibowli, Hyderabad 500032, TS",+91-9703573579,,"17.438417,78.3424834"
All Time Fitness - Kukatpally - Hyderabad,Gym,Hyderabad,"3, Near St Mary School, Vasant Nagar, Kukatpally, Hyderabad 500072, TS",+91-8374424733,",narendrakumar.d.555@gmail.com,","17.4927669,78.3178715"
All Stars Super Heros Gym - Lakdikapul - Hyderabad,Gym,Hyderabad,"1-6-872/1, Riya Grand Hotel, 1st Floor, Opposite Sri Venkateshwara Tea & Coffee Point, Lakdikapool, Hyderabad 500004, TS",+91-7330061457,"info@fortunebutterwww.fortunebutterflycity,,","17.4051107,78.4471183"
All About Eve - Sr Nagar - Hyderabad,Gym,Hyderabad,"2nd Floor, Ratandeep Supermarket building, 47/3RT, SR Nagar Main Rd, East Srinivas Nagar Colony, Sanjeeva Reddy Nagar Office Area, Sanjeeva Reddy Nagar, Hyderabad, Telangana 500038",070326 90303,",allaboutevefitness@gmail.com,info@evefitness.in,youremail@yourdomain.com,","17.441669,78.4359114"
Alis Gym - Tolichowki - Hyderabad,Gym,Hyderabad,"Beside Azaan International School, Quli Qutub Shah Nagar Colony, Qutub Shahi Tomb Road, Tolichowki, Hyderabad 500008, TS",,",ali.khan2007@yahoo.com,","17.3989673,78.3903375"
Ageless - Srinagar Colony - Hyderabad,Gym,Hyderabad,"8-3-988/42, Srinagar Colony Main Rd, Sagar Society, Sri Nagar Colony, SBH Colony, Yousufguda, Hyderabad, Telangana 500873",094945 33344,",ageless.slimzone@gmail.com,","17.4300324,78.4242261"
Ageless - Madhapur - Hyderabad,Gym,Hyderabad,"1-90-2/70, Ground Floor, Hi - Tech City, Vittal Rao Nagar, Madhapur, Hyderabad, Telangana 500081",040 2311 9799,",hello@cultfit.com,","17.4410477,78.3753452"
Afterburn Fitness Studio - Secunderabad - Hyderabad,Gym,Hyderabad,"No.1-5-1055/2/3, SVB Square, Colony, HMT Colony Rd, Saibaba Nagar, Father Balaiah Nagar, Alwal, Secunderabad, Telangana 500010",097034 68786,"neha@criesandcrawls.com,afterburnfitnessstudio@gmail.com,,","17.5069968,78.482698"
Aesthetic Nation Fitness Centre - Jeedimetla - Hyderabad,Gym,Hyderabad,"Suchitra opp indian oil petrol pump ,qutubllapur road, @ secunderabad ,telengana 4 th floor, above axix bank, Hyderabad, Telangana 500055",095539 94114,",aestheticnationgym@gmail.com,naestheticnationgym@gmail.com,","17.5026407,78.4601143"
Aerobicize Zumba Fitness N Dance Studio - Nallakunta - Hyderabad,Gym,Hyderabad,"2-1-477, Beside Vijaya Diagnostics, Street No 7, New Nallakunta, Hyderabad 500044, TS",+91-9640341321,,"17.406388,78.4930846"
Abs Salute Gym - Madhapur - Hyderabad,Gym,Hyderabad,"H.No.2-56/28/2, Chandra Nayak Nagar, Ayyappa Society, Madhapur, Hyderabad, Telangana 500081",090325 53849,",Jessica@absalutegym.co.uk,steve@absalutegym.co.uk,jessica@absalutegym.co.uk,","17.45393,78.3795627"
Abraham's Cardio Gym - Chanda Nagar - Hyderabad,Gym,Hyderabad,"Plot no: 3,4,5 Gauranga complex beside Bachpan Academic heights public school Ameenpur, Sangareddy mandal Krishna reddy pet road, Ameenpur Rd, Hyderabad, Telangana 502032",098856 21737,"himayatnagar.hyderabad@goldsgym.in,,","17.5326297,78.2879202"
AB Fitness Gym Pro and Spa - Manikonda - Hyderabad,Gym,Hyderabad,"PLOT NO 41, Lanco Hills Rd, ABOVE SBI BANK, Muppas Panchavati Colony, Manikonda Jagir, Hyderabad, Telangana 500089",083093 51479,"me@nehaagarwal.in,,","17.4074335,78.3729323"
A7 Health And Fitness Gym - Shamshabad - Hyderabad,Gym,Hyderabad,"Siddeswara Colony, Shamshabad, Hyderabad, Telangana 501218",085550 90607,,"17.2636264,78.3713819"
A.K.S Power Gym And Fitness Centre - Panjagutta - Hyderabad,Gym,Hyderabad,"Durga Nagar Colony, Somajiguda, Hyderabad, Telangana 500082",+91-8686786810,,"17.42461,78.4438483"
A Fitness Studio - Malkajgiri - Hyderabad,Gym,Hyderabad,"22/102, Kamalagiri Plaza, Bank Of Maharashtra Premises, RK Nagar, Malkajgiri, Hyderabad 500047, TS",+91-9152175484,"himayatnagar.hyderabad@goldsgym.in,,","17.4580694,78.4914773"
6pack Gym - Santosh Nagar - Hyderabad,Gym,Hyderabad,"2nd floor ,Beside Canara Bank ,Near Yadagiri Theatre, above Bata Showroom, Santosh Nagar, Hyderabad, Telangana 500059",090000 08082,",hello@cultfit.com,fsfitness.himayatnagar@gmail.com,","17.3450584,78.4976126"
6 Pack Gym And Cardio - Dilsukh Nagar - Hyderabad,Gym,Hyderabad,"1-6-695, Ramalayam St, Prabhat Nagar Colony, Dilsukhnagar, Hyderabad, Telangana 500060",098490 17057,",hello@cultfit.com,","17.3740679,78.5228123"
4 Zone Fitness - Bowenpally - Hyderabad,Gym,Hyderabad,"Plot no, 7, SBI Colony Rd, beside Pallavi School, Manovikas Nagar, Bowenpally, Secunderabad, Telangana 500009",099662 62698,",memberexperience@anytimefitness.in,","17.4693226,78.4775736"
360 Degree Fitness - Kondapur - Hyderabad,Gym,Hyderabad,"Stone Ridge Center, 2nd Floor, Opposite Google, Kondapur Diagonally, Kondapur, Hyderabad 500081, TS",+91-9000551360,",360degreefitness@gmail.com,","17.4464931,78.3459455"
24/7 Fitness Gym - Gachibowli - Hyderabad,Gym,Hyderabad,"1-60/30/17/136, Behind Udipi Upahar, Anjayanagar, Gachibowli, Hyderabad 500032, TS",+91-9000092516,",hello@cultfit.com,","17.4393744,78.2620286"
Power Ryan's Gym - Hyderabad,Gym,Hyderabad,,,",banjarahills.hyd@goldsgym.in,360degreefitness@gmail.com,",
Yogavahini Learning And Healing Center - Srinagar Colony - Hyderabad,Gym,Hyderabad,"403/81, Padmaja Towers, 4th Floor, Srinagar Colony, Hyderabad 500073, TS",+91-44-24460086,"yogavahinichennai@gmail.com,,",
Yocures - Sri Nagar Colony - Hyderabad,Gym,Hyderabad,"8/3/988/11/2, Sri Nagar Colony, Hyderabad 500073, TS","+91-40-66619780, +91-9246154515",,
Ymca - S.P. Road - Hyderabad,Gym,Hyderabad,"S.P. Road, Secunderabad, Hyderabad 500003, TS","+91-40-27801936, +91-40-27806049",",rajesh_naidu786@yahoo.com,pvkraju@gmail.com,swaroop_ymca@yahoo.co.in,",
Xyz - Kondapur - Hyderabad,Gym,Hyderabad,"30, Jubilee Enclave, Opposite Hitex Arch, Kondapur, Hyderabad 500081, TS",+91-40-23545223,",venkat.t@numbersonly.co.in,kiran@emem.co.in,360degreefitness@gmail.com,",
Wow Fitness Studio - Gangaram - Hyderabad,Gym,Hyderabad,"United Chambers, Opposite ICICI Bank, Chanda Nagar, Gangaram, Hyderabad 500050, TS",+91-8801087081,,
Westside Gym - Abids - Hyderabad,Gym,Hyderabad,"Abids, Hyderabad 500001, TS",+91-9391031325,,
Vlcc - Hi Tech City - Hyderabad,Gym,Hyderabad,"291/14/9/2, Bhasker Empire, Opposite Jayabheri Silicon County, Kondapur, Hyderabad 500032, TS","+91-40-23113856, +91-40-23113857, +91-40-23113867",,
Vlcc - Banjara Hills - Hyderabad,Gym,Hyderabad,"8/2/283/82/1283/A/1, MLA Colony, Road No 12, Banjara Hills, Hyderabad 500034, TS","+91-40-23378942, +91-40-23378924, +91-40-23370708",",banjarahills.hyd@goldsgym.in,contact@vlcc.co.in,",
Vlcc - A S Rao Nagar - Hyderabad,Gym,Hyderabad,"18, Maruthi Arcade, A S Rao Nagar, Hyderabad 500062, TS","+91-40-27140651, +91-40-27140652, +91-40-27140653",",hyderabad.asrao@vlccwellness.co,",
Vinayaka Gods Power Gym - Padmarao Nagar - Hyderabad,Gym,Hyderabad,"11/3/292/6, 1St Floor, Padmarao Nagar, Hyderabad 500025, TS",+91-9849986680,",1l2@6.html,",
Vibes - Karkhana - Hyderabad,Gym,Hyderabad,"59/1/2, GMG One, 1st Floor, Vikrampuri, Karkhana Road, Secunderabad, Hyderabad 500009, TS","+91-40-27742234, +91-40-27742235, +91-40-27742236, +91-7893470707",",justdial.vibes@gmail.com,",
Vibes - Madhapur - Hyderabad,Gym,Hyderabad,"1/902/G/D/101 & 102, Above Olive Garden, Hi Tech City Main Road, Madhapur, Hyderabad 500033, TS","+91-40-40206612, +91-40-40058086, 9346499451, +91-9866582681",",gb.hyd@vibes.co.in,info@vibes.in,",
Vibes - Kukatpally - Hyderabad,Gym,Hyderabad,"2, Kphb Colony, Kukatpally, Hyderabad 500072, TS","+91-40-23057762, +91-40-23057763, +91-40-32425233, +91-40-32425244, +91-9346515193",",kukatpally.hyd@vibes.co.in,",
Vibes - Banjara Hills - Hyderabad,Gym,Hyderabad,"8/2618/8 & 9, ABK Olbee Plaza, Opp Care Hospital, Road No 1 & 11, Banjara Hills, Hyderabad 50082, TS","+91-40-23315954, +91-40-23315955, +91-40-32978474, +91-40-32978475",",bh.hyd@vibes.co.in,justdial.vibes@gmail.com,",
Vayuputra'S Gym - Bachupally - Hyderabad,Gym,Hyderabad,"Medak Road, Bachupally, Hyderabad 500090, TS",+91-9866257755,,
Tunki Fitness - Nizampet - Hyderabad,Gym,Hyderabad,"Near More Super Market, Brindavan Colony, Nizampet, Hyderabad 502102, TS",+91-40-66048032,,
Tunki Fitness - Begumpet - Hyderabad,Gym,Hyderabad,"Begumpet, Hyderabad 500016, TS",+91-9393267676,"himayatnagar.hyderabad@goldsgym.in,,info@kfsfitness.com,",
True Fitness - Gandhi Nagar - Hyderabad,Gym,Hyderabad,"Above Vijay Bank, SBI Officers Colony, Gandhi Nagar, Hyderabad 500020, TS","+91-9000146460, +91-9247755136","truefitness360@gmail.com,,ram_varma1@rediff.com,",
Trojans Gym And Fitness Centre - Tolichowki - Hyderabad,Gym,Hyderabad,"Ali Bin Mahfooz Complex, Toli Chowki, Hyderabad 500008, TS",+91-9849478622,,
Trojans Gym - Moosarambagh - Hyderabad,Gym,Hyderabad,"Opposite RTA Office, Moosarambagh, Hyderabad 500036, TS","+91-40-65266116, +91-9849074175",",mail@eventina.com,",
Total Fitness Gym - Malakpet - Hyderabad,Gym,Hyderabad,"16/8/931/2, Near Bharat Petrol Pump, Nalgonda Cross Roads, Malakpet, Hyderabad 500036, TS","+91-40-64557199, +91-8297213198",,
Therapy Ayurveda - Miyapur - Hyderabad,Gym,Hyderabad,"24/25, Madava Enclave, Padmaja Nilayam, Hanuman Temple Road, Miyapur, Madinaguda, Hyderabad 500078, TS","+91-9703577770, +91-9703577771",",contact@punarjanayurveda.com,",
The Body Arena Gym - Mehdipatnam - Hyderabad,Gym,Hyderabad,"10/3/14/1, Sahara Complex, Near Police Station, Mehdipatnam, Hyderabad 500028, TS",+91-9246334794,,
Talwalkars Gym - Kphb Colony - Hyderabad,Gym,Hyderabad,"18, M.C.K House, Kphb Colony, Hyderabad 500072, TS",+91-40-42607812,,
Talwalkars Gym - Himayat Nagar - Hyderabad,Gym,Hyderabad,"Madhu Nivas, Opposite Skyline Theatre, Himayat Nagar, Hyderabad 500029, TS",+91-40-23223813,"neha@criesandcrawls.com,,himayatnagar@talwarkars.net,pradeep.kumar@careratings.com,",
Talwalkars Gym - Banjara Hills - Hyderabad,Gym,Hyderabad,"Accent Tower, Near Bank Of Baroda, Road No 10, Banjara Hills, Hyderabad 500034, TS",+91-40-23355812,",hyderabadgymkhana@banjarahills.com,youremail@yourdomain.com,",
Talwalkars Gym - Jubilee Hills - Hyderabad,Gym,Hyderabad,"1/89/41/42&43, Kavuri Hills, 1st Floor, Near Madhapur Police Station, Jubilee Hills, Hyderabad 500081, TS",+91-40-40035812,",youremail@yourdomain.com,",
Talwalkars Gym - Hyderabad,Gym,Hyderabad,,,",avantis@talwalkars.net,ratnam.nakka@careratings.com,",
Sweat Zone Gym - Begumpet - Hyderabad,Gym,Hyderabad,"7/1/25/7, Green Lands, Begumpet, Hyderabad 500016, TS",+91-40-67111359,",sweatzone@gmail.com,",
Sri Kesaries Fun N Fit - Nallakunta - Hyderabad,Gym,Hyderabad,"Near Railway Bridge, New Nallakunta, Hyderabad 500044, TS","+91-9849845825, +91-9848357494, +91-9908503787",,
Sparrc Institute - Banjara Hills - Hyderabad,Gym,Hyderabad,"564/A, Road No 12, Banjara Hills, Hyderabad 500034, TS",+91-40-64517704,,
Soul - Madhapur - Hyderabad,Gym,Hyderabad,"15/24/25/26, Huda Techno Enclave, Madhapur, Hyderabad 500081, TS","+91-40-64555896, +91-40-64625697",",info@soulindia.in,",
Sona Gym - Kphb Ivth Phase - Hyderabad,Gym,Hyderabad,"Near Venkateswara Swami Temple, Water Tank Road, Kphb 4th Phase, Hyderabad 500072, TS\","+91-40-23052855, +91-9849259021",,
Sona Gym - Kphb Colony - Hyderabad,Gym,Hyderabad,"Sapthagiri Complex, 2nd Floor, Opposite R.S. Brothers, Kphb Colony, Hyderabad 500072, TS","+91-40-23052855, +91-40-23064326, +91-8106982623",,
Sharmila'S Yoga Studio - Banjara Hills - Hyderabad,Gym,Hyderabad,"72, Gaffar Khan Colony, Road No 10, Banjara Hills, Hyderabad 500034, TS","+91-40-23316562, +91-9849338902, +91-9908119946","info@sharmilasyogazone.com,,u003einfo@sharmilasyogazone.com,",
Shapes & Shades - West Marredpally - Hyderabad,Gym,Hyderabad,"West Marredpally, Hyderabad 500026, TS","+91-40-64549948, +91-40-66207778, +91-40-66207779",,
Sanjeevini Nature Care Centre - Himayat Nagar - Hyderabad,Gym,Hyderabad,"201, Swetha Apartments, Opposite Gowtham Model School, Himayat Nagar, Hyderabad 500029, TS","+91-40-65504229, +91-40-65585013",,
Sahaja Yoga Meditation Centre - Malakpet - Hyderabad,Gym,Hyderabad,"Back Side TV Tower, Malakpet Cross Roads, Malakpet, Hyderabad 500036, TS","+91-9866614383, +91-40-24412586",",response@sahajayoga-blr.org,",
Sahaja Yoga - R C Puram - Hyderabad,Gym,Hyderabad,"B.H.E.L, R C Puram, Hyderabad 500032, TS",+91-40-23025300,"charyhyderabad@yahoo.co.in,,",
Sahaja Yoga - Vanastalipuram - Hyderabad,Gym,Hyderabad,"Vanastalipuram, Hyderabad 500070, TS",+91-9848233464,"charyhyderabad@yahoo.co.in,,",
Sahaja Yoga - Mehdipatnam - Hyderabad,Gym,Hyderabad,"Mehdipatnam, Hyderabad 500028, TS","+91-9440000832, +91-40-23301800",,
Sahaja Yoga - Nizampet - Hyderabad,Gym,Hyderabad,"Nizampet, Hyderabad 500072, TS",+91-8106963939,,
Roys Dumbells & Dreams - Banjara Hills - Hyderabad,Gym,Hyderabad,"13, Vishnu Acharya Nivas, Beside Tata Capital, Journalist Colony, Banjara Hills, Hyderabad 500034, TS",+91-40-67113703,,
Reign Gym - Vidya Nagar - Hyderabad,Gym,Hyderabad,"Shobha Pavani Arcade, Opposite Durgabhai Deshmukh Hospital, Vidya Nagar, Hyderabad 500044, TS","+91-40-65690006, +91-40-27611258",,
Raja Yoga Meditation Centre - Chanda Nagar - Hyderabad,Gym,Hyderabad,"Gopinath Garden Line, Chanda Nagar, Hyderabad 500050, TS",+91-9959710506,",hyderabad@ishafoundation.org,",
Pusle 8 Elite Gym - Abids - Hyderabad,Gym,Hyderabad,"5/4/742, Opposite G.Pulla Reddy Sweets, Abids, Hyderabad 500001, TS",+91-40-66772772,,
Pulse 8 Gym & Fitness Studio - Barkatpura - Hyderabad,Gym,Hyderabad,"3rd Floor, Opposite Barkatpura Petrol Pump, Barkatpura, Hyderabad 500027, TS",+91-40-27550189,,
Pulse 8 Gym - Nallakunta - Hyderabad,Gym,Hyderabad,"Opposite St. Patricks Junior College, Nallakunta, Hyderabad 500001, TS","+91-40-66632211, +91-9912525027",",pulse8gym@gmail.com,",
Pink Ladies Gym - Ameerpet - Hyderabad,Gym,Hyderabad,"7/1/71/H, Dharam Karam Road, Ameerpet, Hyderabad 500016, TS","+91-40-23732815, +91-8004258000",,
Oxygen Fitness Lounge - Jubilee Hills - Hyderabad,Gym,Hyderabad,"Suja Plaza, Road No 36, Jubilee Hills, Hyderabad 500033, TS","+91-40-65150777, +91-40-66637000",",oxygenthegym@yahoo.com,",
Naga Raju Weight Loss Center - Kukatpally - Hyderabad,Gym,Hyderabad,"Main Road, Kukatpally, Hyderabad 500073, TS",+91-8897896975,,
Naga Raju Weight Loss Center - Kukatpally - Hyderabad,Gym,Hyderabad,"Main Road, Kukatpally, Hyderabad 500072, TS",+91-8897896975,,
Muscle Line Gym - Himayat Nagar - Hyderabad,Gym,Hyderabad,"Victory Vision, 2nd Floor, Opposite Maruti Show Room, Himayat Nagar, Hyderabad 500029, TS","+91-40-32471655, +91-9246363116",",info@musclelinegym.online,",
Mohtesham& Gym - Chanchalguda - Hyderabad,Gym,Hyderabad,"Chanchalguda, Hyderabad 500024, TS",+91-9849198733,,
Medcosmac - Begumpet - Hyderabad,Gym,Hyderabad,"6/3/1186/A/6, Chinna Bal Reddy Building, Greenlands, Begumpet, Hyderabad 500016, TS","+91-40-64644485, +91-8978839253, +91-8978839218",,
Mayur Weight Loss Services - Moula Ali - Hyderabad,Gym,Hyderabad,"5/13/48, Near Katta Mysamma Temple, Indira Nagar, Moula Ali, Hyderabad 500040, TS",+91-9059004606,"info@fortunebutterwww.fortunebutterflycity,,",
Leafyoga - Manikonda - Hyderabad,Gym,Hyderabad,"Puppalaguda, Manikonda, Hyderabad 500089, TS",+91-9849150590,,
La Quinta Saloon For Men And Women - Himayat Nagar - Hyderabad,Gym,Hyderabad,"Near Minerva Coffee Shop, Himayat Nagar, Hyderabad 500029, TS",+91-40-67114616,,
La Belle - Marredpally - Hyderabad,Gym,Hyderabad,"Beside HDFC Bank, West Marredpally, Secunderabad, Hyderabad 500026, TS","+91-40-66486664, +91-40-66486665",",labelleadrt@gmail.com,info@labelle.in,",
La Belle - Gachibowli - Hyderabad,Gym,Hyderabad,"Beeco Arcade, Above Subway Restaurant, Vinayak Nagar Colony, Gachibowli, Hyderabad 500031, TS","+91-40-42014812, +91-40-42014817, +91-40-64597778",,
La Belle - Kukatpally - Hyderabad,Gym,Hyderabad,"Near To More Retail Outlet, Vivekananda Nagar Colony, Kukatpally, Hyderabad 500072, TS","+91-40-23161636, +91-40-23161686",",info@labelle.in,",
La Belle - Banjara Hills - Hyderabad,Gym,Hyderabad,"Kimtee Square, Near To ICICI Bank, Road No 12, Banjara Hills, Hyderabad 500034, TS","+91-40-66662204, +91-40-66662205",",moifabeautyparlour@banjarahills.com,u003einfo@labelle.in,info@labelle.in,",
Kumbha Ganapathi Mediation - Hyderabad - Hyderabad,Gym,Hyderabad,"Hyderabad 500001, TS",+91-9347524243,",rajdeepbookdepot@gmail.com,",
Kinnari Classes - Kachiguda - Hyderabad,Gym,Hyderabad,"502, Lotus Gardenia Apartments, Near Haridwar Hotel, Kachiguda, Hyderabad 500027, TS","+91-9290029030, +91-40-65888645",,
Kapila Maharshi Yoga Centre - Sri Nagar Colony - Hyderabad,Gym,Hyderabad,"Post Office Building, 2nd Floor, Sri Nagar Colony, Hyderabad 500073, TS","+91-40-23747607, +91-40-65537607, +91-9849977607",,
Kajal Body Massage Center - Somajiguda - Hyderabad,Gym,Hyderabad,"Somajiguda, Hyderabad 500082, TS",+91-9392517906,,
Iron Land Gym - Ameerpet - Hyderabad,Gym,Hyderabad,"6-3-801 To 803, Elephant House, 3rd Floor, Opposite Russells Institute Of Spoken English, Punjagutta Officers Colony, Ameerpet Cross Road, Ameerpet, Hyderabad 500082, TS",+91-9121755915,"neha@criesandcrawls.com,,",
Inshape Ac Gym&Health Centre - Bowenpally - Hyderabad,Gym,Hyderabad,"8/7/146/2, BS Srdg School, Bowenpally, Hyderabad 500011, TS",+91-40-49641909,,
Golden Gym - Ramanthapur - Hyderabad,Gym,Hyderabad,"3, Opposite TV Studio, Ramanthapur, Hyderabad 500013, TS",+91-9849487866,"himayatnagar.hyderabad@goldsgym.in,,WeCare@GoldsGym.in,",
Gold Gym - Uppal - Hyderabad,Gym,Hyderabad,"Opposite Pochamma Temple, Chilka Nagar, Uppal, Hyderabad 500039, TS",+91-9848496829,"WeCare@GoldsGym.in,,himayatnagar.hyderabad@goldsgym.in,banjarahills.hyd@goldsgym.in,",
Global Body Massage - S R Nagar - Hyderabad,Gym,Hyderabad,"Near Reliance Office, S R Nagar, Hyderabad 500038, TS","+91-9640375031, +91-40-20705454",",info@powermaxfitness.net,",
Fitness One - Kondapur - Hyderabad,Gym,Hyderabad,"5, Park View Building, Venkat Enclave, 2nd Floor, Above Heritage Fresh, Whitefields, Kondapur, Hyderabad 500084, TS",+91-40-40184455,",goldsgymkondapur@gmail.com,",
Fitness Gym - Nizampet - Hyderabad,Gym,Hyderabad,"Nizampeth, Hyederabad 500072, TS",+91-9032433919,",memberexperience@anytimefitness.in,",
Fitness Fast Gym - Secunderabad - Hyderabad,Gym,Hyderabad,"1-8-303/25, RS Towers, 2nd, 3rd & 4th Floor, Near To Ohri's Restaurant, Sindhi Colony, PG Road, Secunderabad, Hyderabad 500003, TS",+91-40-27816677,",info@fitnessfast.in,",
Fatbury - Kphb Colony - Hyderabad,Gym,Hyderabad,"Ganesh Plaza, Beside K S Bakers, Jntu-Hitech City Main Road, Kphb Colony, Hyderabad 500072, TS",+91-40-40203203,,
Fair And Fit Gym - Bakaram - Hyderabad,Gym,Hyderabad,"1/4/879/42/6/A/1, Above Vijaya Bank, Bakaram, Hyderabad 500048, TS",+91-40-32406668,"himayatnagar.hyderabad@goldsgym.in,,fsfitness.himayatnagar@gmail.com,",
Esa Misris Gym - Zoo Park - Hyderabad,Gym,Hyderabad,"19/2/224/G/B, Rafiq Plaza, Opposite Zoo Park, Bahadurpura, Hyderabad 500264, TS","+91-9885244934, +91-9666988316, +91-9666988317",",nehruzoopark1@gmail.com,",
Divine Power Yoga Health - Gandhi Nagar - Hyderabad,Gym,Hyderabad,"Canara Bank Road, Gandhi Nagar, Hyderabad 500020, TS",+91-9394035777,,
Curves Key Ladies Gym Ii - Masab Tank - Hyderabad,Gym,Hyderabad,"Opposite Froebels School Lane, AC Guards, Masab Tank, Hyderabad 500028, TS",+91-8008451505,",curveskey@yahoo.com,",
Body Makers - Malakpet - Hyderabad,Gym,Hyderabad,"383, Mahboob Mansion, Sri Krupa Market, Malakpet, Hyderabad 500036, TS","+91-7416504253, +91-7416502662",,
Body Art Fitness - Dilsukh Nagar - Hyderabad,Gym,Hyderabad,"Dilsukh Nagar, Hyderabad 500060, TS",+91-9550871111,",hello@cultfit.com,",
Bhanu Academy Of Yoga & Music - Sainikpuri - Hyderabad,Gym,Hyderabad,"12, Sri Chakra Enclave, Near 6th Avenue, Sainikpuri, Hyderabad 500594, TS","+91-9391150330, +91-40-27100145",,
Best Gym & Fitness Centre - Habsiguda - Hyderabad,Gym,Hyderabad,"Hari Hara Estate, 3rd Floor, Street No 8, Habsiguda, Hyderabad 500007, TS",+91-40-67111534,,
Antharvani Meditation Center - Madhura Nagar - Hyderabad,Gym,Hyderabad,"101, Sirisha Apartments, Madhura Nagar, Hyderabad 500016, TS",+91-40-67271146,,
Alex Fitness Centre - Ashok Nagar - Hyderabad,Gym,Hyderabad,"1-1-648-A, Meri Gold Apartments, A Block, Back Side More Super Market, Kavadi Guda, Ashok Nagar, Hyderabad 500080, TS",+91-9866165467,,
Al Nasar Gym - Bahadurpura - Hyderabad,Gym,Hyderabad,"19/14/591/A/81, Bahadurpura, Hyderabad 500264, TS",+91-9840882190,,
Agile Fitness Hub - Kompally - Hyderabad,Gym,Hyderabad,"Siva Reddy Complex, Near To Cineplanet, Kompally, Hyderabad 500014, TS","+91-9963002220, +91-9963289999",,
Addlife - Banjara Hills - Hyderabad,Gym,Hyderabad,"IAS Officers Quaters, 1st Avenue, Road No 14, Nandi Nagar, Banjara Hills, Hyderabad 500034, TS",+91-40-23541017,",ao.addlife@gmail.com,",
Abcd Fitness Club - Madhapur - Hyderabad,Gym,Hyderabad,"564/A/32, Opposite Lotus Pond, Madhapur, Hyderabad 500081, TS",,",hello@cultfit.com,",
A To Z Body Massage Parlour - Madhapur - Hyderabad,Gym,Hyderabad,"10, Madhura Plaza, Opposite To Fortune Tower, Madhapur, Hyderabad 500033, TS",+91-40-66047445,,
360 Degree Fitness - Jubilee Hills - Hyderabad,Gym,Hyderabad,"Croma Building, 2nd Floor, Beside Brand Factory, CBI Colony, Road No 36, Jubilee Hills, Hyderabad 500033, TS",+91-40-23552360,",360degreefitness@gmail.com,",
300 The Gym - Kphb Colony - Hyderabad,Gym,Hyderabad,"MIG-20/6, 2nd Floor, Kukatpally Housing Board Colony, Near Pavan Tea Corner, JNTU Road, Kukatpally, Hyderabad 500072, TS",+91-9502285555,,
18 Hours Gym - Nacharam - Hyderabad,Gym,Hyderabad,"26, V.S. Plaza, 2nd Floor, Opposite NTR Studio, Nacharam, Hyderabad 500076, TS",+91-9866423959,",18hoursgymhyd@gmail.com,",
The Ark Gym - Hyderabad,Gym,Hyderabad,,,",arkjet1@gmail.com,ao.addlife@gmail.com,",
Yogis Power Gym - Hyderabad,Gym,Hyderabad,"4-88/1, Opposite Hal Gate 1, Bala Nagar, Hyderabad 500037, TS",+91-9394500079,",info@wavesgym.com,",
X Plode Health And Fitness Centre - Hyderabad,Gym,Hyderabad,"Near Choti Masjid, Murad Nagar, Hyderabad 500028, TS","+91-9299352650, +91-9849406140, +91-9959989866","himayatnagar.hyderabad@goldsgym.in,,",
Work Outs - Hyderabad,Gym,Hyderabad,"Doshi Square, 3rd Floor, Above Suzuki Showroom, Basheerbagh, Hyderabad 500029, TS",+91-40-66446660,",support@gymcompany.co.za,hello@cultfit.com,rkbodyandsoul@gmail.com,himayatnagar.hyderabad@goldsgym.in,info@rkbodyandsoul.com,info@solitairefitness.com,fsfitness.himayatnagar@gmail.com,",
Vinayaka Gods Power Gym - Hyderabad,Gym,Hyderabad,"11-3-292/6, 1st Floor, Padmarao Nagar, Hyderabad 500025, TS",+91-9849986680,",1l2@6.html,",
Vayuputra Gym - Hyderabad,Gym,Hyderabad,"2, KPR Complex, Bachupally, Hyderabad 500090, TS",+91-40-67119123,",dusankanti.giri@gmail.com,",
Utlimate Gym - Hyderabad,Gym,Hyderabad,"Bata Building, 2nd Floor, Malkajigiri, Anand Bagh, Hyderabad 500047, TS",+91-9949587441,",hello@cultfit.com,",
Universal Gym And Health Care - Hyderabad,Gym,Hyderabad,"Fateh Darwaza, Beside Hotel Sharan, Charminar, Hyderabad 500002, TS",+91-40-24528582,",stayfit@stayfitindia.com,360degreefitness@gmail.com,",
Unik Fitness Gym - Hyderabad,Gym,Hyderabad,"Divya Arcade, 3rd Floor, Behind Pizza Hut, Madhapur, Hyderabad 500081, AP","+91-40-40183327, +91-9177837837, +91-9177208281",",unik.fitness@gmail.com,fsfitness.himayatnagar@gmail.com,mahitha.pamineni@gmail.com,",
Turnhalle Gym - Hyderabad,Gym,Hyderabad,"2-2-23/22/4, D-414, D D Colony, Quadri Bagh, Amberpet, Hyderabad 500013, TS","+91-8686656564, +91-9848081888",,
Tunki Fitness - Hyderabad,Gym,Hyderabad,"2nd Floor, Above Smart Beauty Parlour, Brindavan Colony Lane, Nizampet, Hyderabad 500090, TS",+91-9393267676,"himayatnagar.hyderabad@goldsgym.in,,360degreefitness@gmail.com,",
Trojans Gym - Hyderabad,Gym,Hyderabad,"16-11-23/37/A, 1st Floor, Opposite RTA Office, Moosarambagh, Hyderabad 500036, TS","+91-9849074175, +91-40-65266116",,
Total Fitness Gym - Hyderabad,Gym,Hyderabad,"16-8-931/2, Near Bharat Petrol Pump, Nalgonda Cross Road, Malakpet, Hyderabad 500036, TS",+91-40-64557199,,
Talwalkars - Ecil - Hyderabad,Gym,Hyderabad,"1-18-6/3,4, B3-4 MIG, Pakala Towers, 1st Floor, Above Food World, Dr AS Rao Nagar, ECIL, Kapra Municipality, Hyderabad 500052, TS",+91-40-40065812,,
Taj Gym - Hyderabad,Gym,Hyderabad,"Beside Mallikarjuna Temple, Biramguda, Ramachandrapuram, Hyderabad 500032, TS",+91-9848203876,",innercircle@tajhotels.com,",
Star Fitness Gym Outlet - Hyderabad,Gym,Hyderabad,"Saptagiri Tower, Opposite Police Station, Ganesh Temple Road, Vanasthalipuram, Hyderabad 500070, TS",+91-9000115959,,
Sona Gym - Hyderabad,Gym,Hyderabad,"201, Sapthagiri Complex, 2nd Floor, KPHB Colony, Hyderabad 500072, TS","+91-40-23064326, +91-9849259021",,
Sky Gym - Hyderabad,Gym,Hyderabad,"Opposite Hussain Sagar Lake, Tank Bund Road, Gandhi Nagar, Hyderabad 500020, TS",+91-40-27522999,",studioskyfitness@gmail.com,info@skyrockfitness.com,",
Shapes Health Care - Hyderabad,Gym,Hyderabad,"Concourse Building, 1st Floor, Above SBI Bank, Ameerpet, Hyderabad 500016, TS",+91-40-67239109,",shapes-health-care-hyderabad-telangana-r_q@s5rfp.html,",
Saizen Gym - Hyderabad,Gym,Hyderabad,"1-91/18, EMR Complex, Beside Police Station, Nacharam, Hyderabad 500076, TS","+91-9963433433, +91-9246500536","himayatnagar.hyderabad@goldsgym.in,,a6@gd.html,",
Roys Dumbells And Dreams - Hyderabad,Gym,Hyderabad,"13, Vishnu Archarya Nivas, Beside Tata Capital, Journalist Colony, Banjara Hills, Hyderabad 500034, TS",+91-9885314077,,
Rock Gym - Hyderabad,Gym,Hyderabad,"Baga Reddy Complex, 1st Floor, Opposite Foot Ball Ground, Trimulgherry, Hyderabad 500015, TS","+91-9246502128, +91-40-32422128",",hardrockgym3@gmail.com,rockfitnessstudio999@gmail.com,aqueel_88@yahoo.com,info@skyrockfitness.com,ranjit@rudragloballogistics.com,",
Regain Fusion 4fitness - Hyderabad,Gym,Hyderabad,"Regain Plaza, Opposite Pillar 83, PVNR Express Way, Maruthinagar, Attapur, Hyderabad 500048, TS","+91-7396130695, +91-40-64643537","himayatnagar.hyderabad@goldsgym.in,,",
Pulse8 Gym - Hyderabad,Gym,Hyderabad,"3rd Floor, Opposite Barkatpura Petrol Pump, Barkatpura Cross Roads, Barkatpura, Hyderabad 500027, TS",+91-40-27550189,",pulse8gym@gmail.com,",
Pulse8 Elite Gym And Fitness Studio - Hyderabad,Gym,Hyderabad,"5-4-742, SP Estate, Opposite Pulla Reddy Sweets, Abids, Hyderabad 500001, TS",+91-40-66772772,",pulse8gym@gmail.com,",
Power Zone Gym - Hyderabad,Gym,Hyderabad,"10-3-761/F/2, Ibrahim Plaza, Beside Jubliee High School, Vijay Nagar Colony, Hyderabad 500057, TS",+91-40-46248639,"jsinghsidhu421@gmail.com,,kaleempowerzonegym@yahoo.com,",
Pink Ladies Gym - Hyderabad,Gym,Hyderabad,"Road 1, KPHB Colony, Kukatpally, Hyderabad 500085, TS",+91-40-23152044,,
New Shapes Gym - Hyderabad,Gym,Hyderabad,"B-148, 1st Avenue, 3rd Main Road, Sainikpuri, Secunderabad 500094, TS",+91-9603863868,,
New Gods Power Gym - Hyderabad,Gym,Hyderabad,"Bagh Amberpet, Opposite Government Hospital, Quadri Bagh, Amberpet, Hyderabad 500013, TS","+91-9346824463, +91-9885757246, +91-9010500636",,
Muscle World Gym - Hyderabad,Gym,Hyderabad,"G Sugunamma Residency, 3rd Floor, Near Last Bus Stop, West Venkatapuram, Alwal, Hyderabad 500010, TS",+91-9989974114,,
Muscle Power Gym - Hyderabad,Gym,Hyderabad,"6-1-277/3/2, APR Complex, 1st Floor, Beside Heritage Fresh Outlet, Padmarao Nagar, Hyderabad 500025, TS","+91-9848413038, +91-9666643031",",fsfitness.himayatnagar@gmail.com,",
Muscle Line Gym - Hyderabad,Gym,Hyderabad,"2-127, Badam Complex, Chaitanyapuri Cross Road, Dilsukh Nagar, Hyderabad 500060, TS",+91-9246153345,",info@musclelinegym.online,",
Mohteshamand Gym - Hyderabad,Gym,Hyderabad,"5-9-229-1, Chirag Ali Lane, Abids, Hyderabad 500001, AP",+91-40-23387652,"hussainalikhanmd@gmail.com,,himayatnagar.hyderabad@goldsgym.in,",
Mjp Oxygen Gym - Hyderabad,Gym,Hyderabad,"9-3-125/258, Near Jeeshan Hotel, Toli Chowki, Hyderabad 500008, TS",+91-9966654065,,
Mighty Gym - Hyderabad,Gym,Hyderabad,"1st Floor, Beside Venkata Narasimha Function Hall, Prashant Nagar Colony, Serilingampally, Hyderabad 500019, TS",+91-9032881192,",info@gymcompany.co.za,x3einfo@gymcompany.co.za,",
Metro Gym - Hyderabad,Gym,Hyderabad,"17-1-178/11, Sai Nagar, Colony, M.D.N. Pet, Hyderabad 500001, AP",+91-40-24332633,",hello@cultfit.com,pulse8gym@gmail.com,",
Matrix Gym - Hyderabad,Gym,Hyderabad,"9-2-504/A/5 & 6, Osmah Arcade, Above Andhra Bank, Langer House, Hyderabad 500008, TS",+91-9966282493,"WeCare@GoldsGym.in,,",
Master Gym - Hyderabad,Gym,Hyderabad,"10-1-632/1, Hakim Plaza, Opposite Ram Leela, Chintal Basti, Street No 7, Khairatabad, Hyderabad 500004, TS",+91-9290921814,,
Kunals Fitness Gym - Hyderabad,Gym,Hyderabad,"Beside Gayathri Hospital, Allahpur Road, Moti Nagar, Hyderabad 500018, TS",+91-40-23841156,"info@steelgym.in,,",
Kashish Beauty Parlour - Hyderabad,Gym,Hyderabad,"10-1-12/1, Opposite Saleem Mansion Function Hall, A C Guards, Hyderabad 500004, TS",+91-9257155043,",n@banjarahills.com,kashish-beauty-parlour-hyderabad-telangana-ywa@sx17p.html,",
Health And Wealth Services - Hyderabad,Gym,Hyderabad,"69, Brindavan Colony, Sainikpuri, Hyderabad 500094, TS","+91-9391369947, +91-40-27117663",",hello@cultfit.com,fsfitness.himayatnagar@gmail.com,info@skyrockfitness.com,",
Guts Gym - Ameerpet - Hyderabad,Gym,Hyderabad,"Near Challa Hospital, Oppssite Ration Wala, Dharamkaram Road, Ameerpet, Hyderabad 500016, TS","+91-9849081138, +91-9885229950",,
Fitness one Group - Hyderabad,Gym,Hyderabad,"7-1-71/H, D K Road, Ameerpet, Hyderabad 500016, TS",+91-40-23732815,",memberexperience@anytimefitness.in,manish.mishra321@gmail.com,info@fitnessone.in,f1fitnessone@gmail.com,",
Fitness Plus - Hyderabad,Gym,Hyderabad,"527, Near Reliance Fresh, Vivekananda Nagar Colony, Kukatpally, Hyderabad TS500072, TS",+91-40-67119724,",hello@cultfit.com,",
Deejays Gym And Fitness Center - Hyderabad,Gym,Hyderabad,,,"salmanayaz10@yahoo.com,,banjarahills.hyd@goldsgym.in,",
Chikky Gym - Hyderabad,Gym,Hyderabad,"Pilot Raj Kumar Road, Mallikarjuna Nagar, Malkajgiri, Hyderabad 500047, AP","+91-7799224139, +91-9885445295",",abhimay1@gmail.com,",
Celebrity Club - Hyderabad,Gym,Hyderabad,"3-4-1005/6, Dantapally Chambers, Barkatpura Cross Roads, Barkatpura, Hyderabad 500027, AP",+91-40-64151395,"gm@celebrityhospitality.com,,",
Body Care Gym - Hyderabad,Gym,Hyderabad,"Nawaz Reddy Complex, IDA Jeedimetla, Market Road, Shapur Nagar, Hyderabad 500055, TS",+91-9966646699,",hello@cultfit.com,",
Best Gym And Fitness Centre - Hyderabad,Gym,Hyderabad,"3rd Floor, Hari Hara Estate, Street No 8, Habsiguda, Hyderabad TS500007, TS",+91-40-67111534,"info@solitairefitness.com,memberexperience@anytimefitness.in,hello@cultfit.com,,",
Anitha Gym - Hyderabad,Gym,Hyderabad,"Above Hero Honda Showroom, Shapur Nagar, Hyderabad 500855, TS",+91-9849784069,"info@energieindia.com,,",
Alex Fitness Centre - Hyderabad,Gym,Hyderabad,"1-1-648/A, A Block, Meri Gold Apartments, Vishnu Residency, Ashok Nagar, Hyderabad 500020, TS",+91-40-65260956,,
Al Nasar Gym - Hyderabad,Gym,Hyderabad,"19/14/591-A/81, Bahadurpura, Hyderabad 500264, TS",+91-9840882190,,
Body Care - Hyderabad,Gym,Hyderabad,"1st Floor, Prashanthi Towers, Road 92, Check Post Road, MLA Colony, Jubilee Hills, Hyderabad 500034, TS",+91-40-40041114,,
Hair Styling Beauty Parlour - Hyderabad,Gym,Hyderabad,,,",salionsramanthapur@gmail.com,likesramesh.jampala123@gmail.com,",
Talwalkars - Hyderabad,Gym,Hyderabad,"15-29-1000, House 18, MCK House, Next To Prime Hospital, Phase 1 & 2, Kphb Colony, Hyderabad 500072, KA",,",avantis@talwalkars.net,ratnam.nakka@careratings.com,jayantac@icraindia.com,",
Muskan Beauty Parlour And Gym - Hyderabad,Gym,Hyderabad,"5-9-47/5, Achayya Bunglow, Beside Kirloskar Hospitals, Himayat Nagar, Hyderabad 500029, TS",+91-9849114759,,
Deejay Fitness Center - Hyderabad,Gym,Hyderabad,"Near Madina, Dewan Devdi, Charminar, Hyderabad 500002, AP","+91-9885045122, +91-9246502022","salmanayaz10@yahoo.com,,",
The Naturals - Hyderabad,Gym,Hyderabad,,,",eec9.ghmc@gmail.com,care@naturals.in,care@myfitness.co.in,info@naturals.in,",
The Cutting Edge - Hyderabad,Gym,Hyderabad,,,",enquiry@ftv.ind.in,info@kfsfitness.com,Info@cuttingedgeds.com,",
Shayas Cosmetic Clinic - Hyderabad,Gym,Hyderabad,"303, Maheshwari Towers, Opposite Music World, Road No 1, Banjara Hills, Hyderabad 500034, TS",,",info@jayalaxmiindustries.com,info@shayascare.com,",
New Look Cosmetics Laser Clinic - Hyderabad,Gym,Hyderabad,"Rajesh Village, Basheer Bagh, Saket, Kapra, Hyderabad 500062, TS",,",xxxx@newlooklasercare.com,",
Glamour World - Hyderabad,Gym,Hyderabad,,,"himayatnagar.hyderabad@goldsgym.in,,",
Anoo's Electrolysis and Obesity Clinic - Hyderabad,Gym,Hyderabad,"Door No 15-24-1, MIG No 1, Beside Kphb Arch, Mck House, Kukatpally, Hyderabad 500072, TS","+91-9866066077, +91-9959616106",",anoosaccounts@yahoo.com,",
Vibes - Hyderabad,Gym,Hyderabad,"59/1/2, Vikrampuri, Karkhana Road, Secunderabad, Hyderabad 500009, TS",,",info@vibes.in,",
