Name,Sector,City,Address,Phone,Email,Lat-Long
Regus - Mumbai Navi Mumbai Vashi,Companies(Private),Thane,"17 and 18, Platinum Techno Park, Bhagwan Mahaveer Road / Pranavanandji Marg Level 13, Sector 30, Vashi, Navi Mumbai, Mumbai, Maharashtra 400705",022 6121 4949,,"19.0656,72.9938251"
GRACE CONTAINERLINES,Companies(Private),Thane,"Floor, Plot No. 47, F-23, Haware Fantasia Business Park, 1st, near Inorbit Mall, Sec-30A, Vashi, Navi Mumbai, Maharashtra 400703",022 4601 0770,",steven.sathe007@gmail.com,u003esteven.sathe007@gmail.com,info@gracelines.in,","19.0441136,73.0810703"
Renucorp Pvt Ltd-Mumbai Corporate Office,Companies(Private),Thane,"RenuCorp Pvt Ltd A45 Oshiya mata compound Reti bunder, Road, Kalher, Bhiwandi, Maharashtra 421302",,",renukasalesakl@gmail.com,contact@icanbpo.com,sales@gemmedpharma.com,info@renucorp.in,","19.2468834,73.0065064"
HEERA GROUP CORPORATE OFFICE,Companies(Private),Thane,"528H+C7J, Kausa Village Rd, Tetavli, Kausa, Mumbra, Navi Mumbai, Thane, Maharashtra 400612",,",hgfoodexpvtltd@gmail.com,info@heerabgroup.com,x3eheeraitax456@gmail.com,heeraibg.in@gmail.com,info@companydetails.in,heeraitax456@gmail.com,","19.1660837,73.0255567"
The Corporate Park,Companies(Private),Thane,,,",corporate@runwal.com,x3ecompany.secretaries@runwal.com,info@glamac.com,company.secretaries@runwal.com,business@acldigital.com,radhika.thorat@ril.com,enquiry@kserve.co.in,cto@scanpointgeomatics.co,",
Saraswat Infotech - Corporate Office,Companies(Private),Thane,"3229+VMW, Sector 1, Shiravane, Nerul, Navi Mumbai, Maharashtra 400706",,",Info@sil.co.in,last@sil.co.in,devdatta.chandgadkar@sil.co.in,u003edevdatta.chandgadkar@sil.co.in,","19.0522369,73.0166202"
Hindustan Unilever Limited,Companies(Private),Thane,,,",x3ecomsec.hul@unilever.com,Investor.Relations-hul@Unilever.com,lever.care@unilever.com,comsec.hul@unilever.com,",
Office,Companies(Private),Thane,,,",x3ejhankhana.desai@kserve.co.in,sanjiv.chavan@jrsindia.com,supthamarketing@gmail.com,jhankhana.desai@kserve.co.in,enquiry@kserve.co.in,sales@ashidaelectronics.com,x3esanjiv.chavan@jrsindia.com,",
Office,Companies(Private),Thane,,,",x3ejhankhana.desai@kserve.co.in,sanjiv.chavan@jrsindia.com,supthamarketing@gmail.com,jhankhana.desai@kserve.co.in,enquiry@kserve.co.in,sales@ashidaelectronics.com,x3esanjiv.chavan@jrsindia.com,",
Navi Mumbai Municipal Corporation Office,Companies(Private),Thane,"G-56, Karmvir Bhau Rao Patil Marg, Sector 4, Sarsole, Navi Mumbai, Maharashtra 400706",,",secretary@ndmc.gov.in,dmc_diu@yahoo.co.in,pankaj.tanwar@organicrecycling.co,commissioner@nmmc.gov.in,","19.0461746,73.0096915"
Aviyana Brand Experts,Companies(Private),Thane,"Parth Solitaire, Office No 609, 6th Floor, Plot No. 2 Sector 9E, near DMart Kharghar, Kalamboli, Navi Mumbai, Maharashtra 410218",097020 02574,"connect@aviyanabrandexperts.com,,","19.0435298,73.0753199"
Prabhat Dairy Ltd (Corporate Office),Companies(Private),Thane,"4, Thane - Belapur Rd, TTC Industrial Area, MIDC Industrial Area, Turbhe, Navi Mumbai, Maharashtra 400703",,",investor@prabhat-india.in,cs@prabhatfresh.org,dipti.todkar@prabhat-india.in,einward.ris@karvy.com,uxxxj@prabhatdairy.in,","19.0494088,73.020524"
The Crown,Companies(Private),Thane,,,"force1care@gmail.com,,x3elist.india@list-group.com,atulpanvelkar07@gmail.com,info@lodhacrown.co,crowncorporation03@gmail.com,list.india@list-group.com,directorakhtarhussianshaikh@gmail.com,",
Space Cellular Private Limited.,Companies(Private),Thane,,,"kumarsarwar@gmail.com,,kumarsarwar@spacecellular.in,",
UtilizeCore India Private Limited,Companies(Private),Thane,"10th Floor. Office, Zion Apartment, Plot-273, 1001 to 1004, Sector 10, Kharghar, Navi Mumbai, Maharashtra 410210",,",info@utilizecore.com,","19.0368259,73.0753755"
mumbai office,Companies(Private),Thane,,,",info@ugamsolutions.com,",
Osjva Group,Companies(Private),Thane,"3rd Floor, Plot, 96, Sector 19 Rd, Sector-19, Kharghar, Navi Mumbai, Maharashtra 410210",097571 43184,",admin@osjvagroup.com,","19.049199,73.0759407"
The Cotton Corporation of India Ltd.,Companies(Private),Thane,,,",pxxxxxxk@cotcorp.gov,pxxxxxxk@cotcorp.gov.in,headoffice@cotcorp.com,l.k.gupta@cotcorp.com,",
Office,Companies(Private),Thane,,,",x3ejhankhana.desai@kserve.co.in,sanjiv.chavan@jrsindia.com,supthamarketing@gmail.com,jhankhana.desai@kserve.co.in,enquiry@kserve.co.in,sales@ashidaelectronics.com,x3esanjiv.chavan@jrsindia.com,",
"Regus - Supreme Business Park, Powai",Companies(Private),Thane,"5th floor, Wing 'B, Supreme Business Park, Supreme City Village Powai Unit no. B-501/A, Mumbai, Maharashtra 400076",022 6993 1600,,"19.1113219,72.9054612"
Business Information Systems,Companies(Private),Thane,"B11/101, Ghodbunder Rd, Vijay Park, Kasarvadavali, Thane West, Thane, Maharashtra 400615",091675 63676,",corp@dynodesoft.com,SABER.H.SAYYED@GMAIL.COM,EMAILinfo@megasoftinfo.comOpens,dynodecorp@gmail.com,debi.sarangi682@gmail.com,info@iisecurity.in,","19.2697355,72.9640135"
Maharashtra Belapur,Companies(Private),Thane,,,",info@privi.co.in,vinaysingh6363@gmail.com,marketing@amines.com,info@parveen.in,amines@mtnl.net.in,",
Bajaj Office,Companies(Private),Thane,,,"customerservice@bajajauto.co.in,,bagichelp@bajajallianz.co.in,x3ecustomerservice@bajajauto.co.in,legal@bajajelectricals.com,bhflwecare@bajajfinserv.in,",
Professional Worldwide Logistics (India) Private Limited,Companies(Private),Thane,,,",prangach@hellmann.com,x3eprangach@hellmann.com,Chandrashekhar.kotian@mol-log.com,x3eChandrashekhar.kotian@mol-log.com,",
SAMTROD SYSTEMS,Companies(Private),Thane,,,",pentacle.systems@gmail.com,",
Professional Worldwide Logistics (India) Private Limited,Companies(Private),Thane,,,",prangach@hellmann.com,x3eprangach@hellmann.com,Chandrashekhar.kotian@mol-log.com,x3eChandrashekhar.kotian@mol-log.com,",
Amaju Secure Sure Pvt Ltd.,Companies(Private),Thane,"Tulip Plaza CHS, Block G, Sector 13, Kharghar, Navi Mumbai, Maharashtra 410210",,"bamesh2009@gmail.com,,gautam@amajusecure.com,","19.0436358,73.0691734"
Spectrum Techno Office,Companies(Private),Thane,"3XCX+9WJ, Liberty Housing Society, Sector 17, Vashi, Navi Mumbai, Maharashtra 400703",,"accounts@spectrumworld.net,,info@specnt.com,","19.0709608,72.99718"
Home Solution,Companies(Private),Thane,,,",rinkeshgala94@gmail.com,RAKESHKV777@GMAIL.COM,krishnan.gg@gmail.com,",
ISO 9001 Software - MyEasyISO,Companies(Private),Thane,,,",kaushal@effivity.com,",
Regus - Mumbai Navi Mumbai Vashi,Companies(Private),Thane,"17 and 18, Platinum Techno Park, Bhagwan Mahaveer Road / Pranavanandji Marg Level 13, Sector 30, Vashi, Navi Mumbai, Mumbai, Maharashtra 400705",022 6121 4949,,"19.0656,72.9938251"
Aviyana Ventures Pvt. Ltd.,Companies(Private),Thane,"609, Parth Solitaire Commercial Complex, Plot No-2 Sector-9E Kalamboli, New Panvel East, Navi Mumbai, Maharashtra 410218",087791 02007,",bxx@aviyanajobs.com,d-j@aviyanajobs.com,aviyanaventures@gmail.com,office.ravindra@gmail.com,connect@aviyanaventures.com,","19.0393766,73.10003"
Registered Office,Companies(Private),Thane,,,",corporate@bsvgroup.com,sunil.lotke@indiainfoline.com,",
Greatermen India Kharghar Branch,Companies(Private),Thane,"Swarna Complex, Suite no.04,1st floor, Sector 7, Kharghar, Navi Mumbai, Maharashtra 410210",,",indochemindustries@yahoo.co.in,","19.0354902,73.0612349"
kautilya Wel Man and Fin Con,Companies(Private),Thane,,,",kautilyagennext@gmail.com,pkmrvatsyayan@gmail.com,",
Turbhe Office ERP CENTER,Companies(Private),Thane,"13-3, Turbhe Belapur Rd, MIDC Industrial Area, Sanpada, Navi Mumbai, Maharashtra 400706",,",tushar@kmsindia.in,sales@eresourceinfotech.com,","19.061557,73.0297967"
CIDCO CONCRETE PLANT,Companies(Private),Thane,"23VJ+RCH, Sector 15, Kharghar, Navi Mumbai, Maharashtra 410210",,",factory@omega-elevators.com,deepa@ultratech.in,bhatt.fibreways@gmail.com,shekhartamhane@ultratech.in,mktbom@omega-elevators.com,info.mumbai@chryso.com,info@bhattfrp.com,angshuman.roychoudhury@siemens.co,radhakrishnajha2020@gmail.com,","19.0445656,73.0785258"
Mahape office,Companies(Private),Thane,,,"t.trivedi@marcura.com,kumarc@netcoconverge.com,,",
ISHAAN ENTERPRISES,Companies(Private),Thane,,,",chansongroup@gmail.com,info@ishaangroup.com,accounts.vjnr@itpsco.in,",
Esditech Engineering company Private Limited,Companies(Private),Thane,,,",kaypiyes@gmail.com,esditechengineering385@gmail.com,",
Sohani Chemicals Private Limited,Companies(Private),Thane,,,"sanjaypatni2812@gmail.com,,hipurity@hipuritychem.co.in,aromaticandindustrialchemicals@rediffmail.com,",
AP Infra,Companies(Private),Thane,,,",support@infra.market,smcipl.co@gmail.com,smcipl@smcinfra.com,admin@peakinfra.com,x3esmcipl.acc10@gmail.com,smcipl.acc10@gmail.com,Krushiraj.infra@gmail.com,",
Aviyana Academy,Companies(Private),Thane,"Aviyana House-609, Parth Solitaire Commercial Complex, Plot No-2, Sector-9E, near D-Mart, Kalamboli, Navi Mumbai, Maharashtra 410218",087791 02007,",connect@aviyanaventures.com,","19.0435298,73.0753199"
Dev Office,Companies(Private),Thane,,,",company.secretaries@runwal.com,x3ecompany.secretaries@runwal.com,thanesales@hiranandani.net,",
Professional Worldwide Logistics (India) Private Limited,Companies(Private),Thane,,,",prangach@hellmann.com,x3eprangach@hellmann.com,Chandrashekhar.kotian@mol-log.com,x3eChandrashekhar.kotian@mol-log.com,",
Fleet Office,Companies(Private),Thane,"F-R-4, 4th Floor, Korum Mall Eastern Express Highway, Shahid Mangal Pandey Rd, Samata Nagar, Thane West, Maharashtra 400606",022 4897 7991,",corporate_fmmea@fleetship.com,maritasfleet@gmail.com,info@sinastamaritime.com,FLEET-IN.DEL-MANNING@fleetship.com,viral_ind1@rediffmail.com,","19.2035083,72.9621206"
Sriji Heights,Companies(Private),Thane,,,",Sarfaraz@gmail.com,madhavanganesan.indipals@gmail.com,info.retail@ambit.co,",
Regus - Mumbai Navi Mumbai Vashi,Companies(Private),Thane,"17 and 18, Platinum Techno Park, Bhagwan Mahaveer Road / Pranavanandji Marg Level 13, Sector 30, Vashi, Navi Mumbai, Mumbai, Maharashtra 400705",022 6121 4949,,"19.0656,72.9938251"
Business Information Systems,Companies(Private),Thane,"B11/101, Ghodbunder Rd, Vijay Park, Kasarvadavali, Thane West, Thane, Maharashtra 400615",091675 63676,",corp@dynodesoft.com,SABER.H.SAYYED@GMAIL.COM,EMAILinfo@megasoftinfo.comOpens,dynodecorp@gmail.com,debi.sarangi682@gmail.com,info@iisecurity.in,","19.2697355,72.9640135"
Maharashtra Belapur,Companies(Private),Thane,,,",info@privi.co.in,vinaysingh6363@gmail.com,marketing@amines.com,info@parveen.in,amines@mtnl.net.in,",
Bajaj Office,Companies(Private),Thane,,,"customerservice@bajajauto.co.in,,bagichelp@bajajallianz.co.in,x3ecustomerservice@bajajauto.co.in,legal@bajajelectricals.com,bhflwecare@bajajfinserv.in,",
Professional Worldwide Logistics (India) Private Limited,Companies(Private),Thane,,,",prangach@hellmann.com,x3eprangach@hellmann.com,Chandrashekhar.kotian@mol-log.com,x3eChandrashekhar.kotian@mol-log.com,",
SAMTROD SYSTEMS,Companies(Private),Thane,,,",pentacle.systems@gmail.com,",
Professional Worldwide Logistics (India) Private Limited,Companies(Private),Thane,,,",prangach@hellmann.com,x3eprangach@hellmann.com,Chandrashekhar.kotian@mol-log.com,x3eChandrashekhar.kotian@mol-log.com,",
Amaju Secure Sure Pvt Ltd.,Companies(Private),Thane,"Tulip Plaza CHS, Block G, Sector 13, Kharghar, Navi Mumbai, Maharashtra 410210",,"bamesh2009@gmail.com,,gautam@amajusecure.com,","19.0436358,73.0691734"
Spectrum Techno Office,Companies(Private),Thane,"3XCX+9WJ, Liberty Housing Society, Sector 17, Vashi, Navi Mumbai, Maharashtra 400703",,"accounts@spectrumworld.net,,info@specnt.com,","19.0709608,72.99718"
Home Solution,Companies(Private),Thane,,,",rinkeshgala94@gmail.com,RAKESHKV777@GMAIL.COM,krishnan.gg@gmail.com,",
ISO 9001 Software - MyEasyISO,Companies(Private),Thane,,,",kaushal@effivity.com,",
Regus - Mumbai Navi Mumbai Vashi,Companies(Private),Thane,"17 and 18, Platinum Techno Park, Bhagwan Mahaveer Road / Pranavanandji Marg Level 13, Sector 30, Vashi, Navi Mumbai, Mumbai, Maharashtra 400705",022 6121 4949,,"19.0656,72.9938251"
Business Information Systems,Companies(Private),Thane,"B11/101, Ghodbunder Rd, Vijay Park, Kasarvadavali, Thane West, Thane, Maharashtra 400615",091675 63676,",corp@dynodesoft.com,SABER.H.SAYYED@GMAIL.COM,EMAILinfo@megasoftinfo.comOpens,dynodecorp@gmail.com,debi.sarangi682@gmail.com,info@iisecurity.in,","19.2697355,72.9640135"
Maharashtra Belapur,Companies(Private),Thane,,,",info@privi.co.in,inquiry@prasolchem.com,vinaysingh6363@gmail.com,marketing@amines.com,info@parveen.in,amines@mtnl.net.in,",
Bajaj Office,Companies(Private),Thane,,,"customerservice@bajajauto.co.in,,bagichelp@bajajallianz.co.in,x3ecustomerservice@bajajauto.co.in,legal@bajajelectricals.com,bhflwecare@bajajfinserv.in,",
Professional Worldwide Logistics (India) Private Limited,Companies(Private),Thane,,,",prangach@hellmann.com,x3eprangach@hellmann.com,solomongaddam1994@gmail.com,x3eChandrashekhar.kotian@mol-log.com,Chandrashekhar.kotian@mol-log.com,",
SAMTROD SYSTEMS,Companies(Private),Thane,,,",pentacle.systems@gmail.com,",
Professional Worldwide Logistics (India) Private Limited,Companies(Private),Thane,,,",prangach@hellmann.com,x3eprangach@hellmann.com,solomongaddam1994@gmail.com,x3eChandrashekhar.kotian@mol-log.com,Chandrashekhar.kotian@mol-log.com,",
Amaju Secure Sure Pvt Ltd.,Companies(Private),Thane,"Tulip Plaza CHS, Block G, Sector 13, Kharghar, Navi Mumbai, Maharashtra 410210",,"bamesh2009@gmail.com,,gautam@amajusecure.com,","19.0436358,73.0691734"
Spectrum Techno Office,Companies(Private),Thane,"3XCX+9WJ, Liberty Housing Society, Sector 17, Vashi, Navi Mumbai, Maharashtra 400703",,"accounts@spectrumworld.net,,info@specnt.com,","19.0709608,72.99718"
Home Solution,Companies(Private),Thane,,,",rinkeshgala94@gmail.com,RAKESHKV777@GMAIL.COM,krishnan.gg@gmail.com,",
ISO 9001 Software - MyEasyISO,Companies(Private),Thane,,,",kaushal@effivity.com,",
Regus - Mumbai Navi Mumbai Vashi,Companies(Private),Thane,"17 and 18, Platinum Techno Park, Bhagwan Mahaveer Road / Pranavanandji Marg Level 13, Sector 30, Vashi, Navi Mumbai, Mumbai, Maharashtra 400705",022 6121 4949,,"19.0656,72.9938251"
Greatermen India Kharghar Branch,Companies(Private),Thane,"Swarna Complex, Suite no.04,1st floor, Sector 7, Kharghar, Navi Mumbai, Maharashtra 410210",,",indochemindustries@yahoo.co.in,","19.0354902,73.0612349"
kautilya Wel Man and Fin Con,Companies(Private),Thane,,,",kautilyagennext@gmail.com,pkmrvatsyayan@gmail.com,",
Turbhe Office ERP CENTER,Companies(Private),Thane,"13-3, Turbhe Belapur Rd, MIDC Industrial Area, Sanpada, Navi Mumbai, Maharashtra 400706",,",tushar@kmsindia.in,sales@eresourceinfotech.com,","19.061557,73.0297967"
CIDCO CONCRETE PLANT,Companies(Private),Thane,,,",factory@omega-elevators.com,deepa@ultratech.in,bhatt.fibreways@gmail.com,shekhartamhane@ultratech.in,mktbom@omega-elevators.com,info.mumbai@chryso.com,info@bhattfrp.com,angshuman.roychoudhury@siemens.co,radhakrishnajha2020@gmail.com,",
Mahape office,Companies(Private),Thane,,,"t.trivedi@marcura.com,kumarc@netcoconverge.com,,",
ISHAAN ENTERPRISES,Companies(Private),Thane,,,",chansongroup@gmail.com,info@ishaangroup.com,accounts.vjnr@itpsco.in,",
Esditech Engineering company Private Limited,Companies(Private),Thane,,,",kaypiyes@gmail.com,esditechengineering385@gmail.com,",
Sohani Chemicals Private Limited,Companies(Private),Thane,,,"sanjaypatni2812@gmail.com,,hipurity@hipuritychem.co.in,aromaticandindustrialchemicals@rediffmail.com,",
AP Infra,Companies(Private),Thane,,,",support@infra.market,smcipl.co@gmail.com,smcipl@smcinfra.com,admin@peakinfra.com,x3esmcipl.acc10@gmail.com,smcipl.acc10@gmail.com,Krushiraj.infra@gmail.com,",
Aviyana Academy,Companies(Private),Thane,"Aviyana House-609, Parth Solitaire Commercial Complex, Plot No-2, Sector-9E, near D-Mart, Kalamboli, Navi Mumbai, Maharashtra 410218",087791 02007,",connect@aviyanaventures.com,","19.0435298,73.0753199"
Dev Office,Companies(Private),Thane,,,",company.secretaries@runwal.com,x3ecompany.secretaries@runwal.com,thanesales@hiranandani.net,",
Professional Worldwide Logistics (India) Private Limited,Companies(Private),Thane,,,",prangach@hellmann.com,x3eprangach@hellmann.com,solomongaddam1994@gmail.com,x3eChandrashekhar.kotian@mol-log.com,Chandrashekhar.kotian@mol-log.com,",
Fleet Office,Companies(Private),Thane,"F-R-4, 4th Floor, Korum Mall Eastern Express Highway, Shahid Mangal Pandey Rd, Samata Nagar, Thane West, Maharashtra 400606",022 4897 7991,",corporate_fmmea@fleetship.com,maritasfleet@gmail.com,info@sinastamaritime.com,FLEET-IN.DEL-MANNING@fleetship.com,viral_ind1@rediffmail.com,","19.2035083,72.9621206"
Sriji Heights,Companies(Private),Thane,,,",Sarfaraz@gmail.com,info.retail@ambit.co,madhavanganesan.indipals@gmail.com,municargo@gmail.com,",
Regus - Mumbai Navi Mumbai Vashi,Companies(Private),Thane,"17 and 18, Platinum Techno Park, Bhagwan Mahaveer Road / Pranavanandji Marg Level 13, Sector 30, Vashi, Navi Mumbai, Mumbai, Maharashtra 400705",022 6121 4949,,"19.0656,72.9938251"
Business Information Systems,Companies(Private),Thane,"B11/101, Ghodbunder Rd, Vijay Park, Kasarvadavali, Thane West, Thane, Maharashtra 400615",091675 63676,",corp@dynodesoft.com,SABER.H.SAYYED@GMAIL.COM,EMAILinfo@megasoftinfo.comOpens,dynodecorp@gmail.com,debi.sarangi682@gmail.com,info@iisecurity.in,","19.2697355,72.9640135"
Maharashtra Belapur,Companies(Private),Thane,,,",info@privi.co.in,inquiry@prasolchem.com,vinaysingh6363@gmail.com,marketing@amines.com,info@parveen.in,amines@mtnl.net.in,",
Bajaj Office,Companies(Private),Thane,,,"customerservice@bajajauto.co.in,,bagichelp@bajajallianz.co.in,x3ecustomerservice@bajajauto.co.in,legal@bajajelectricals.com,bhflwecare@bajajfinserv.in,",
Professional Worldwide Logistics (India) Private Limited,Companies(Private),Thane,,,",prangach@hellmann.com,x3eprangach@hellmann.com,solomongaddam1994@gmail.com,x3eChandrashekhar.kotian@mol-log.com,Chandrashekhar.kotian@mol-log.com,",
SAMTROD SYSTEMS,Companies(Private),Thane,,,",pentacle.systems@gmail.com,",
Professional Worldwide Logistics (India) Private Limited,Companies(Private),Thane,,,",prangach@hellmann.com,x3eprangach@hellmann.com,solomongaddam1994@gmail.com,x3eChandrashekhar.kotian@mol-log.com,Chandrashekhar.kotian@mol-log.com,",
Amaju Secure Sure Pvt Ltd.,Companies(Private),Thane,"Tulip Plaza CHS, Block G, Sector 13, Kharghar, Navi Mumbai, Maharashtra 410210",,"bamesh2009@gmail.com,,gautam@amajusecure.com,","19.0436358,73.0691734"
Spectrum Techno Office,Companies(Private),Thane,"3XCX+9WJ, Liberty Housing Society, Sector 17, Vashi, Navi Mumbai, Maharashtra 400703",,"accounts@spectrumworld.net,,info@specnt.com,sxx@spectrumworld.net,","19.0709608,72.99718"
Home Solution,Companies(Private),Thane,,,",rinkeshgala94@gmail.com,RAKESHKV777@GMAIL.COM,krishnan.gg@gmail.com,",
ISO 9001 Software - MyEasyISO,Companies(Private),Thane,,,",kaushal@effivity.com,",
"Regus - Supreme Business Park, Powai",Companies(Private),Thane,"5th floor, Wing 'B, Supreme Business Park, Supreme City Village Powai Unit no. B-501/A, Mumbai, Maharashtra 400076",022 6993 1600,,"19.1113219,72.9054612"
Corporate Office,Companies(Private),Thane,,,",corporate@runwal.com,investors@mukand.com,info@antonywaste.in,corporate@bsvgroup.com,thanesales@hiranandani.net,",
Enrich Corporate Office,Companies(Private),Thane,"Metro Station, 301/302 - Kamla Executive Park Vazir Glass Works Lane, near J. B. Nagar, Andheri (E, Mumbai, Maharashtra 400059",022 4073 8000,",enrichinfra@gmail.com,kiritcm@gmail.com,kapil.r.jain@gmail.com,ramushinde8@gmail.com,","19.1149494,72.864804"
Head office,Companies(Private),Thane,,,",corporate@runwal.com,hrd@hdfire.com,rnt.helpdesk@linkintime.co.in,info@hdfire.com,corporate@bsvgroup.com,info.india@ocs.co.uk,",
Havells Mumbai Office,Companies(Private),Thane,,,",ranchi.office@havells.com,customercare@havells.com,cmg@havells.com,x3ecustomercare@havells.com,x22customercare@havells.com,",
Corporate Office,Companies(Private),Thane,,,",corporate@runwal.com,investors@mukand.com,info@antonywaste.in,corporate@bsvgroup.com,thanesales@hiranandani.net,",
BKC Office,Companies(Private),Thane,,,",info@servehrindia.com,corporate@runwal.com,",
Raheja Corporate office,Companies(Private),Thane,,,",krsec@kraheja.com,pdani@kraheja.com,x3email@rahejauniversal.com,x3esecretarial@raheja.com,secretarial@raheja.com,marketing@rahejauniversal.com,contractors@rahejauniversal.com,mail@rahejauniversal.com,txxxxxxxxa@krahejacorp.com,info@rahejaqbe.com,careers@kraheja.com,",
Office,Companies(Private),Thane,,,",x3ejhankhana.desai@kserve.co.in,supthamarketing@gmail.com,jhankhana.desai@kserve.co.in,enquiry@kserve.co.in,sales@ashidaelectronics.com,",
Office,Companies(Private),Thane,,,",x3ejhankhana.desai@kserve.co.in,supthamarketing@gmail.com,jhankhana.desai@kserve.co.in,enquiry@kserve.co.in,sales@ashidaelectronics.com,",
Office,Companies(Private),Thane,,,",x3ejhankhana.desai@kserve.co.in,supthamarketing@gmail.com,jhankhana.desai@kserve.co.in,enquiry@kserve.co.in,sales@ashidaelectronics.com,",
Office,Companies(Private),Thane,,,",x3ejhankhana.desai@kserve.co.in,supthamarketing@gmail.com,jhankhana.desai@kserve.co.in,enquiry@kserve.co.in,sales@ashidaelectronics.com,",
Corporate Office,Companies(Private),Thane,,,",corporate@runwal.com,investors@mukand.com,info@antonywaste.in,corporate@bsvgroup.com,thanesales@hiranandani.net,",
Office company,Companies(Private),Thane,,,"customerservice@ril.com,,mfsl@mas.co.in,compliance@1finance.co.in,",
Mumbai Office,Companies(Private),Thane,,,",info@ugamsolutions.com,",
Office,Companies(Private),Thane,,,",x3ejhankhana.desai@kserve.co.in,supthamarketing@gmail.com,jhankhana.desai@kserve.co.in,enquiry@kserve.co.in,sales@ashidaelectronics.com,",
Office,Companies(Private),Thane,,,",x3ejhankhana.desai@kserve.co.in,supthamarketing@gmail.com,jhankhana.desai@kserve.co.in,enquiry@kserve.co.in,sales@ashidaelectronics.com,",
Office,Companies(Private),Thane,,,",x3ejhankhana.desai@kserve.co.in,supthamarketing@gmail.com,jhankhana.desai@kserve.co.in,enquiry@kserve.co.in,sales@ashidaelectronics.com,",
Office,Companies(Private),Thane,,,",x3ejhankhana.desai@kserve.co.in,supthamarketing@gmail.com,jhankhana.desai@kserve.co.in,enquiry@kserve.co.in,sales@ashidaelectronics.com,",
Office,Companies(Private),Thane,,,",x3ejhankhana.desai@kserve.co.in,supthamarketing@gmail.com,jhankhana.desai@kserve.co.in,enquiry@kserve.co.in,sales@ashidaelectronics.com,",
Tirupati Corporate Office,Companies(Private),Thane,,,",pradeep_m_001@rediffmail.com,praveenagarwal05@yahoo.co.in,info@tiruppati.com,sihi.thane@gmail.com,ashtavinayakent@rediffmail.com,",
Window Expert Industries Pvt. Ltd.,Companies(Private),Thane,"Building 1, crown 83, E, Office no. 104, 1st floor, Tagore Nagar, Vikhroli, Mumbai, Maharashtra 400083",080072 00999,",windowexpertnsk@gmail.com,info@windowexpert.in,","19.1105698,72.930116"
We Fast Office,Companies(Private),Thane,"7, Vandana Apartment, near Super Corner, Mahagiri Koliwada, Jambli Naka, Thane West, Thane, Maharashtra 400601",074983 58081,",x3esupport.client.in@borzodelivery.com,support.client.in@borzodelivery.com,","19.1936083,72.9790447"
Air India Express Commercial,Companies(Private),Thane,"3VH8+FRG, Air India Rd, Kolivery Village, Kunchi Kurve Nagar, Vakola, Santacruz East, Mumbai, Maharashtra 400029",,",CS@LALITHAAJEWELLERY.COM,cs@lalithaajewellery.com,nvkotak69@gmail.com,","19.078693,72.8645037"
Neelakanth Business Park,Companies(Private),Thane,,,",companysecretarial@zensar.com,customersupport@healthindiatpa.com,x22customersupport@healthindiatpa.com,x3ecustomersupport@healthindiatpa.com,",
PRABHAT KHABAR,Companies(Private),Thane,,,",sumit.bhattacharjee@prabhatkhabar.in,",
Telecomm Complex,Companies(Private),Thane,,,",btstelecom2019@gmail.com,arul.joseph@incablenet.net,x3egtmbasu@gmail.com,santosh@vasaicable.com,sigtel2011@gmail.com,BTSTELECOM2019@GMAIL.COM,gtmbasu@gmail.com,",
UdyogeIndia,Companies(Private),Thane,"5XP4+C9M, LBS Road, MIDC Commercial Building. Landmark - near gopalashram hotel check naka, Raheja Gardens, Thane West, Thane, Maharashtra 400082",022 2582 2013,,"19.1860989,72.9533561"
Alfa Pharma,Companies(Private),Thane,,,",ja@alpha-pharma.com,info@alfapharma.eu,jsf@alpha-pharma.com,anand.agrawal@anandagrawalcs.com,doe@alpha.in,",
AGS LIFECARE PVT. LTD,Companies(Private),Thane,"303, 3rd Floor, Brahman Vani, Pipe Road, Kurla West, Mumbai, Maharashtra 400070",097920 11493,",rakesh.shejwal@aartigroup.cominfo,shielpa.shaha@aviva.com,aftabalamsiddique2018@gmail.com,","19.0741048,72.8598187"
D D Shah Fragrances Pvt Ltd,Companies(Private),Thane,"Cambata Building, 5th floor, NE wing, 42 M Karve Marg, above EROS cinema, Churchgate, Mumbai, 400020",022 2285 0577,",finance@ddshah.com,enceearomatics@gmail.com,","19.0759105,72.7128458"
Mirae Asset Capital Markets (India) Pvt Ltd,Companies(Private),Thane,"1st Floor, Tower-4, Equinox Business Park, Lal Bahadur Shastri Marg, Ambedkar Nagar, Kurla West, Kurla, W, Mumbai, Maharashtra 400070",022 6266 1300,",cs@miraeasset.com.vn,miraeasset@miraeassetsg.com,","19.071095,72.8747073"
Shaiz Pharma,Companies(Private),Thane,,,",x3enrpharmaceutical@gmail.com,nrpharmaceutical@gmail.com,jp@akritipharma.com,sales@gemmedpharma.com,prspharmaceuticalspvtltd@yahoo.co.in,camnreddy@gmail.com,shahbazk70@gmail.com,x3ecamnreddy@gmail.com,vithaipharma@gmail.com,x3eprspharmaceuticalspvtltd@yahoo.co.in,x22prspharmaceuticalspvtltd@yahoo.co.in,x3evithaipharma@gmail.com,",
Jai Kisan,Companies(Private),Thane,,,",nxxxxj@jai-kisan.com,support@jai-kisan.com,",
Nutragenix Healthcare Pvt Ltd.,Companies(Private),Thane,"D-110, Kanakia Zillion, LBS-CST Road junction, Bandra Kurla Complex, Annexe, Mumbai, Maharashtra 400070",022 6250 1000,",sameer.p@pharmaserv.in,x3edharamvir.malik@akums.net,hello@stack.net,kailash@pharmaserv.in,dharamvir.malik@akums.net,support@nutragenix.in,","19.0759155,72.8746767"
Offices on Rent in Andheri - Access Serviced Offices,Companies(Private),Thane,"4th Floor, E Wing, Tex Centre, HDFC Compound,, Chandivali, Andheri East., behind SOUTH-WING, Mumbai, Maharashtra 400072",022 6118 4000,,"19.1117961,72.8896566"
Mumbai office,Companies(Private),Thane,,,",info@ugamsolutions.com,",
KBC OFFICIAL PRIZE,Companies(Private),Thane,"3VGH+C33, Lower Parel, Friends Colony, Kurla West, Kurla, Mumbai, Maharashtra 400070",072046 51685,",kbprincipal2010@gmail.com,investorcare@unionmf.com,","19.076008,72.8750958"
Azmarq Technovation Pvt.Ltd. Mumbai Office,Companies(Private),Thane,"C1 Shram Shakti, Unit No-219, Opp RTO Office, Wadala East, Kurla West, Mumbai, Maharashtra 400037",,",info@azmarq.com,finance@azmarq.com,","19.0741059,72.8778434"
Anaika Industry,Companies(Private),Thane,"police station, plot No.52,mandvi village,shirshad vajreshwari road NH 48, opp. mandvi, Virar, Maharashtra 401303",,",cs@hetero.com,","19.4756784,72.8993389"
Star Coworking - Coworking space in Andheri East,Companies(Private),Thane,"Plot No.33, HMG House, MIDC Central Rd, near Hotel Goldfinch, Andheri East, Mumbai, Maharashtra 400093",075060 83938,,"19.1202065,72.867658"
DMart Corporate Office,Companies(Private),Thane,"Kamgar Chowk, B72/B72A, near ESIC Hospital, Wagle Industrial Estate, Thane, Maharashtra 400604",022 3340 0500,",x3ecustomerservice@dmart.in,investorrelations@dmartindia.com,x3einvestorrelations@dmartindia.com,lxxxxxxxxxxxy@dmartindia.com,customerservice@dmart.in,","19.2036818,72.9512177"
LODHA iThink,Companies(Private),Thane,"Off, Eastern Express Hwy, Chirak Nagar, Thane West, Thane, Maharashtra 400607",022 6716 1111,"shares@lodhagroup.com,,x3eshares@lodhagroup.com,service.support@lodhagroup.com,","19.2113592,72.9689062"
TATA Office,Companies(Private),Thane,,,"ir@tatatechnologies.com,,customersupport@tataaig.com,customercare@tataaia.com,mukesh.kala@tatamotors.com,arvind.mishra@tatamotors.com,x3ecustomercare@tatamotors.com,customercare@tatamotors.com,service@tataamc.com,",
Telford Projects,Companies(Private),Thane,"Office No. 3B/58A, Highland Corporate Centre, Junction, Samata Nagar, Kapurbawdi, Thane West, Mumbai, Thane, Maharashtra 400607",022 4601 9011,",aks@tritoncoatings.in,u003eaks@tritoncoatings.in,AKS@TRITONCOATINGS.IN,info@telford.in,","19.2174123,72.9779879"
Kamal Lifes Science,Companies(Private),Thane,"Metro Junction Mall, Unit 18, First Floor, Metro Plaza, Besides, NetivaliKalyan, Maharashtra 421306",,",info@kamlagroup.co.in,api@kamallifescience.com,vijaychemical@gmail.com,innovuslifescience@gmail.com,info@kamallifescience.com,","19.2289428,73.1211571"
Kalpataru Thane Central Office,Companies(Private),Thane,"6XHQ+C68, Kolshet Industrial Area, Thane West, Thane, Maharashtra 400607",,",dp@kalpatarumulti.com,support@kalpatarumulti.com,Compliance@kalpatarumulti.com,x3eaditya@kalpatarumulti.com,u003ekalpataru.cs@kalpataru.com,x3edp@kalpatarumulti.com,kalpataru.cs@kalpataru.com,kmlho@kalpatarumulti.com,aditya@kalpatarumulti.com,x3ekmlho@kalpatarumulti.com,sales@kalpataru.com,x3eCompliance@kalpatarumulti.com,","19.2285346,72.9855003"
Office No.2,Companies(Private),Thane,,,",info@ugamsolutions.com,x22info@ugamsolutions.com,hrd@hdfire.com,info@hdfire.com,x3einfo@ugamsolutions.com,kiran@sai-kiran.com,",
Highland Corporate Center,Companies(Private),Thane,"6X8J+W7V, Samata Nagar, Sainath Nagar, Majiwada, Thane, Maharashtra 400601",,",info@sinastamaritime.com,versatileyp@gmail.com,sales1@siddhigroup.co.in,gb@enliteresearch.com,","19.2173591,72.9781077"
OCS Group India Pvt. Ltd,Companies(Private),Thane,"Wonder Mall, 5th Floor, Thane One, DIL Complex, Ghodbunder Road, near wood plaza, behind, Kapurbawdi, Thane West, Thane, Maharashtra 400610",022 4008 1717,",enquiries@ocs.co.uk,regal.patel@ocs.co.uk,regal.patel@ocs.co,x3eenquiries@ocs.co.uk,info@ocsgroup.com,","19.2211274,72.9745763"
Office 2,Companies(Private),Thane,,,"ir@tatatechnologies.com,info@ugamsolutions.com,,alka.agarkar@newindia.co.in,info@inoxap.com,",
Vintex Tensile Solutions Pvt. Ltd,Companies(Private),Thane,"SB 176, 2nd Floor, Highland Corporate Centre, Junction, Kapurbawdi, Thane West, Thane, Maharashtra 400601",093216 50828,",vivekraulo@gmail.com,vintextensilesolutions@gmail.com,parabvikas58@gmail.com,","19.2200957,72.9723089"
Cybertech Head Office,Companies(Private),Thane,,,",x3esarita.leelaramani@cybertech.com,sarita.leelaramani@cybertech.com,cssl.investors@cybertech.com,",
Foodland Corporate Office,Companies(Private),Thane,"Radhakrishna House, Majiwada Village Rd, Sainath Nagar, Majiwada, Thane, Maharashtra 400601",022 7150 0600,",contact@rfspl.in,hegde9820098555@gmail.com,compliance@rkfoodland.com,","19.2143283,72.9778091"
Orion Business Park,Companies(Private),Thane,"6XCG+JXP, Orion Business Park, Ghodbunder Rd, Kapurbawdi, Thane West, Thane, Maharashtra 400607",098707 37343,",rocvrca@gmail.com,ppdaryani@gmail.com,info@glamac.com,contact@sukraft.com,info@varuna.net,info@argolighting.in,dsbhatcan@yahoo.ca,","19.2215991,72.9748907"
L Mahendra Head Office,Companies(Private),Thane,"26, Vardhman Industrial Complex, Estate, Gokul Nagar, Thane West, Thane, Maharashtra 400601",,",x3eceo@mahendras.org,info@mahendras.org,ceo@mahendras.org,","19.211249,72.9733948"
thane,Companies(Private),Thane,,,"PLUS@GMAIL.COM,,sunil.lotke@indiainfoline.com,",
Temp office,Companies(Private),Thane,,,",contact@weavings.in,",
HR International Office,Companies(Private),Thane,"3, Rd Number 16, Kisan Nagar, Thane West, Thane, Maharashtra 400604",070024 23520,"gatewayoverseasclt@gmail.com,,hr15aditya@gmail.com,employer@hrinternational.in,","19.19074,72.9488331"
Anu tata office,Companies(Private),Thane,"6XCG+FC8 THANEONE CORPORATE BUSINESS PARK, Ghodbunder Rd, Kapurbawdi, Thane West, Thane, Maharashtra",,",suprakash.mukhopadhyay@tata.com,srtt@tatatrusts.org,info@tata.com,csannamathew@gmail.com,x3einfo@tata.com,x3esrtt@tatatrusts.org,tatachina@tata.com,kvmanoj@tata.com,","19.221313,72.9735568"
Varshasookt Consultants,Companies(Private),Thane,,,",info.varshasookt@gmail.com,",
Maharashtra PWD Office,Companies(Private),Thane,,,"psec.pwd@maharashtra.gov.in,,sec.pwdroads@maharashtra.gov.in,secretary@ndmc.gov.in,office@sapl.biz,dmc_diu@yahoo.co.in,india@irfnet.ch,unnati.kanani@neogenchem.com,investor@neogenchem.com,",
Omkar Engineers,Companies(Private),Thane,,,",omkarengineer9@gmail.com,n.safety80@gmail.com,",
SHRI DTC LOGISTICS,Companies(Private),Thane,"Office No. 516, Orion Business Park, Ghodbunder Rd, next to Cinemax Wonder Mall, opposite Vijay Sales, Kapurbawdi, Thane West, Mumbai, Thane, Maharashtra 400610",022 2584 3399,",admin@shridtc.com,shridtc.thane@yahoo.com,","19.2213912,72.9744541"
Texum Buildtech Pvt Ltd,Companies(Private),Thane,,,",u003etexumbuildtech@gmail.com,texumbuildtech@gmail.com,",
Surabhi Realtor,Companies(Private),Thane,"Office # 9A, 4th Floor, opposite Highland Corporate office, Highstreet Corporate Park, Kapurbawdi, Thane West, Thane, Maharashtra 400607",093225 05040,",support@nanubhaiproperty.com,surabhi.realtor@gmail.com,servesurabhi.realtor@gmail.com,","19.21745,72.9780267"
Shree Gauranga's Foundation Trust,Companies(Private),Thane,"C/308, Ashok Nagar, Ambadi Road, Above ISHWAR Hospital, Vasai Road West, Thane West, Thane, Maharashtra 401202",091729 73922,,"19.218257,72.8132797"
शिल्पकार चव्हान महादेव,Companies(Private),Thane,"Thane West, Thane, Maharashtra 400606",097306 09807,,"19.2183261,72.93689"
KDMC J(4) ward office,Companies(Private),Thane,"Thane West, Thane, Maharashtra 400607",,",kalyandombivlitransport@gmail.com,","19.2183261,72.93689"
Wholesale A To Z,Companies(Private),Thane,"6XCF+2XJ, Exponential ECom Lake City, Kapurbawdi, Thane, Maharashtra 400607",099303 31931,",vs@vikashsrivastava.com,nalkametal@finolexpipes.com,navrangcement@finolexpipes.com,","19.2200957,72.9723089"
ITJEWELERS,Companies(Private),Thane,,,"rao@itjewelers.com,,",
Will shine healthcare private limited,Companies(Private),Thane,"832,chitralaya cinema, Maharashtra",,",tarunkharbanda2008@rediffmail.com,x3edharamvir.malik@akums.net,x3etarunkharbanda2008@rediffmail.com,shailendradixit71@yahoo.com,WILLSHINEHEALTHCARE@GMAIL.COM,dharamvir.malik@akums.net,","19.2183307,72.9755148"
Tathastu Real Estate,Companies(Private),Thane,,,",sagar.kulkarni2585@gmail.com,ca.svpatkar@gmail.com,thakkerparag@hotmail.com,",
Kaivalya Education Foundation,Companies(Private),Thane,"502- Pinak Galaxy, A-7, Old Agra Rd, Sainath Nagar, Thane West, Thane, Maharashtra 400601",,"sweta.srivastava@piramalfoundation.org,,secretarial.department@piramal.com,","19.2177877,72.9763824"
interface design associates,Companies(Private),Thane,"Thane West, Thane, Maharashtra 400607",,",intface.design@gmail.com,u003eintface.design@gmail.com,","19.2183261,72.93689"
U.J.BHANDARI & ASSOCIATES CHARTERED ACCOUNTANTS,Companies(Private),Thane,"6X8J+X9R, KAPURBAWDI JUNCTION, Thane West, LAKE CITY MALL, NEXT TO HIGH STREET MALL, Sandoz Baug, Thane West, Thane, Maharashtra 400607",098203 89013,,"19.2174838,72.9783234"
Shree Engineering Works,Companies(Private),Thane,,,",rec@ranegroup.net,djane@shreefabengineers.com,",
Thane Corporate Service,Companies(Private),Thane,"Shop no.5, Sangeeta Apt., Ground floor, Near MTNL,, Charai, Opp. Ganesh Talkies,, Thane west, Thane, Maharashtra 400601",,",Info.india@ocs.co,venkatesh.eswaran@nucleus-co.com,","19.1985682,72.9722678"
Regus - Mumbai Thane,Companies(Private),Thane,"Level 15, Dev Corpora, Eastern Express Hwy, Thane West, Thane, Maharashtra 400601",022 6700 4949,,"19.2040783,72.9662963"
DMart Corporate Office,Companies(Private),Thane,"Kamgar Chowk, B72/B72A, near ESIC Hospital, Wagle Industrial Estate, Thane, Maharashtra 400604",022 3340 0500,",x3ecustomerservice@dmart.in,investorrelations@dmartindia.com,x3einvestorrelations@dmartindia.com,lxxxxxxxxxxxy@dmartindia.com,customerservice@dmart.in,","19.2036818,72.9512177"
Lodha business district,Companies(Private),Thane,"Novartis, Sandoz Baug, Thane West, Thane, Maharashtra",022 5036 0232,"x3eshares@lodhagroup.com,,shares@lodhagroup.com,x3eabhinandan.lodha@lodhaventures.com,abhinandan.lodha@lodhaventures.com,amrut@eway-alliance.com,","19.2361349,72.9846796"
LODHA iThink,Companies(Private),Thane,"Off, Eastern Express Hwy, Chirak Nagar, Thane West, Thane, Maharashtra 400607",022 6716 1111,"shares@lodhagroup.com,,x3eshares@lodhagroup.com,service.support@lodhagroup.com,","19.2113592,72.9689062"
TATA Office,Companies(Private),Thane,,,"ir@tatatechnologies.com,,customersupport@tataaig.com,customercare@tataaia.com,mukesh.kala@tatamotors.com,arvind.mishra@tatamotors.com,x3ecustomercare@tatamotors.com,customercare@tatamotors.com,service@tataamc.com,",
Omega Business Park,Companies(Private),Thane,"215, 2nd floor, omega business park, Wagle Industrial Estate, Thane West, Maharashtra 400604",,",chandrchat@gmail.com,sasicacwa@gmail.com,","19.2029058,72.9514234"
Kalpataru Thane Central Office,Companies(Private),Thane,"6XHQ+C68, Kolshet Industrial Area, Thane West, Thane, Maharashtra 400607",,",dp@kalpatarumulti.com,support@kalpatarumulti.com,Compliance@kalpatarumulti.com,x3eaditya@kalpatarumulti.com,u003ekalpataru.cs@kalpataru.com,x3edp@kalpatarumulti.com,kalpataru.cs@kalpataru.com,kmlho@kalpatarumulti.com,aditya@kalpatarumulti.com,x3ekmlho@kalpatarumulti.com,sales@kalpataru.com,x3eCompliance@kalpatarumulti.com,","19.2285346,72.9855003"
Thanawala Group of Companies,Companies(Private),Thane,"23/24, RAJDEEP SOCIETY, GOKHALE ROAD, NAUPADA, opposite INCOME TAX OFFICE, Thane, Maharashtra 400602",022 2542 6785,",vijay_thanawala@rediffmail.com,sanjaythanawala@gmail.com,","19.1871156,72.959167"
Office No.2,Companies(Private),Thane,,,",info@ugamsolutions.com,x22info@ugamsolutions.com,hrd@hdfire.com,info@hdfire.com,x3einfo@ugamsolutions.com,kiran@sai-kiran.com,",
Divine Connections,Companies(Private),Thane,"506, 5th Floor, Tower 1, Lodha Supremus, Rd Number 22, Wagle Industrial Estate, Thane, 400604",022 2581 2345,",sales@divinescientific.com,minatdinesh@gmail.com,dcfoundation2022@gmail.com,","19.1995538,72.9285862"
Nucleus Corporate Services Private Limited,Companies(Private),Thane,"No. 22, Kisan Nagar 1, Thane West, Thane, Maharashtra 400604",,",u003esachin.sawant@nucleus-co.com,info@nucleus-co.com,sachin.sawant@nucleus-co.com,venkatesh.eswaran@nucleus-co.com,","19.1981759,72.9461339"
Highland Corporate Center,Companies(Private),Thane,"6X8J+W7V, Samata Nagar, Sainath Nagar, Majiwada, Thane, Maharashtra 400601",,",info@sinastamaritime.com,versatileyp@gmail.com,sales1@siddhigroup.co.in,gb@enliteresearch.com,","19.2173591,72.9781077"
Indian Corporation Group,Companies(Private),Thane,"Modi House 1, 5th Floor, 2, Eastern Express Hwy, opp. RTO Office, Thane West, Thane, Maharashtra 400602",022 2544 4351,"mc@thanecity.gov.in,,ir@tatatechnologies.com,himanshusingh.tiwari@adani.com,corporatecommunication.india@bayer.com,hrd@hdfire.com,rnt.helpdesk@linkintime.co.in,info@hdfire.com,process@goma.co.in,dhananjoy.das@adani.com,","19.19318,72.9610396"
Office 2,Companies(Private),Thane,,,"ir@tatatechnologies.com,info@ugamsolutions.com,,alka.agarkar@newindia.co.in,info@inoxap.com,",
Rainbow international head office,Companies(Private),Thane,"Chestnut plaza, opp. eden woods, Kokanipada, Thane West, Thane, Maharashtra 400610",,",x3epro@risu.sc.ug,anil@rainbowexports.net.in,pro@risu.sc.ug,admin@rainbowpreschools.com,admin@rainbowinternationalschool.in,","19.2313614,72.9672955"
United Business Park,Companies(Private),Thane,"United Business Park, 501-502, Rd Number 11, near Old Passport Office, Ambika Nagar No 3, Thane West, Thane, Maharashtra 400604",,",sachin.choudhari@omkarcfpl.com,csnehaseth.cp@gmail.com,janavifacilitymanagement@rediffmail.com,rushimane114@gmail.com,spganesha2022@gmail.com,info@castaliaz.co.in,jyoti@santkrupa.in,","19.1931566,72.953822"
Puranik Builders Ltd. (Corporate Office),Companies(Private),Thane,"Puraniks One, Ghodbunder Rd, near Kanchanpushpa Complex, opp. Suraj Water Park, Kavesar, Thane, Maharashtra 400615",080 6897 6931,",sales@puraniks.in,u003ecs@puraniks.in,cs@puraniks.in,last@puraniks.in,","19.2588689,72.967866"
Patlipada Thane,Companies(Private),Thane,,,",himanshugeed@gmail.com,info@wilhloesch.com,APTNSRP@GMAIL.COM,nishant1605@gmail.com,officecsca@gmail.com,manojyadav9867@yahoo.com,",
Cybertech Head Office,Companies(Private),Thane,,,",x3esarita.leelaramani@cybertech.com,sarita.leelaramani@cybertech.com,cssl.investors@cybertech.com,",
Kirsha Plaza,Companies(Private),Thane,"5XRG+QWM, Thane Station Rd, Jambli Naka, Thane West, Thane, Maharashtra 400601",,",info@stitchpro.in,ganeshkohli@gmail.com,arp2300@gmail.com,gchavan065@gmail.com,companysecretaries03@gmail.com,","19.1919615,72.9747291"
Pradnya Group Of Companies,Companies(Private),Thane,"12, Rd Number 27, CP Talav, Wagle Industrial Estate, Thane West, Thane, Maharashtra 400604",,",pradnyaconsultants@vsnl.net,yogesh@onusit.com,pradnya.tamhane@gmail.com,","19.1941413,72.9424664"
Leafior,Companies(Private),Thane,"Hiranandani Park Eagleton, One Hiranandani Park, Eagleton, Ghodbunder Rd, Thane, Maharashtra 400615",098214 48000,,"19.243775,72.975317"
CAMPUS - CORPORATE,Companies(Private),Thane,"503, Ganesh Towers, Data Patil Road, nr. Thane Station Road, Mumbai, Maharashtra 400601",090290 99067,,"19.1915724,72.9745742"
Panacea,Companies(Private),Thane,,,",mxxxxxxxxxxxxxr@panaceabiotec.com,last@panaceabiotec.com,pathakandco@gmail.com,",
Kane’s garage,Companies(Private),Thane,"45, Patlipada, Thane West, Thane, Maharashtra 400607",,",focuscomfort@yahoo.co.in,","19.238124,72.9703651"
Mach1 bradband,Companies(Private),Thane,,,",sales@mach1broadband.com,helpdesk@intechonline.net,vaibhav@intechonline.net,x3esales@mach1broadband.com,",
ICAN BPO,Companies(Private),Thane,"5th Floor, Amfotech IT Park, Rd Number 8, opposite Old Passport Office, Wagle Industrial Estate, Thane West, Thane, Maharashtra 400604",022 5000 0555,",x22nagesh@athenabpo.in,x3enagesh@athenabpo.in,accounting@icanbpo.com,last@icanbpo.com,contact@icanbpo.com,sxxxxxxxxxxn@icanbpo.com,nagesh@athenabpo.in,","19.1917209,72.9521105"
"Corporate Office, Mulund West",Companies(Private),Thane,,,",corporate@runwal.com,nia.170103@newindia.co.in,info@hdfire.com,servalsmds@gmail.com,",
JRW Movers Relocation Packers and Movers,Companies(Private),Thane,,,",info@jrwpackersandmovers.in,",
MBC Park,Companies(Private),Thane,"7X88+F9J, MBC Infotech Park, MBC Compound, Road, Sainath Nagar, Kasarvadavali, Ghodbunder, Thane, Maharashtra 400615",082916 87806,"mbc_mumbai@yahoo.co.in,,priya.jain176@gmail.com,viranjanaproperties@gmail.com,chumki.neogi@gmail.com,sandeepm@andersongroup.uk.com,surve_31@yahoo.com,","19.2662187,72.9633195"
Signette Ceramic Plus,Companies(Private),Thane,"Navshibai Compound, 93/694, Manpada Naka, Manpada, Thane West, Thane, Maharashtra 400607",080 4826 8162,",email@website.com,","19.2361922,72.9721776"
Consult Credence,Companies(Private),Thane,"Garnet, B Wing / Flat No. 704, Kabra Galaxy, Next To Bramhand Ph. 4, Off Hiranandani Link Road, Off, Ghodbunder Rd, Thane, Maharashtra 400607",093217 79824,",amitvakil@credencegroup.in,amolsule@credenceremedies.com,","19.2467992,72.9811949"
Deepti Tangri Associates,Companies(Private),Thane,"Hiranandani Estate, Thane, Maharashtra 400607",,",pradyumna.satpathy@jmfl.com,i@gmail.com,","19.2520847,72.9777356"
A S AGRI AND AQUA LLP,Companies(Private),Thane,"18th Floor, Quantum Bldg, Hiranandani Estate, Thane West, Thane, Maharashtra 400607",022 6882 8200,"oxxxxxxxh@asagriaqua.com,,rohan.mainkar@asagriaqua.com,","19.2545415,72.9795389"
NIKOLAS ELECTRIC BIKE LLP,Companies(Private),Thane,"D.S.Patel Compound,Plot no /HISSA NO 17/1,16/5, 32/3, Ghodbunder Rd, opp. Colour Pack Company, Near R.T.O. Office, Thane, Maharashtra 401107",088980 29629,",admsebikespvtltd@gmail.com,contact01@amomobility.com,contact@revoltmotors.com,","19.2594927,72.96709"
Vega Enterprises,Companies(Private),Thane,"6XWG+M9Q, Sunita Building, New, Thane West, Thane, Maharashtra",,",sanket@vegasolutions.biz,sxxxxxi@vega.co.in,nsmenon@vegalog.com,sales.in@vega.com,axxxxxi@vega.co,","19.2467218,72.9733964"
Thane DC Office,Companies(Private),Thane,,,"mc@thanecity.gov.in,,msrtcdcthane@gmail.com,isspa@bom5.vsnl.net.in,",
Teemant Technologies Pvt Ltd- Office,Companies(Private),Thane,"SB 54, Highland Corporate Centre,, Samata Nagar, Sainath Nagar, Majiwada, Thane, Maharashtra 400601",,"x22SANJEEV08G@GMAIL.COM,,bhuvan@lendbox.in,ratangera@yahoo.co.in,ankit@junio.in,sourav.daga@met-technologies.com,yogesh@merkir.com,x22bhuvan@lendbox.in,SANJEEV08G@GMAIL.COM,x3ebhuvan@lendbox.in,x3eSANJEEV08G@GMAIL.COM,x3eankit@junio.in,x3esourav.daga@met-technologies.com,maes04office@gmail.com,","19.2173499,72.978364"
Click Group Of Companies,Companies(Private),Thane,"MBC Infotech Park, Sainath Nagar ,, Kasarwadawli, Ghodbunder Road, Thane West, next to Hypercity, Thane, Maharashtra 400601",022 6188 0499,"corporatecommunication.india@bayer.com,,munjal2805@gmail.com,","19.266098,72.9633028"
Redbrick Offices - NITCO,Companies(Private),Thane,"Plot No A, 274, Rd Number 16A, Ambica Nagar, Wagle Industrial Estate, Thane West, Mumbai, Thane, Maharashtra 400604",1800 120 9088,",hello@redbrickoffices.com,","19.2026904,72.9520062"
OFFICE SPACES,Companies(Private),Thane,,,"contact@SpaceN.in,,",
Redbrick Offices - Lodha iThink,Companies(Private),Thane,"A, LODHA iThink, 902, Tower, Off, Eastern Express Hwy, Chirak Nagar, Thane West, Thane, Maharashtra 400607",,",hello@redbrickoffices.com,","19.2111869,72.9686145"
Gatik HR Consulting Services LLP,Companies(Private),Thane,"Prestige Apartments, Gardenia, Dongripada, Thane West, Thane, Maharashtra 400615",,",gurudesh@gmail.com,","19.2513226,72.9658736"
Runwal Sales Office - Thane,Companies(Private),Thane,,,",xxxx@runwaleirenethane.in,x3ecompany.secretaries@runwal.com,company.secretaries@runwal.com,enquiry@runwal.com,",
"Regus - Mumbai, Hiranandani - Thane",Companies(Private),Thane,"1st floor, Tiffany Building, Arcadia Cir, Hiranandani Estate, Thane West, Mumbai, Thane, Maharashtra 400607",022 6818 1604,,"19.2532,72.9773251"
Ascend Cowork - Thane,Companies(Private),Thane,"13th floor, A Wing, Dev Corpora Cadbury junction, Eastern Express Hwy, Thane, Maharashtra 400601",098192 53793,",hello@ascendcowork.com,","19.2034567,72.9665977"
My Cute Office Affordable Co-Working,Companies(Private),Thane,"1304 Dev Corpora, Eastern Express Hwy, opp. Cadbury Junction, Khopat, Thane West, Thane, Maharashtra 400604",075067 90165,",sumit@coworkingers.com,pravin@mycuteoffice.com,hello@mycuteoffice.com,","19.2032781,72.9664195"
"Thane Municipal Corporation, Thane",Companies(Private),Thane,,,"mc@thanecity.gov.in,,ce@thanecity.gov.in,",
Commercial offices Wagle Estate,Companies(Private),Thane,,,",jyoti@santkrupa.in,",
Southern Car Transport Thane,Companies(Private),Thane,"6XP9+3F, Hill Garden, Kokanipada, Thane West, Thane, Maharashtra",,",Emailcoadmin@vtransgroup.com,coadmin@vtransgroup.com,contact@logisticmart.com,","19.2351537,72.9661645"
Thane Corporate Service,Companies(Private),Thane,"Shop no.5, Sangeeta Apt., Ground floor, Near MTNL,, Charai, Opp. Ganesh Talkies,, Thane west, Thane, Maharashtra 400601",,",Info.india@ocs.co,venkatesh.eswaran@nucleus-co.com,","19.1985682,72.9722678"
Kapish Jewels,Companies(Private),Thane,"316-Arcadia, Hiranandani Estate, GB Road,, Thane (West) Mumbai, India, Maharashtra 400607",1800 120 404,",jainchopra.company@gmail.com,info@kapishjewels.com,dharmeshnag003@gmail.com,jainchopra.company@yahoo.com,","19.2539662,72.9800166"
New Office,Companies(Private),Thane,"5XR4+HPW, Rd Number 9, Ambika Nagar No 3, Thane West, Thane, Maharashtra 400604",,",info@ugamsolutions.com,x22info@ugamsolutions.com,corporate@bsvgroup.com,x3einfo@ugamsolutions.com,","19.1914917,72.9542551"
Electronica Plastic Machines Ltd,Companies(Private),Thane,"416, Hiranandani Estate, Thane West, Thane, Maharashtra 400607",,"epml@electronicapmd.com,,x3eaccfin@electronicapmd.com,accfin@electronicapmd.com,","19.2539265,72.9797675"
Goodluck Metal Crafts,Companies(Private),Thane,"Chitalsar, Thane West, Thane, Maharashtra 400607",,",piyush@goodluckstainless.com,goodluck@goodluckindia.com,","19.2386956,72.9755819"
OFFICE,Companies(Private),Thane,,,",x3ejhankhana.desai@kserve.co.in,supthamarketing@gmail.com,jhankhana.desai@kserve.co.in,enquiry@kserve.co.in,sales@ashidaelectronics.com,",
Corporation Bank - Zonal Office,Companies(Private),Thane,"Coral Square, Ghodbunder Rd, Kavesar, Thane West, Thane, Maharashtra 400615",,",x3ewebcentre@corpbank.co.in,cb8828@corpbank.co.in,x3eftscentre@corpbank.co.in,ftscentre@corpbank.co.in,x3ehoccd@corpbank.co.in,x3eibd@corpbank.co.in,x3equery@corpbank.co.in,webcentre@corpbank.co.in,query@corpbank.co.in,hoccd@corpbank.co.in,ibd@corpbank.co.in,","19.2595241,72.9675421"
Office Temp,Companies(Private),Thane,,,",contact.india@sales.grundfos.com,firozahmad@vhc.in,sales@scientificdevices.org,x22contact@weavings.in,contact@weavings.in,x3econtact@weavings.in,",
Thane DC Office,Companies(Private),Thane,,,"mc@thanecity.gov.in,,msrtcdcthane@gmail.com,isspa@bom5.vsnl.net.in,",
Teemant Technologies Pvt Ltd- Office,Companies(Private),Thane,"SB 54, Highland Corporate Centre,, Samata Nagar, Sainath Nagar, Majiwada, Thane, Maharashtra 400601",,"x22SANJEEV08G@GMAIL.COM,,bhuvan@lendbox.in,ratangera@yahoo.co.in,ankit@junio.in,sourav.daga@met-technologies.com,yogesh@merkir.com,x22bhuvan@lendbox.in,SANJEEV08G@GMAIL.COM,x3ebhuvan@lendbox.in,x3eSANJEEV08G@GMAIL.COM,x3eankit@junio.in,x3esourav.daga@met-technologies.com,maes04office@gmail.com,","19.2173499,72.978364"
Click Group Of Companies,Companies(Private),Thane,"MBC Infotech Park, Sainath Nagar ,, Kasarwadawli, Ghodbunder Road, Thane West, next to Hypercity, Thane, Maharashtra 400601",022 6188 0499,"corporatecommunication.india@bayer.com,,munjal2805@gmail.com,","19.266098,72.9633028"
Microwave Building,Companies(Private),Thane,"5XH9+R38, Kopri, Thane East, Thane, Maharashtra 400603",,"legal@bajajelectricals.com,,varghese.kj@gmail.com,","19.1795323,72.9651166"
Better Blings,Companies(Private),Thane,,,",team@blingbag.co.in,info@blingbag.co.in,info@betterblings.com,",
Coppergate Consultancy Pvt ltd,Companies(Private),Thane,"front of Mohini Mention Society, 202,Symphony Apartment, Kopri Rd, Sainath Nagar, Thane East, Thane, Maharashtra 400603",,",admin@coppergate.in,","19.1841836,72.9722786"
TEAMLabs,Companies(Private),Thane,"Basement, Vijaydeep bldg, near mangala school, Sudarshan Colony, Kopri, Thane East, Thane, Maharashtra 400603",098708 96930,",gsfqclab.ofb@ofb.gov.in,teamlabs@gmail.com,arunpratap.singh@adani.com,","19.1847086,72.9748291"
Anil Enterprises,Companies(Private),Thane,,,",info@anilenterprises.com,",
MKAT SOLUTIONS,Companies(Private),Thane,,,",info@mkatsolutions.co.in,",
Conventional Business Solution Private Limited,Companies(Private),Thane,"1, Haridev Tower, Anand Bharti Rd, Chendani, Koliwada, Thane West, Thane, Maharashtra 400603",084228 19801,",u003einfo.cbspl@gmail.com,info@6degreesit.com,ravikumarramadoss@pixmonks.com,vishalca2010@gmail.com,info.cbspl@gmail.com,x3eravikumarramadoss@pixmonks.com,accounts@idmindia.com,x3einfo@6degreesit.com,x3eaccounts@idmindia.com,","19.1854737,72.9757529"
Technovision engineers,Companies(Private),Thane,"5XJC+XV5, Kopri, Thane East, Thane, Maharashtra 400603",,",technovissionsales@gmail.com,account@technovisionengrs.com,technovission@gmail.com,sales@technovisionengrs.com,","19.1823767,72.9696453"
SEA OCEAN INDIA PVT LTD,Companies(Private),Thane,"5XMF+MJG, Unnamed Road, Daulat Nagar, Thane East, Thane, Maharashtra 400603",,"pankaj.gupta82@gmail.com,Marketing@sea-link.com,dr.keertigupta@gmail.com,,","19.1841876,72.9715007"
Spink Green Energy - Solar Company,Companies(Private),Thane,"303, Siddharth Tower, Sant Tukaram Path, Near Mirnai Nagar, Kopri, THANE (E), Maharashtra 400603",095949 91196,",info@spinkgreenenergy.com,","19.1816251,72.9686975"
Status Facility Management Pvt Ltd,Companies(Private),Thane,,,"status_army@yahoo.co.in,,force1care@gmail.com,x3einfo@bg-groups.com,Shivi.pandey@realsecurityindia.org,sunil.m@modernforce.com,versatileyp@gmail.com,admin@patronfm.com,abhishek.pandey@ocsgroup.co.in,x3esunil.m@modernforce.com,info@bg-groups.com,dssgroup9@gmail.com,",
Team VGA,Companies(Private),Thane,"Meghdoot Society, Matoshree Jijamata Marg, Rajlaxman Society, Daulat Nagar, Thane East, Thane, Maharashtra 400603",,"team.vga@gmail.com,,","19.1815672,72.9745517"
Naturextrakte Biotech Pvt. Ltd,Companies(Private),Thane,"Sai Tirth Tower, 1701/A, Sidharth Nagar, Kopri, Thane East, Thane, Maharashtra 400605",089763 50483,"info@nutrahelix.com,x3eakbiotechpltd@rediffmail.com,,x3einfo@nutrahelix.com,u003eatul@unitedairgas.com,x3eoctanebiotech1@gmail.com,cstendulkarandco@gmail.com,octanebiotech1@gmail.com,atul@unitedairgas.com,x3ecare@alnabiotech.com,care@alnabiotech.com,akbiotechpltd@rediffmail.com,x22akbiotechpltd@rediffmail.com,","19.1837219,72.9698192"
Spink Controls,Companies(Private),Thane,"303, Siddhart Towers Ganesh Purushottam Pai Road, Daulat Nagar, opp. Vidya Manohar Society, Kopri, Thane East, Thane, Maharashtra 400603",095949 91196,",info@spinkcontrolsindia.com,n-info@spinkcontrolsindia.com,marketing@staticengineering.com,","19.183942,72.971601"
Wellisa Wellcare,Companies(Private),Thane,"B-3/2, Kopri Colony, Daulat Nagar, Thane East, Mumbai, Thane, Maharashtra 400603",,",info@wellisawellcare.com,","19.178836,72.9715051"
"Old Customs Office ,Thane",Companies(Private),Thane,"5XJJ+RVC, Veer Savarkar Nagar, Thane East, Thane, Maharashtra 400603",,",sanjayk.agarwal@gov.in,haldia@nic.in,","19.1820539,72.9795703"
Prabhav,Companies(Private),Thane,,,"rcomsurat3@gmail.com,,janki16@hotmail.com,brijrathi@yahoo.com,",
Nikam printers,Companies(Private),Thane,"7/702, nirmaladham soc., new prabhat nagar, Ghantali, Thane West, Thane, Maharashtra 400602",,"hxxxxxxxxxxm@wilo.in,,vikas@nisanprocess.com,","19.1897225,72.9719343"
Vanvasi kalyan ashram maharashtra Thane city office,Companies(Private),Thane,"5XQF+V7Q, Doctor Agaskar Marg, Ghantali, Naupada, Thane West, Thane, Maharashtra 400602",,",vkakokanprant@gmail.com,sampark@vanvasi.org,delhi@gmail.com,vanvasikalyanashram.delhi@gmail.com,","19.1897233,72.9706458"
The Unique Media Solutions,Companies(Private),Thane,"805, Paradise Tower, Near McDonald's, Gokhale road, Naupada, Thane [West], Maharashtra 400601",,",sumedhathakur5@gmail.com,skverma.15541@gmail.com,","19.1877255,72.9726536"
Public Health Department,Companies(Private),Thane,,,"mc@thanecity.gov.in,,srothane1@mpcb.gov.in,",
Yashodeep building,Companies(Private),Thane,,,",accounts@riseonfacility.in,",
sanskruti's Goa2,Companies(Private),Thane,"202sanskruti landmarks, Dada Patil Wadi, Shivaji Nagar, Thane West, Thane, Maharashtra 400602",,",prin.pes@unigoa.ac.in,maadurgashaktimahilamandalcg@gmail.com,","19.1876404,72.9726063"
Data Link Consaltancy,Companies(Private),Thane,"1st Flr,Shraddha Bhavan,Vishnu Nagar Nr Old Satyam Collection, above Bapuji Book Stall, Naupada, Thane West, Maharashtra 400602",096191 30070,",parvathy@datalinkconsultancy.com,lokesh@datalinkconsultancy.com,","19.1897415,72.968432"
Suyash Multitrade Private Limited,Companies(Private),Thane,,,",mithunchettiar@gmail.com,saikrupaenterkdmc@gmail.com,acs.gaurangshah@gmail.com,mahesh.salunkhe@eaglehitech.com,",
skynet secure solutions,Companies(Private),Thane,"701, Station Rd, Jambli Naka, Thane West, Mumbai, Station Rd, Jambli Naka, Thane West, Mumbai, Thane, Maharashtra 400601",,",info@skynetsecure.com,","19.1869171,72.9736595"
Attest Direct Center,Companies(Private),Thane,"ROYAL INFO ONLINE, 3RD FLOOR, Laizer Arcade, behind Nagrik stores, Near Ashok Theatre Thane station west, 400601",,"info@mea-india.in,,","19.1888885,72.9749435"
Aadnya Capital Pvt. Ltd.,Companies(Private),Thane,"3rd Floor, Gangaprasad Building, Ram Maruti Rd, near RBL Bank Ltd - Naupada, Thane Branch, Naupada, Thane West, Thane, Maharashtra 400602",,",janhavi.adav@gmail.com,madhur.rathi@aghpl.com,vilas.patil01979@gmail.com,","19.1922453,72.9686259"
Siddhi Publications,Companies(Private),Thane,"Siddhi Publications, 101, A wing, Rajdarshan CHS., Opposite station, Dada Patil Wadi, Thane West, Thane, Maharashtra 400602",,"siddhivinayakconstruction@hotmail.com,,siddhivinayakindustries@gmail.com,riddhisiddhipvtltd9@gmail.com,siddhicables@gmail.com,","19.186553,72.9718011"
Aarnikar Remedies,Companies(Private),Thane,"Rajdarshan Apartment, B-201/A, Dada Patil Wadi, Shivaji Nagar, Thane West, Thane, Maharashtra 400602",,",accounts@credenceremedies.net,","19.1863609,72.9715962"
Angel facade,Companies(Private),Thane,,,",u003erajendra@awepl.com,rajendra@awepl.com,sakharam@angelfacadesystem.com,",
