Name,Sector,City,Address,Phone,Email,Lat-Long
The Crossone Fitness (CROSSFIT BOX),Gym,Thane,"7+ years in business Â· The Crossone fitness, Guru Niwas bldg, Teen Hath Naka Flyover, near Forest Office, off Lal Bahadur Shastri Marg",Open â‹… Closes 10â€¯pm Â· 096990 98618,,"19.1896378,72.9619685"
"Dare 2 Fit - Available on cult.fit - Gyms in Thane west, Mumbai",Gym,Thane,"Unit no.3B, 27 Acre, Kothari Compound, opposite Tikkujiniwadi, Road, opp. Tikuji Ni Wadi Road",Open â‹… Closes 10â€¯pm Â· 089286 36886,,"19.2364561,72.9651376"
V Fitness - Available on Cult.fit | Gyms in Thane,Gym,Thane,"7+ years in business Â· VFITNESS, 1st Floor, Vineeta Building, Gokhale Rd, near Malhar Talkies, opp. Vodafone Gallery",Â· 086898 81111,,"19.1877135,72.9638606"
Fun And Fit Gym in Thane,Gym,Thane,"15+ years in business Â· B/1, Agrasen Tower Oppsite Fishland Hotel, Comrade Rajaram Vishnu Rawool Marg",Open â‹… Closes 10â€¯pm Â· 095942 91976,",vikaskamthe@rediffmail.com,curvesforher.fitness@gmail.com,","19.2035684,72.9703283"
"Body Fitness Zone, Thane West",Gym,Thane,"5+ years in business Â· Mari aai Nagar shop no1,kolshet uppar village, Kolshet Rd, near kalpeshwara pinnacle Gloria",Open â‹… Closes 10:30â€¯pm Â· 098200 11463,,"19.2364853,72.9921044"
Xzert Fitness Club,Gym,Thane,"Besides Horizon Prime Hospital, Vibgyor, 3rd floor, Patlipada, Ghodbunder Rd, near Hiranandani Estate",Open â‹… Closes 11â€¯pm Â· 080808 80064,",Xzert.thane@gmail.com,","19.2479701,72.9729306"
The Alpha Gym And Fitness Centre Thane,Gym,Thane,"Unit no.3B, 27 Acre Kothari compound, opp. Tikuji ni wadi",Open â‹… Closes 10:30â€¯pm Â· 082913 30074,,"19.2363617,72.9650987"
Muscle Build Fitness,Gym,Thane,"5+ years in business Â· shop no. 2, ESIC Hospital Rd, above maharashtra plywood",Open â‹… Closes 10:30â€¯pm Â· 077188 29875,",hello@cultfit.com,jitukosbe@gmail.com,","19.2000699,72.9602763"
Gold's Gym,Gym,Thane,"7+ years in business Â· 103, Gaurangi Chamber, Lal Bahadur Shastri Marg, opp. Damani Estate",Open â‹… Closes 10:30â€¯pm Â· 077188 69999,"WeCare@GoldsGym.in,,","19.1899538,72.9629209"
"T-Rex Fitness Factory Ghod bunder Road-Thane - Your Gym, Your Fitness",Gym,Thane,"7+ years in business Â· 22, Bhimashankar Building",Open â‹… Closes 10â€¯pm Â· 098335 25050,,"19.226174,72.9625829"
1 Life Gym,Gym,Thane,"3+ years in business Â· Grd flr, Ramchandra Nagar, Near Swastik Park Bus Stand, Nxt to Rainbow School",Open â‹… Closes 11â€¯pm Â· 098922 81818,,"19.2261213,72.9762399"
B Fit 24 Fitness,Gym,Thane,"5+ years in business Â· 5th Floor, Teejadeep Mall, Lal Bahadur Shastri Marg, near Vikas Complex",Open â‹… Closes 11:30â€¯pm Â· 086573 00153,,"19.20722,72.9746508"
V.S. World Fitness,Gym,Thane,"7+ years in business Â· Shop No. 3, Taskar House, Ram Maruti Rd",Open â‹… Closes 10â€¯pm Â· 084549 33543,",info@vsworldsfitness.com,","19.189201,72.9699388"
Evolution Fitness Thane,Gym,Thane,"Vartak Nagar, Shree Vinayak Co.So. 5/38 M.H.B. Colony, Vartak Nagar Police Station Rd, near Vithhal Mandir",Open â‹… Closes 11â€¯pm,",Revolutioniom@gmail.com,","19.2122189,72.960786"
"Josh Gym, ultimate fitness culture",Gym,Thane,"20+ years in business Â· 6W6X+5GF, Shivganga Apt, Sai Mandir Rd",Open â‹… Closes 11â€¯pm Â· 098335 73353,",rupeshthakur2477@gmail.com,","19.2104452,72.946208"
Body Muscle Gym,Gym,Thane,"Vardhman Industrial Complex, Unit number 206 , 2 floor, near visava hotel, opp. gokul nagar",Open â‹… Closes 11â€¯pm Â· 098194 56240,,"19.2082644,72.9750707"
Reps & Sets - Route To Fitness,Gym,Thane,"5+ years in business Â· Premises No.5, Ground Floor, Shreeji Arcade, opp. Nitin Company",Open â‹… Closes 11â€¯pm Â· 077108 74679,,"19.1988475,72.9619987"
Avengers Fitness Club(Gym),Gym,Thane,"5+ years in business Â· Shop No. 2, Gate, Pokharan Rd Number 1, opp. Bhukendra Bus Stop, near yeoor Hills",Open â‹… Closes 10:45â€¯pm Â· 086554 49988,,"19.2187081,72.9504694"
OZONE gym,Gym,Thane,"10+ years in business Â· Achalkuti Society, Mahatma Gandhi Rd",Open â‹… Closes 10â€¯pm,",steronestaff@gmail.com,franchise@ozoneclubs.com,profitness7716@gmail.com,gravityfitnessthane@gmail.com,","19.1905364,72.9593331"
Fitness Empire,Gym,Thane,"3+ years in business Â· Manorama Nagar Rd, opposite state bank of India",Open â‹… Closes 10:30â€¯pm Â· 097733 29211,",thefitnessempire1@gmail.com,","19.210022,72.9547097"
AIM FITNESS STUDIO,Gym,Thane,"5+ years in business Â· Ground Floor, Apartment, Pujari House, behind Om Aditya, near Kaushalya Hospital",Open â‹… Closes 10:30â€¯pm Â· 077384 54545,"info@aimfitnessstudio.com,memberexperience@anytimefitness.in,ninfo@aimfitnessstudio.com,,","19.2009002,72.9632895"
Red Gym,Gym,Thane,"7+ years in business Â· Cecelia House, Dr Moose Marg, opp. Gadkari Rangayatan",Open â‹… Closes 10â€¯pm Â· 022 2536 8000,",redgym@ymail.com,","19.1936765,72.9709551"
The Fitness Factory,Gym,Thane,"5+ years in business Â· Lal Bahadur Shastri Marg, nr. Mulund Thane Checknaka, near TIPTOP PLAZA",Open 24 hours Â· 091670 03762,,"19.2054732,72.9480351"
Epic Gym Zone,Gym,Thane,"5+ years in business Â· Balaji nivas, Old Bombay Rd, next to biryani darbar",Open â‹… Closes 11â€¯pm Â· 088988 51094,,"19.1953332,72.971741"
The Fit Factory Gym,Gym,Thane,7+ years in business Â· shop no. 41 Kalpataru industrial estate near sbj school behind R mall,Open â‹… Closes 11â€¯pm Â· 080807 22234,,"19.2313902,72.9768884"
Meeras Fitness Centre,Gym,Thane,7+ years in business Â· Maharashtra,Open â‹… Closes 10â€¯pm Â· 098338 33859,,"19.2052464,72.9595166"
The Krunch Fitness,Gym,Thane,"7+ years in business Â· Gala No. 2 & 3, 1st Floor, Prathmesh Hills Building, Kolshet Rd",Open â‹… Closes 10â€¯pm Â· 097699 51035,,"19.2249705,72.9748758"
Falcon Body Temple,Gym,Thane,7+ years in business Â· Shahid Mangal Pandey Rd,Open â‹… Closes 10:30â€¯pm Â· 097736 89997,,"19.197062,72.9592137"
ELITE GYM,Gym,Thane,"3+ years in business Â· Shop No. 4/5, 1st Floor, Hill Spring, Ghodbunder Rd",Open â‹… Closes 11â€¯pm Â· 090293 07095,",hello@cultfit.com,desaiprashant90@gmail.com,","19.260452,72.9680307"
Shape Your Body gym & fitness center,Gym,Thane,"5+ years in business Â· Shop keeper socitey, shop no. 02, nr gouras gruh sweet mart, Sai Baba Mandir Rd",Open â‹… Closes 10â€¯pm,,"19.2105668,72.9595107"
Vitality Fitness,Gym,Thane,"1st floor, Rosa Vista, Ghodbunder Rd, opposite Suraj Water Park",Open â‹… Closes 11â€¯pm Â· 097698 24247,",manager@vitalityhealthandfitness.co.uk,","19.2558267,72.9691114"
R FITNESS OLD SCHOOL,Gym,Thane,"Purnima apartment 1st floor opposite to Babu Bhai petrol pump thane w),near MTNL office",Open â‹… Closes 10:30â€¯pm Â· 091366 00406,"neha@criesandcrawls.com,,","19.2028331,72.9740715"
Empire Fitness Centre,Gym,Thane,Ghantali rang manch sansthan building Near ghantali maidan,Open â‹… Closes 11â€¯pm Â· 086558 66033,",info@masgymindia.com,","19.1911869,72.9678157"
Fitness League Gym Thane,Gym,Thane,"Vrindavan Society, Ground floor MadhuMilind society, opposite 75 and Rustomjee building",Open â‹… Closes 10â€¯pm,",ssl.parel22713@gmail.com,","19.2079581,72.9837658"
Fitness Culture Gym,Gym,Thane,"5+ years in business Â· 402 &403, 4th floor, Cosmos Jewels, Ghodbunder Rd, beside D-Mart",Open â‹… Closes 11â€¯pm Â· 098332 28445,,"19.2597382,72.9664285"
Machineless Workout Thane,Gym,Thane,"5+ years in business Â· Shop No 1, Sunil Niwas blgd, OPP Balkum Fire Brigade n petrol pump, besides Cha Besides Chabhaiya society, Balkum Rd",Open â‹… Closes 10â€¯pm Â· 091677 37571,",curvesforher.fitness@gmail.com,","19.2186805,72.9795708"
Talwalkars,Gym,Thane,"7+ years in business Â· Off No. 2, Chestnut Plaza Shopping Centre Garden Estate Pokhran Road, Opp, Eden Road",Open â‹… Closes 9â€¯pm,",avantis@talwalkars.net,ig@talwalkars.net,","19.2121879,72.9473294"
Versatile Fitness,Gym,Thane,"5+ years in business Â· institute, Central Railway, opposite platform no 1",Open â‹… Closes 10â€¯pm Â· 097687 59888,",versatilefitness2017@gmail.com,vickykickboxer@gmail.com,","19.1862753,72.9713274"
90 degree fitness centre,Gym,Thane,10+ years in business Â· Nilkant tower basement Opp Ranka Jewellers ram maruti road Thane West 400602 Thame,Open â‹… Closes 10â€¯pm Â· 082688 81567,,"19.1954813,72.9528963"
Warrior Raw Fitness Gym,Gym,Thane,"Near Vrindavan society ,Near Shivsena Shakha, (2) Rabodi",Open â‹… Closes 11:30â€¯pm Â· 083692 82810,,"19.2047492,72.9808504"
R360,Gym,Thane,"3+ years in business Â· 2nd Floor, Unique Commercial Complex Above McDonald's, Patlipada Village",Open â‹… Closes 11â€¯pm Â· 098043 60360,,"19.253509,72.9757279"
Bull Neck Fitness(thane),Gym,Thane,"7+ years in business Â· Wing-A11, 2",Open â‹… Closes 10â€¯pm,",thane@totalsf.in,thane.vi@totalsf.in,","19.2479427,72.9812943"
"Cult Thane, Ghodbunder Road, Mumbai",Gym,Thane,"2nd Floor, DOSTI IMPERIA, S2-16, Ghodbunder Rd, above MG Motors India",Open â‹… Closes 10â€¯pm Â· 099164 74983,",info@bfysportsnfitness.com,x3ehello@cult.fit,hello@cult.fit,","19.2324759,72.9728607"
Universal Fitness Hub,Gym,Thane,"Bungalow no.6, Old Mhada, Swami Vivekanand nagar, opposite Ganesh Krupa Society",Open â‹… Closes 12â€¯am Â· 099209 95588,,"19.2239176,72.9655247"
Gravity Fitness,Gym,Thane,"10+ years in business Â· Shop No.1-10, Ground Floor, Crown Building, MH SH 42",Open â‹… Closes 11â€¯pm Â· 022 2586 1818,",gravityfitnessthane@gmail.com,","19.2588732,72.9767326"
Kartik Fitness World,Gym,Thane,"7+ years in business Â· Cordelia House Ground Floor, D""Souza Wadi Near Lawrence Church ,Wagle Estate Thane (W",Open â‹… Closes 10â€¯pm Â· 086550 05929,",info@vsworldsfitness.com,","19.1878383,72.9504726"
Maruti Gym,Gym,Thane,"7+ years in business Â· aishankar Restaurant & Bar, Fataka Galli, Market, near Deepak Lassi House",Open â‹… Closes 10:30â€¯pm Â· 070399 54244,",info@vsworldsfitness.com,curvesforher.fitness@gmail.com,thane.vi@totalsf.in,","19.1840773,72.9704652"
Torque Fitness - Vrindavan,Gym,Thane,"Shop No. 1-4, Sadguru Elegance, Waman Tare Road, behind Rutu Park",Open â‹… Closes 10:30â€¯pm Â· 085913 84411,"x3einfo@titanbrands.com,,sales@torquefitness.com,info@titanbrands.com,","19.2095892,72.9778256"
Abs Studio,Gym,Thane,"5+ years in business Â· C 16, Uttung building, opp TMC school no 19 Vishnu nagar, near to gajanan vada pav",Open â‹… Closes 10:30â€¯pm Â· 080822 39595,,"19.1899789,72.9676208"
Nitrro Redefining Fitness,Gym,Thane,"15+ years in business Â· Flower Valley Complex, Eastern Express Hwy, opposite Viviana Mall",Open â‹… Closes 10:30â€¯pm Â· 022 2547 9999,",info@nitrro.in,","19.2074441,72.9700737"
Fitness Factory,Gym,Thane,"3+ years in business Â· Office no.103, 1st floor, Deep Kiran CHS, Chikla Devi road",Open â‹… Closes 10:30â€¯pm Â· 091367 40987,,"19.2332045,72.8511494"
The Squad Fitness,Gym,Thane,"3+ years in business Â· Acme Ozone Phase 2, Agarwal Arcade, Khewra Cir Marg, Opposite Ashwood Building",Open â‹… Closes 10â€¯pm Â· 096191 00568,",info@bfysportsnfitness.com,","19.2219602,72.9664358"
Zero-4 Fitness,Gym,Thane,"Ground Floor, Pushpakiran Building, society, opp. Gokul Nagar, nr. Union Bank",Open â‹… Closes 11â€¯pm Â· 099877 58327,,"19.2093408,72.9752712"
Muscle monster gym,Gym,Thane,"3+ years in business Â· 10,11,12,13, panchamrut society, waghbil, near suraj water park",Open â‹… Closes 11â€¯pm Â· 079000 17766,,"19.2571075,72.9677677"
Raw Gym - Where Calisthenics meets Yoga,Gym,Thane,"Room No. 10, 2nd Floor, Mangla Banquet Hall, Mangla School Building, Near, Thane Station Rd",Open â‹… Closes 10â€¯pm Â· 088988 59488,,"19.1840765,72.9745455"
The Krunch fitness,Gym,Thane,6XCG+CWH,Open â‹… Closes 12â€¯am,,"19.2249705,72.9748758"
Pawar Fitnes Unisex Gym,Gym,Thane,"Rd Number 27, opposite of Saibaba Temple",Open â‹… Closes 11â€¯pm Â· 091445 79999,,"19.1933831,72.9424526"
PHM Fitness & Spa,Gym,Thane,"Lalani Residency, 1st Floor, A wing, Ghodbunder Rd",Open â‹… Closes 10â€¯pm Â· 070459 15203,,"19.2559726,72.9689698"
JK Fitness Center,Gym,Thane,"5+ years in business Â· 89, Rd Number 22",Open â‹… Closes 11:30â€¯pm,",jae@jkfitnessstudio.com,","19.2074395,72.9531474"
FOR LIFE FITNESS THANE,Gym,Thane,"Cosmos Heritage, Complex, Tikuji Ni Wadi Rd",Open â‹… Closes 11â€¯pm Â· 084510 63290,",mayurkakde007007@gmail.com,","19.2362651,72.9676092"
EMARSUN FAMILY GYM,Gym,Thane,"Emarsun Unisex Gym, near Manpasand Sweets & Ganesh Hospital",Open â‹… Closes 11â€¯pm Â· 086521 83182,,"19.2061452,72.9501851"
Core 04 Gym in Thane,Gym,Thane,"Shop no.1, Rosa Vista Annex, opp. Suraj Water Park",Open â‹… Closes 10:30â€¯pm,",webmaster@coreperfectfitness.com,nwebmaster@coreperfectfitness.com,","19.2450689,72.9615566"
Energyia fitness centre,Gym,Thane,"Eden super market, Besides, opp. TMC Garden",Open â‹… Closes 11â€¯pm Â· 093205 53553,,"19.2654044,72.9610413"
Talwalkars thane,Gym,Thane,"30+ years in business Â· Raj Mahal, ravi compound, aradhana theatre lane",Open â‹… Closes 9:30â€¯pm Â· 022 2536 6736,",avantis@talwalkars.net,hifiplatinum12@gmail.com,","19.2121879,72.9473294"
Performance Enhancement Fitness Academy,Gym,Thane,"5+ years in business Â· Raise Gym Panama Planet Opp Amruta, Gokhale Rd, near Bharat and Axis Bank",Open â‹… Closes 9â€¯pm Â· 074003 25546,,"19.1879424,72.9706372"
The Gym Fitness Center,Gym,Thane,"Mumbai, Maharashtra",Open â‹… Closes 10:30â€¯pm,",support@gymcompany.co.za,Afc@azharfitnesscenter.com,mayurkakde007007@gmail.com,membership@thegymgroup.com,","19.1971384,72.9593872"
Alpha Premium Fitness Centre,Gym,Thane,"5+ years in business Â· 3rd floor, The Visava, Gokul Nagar, Maji wada",Open â‹… Closes 10â€¯pm,,"19.2079326,72.9748798"
MONSTER FACTORY GYM,Gym,Thane,"3+ years in business Â· Monster Factory Gym, SG Barve Rd, near Maharashtra bank, opp. Opal square",Open â‹… Closes 10â€¯pm,,"19.190934,72.9530051"
THE GYM TIGER FITNESS,Gym,Thane,Kamgar Hospital Rd,Open â‹… Closes 11:30â€¯pm,",Tigerfitnessclub139@gmail.com,","19.2014535,72.9565059"
Fitness And Finesse,Gym,Thane,"3+ years in business Â· Shop no 2, Jay vasant society, near Subway, opp. Anupam Society",Open â‹… Closes 10â€¯pm Â· 079777 76597,,"19.1930764,72.9628797"
RK FITNESS ZONE,Gym,Thane,"3+ years in business Â· 1st floor, Road No. 33, above Pragati Hospital",Â· 088280 28810,,"19.2014245,72.9565577"
Anand fitness centre kolbad,Gym,Thane,"ground, Veer savarkar, Comrade Rajaram Vishnu Rawool Marg, opp. Pratap cinema",Open â‹… Closes 10â€¯pm,",mayuri.dr@gmail.com,","19.2028308,72.9715148"
"Fitness Wynk Studio - Crossfit, MMA & Functional training Gym",Gym,Thane,"5+ years in business Â· 7/7, Vijay Garden, Jasmine CHS LTD, Ghodbunder Rd",Open â‹… Closes 10â€¯pm Â· 089281 28935,,"19.2627339,72.9716896"
Pulse Fitness and Spa,Gym,Thane,"7+ years in business Â· Vishramgiri Society, Ground Floor Sector 6, next to Ayyappa Temple",Open â‹… Closes 10â€¯pm Â· 099675 57929,",callcenter@pulsefit.bg,info@pulsefitness.in,","19.1914258,72.9402624"
E-FITTNESS & BEYOOND (Sheetaal Pa Sawnt),Gym,Thane,"3+ years in business Â· Rustomjee urbania, Rustomjee Urbania",Â· 099876 45673,,"19.20732,72.9851865"
The Squad Fitness,Gym,Thane,"203, 2nd Floor, Rutu Business Park, A wing",Open â‹… Closes 10â€¯pm,",info@bfysportsnfitness.com,","19.2219602,72.9664358"
The Xtreme Fitness Gym,Gym,Thane,"ground near ganesh, jainath",Open â‹… Closes 11â€¯pm,,"19.2386941,72.9748533"
FITGOD'S GYM,Gym,Thane,"Gautam Arcade Cooperative Housing Society, Harishchandra Raut Marg, opp. Shubhdum Chinese Centre",Open â‹… Closes 11â€¯pm Â· 084258 47507,,"19.1826696,72.9738153"
BRUTE MMA & Fitness,Gym,Thane,"5+ years in business Â· 3rd Floor, S K Tower, Hariniwas Cir, above SRL Diagnostics",Open â‹… Closes 10:30â€¯pm Â· 070399 95226,,"19.2138749,72.950173"
Javelin The Fitness House,Gym,Thane,"10+ years in business Â· Dhobi ali ,agar lane,shop no.5 dharmveer housing CO.society,, Ground Floor ,Tembhi Naka",Open â‹… Closes 11:30â€¯pm,,"19.197756,72.9736094"
CrossFit Fitness Adda Thane-EFTA,Gym,Thane,"2nd Floor, above Akshay Fitofusion, opp. St. John School Gate",Open â‹… Closes 8â€¯pm Â· 090046 61104,",curvesforher.fitness@gmail.com,","19.1958142,72.9729753"
Sankalp Body Fitness,Gym,Thane,"7+ years in business Â· 5XQ3+933, Shivaji Nagar Rd, near Meenatai Thakse Hospital",Open â‹… Closes 11â€¯pm Â· 097027 10546,,"19.1883848,72.9500938"
"T-Rex Fitness Factory Kalwa - Your Gym, Your Fitness",Gym,Thane,3RD & 4TH FLR MILESTONE CORPORATE PARK DUTTA WADI Old Pune Rd,Open â‹… Closes 10:30â€¯pm,,"19.2010988,72.9966765"
Dad's Gym,Gym,Thane,"5+ years in business Â· BLOCK-13, SHREE SAI ADARSH CHS, X-10A",Open â‹… Closes 10â€¯pm Â· 098330 70677,",hfsthane@hiranandanischools.edu.in,","19.2068153,72.9530792"
Aim Fitness,Gym,Thane,"Aim Fitness (W, Infront of TMC School",Open â‹… Closes 11â€¯pm,"info@aimfitnessstudio.com,,ninfo@aimfitnessstudio.com,","19.2055343,72.9499309"
Ozone Gym,Gym,Thane,"15+ years in business Â· shop 1, gupta compound, Shahid Mangal Pandey Rd, behind bakers pride bakery",Open â‹… Closes 10â€¯pm Â· 090045 59991,",steronestaff@gmail.com,franchise@ozoneclubs.com,profitness7716@gmail.com,gravityfitnessthane@gmail.com,","19.1905364,72.9593331"
BodySculpt The Fitness Studio,Gym,Thane,"3+ years in business Â· 6X53+5XC, above Ambaji Medical",Open â‹… Closes 11â€¯pm Â· 075068 17272,",bodysculpt72@gmail.com,","19.2079475,72.9523207"
The Field,Gym,Thane,"1st and 2nd floor, Keshav heights, 90 Feet Rd",Open â‹… Closes 11:30â€¯pm Â· 086573 34499,,"19.206608,73.0025537"
DHARMAVEER FITNESS (à¤§à¤°à¥à¤®à¤µà¥€à¤° à¤œà¤¿à¤®),Gym,Thane,"5+ years in business Â· Dharamveer Fitness gym building Ganpat Jairam Kharkar Alley Marg, opp. Chitre Tower, nr. N.K.T College",Open â‹… Closes 10â€¯pm Â· 074001 38358,,"19.194632,72.9767073"
BodyZone Gym,Gym,Thane,"10+ years in business Â· 6XXG+PF2, Rutu Estate Internal Roads",Open â‹… Closes 11â€¯pm Â· 092323 23232,,"19.2526572,72.9664896"
BRUTE MMA & Fitness,Gym,Thane,"House No 677, Block No 93, opp. Oscar Hospital",Open â‹… Closes 10:30â€¯pm Â· 070399 95212,,"19.2138749,72.950173"
Get Fit With Ganesh Singh,Gym,Thane,"3+ years in business Â· 704/ Nandini, Kores Towers",Open â‹… Closes 8:30â€¯pm,,"19.2088951,72.9563999"
AVDHUT HEALTH CENTRE (Unisex),Gym,Thane,"15+ years in business Â· Ramdas Apartment, Thane - Belapur Rd",Open â‹… Closes 10â€¯pm Â· 098204 02605,"info@blueroofclub.com,,","19.1851601,72.988557"
IFSI Fitness Academy,Gym,Thane,"5+ years in business Â· 2nd Floor, 'A' Wing, Shiv Tower, Khopat Rd, above Lifeline Hospital",Open â‹… Closes 10â€¯pm Â· 080101 89189,,"19.2026221,72.9695713"
OSAAT Fitness,Gym,Thane,"Sh. No. 16, Ground Floor, Niharika Shopping Complex Near Hiranandani Medows, Pokharan Road No. 2, Thane, Maharashtra 400604",Open â‹… Closes 9â€¯pm,",osaatfitness.thane@gmail.com,","19.2253837,72.9676748"
90 degree gym,Gym,Thane,"5+ years in business Â· 5XR5+6H2, Rd Number 9",Open â‹… Closes 10â€¯pm,,"19.1954813,72.9528963"
Abhijeet Fitness,Gym,Thane,"5+ years in business Â· Room No 904, K Wing, Bhoomi Acres Phase 2",Open â‹… Closes 10â€¯pm Â· 090826 57679,",mayurkakde007007@gmail.com,abhidesai2691@gmail.com,","19.2588059,72.9740988"
Samatva fitness studio,Gym,Thane,"3rd floor, Malhar talkies, Gokhale Rd, above Kohinoor electronics",Open â‹… Closes 9â€¯pm Â· 098398 33040,,"19.1879002,72.9643375"
Mavi's Gymnasium,Gym,Thane,"10+ years in business Â· 5WRW+9F4, Sree Nagar Rd",Open â‹… Closes 9â€¯pm Â· 022 2582 3981,",pallavi11101995@gmail.com,","19.1908777,72.9436425"
Uday Gym,Gym,Thane,5+ years in business Â· opp. to Hiradevi Mandir,Open â‹… Closes 10â€¯pm,",rakesh.yashaswi@yahoo.com,udaylalmani@gmail.com,","19.2059797,72.9978653"
Apollo Gym,Gym,Thane,"7+ years in business Â· 2, Cheulkar Rd",Open â‹… Closes 10â€¯pm Â· 022 2539 0125,,"19.2308608,72.9372599"
Fitgrit Fitness And Brekfast Studio,Gym,Thane,"Shop No 17, Dosti Imperia, 1, MH SH 42, Manpada, Thane West, Thane, Maharashtra 400602",,",info@fitforever.co.in,","19.2324759,72.9728607"
Decode Fitness - Codify Your Strength,Gym,Thane,"Shop No.6, Monalisa, Near, Hariniwas Cir",Open â‹… Closes 11â€¯pm,,"19.1913675,72.9652308"
Azhar Fitness Center,Gym,Thane,"5+ years in business Â· AFC GYM, Bhima Venu Apartment, A /3",Open â‹… Closes 12â€¯am Â· 088797 41232,",Afc@azharfitnesscenter.com,info@azharfitesscenter.com,u003einfo@azharfitesscenter.com,moazahar49@gmail.com,","19.1849157,73.0220465"
Hybrid sports performance centre,Gym,Thane,"b5 acre, 6XQF+5F8 Kothari Compound",Open â‹… Closes 9:30â€¯pm,",info@hybridperformancemethod.com,","19.2379298,72.971141"
STAY FIT STAY HIT Fitness Centre,Gym,Thane,"03, B wing, Ganraj apt, Thane Belapur road, Kalwa",Open â‹… Closes 10â€¯pm Â· 093245 85497,",stayfit@stayfitindia.com,","19.1867117,72.9858204"
Vulkn Group Fitness,Gym,Thane,"Urban Sports Turf , Upvan Lake",Open 24 hours Â· 086575 70391,",yoganandahd3@gmail.com,","19.2257757,72.9302407"
Body Fit Gym,Gym,Thane,"7+ years in business Â· w, Manisha Nagar Gate No. 3, opp. Raj hans Bunglow",Open â‹… Closes 10â€¯pm Â· 097686 32553,",bodysculpt72@gmail.com,","19.2170209,72.9710751"
Torque Fitness - Dhokali,Gym,Thane,"Shop no.10, Kalptaru industrial estate, behind R Mall",Open â‹… Closes 11â€¯pm Â· 093260 89236,",sales@torquefitness.com,","19.2313787,72.9767372"
Fitness transformation,Gym,Thane,Lodha Splendora,Open 24 hours Â· 097689 06119,",info@fitforever.co.in,","19.2872727,72.9515015"
Body Art,Gym,Thane,"5+ years in business Â· 6X67+7PX, Jekegram, Pokharan Rd Number 1, Near Singhania School",Open â‹… Closes 8â€¯pm Â· 075062 25981,,"19.1967107,72.9606218"
Riyansh Fitness Centre,Gym,Thane,"Sachinam, Almeda Rd",Open â‹… Closes 10:30â€¯pm,,"19.1982485,72.9633124"
Akshay's FitOfusion,Gym,Thane,"Akshays Fitofusion, Row House 3, Old Bombay Road Opp St John the Baptist School",Open â‹… Closes 10â€¯pm Â· 085911 04402,,"19.1958056,72.9729558"
The Club04 Gym And Salon,Gym,Thane,"PURANIK CITY, Ground Plus, One Floor ADMS, Ghodbunder Rd",Open â‹… Closes 10:30â€¯pm,"info@blueroofclub.com,,webmaster@goldsgym.in,","19.2740296,72.9608289"
Nitrro Sport & Fitness Center,Gym,Thane,"10+ years in business Â· Swantraveer Sawarkar Taran Taloa, Behind Kanhaiyya Nagar, Kopri, Thane East, opposite Kaya",Open â‹… Closes 10â€¯pm Â· 091670 52568,,"19.1929172,72.9633556"
Jai Bharat Gym,Gym,Thane,"10+ years in business Â· 5XVR+5C7, SC Bose Rd",Open â‹… Closes 10â€¯pm,",sunriseipr@gmail.com,","19.1929169,72.9730073"
Chhatrapati Shivaji Gym,Gym,Thane,"7+ years in business Â· 2, Mahatma Phule Nagar Rd",Open â‹… Closes 8â€¯pm,",bhagwatintc@gmail.com,customer.service@makaan.com,thane.vi@totalsf.in,","19.2051974,72.9547787"
Muscle Munch Gym,Gym,Thane,Ground floor Gurukrupa complex Siddhivinayak gate,Open â‹… Closes 11â€¯pm,,"19.1844076,73.041944"
"The Workout Zone, Unisex Gym",Gym,Thane,"Chaphekar Compund, Budhaji Nagar Rd, beside TMT depot",Open â‹… Closes 10â€¯pm,,"19.1910088,72.9856867"
Power Zone Fitness,Gym,Thane,"Ganesh Krupa Building, Sabe Rd",Open â‹… Closes 10:30â€¯pm Â· 077770 73791,",sani.sanidhya@gmail.com,","19.1860311,73.0376797"
FitCoach Meghna,Gym,Thane,"5+ years in business Â· Thane, Maharashtra",Open 24 hours,,"19.2242533,72.9841949"
Power Yoga Classes,Gym,Thane,"7+ years in business Â· Pure fitness studio ,sector 1 plot 23, 400604, Sector 1, Sree Nagar Rd, behind Shivani hospital",Open â‹… Closes 9:30â€¯pm Â· 099204 51076,"vishy22@rediffmail.com,,","19.211501,72.9404858"
RFIT,Gym,Thane,"Thane, Maharashtra",Open â‹… Closes 10â€¯pm,,"19.2078575,72.9509161"
18 HOUR FITNESS,Gym,Thane,"5+ years in business Â· SHOP NO 4,5 AMIR APT, next to NOORANI RESTAURANT",Open â‹… Closes 12:30â€¯am,,"19.1687656,73.0223559"
Body Shape Fitness Gym,Gym,Thane,"7+ years in business Â· Noori Baug, Rehnuma Complex, 458, Mumbai - Pune Rd, opp. Sanjay Nagar",Open â‹… Closes 11â€¯pm Â· 092221 02597,",bodyshapemumbai@gmail.com,","19.1794924,73.0197387"
Fit Adda,Gym,Thane,"3+ years in business Â· Shop No. 16, Asha Society, Opp Geeta Society, Edulji Rd",Open â‹… Closes 10:30â€¯pm Â· 088798 57111,"mrsfitnessadda@gmail.com,,","19.1976629,72.9714577"
Fit & Flex Gym,Gym,Thane,"Thane, Maharashtra",Open â‹… Closes 11â€¯pm Â· 096196 96667,,"19.2692443,72.9584141"
Rabodi Gym,Gym,Thane,10+ years in business Â· 6X4P+34G,Open â‹… Closes 9â€¯pm,,"19.2051783,72.9827621"
GET FIT FITNESS STUDIO,Gym,Thane,"5+ years in business Â· Shop no-8 , first floor, Sonu aai arcade bldg, above Shree Medical",Open â‹… Closes 9â€¯pm,",curvesforher.fitness@gmail.com,","19.2151309,72.9543493"
Lime Light Gym,Gym,Thane,"7+ years in business Â· 5WVV+42F, Shantinagar Rd",Â· 095948 42106,",mayuri.dr@gmail.com,","19.1928024,72.9399874"
ADARSH GYM AND FITNESS CENTER,Gym,Thane,"20+ years in business Â· 2nd Floor, center, Railway Reservation Centre, TMC School",Open â‹… Closes 9â€¯pm,,"19.2135466,72.9575465"
RN Dance and fitness,Gym,Thane,"Mumbai, Maharashtra",Open â‹… Closes 10â€¯pm Â· 087798 65600,,"19.2261194,72.9668571"
Hardcore Fitness (Gym),Gym,Thane,"7+ years in business Â· Phase 2, opp. swami krupa w 400607, Kolshet Rd",Open â‹… Closes 10:15â€¯pm,,"19.2284553,72.9777038"
PrathamFit | CrossFit & Personal Training Studio | Nutrition Hub | Thane,Gym,Thane,"7+ years in business Â· Gr. Floor, MH High School, Shivaji Path",Open â‹… Closes 10â€¯pm Â· 095941 14582,,"19.1905788,72.9732072"
Fit4You Fitness Studio,Gym,Thane,"Shop No 3, Anunagar Waghbil Thane",Open 24 hours Â· 088501 18579,"Email-manyafitme@gmail.com,,","19.25798,72.9721681"
Zumba and Pilates fitness with vaishnavi,Gym,Thane,"Cosmos Park, society",Open â‹… Closes 10â€¯pm Â· 089765 62493,,"19.2590129,72.96931"
Pure Fitness Studio,Gym,Thane,3+ years in business Â· Shree Narayan Mandira Samiti,099204 51076,"vishy22@rediffmail.com,,","19.1913764,72.9419064"
SP FITNESS UNISEX,Gym,Thane,"3+ years in business Â· 5XR5+88M, Wagle Estate Rd, Rd Number 9",Open 24 hours,,"19.1908257,72.9557109"
Thane Gymkhana Officers Club,Gym,Thane,"14, Krishna Borker Marg",Â· 092215 90350,",decaangymkhana@gmail.com,thanegymkhana1@gmail.com,Bankipore.club@gmail.com,countryclub@goldenswan.com,","19.1800876,72.9655973"
Ace Runners Fitness and Marathon Training Center,Gym,Thane,"5+ years in business Â· 6XHC+7J9, BMC Garden, Hiranandani Meadows, Manpada, Thane West",Open 24 hours Â· 099305 64806,,"19.2253474,72.9536226"
Nitro Gym Swimming Pool,Gym,Thane,"Kanhaiyya Nagar, Thane East",Open â‹… Closes 10â€¯pm,,"19.1783908,72.9716951"
"Fit Forever - Weight Loss, Weight Gain & weight management studio Studio",Gym,Thane,"7+ years in business Â· 202, Park Plaza C', hiranandani Estate, Arc Lane, Ghod bander road",Â· 098190 53922,,"19.2547741,72.9778086"
Fitness Factory GYM,Gym,Thane,Nitin Company Junction,Â· 075064 67399,,"19.2054732,72.9480351"
KeepFit Aerobics Centre,Gym,Thane,"30+ years in business Â· Shopping Centre, Amarpali Arcade, Pokharan Rd Number 2",Â· 093243 89679,,"19.2225372,72.964269"
KICKBOXING SRI MA,Gym,Thane,"Patlipada, Off, Ghodbunder Rd, near Hiranandani Estate",Open 24 hours Â· 093723 47556,,"19.2504827,72.9763773"
7 fitness hub,Gym,Thane,"3+ years in business Â· 62P7+699, Kaseli Toll Naka",Open 24 hours Â· 099605 32749,,"19.235538,73.0109032"
MMA WARRIORS,Gym,Thane,"7+ years in business Â· MMA Warriors, Sachin Tendulkar Krida Sankul, Mahatma Phule Nagar Rd",Open â‹… Closes 10â€¯pm Â· 090045 38091,",michaelpereira007@gmail.com,","19.205679,72.9546961"
Maars Gym,Gym,Thane,"A-WING, Dennis building",Â· 086554 36381,,"19.2064119,72.9516361"
AnatomÃ© Gym,Gym,Thane,"Unit - A-2, Acre Kothari Ware House, 4 & 2/5 27",Open â‹… Closes 10:30â€¯pm Â· 098673 38006,"info@blueroofclub.com,,mayurkakde007007@gmail.com,","19.2365128,72.9658453"
Fitness Centre,Gym,Thane,5+ years in business Â· 6X6F+VH6,,",support@gymcompany.co.za,Afc@azharfitnesscenter.com,","19.2220407,72.9240997"
Body Blast Gym,Gym,Thane,"6XQH+C24, Manpada, Thane West, Thane, Maharashtra",,",curvesforher.fitness@gmail.com,","19.2385165,72.9750052"
Super Fitness Gym,Gym,Thane,"Super fitness gym, no. 2",Open â‹… Closes 9:30â€¯pm Â· 093249 06637,"info@blueroofclub.com,,","19.220163,72.9881566"
World Fitness - Gym In Mulund,Gym,Thane,"15+ years in business Â· Mumbai, Maharashtra",Open â‹… Closes 11:55â€¯pm Â· 080974 00500,,"19.1853407,72.9454771"
The Gym,Gym,Thane,"89, Rd Number 22",Open â‹… Closes 10â€¯pm,",support@gymcompany.co.za,info@nitrro.in,mayurkakde007007@gmail.com,","19.228558,72.9384298"
The Squad Fitness,Gym,Thane,"101 P.K. Shopee, Near IDBI Bank, Opposite Hypercity Mall Big Bazar, Ghodbunder Rd",Open â‹… Closes 9â€¯pm,",info@bfysportsnfitness.com,","19.2219602,72.9664358"
Yoga N Fitness With Jatin,Gym,Thane,"7+ years in business Â· Dosti Imperia, Shop No 227, 2nd floor, opp. Kotak band",Open â‹… Closes 9â€¯pm Â· 081088 15805,,"19.2324759,72.9728607"
Ashtavinayak Gym,Gym,Thane,"10+ years in business Â· 5XJH+VVR, Ashtavinayak Chowk, Ashtavinayak Marg",Open â‹… Closes 10â€¯pm,",mayuri.dr@gmail.com,","19.182236,72.9770573"
Body Zone Gym,Gym,Thane,"3, Ghodbunder Rd",Â· 098205 56233,,"19.2316309,72.9028589"
S.R anytime fitness gym only for ladies,Gym,Thane,"landmark janta bakery, 101-102 Gupta palace Dargah road Amritsar nagar",Open â‹… Closes 11â€¯pm,,"19.1760897,73.0201893"
Fitness 45,Gym,Thane,"15+ years in business Â· Mumbai, Maharashtra",Open â‹… Closes 11â€¯pm Â· 093222 41917,,"19.2094166,72.9287162"
Fitcoach Ruchi FitNiwas,Gym,Thane,"3+ years in business Â· FitNiwas, Giri Heaven, Ground Floor, Shop - 4 Hari Niwas Circle, Society, next to Giriraj Heights",Open 24 hours Â· 090493 50707,,"19.1913522,72.9657012"
Thane West,Gym,Thane,6XCQ+6F7,,",bodysculpt72@gmail.com,mayurkakde007007@gmail.com,curvesforher.fitness@gmail.com,saptashree.thane@goldsgym.in,","19.2378089,72.9247243"
Ratna prabha Vyayamshala,Gym,Thane,"3+ years in business Â· 5XRQ+CGC, Opposite TMT Bus Depot",Open â‹… Closes 10â€¯pm,,"19.1910679,72.9862018"
Joints N Motion,Gym,Thane,"Vega, 4, Ghodbunder Rd",Open â‹… Closes 9â€¯pm Â· 085756 00040,",jointnsnmotion@gmail.com,","19.2514907,72.9778983"
Mission Fitness,Gym,Thane,"Hiranandani Turf, Arcadia Cir, near Avila Building, Hiranandani Estate, Thane West, Thane, Maharashtra 400607",,",curvesforher.fitness@gmail.com,","19.2552969,72.9807119"
Dharmavir Anand Dighe Gym (DADs),Gym,Thane,"5, Pune - Mumbai Hwy, Jai Trimurti Cooperative Housing Society, Budhaji Nagar, Kalwa, Thane, Maharashtra 400605",,",umeshpandit030@gmail.com,","19.1982018,72.9921374"
Fitness Studio - Fitness And Breakfast Studio - Weight Loss In Thane Mumbai,Gym,Thane,"Dosti Imperia, building, Gracia B wing , 16 th floor 1607, Near manpada, opp. to R Mall, Thane West, Mumbai, Maharashtra 400610",,",info@fitforever.co.in,","19.2316384,72.9712317"
Karadi's Gym,Gym,Thane,"741 karadi compound karadi's gym ganesh ngr thane, Ghodbunder Rd",Â· 076664 56790,,"19.2358318,72.9771216"
VK fitness gymnasium (UNISEX),Gym,Thane,"ground floor, nr. Sai baba mandir, Chitra apartment",Open â‹… Closes 10â€¯pm,",vkfitnesscenter@gmail.com,","19.1849162,72.9877698"
"Gym Instructor, Personal Trainer in Thane - Pradeep",Gym,Thane,Lodha Luxuria Rd,Open â‹… Closes 9â€¯pm,,"19.2143139,72.9861757"
Sagarâ€™s Chasing Aesthetic Fitness,Gym,Thane,"Thane, Maharashtra",Open â‹… Closes 10â€¯pm Â· 098678 54242,,"19.2184129,72.9921981"
Sachin's studio,Gym,Thane,"201, Old Bombay Rd, near Dagdi School",,"sachins.dance@gmail.com,,","19.1904336,72.9657111"
Hurdles Fitness,Gym,Thane,"Mumbai, Maharashtra",Open â‹… Closes 10â€¯pm Â· 088795 62229,",thane@totalsf.in,thane.vi@totalsf.in,","19.1769036,72.9467099"
Pro-SAFE fitness academy,Gym,Thane,"Mumbai, Maharashtra",Open â‹… Closes 10â€¯pm,",info@pro-fitnessacademy.com,","19.1715401,72.9549872"
Neo Pilates Studio,Gym,Thane,"Ground floor, Auralis, Hajuri Durga Street",Open â‹… Closes 8â€¯pm Â· 081046 57741,,"19.1933304,72.9584768"
Anand sphurti Gym.,Gym,Thane,"Near rail a devi Talao, road no 9,rahungaa nagar,thane 400604.",Â· 072085 77628,,"19.1912439,72.9549835"
Pro-SAFE fitness academy,Gym,Thane,"Mumbai, Maharashtra",Open â‹… Closes 10â€¯pm,",info@pro-fitnessacademy.com,","19.1715401,72.9549872"
Neo Pilates Studio,Gym,Thane,"Ground floor, Auralis, Hajuri Durga Street",Open â‹… Closes 8â€¯pm Â· 081046 57741,,"19.1933304,72.9584768"
Community Gym,Gym,Thane,"5XR7+J98, Vasudev Balwant Phadke Rd, Bhakti Mandir, Panch Pakhdi, Thane West, Thane, Maharashtra 400602",,",support@gymcompany.co.za,mayurkakde007007@gmail.com,membership@thegymgroup.com,","19.1915325,72.9608814"
90 Degree Gym,Gym,Thane,"09, Road No. 16/Z",Temporarily closed,,"19.1954813,72.9528963"
Shree Swami Samarth Gym & Fitness Centre,Gym,Thane,"Sai Dham Co-Operative Housing Society, Pada No.4",Â· 098671 39813,,"19.2094095,72.9471091"
Pro Fitness Thane - Train with Athletes,Gym,Thane,"garden, Pokhran road 1, Golden Goal turf, beside Salt N Pepper restaurant, Siddhachal, Thane, Maharashtra 400606",,",thane@totalsf.in,thane.vi@totalsf.in,","19.2069588,72.954536"
The Tiger GYM and Fitness,Gym,Thane,"Mumbai, Maharashtra",,",Tigerfitnessclub139@gmail.com,","19.1887074,72.94534"
THANEFIT GYM,Gym,Thane,"Vijay Park, Clubhouse,Sukur Residency, Ghodbunder Rd, Kasarvadavali, Thane West, Thane, Maharashtra",,",mayurkakde007007@gmail.com,","19.2668681,72.9674578"
Shape up fitness studio Thane West,Gym,Thane,"Thane, Maharashtra",Temporarily closed,",bodysculpt72@gmail.com,curvesforher.fitness@gmail.com,","19.1975267,72.9647766"
R360 gym,Gym,Thane,7X5M+JQM,Temporarily closed,,"19.253509,72.9757279"
Apollo Gym Body By Design,Gym,Thane,"No 12, Ghodbunder Rd",Temporarily closed,,"19.2589351,72.9679343"
Gym Garden,Gym,Thane,6X4M+MW3,,",vashi@sparnodfitness.in,sales@sparnodfitness.in,andheri@sparnodfitness.in,","19.2322285,72.9619359"
Open gym,Gym,Thane,"Kohinoor Society, Vasudev Balwant Phadke Rd",Temporarily closed,,"19.2220407,72.929061"
My Fitness Empire - Mira Road - Thane,Gym,Thane,"1 Floor, 2 Floor, 3 Floor, Harsh Residency, above Mumbai Menu, above Tea Villa Cafe, Kashimira, Mira Road East, Mira Bhayandar, Maharashtra 401107",086919 14141,",drgauravshah@india.com,","19.2767675,72.879106"
Shwet Yoga Classes - Thane,Gym,Thane,,,",healthshwetyoga@gmail.com,","19.2035795,72.9752593"
Golden Gymnasium - Mumbra - Thane,Gym,Thane,"Noori Tower, Flat No.102, 1st Floor, Barkat, Mumbai - Pune Rd, opp. Dominos, Kausa, Mumbra, Maharashtra 400612",076663 48899,"WeCare@GoldsGym.in,,mayuri.dr@gmail.com,","19.1621094,73.0262007"
Zest Fitness Studio - Mira Road East - Thane,Gym,Thane,"15/2, Solitaire 3, Poonam Garden, Next To Latif Park, Mira Road East, Thane 401107, MH",+91-9987492226,,
Yash Unique Fitness - Bhayandar - Thane,Gym,Thane,"001, Sai Parichay Co-operative Housing Society, G Wing, Near Sneha Hospital, Navghar Road, Sai Baba Nagar, Bhayandar, Thane 401105, MH",+91-8383839555,",info@megabyteinfocom.in,",
Wellness Yoga Studio - Thane West - Thane,Gym,Thane,"Flat No 101, A-10, Near Ayyappa Temple, Shanti Nagar, Sector 2, Mira Road, Thane 401107, MH",+91-9867244888,"rajkamal.yoga@gmail.com,,",
VS World Fitness - Thane West - Thane,Gym,Thane,"3, Taskar House, Ram Maruti Road, Naupada, Thane 400602, MH",+91-8422967676,,
VR Active Fitness Gym - Thane East - Thane,Gym,Thane,"Kulkarni House, Behind Anand Theater, Datta Mandir Marg, Kopri, Thane 400603, MH",+91-9768555525,,
Vihan fitness solutions - Thane West - Thane,Gym,Thane,"Purushottam Plaza, Vishal Apartment, GB Road, Kasarvadavali, Thane 400610, MH",+91-9920775588,,
Vicky's Fitness Centre - R.T. Road - Dahisar - Thane,Gym,Thane,"1/2/3/4, Sai Vaibhav Building, Near Malganokar Hospital, Krishna Colony, Ramkunwar Thakur Marg, Dahisar, Thane 400068, MH",+91-9833487070,,
Vicky's Fitness Centre - C.S Road - Dahisar - Thane,Gym,Thane,"5, Satyam Building, Near Corporation Bank, CS Road, Dahisar, Mumbai 400068, MH",+91-8080777792,,
Versatile Fitness - Thane West - Thane,Gym,Thane,"Central Railway Institute, Near Ganesh Tower, Thane 400602, MH",+91-9768759888,",versatilefitness2017@gmail.com,",
V Power The Fitness Lounge - Mira Road East - Thane,Gym,Thane,"1/2, Rashmi Prime Corner, Basement, Beverly Park, Near Kanakia Police Station, Mira Road East, Thane 401107, MH",+91-7666771011,,
Urja Yoga And Fitness Studio - Thane West - Thane,Gym,Thane,"Thakkar House, 5th Floor, A Wing, Near Meenatai Thakrey Chowk, Thane 400603, MH",+91-9167963960,,
Unstoppable Fitness Arena - Mira Road East - Thane,Gym,Thane,"Vasudev Planet, 1st Floor, Laxmi Park, Near Park View Hotel, Kanakia Road, Mira Road East, Thane 401107, MH",+91-9082652769,",anjuwadh@gmail.com,safeinfosolutions@yahoo.co.in,",
Ultimate Slimwell Health Centre - Thane West - Thane,Gym,Thane,"26-A/1 & 2, Brindavan Society, Near Brindavan Bus Stop, Castle Mill Road, Thane 400574, MH",+91-9821787755,,
Ulka Mohan Salve Yoga Trainer - Thane West - Thane,Gym,Thane,"Near Shankar Temple, Gandhi Nagar, Kalwa, Thane 400605, MH",,",mohan_sonawale@yahoo.com,",
Traditional Yoga Centre - Thane West - Thane,Gym,Thane,"Kustigir Bhavan, Near Thane Station, Off Gokhale Road, Thane 400602, MH",+91-8879496321,,
TJ's Dance and Fitness Studio - Thane West - Thane,Gym,Thane,"4/E-123, Vrindavan Society, Near Vrindavan Bus Stop, Nikam Guruji Road, Rabodi, Thane 400601, MH",+91-9833841236,",curvesforher.fitness@gmail.com,",
The Menace gym - Thane West - Thane,Gym,Thane,"Sairaj Apartment, 1st Floor, Opposite Preeti Petrol Pump, Purna, Bhiwandi, Thane 421308, MH",+91-7666387777,,
The Krunch Fitness - Thane West - Thane,Gym,Thane,"2 & 3, Prathmesh Hills, 1st Floor, Shree Swamikrupa Phase 2, Near Ribbons And Ballons, Kolshet Road, Dhokali Naka, Thane 400607, MH",+91-9167884292,,
The Gyym: State of the Art Facilities - Thane West - Thane,Gym,Thane,"The Gym, Bhimshankar Building, Behind Vasant Vihar Club House, Thane 400610, MH",+91-22-33126195,,
The Gym Nation - Thane West - Thane,Gym,Thane,"1, Kachaawa Mansion, 2nd Floor, Near Liberty Hotel, Agra Road, Kalyan Naka, Thane 421302, MH",+91-7507486480,",iphapts@gmail.com,",
The Fitness Studio - Mira Road East - Thane,Gym,Thane,"102, B-Wing, Near Cosmopolitian School, Sheetal Nagar, Mira Road East, Thane 401107, MH",+91-9167929715,,
The Fitness Factory - Thane West - Thane,Gym,Thane,"Kashish Park, Near Tip Top Plaza, LBS Marg, Thane 400604, MH",+91-8080327746,",sales@trexfitnessfactory.com,",
The Crossone Fitness - Thane West - Thane,Gym,Thane,"Parasmani Building, Opposite Shahu Market, MG Road, Naupada, Thane 400602, MH",+91-9699098618,,
Tatya Pawar Yoga - Thane West - Thane,Gym,Thane,"207, Cosmos Avenue, Near Khandelwal Sweets, Gokhale Road, Thane 400601, MH",,",healthshwetyoga@gmail.com,YOGITA.AIL@GMAIL.COM,kundan_ghogare21@yahoo.co,",
Talwalkars - Thane East - Thane,Gym,Thane,,,",avantis@talwalkars.net,",
Talwalkars - Thane West - Thane,Gym,Thane,"Milestone Corporate Park, 3rd & 4th Floor, Above SBI Bank, Old Pune Link Road, Dutta Wadi, Kharigaon, Kalwa, Thane 400605, MH",+91-22-25342936,",avantis@talwalkars.net,ig@talwalkars.net,",
Talwalkars - Mira Road East - Thane,Gym,Thane,"E-41, 3rd Floor, Phase 3, Near Jain Mandir, Sector 7, Shanti Nagar, Mira Road East, Thane 401107, MH",+91-22-28111136,,
Talwalkars - Thane West - Thane,Gym,Thane,"Milestone Corporate Park, 3rd & 4th Floor, Above SBI Bank, Old Pune Link Road, Dutta Wadi, Kharigaon, Kalwa, Thane 400605, MH",+91-22-25342936,",avantis@talwalkars.net,ig@talwalkars.net,",
Talwalkars - Thane West - Thane,Gym,Thane,"Milestone Corporate Park, 3rd & 4th Floor, Above SBI Bank, Old Pune Link Road, Dutta Wadi, Kharigaon, Kalwa, Thane 400605, MH",+91-22-25342936,",avantis@talwalkars.net,ig@talwalkars.net,",
Talwalkars - Dombivali - Thane,Gym,Thane,"59-B, Madhav Building, Star Colony, Nandivali Panchanand, Manpada Road, Dombivli, Thane 421201, MH",+91-9699720298,,
Talent House Dancing And Acting Academy - Thane West - Thane,Gym,Thane,"4/28, Shreeji Spendour Brahmand Complex, Near Dharmacha Pada Bus Stop, Ghodbunder Road, Thane 400601, MH",+91-9769621253,,
T-Club Fitness - Thane West - Thane,Gym,Thane,"14, Swaraj Co-operative Housing Society, 3rd Floor, K-Villa, Next To Holy Cross Girls School, Thane 400601, MH",+91-9152405089,",sales@trexfitnessfactory.com,",
Synergym - Mira Road East - Thane,Gym,Thane,"SYNERGYM, Ritu Paradise 2, Gaurav Sankalp, Near GCC Club, Phase 2, Mira Road East, Thane 401107, MH",+91-80 48409466,",goassun@gmail.com,agarwal.r12@nic.in,",
Sweat Zone Fitness Studio - Thane West - Thane,Gym,Thane,"123/D-1, Mangalya Co-operative Housing Society, Near Vasant Vihar Club, PK Road No 2, Swami Vivekanand Nagar, Thane 400601, MH",+91-22-32261616,,
Sumit Yoga Trainer - Thane East - Thane,Gym,Thane,"6, Alps Studio, Galaxy Tower, Raghukul Society, Parsik Nagar, Kalwa, Thane 400605, MH",,",archgmayuri.somvanshi@gmial.co,",
Sumit Power Yoga Trainer - Thane West - Thane,Gym,Thane,"A-202, Omkar Apartment, Opposite Parsik Bank, Khare Gaon Naka, Kalwa, Thane 400605, MH",+91-9769435397,",info@friendsacademy.com,",
Suhasini Yoga Classes - Dombivali - Thane,Gym,Thane,"Chamunda Darshan, 1st Floor, Near Bank Of India, Rajaji Path, Dombivali East, Thane 421201, MH",+91-7738034777,",suhasini-yoga-classes-thane-@a0tqu372.html,",
Steppro Zumba Fitness And Dance Studio - Thane West - Thane,Gym,Thane,"6, Monalisa Building, Opposite Harinivas Cir, Thane 400602, MH",+91-8369486931,,
Step up dance academy - Mira Road East - Thane,Gym,Thane,"A-1, Dharti Complex, Opposite Narmada Paradise, Mira Road East, Thane 401107, MH",+91-22-33126193,,
Step N Style Dance Studio - Thane West - Thane,Gym,Thane,"Anand Kawach, 3rd Floor, Near Majiwada Flyover, Service Road, Majiwada, Thane 400601, MH",+91-9920148325,,
Step 2 Fitness - Kalyan - Thane,Gym,Thane,"Appa Maharaj Darshan Building, 1st Floor, Near Lal Chowk, Agra Road, Kalyan West, Thane 421391, MH",+91-9820331568,",thane@totalsf.in,",
SS Fitness Centre - Thane West - Thane,Gym,Thane,"9/10, Sargam Apartment, Near Nirmala Devi Hospital, Shree Nagar, Wagale Estate, Thane 400604, MH",+91-9773435543,,
Spartans Hardcore And Fitness Gym - Dombivali - Thane,Gym,Thane,"Shiv Krupa Co-operative Housing Society, 1st Floor, Shiv Mandir Road, Ram Nagar, Dombivali, Thane 421201, MH",+91-8976576555,,
Snehal's aerobics power yoga - Thane West - Thane,Gym,Thane,"Cosmos Regency, Wagbil Road, Kavesar, Thane 400607, MH",+91-9987356060,,
SK's Dance Academy - Thane West - Thane,Gym,Thane,"Leelas Gym, Swastik Park Society Gate, Near Ganpati Mandir, Bramhand, Thane 400607, MH",+91-22-33126194,",apcce_college@yahoo.com,",
SK FITNESS STUDIO - Mira Road East - Thane,Gym,Thane,"113, Vasudev Skyhigh, Opposite Tuk Tuk Foods, Ramdev Park Road, Mira Road East, Thane 401107, MH",+91-9152167436,,
Silver Gym - Thane West - Thane,Gym,Thane,"7, 8 & 9, Hasnain Tower, Opposite Bilal Hospital, Kausa, Mumbra, Thane 400612, MH",+91-22-65777146,,
Shubus Zion Studio - Thane West - Thane,Gym,Thane,"14, Tropical Lagoon, Near Anand Nagar Bus Stop, Ghodbunder Road, Thane 400614, MH",+91-9987873340,",u003e@shubuszionstudio.in,",
Shri Ambika Yog Kutir - Thane West - Thane,Gym,Thane,"Sadichha Tower, BK Mill Compound, Near Hotel Royal Inn, Minatai Thakarey Chowk, Lal Bahadur Shastri Road, Thane 400602, MH",+91-22-21724951,",shriambikayogakutir@gmail.com,",
Shree Yogada Sports - Thane West - Thane,Gym,Thane,"Municipal High School Ground, Tank Road, Bhandup West, Thane 400078, MH",+91-9833438190,"Ultraengineerings@gmail.com,,healthshwetyoga@gmail.com,saptashree.thane@goldsgym.in,",
Shree Samarth Fitness - Mira Road East - Thane,Gym,Thane,"Belledona Co-operative Housing Society, A Wing, Mira Road East, Thane 401107, MH",+91-9892678229,",vickeys_cardiac@yahoo.com,",
Shree Fitness - Thane West - Thane,Gym,Thane,"Ekrup Mitra Mandal, Tembipada, TP Road, Bhandup West, Thane 400078, MH",+91-9967770756,",saptashree.thane@goldsgym.in,Xzert.thane@gmail.com,mhs_ca@yahoo.co.in,",
Shivfit Shakti - Thane West - Thane,Gym,Thane,"1, Satguru Solitaire, 1st Floor, Above Nexa Showroom, GB Road, Kasarvadavali, Thane West 400615, MH",+91-8828335611,",ninfo@shaktifitness.in,shivfit.shakti@gmail.com,bodysculpt72@gmail.com,u003eshivfit.shakti@gmail.com,info@shaktifitness.in,",
Shirkes Gymnasium & Spa Rules - Bhayandar - Thane,Gym,Thane,"B-101, Sai Bhoomi Appartment, Indralok Naka, Indralok Phase 3, Bhayandar East, Thane 401105, MH",+91-9222047369,,
Serenity Yog Meditation - Thane West - Thane,Gym,Thane,"6, Abhijit Building, 1st Floor, Opposite Platform No 1, Station Road, Thane West 400601, MH",,",healthshwetyoga@gmail.com,",
Sachins Dance and Aerobics Studio - Thane West - Thane,Gym,Thane,"9, Sachin Studios, B Cabin, Opposite TBZ Jeweller, Ram Maruti Road, Navpada, Thane West 400601, MH",+91-9152269049,"sachins.dance@gmail.com,,",
Sachin Dance Studio - Thane West - Thane,Gym,Thane,"9, Shriram Sadan, B Cabin, Opposite TBZ Jewellers, Naupada, Thane West 400602, MH",+91-9967972711,"sachins.dance@gmail.com,,",
Sachin Dance Studio - Thane West - Thane,Gym,Thane,"9, Shriram Sadan, B Cabin, Opposite TBZ Jewellers, Naupada, Thane West 400602, MH",+91-9967972711,"sachins.dance@gmail.com,,",
Sachin Dance Studio - Thane West - Thane,Gym,Thane,"9, Shriram Sadan, B Cabin, Opposite TBZ Jewellers, Naupada, Thane West 400602, MH",+91-9967972711,"sachins.dance@gmail.com,,",
Sachin Dance and Fitness Studio - Thane West - Thane,Gym,Thane,"Krishnachandra Building, Near Godbole Hostpital, Bhaskar Colony, Naupada, Thane West, 400602, MH",,"sachins.dance@gmail.com,,",
S Fitness Club - Kalyan - Thane,Gym,Thane,"Aditi Co-operative Housing Society, Near Badlapur Station, Badlapur East, Kalyan, Thane 421504, MH",+91-9152234771,,
Rukhsana Khan's Yoga Classes - Mira Road East - Thane,Gym,Thane,"A-202, Anurag, Ganga Complex, Opposite Pooja Nagar, Mira Road East, Thane 401107, MH",,",dhanvantrimedicalopd@gmail.com,",
Roxy Gym - Bhayandar - Thane,Gym,Thane,"Shiv Vandana Apartment, 1st Floor, Indralok Phase 3, Near Om Shanti Chowk, Bhayandar East, Thane 401105, MH",+91-8828270933,,
Rope World Fitness - Bhayandar - Thane,Gym,Thane,"6, Everest Mahal Building, Opposite Mandli Talao, Mandli Street, Bhayandar, Thane 401101, MH",+91-9867965383,",u003dbharatpatel6030@gmail.com,Bharatpatel6030@Gmail.Com,bharatpatel6030@gmail.com,",
Rock The Floor Dance And Fitness Studio - Thane West - Thane,Gym,Thane,"Rock The Floor Dance & Fitness Studio, Basement, Near State Bank Of India, Sita Krupa, Panchpakadi, Thane West 400602, MH",+91-8898391111,"ajit.malve@gmail.com,,bodysculpt72@gmail.com,",
Rio Fitness Ulhasnagar - Kalyan - Thane,Gym,Thane,"1, MP Tower, Opposite Amar Fast Food, Municipal Corporation Road, Ulhasnagar, Kalyan, Thane 421002, MH",+91-9323989338,,
Richa Yoga Classes - Mira Road East - Thane,Gym,Thane,"703, Sai Bhadra Tower, 7th Floor, Near Hradik Hotel Palace, Mira Road, Thane 401107, MH",+91-9004555978,"khadri3@yahoo.co.uk,,dhanvantrimedicalopd@gmail.com,",
Red Gym - Thane West - Thane,Gym,Thane,"Cecilia House, Near Gadkari Cinema, Dr. Moose Road, Thane West 400602, MH",+91-22-25368000,,
Real Fitness - Mira Road East - Thane,Gym,Thane,"1, Ranawat Heights, Near BMC Garden, Ramdev Park, Mira Road East, Mumbai 401107, MH",+91-9769922361,,
Ratans Health Club - Dombivali - Thane,Gym,Thane,"Harinarayn Complex, 3rd Floor, Press Bazar, Shivaji Chowk, Opposite Royal Ice Cream, Ulhasnagar, Dombivali, Thane 421002, MH",+91-9890172611,",myghorpade77@gmail.com,AAREYDRUGS@GMAIL.COM,deveshshahin@yahoo.co.in,email@dgsm.co.in,mihirghatalia@gmail.com,",
Raise Gym - Thane West - Thane,Gym,Thane,"Panama Planet, Basement, Opposite Amruta Hotel, Gokhale Road, Thane West 400602, MH",+91-9833022905,,
Rage Fitness and Adventure Pvt Ltd - Thane West - Thane,Gym,Thane,"Leonardo Building, 3rd Floor, Hiranandani Estate, Patlipada, Thane West 400607, MH",+91-7738018442,",jackiewizz@gmail.com,",
R1 Fitness Gym - Thane West - Thane,Gym,Thane,"Anil Apartments, 1st Floor, Near Abhudaya Bank, Station Road, Diva, Thane 400612, MH",+91-9920049678,,
Pulse Fitness Center - Thane West - Thane,Gym,Thane,"Vishram Giri Housing Society, Wagle Industrial Estate, Shree Nagar, Thane West 400601, MH",+91-9920129009,,
Princess Fitness Club - Dombivali - Thane,Gym,Thane,"Sudha Kunj Soceity, 1st Floor, Opposite Brahman Sabha Hall, Tilak Road, Dombivali, Thane 421201, MH",+91-983386546,,
Prime Fitness - Mira Road East - Thane,Gym,Thane,"21 To 24, Iraisa, 1st Floor, Next To RBK School & Kanakia Police Station, Beverly Park, Mira Road East, Thane 401107, MH",+91-9152245738,,
Pride Power Yoga And Aerobics - Dahisar - Thane,Gym,Thane,"2, Park Unique Co-operative Housing Society, Near Shakti Nagar, CS Road No 3, Anand Nagar, Dahisar, Mumbai 400068, MH",+91-9322597898,",incorppvt@gmail.com,",
Pramod Utekar Fitness First - Thane West - Thane,Gym,Thane,"Ashtavinayak Chawl, Dharamveer Mitra Mandal, Near Nyanganga School, Attkoneshwar Nagar, Kalwa East, Thane West 400605, MH",,"RAMESH0280@YAHOO.COM,,3142smartdg@gmail.com,recarth.maria@gmail.com,",
Power Zone Gym - Bhayandar - Thane,Gym,Thane,"Hope Hall, 1st Floor, Demelo Compound, Near Navkar Hospital, Station Road, Bhayandar West, Thane 401101, MH",+91-9892591396,,
Posture Fitness - Bhayandar - Thane,Gym,Thane,"Maxus Mall, 2nd Floor, Opposite Themba Hospital, Dr. Themba Road, Bhayandar West, Thane 401101, MH",+91-8692812504,",absolutefitnessind@gmail.com,",
Physioqinesis - Thane West - Thane,Gym,Thane,"S-12, Shoppee Imperia, 1st Floor, Dosti Imperia, Opposite R Mall, Ghodbunder Road, Thane West 400607, MH",+91-9029089896,,
Performance Enhancemnt Fitness - Thane West - Thane,Gym,Thane,"A-2/105, Nagesh Tower, 1st Floor, Opposite Aaradhna Talkies, Hariniwas Circle, Thane West 400602, MH",+91-7400325546,,
Pathare Gymco - Dahisar - Thane,Gym,Thane,"4, Navanand Apartment, Maratha Colony, Dahisar East, Mumbai 400068, MH",+91-8268936879,",gymcopathare70@gmail.com,",
Pathare Fitness Center - Bhayandar - Thane,Gym,Thane,"G-1/G-2, JP Thakur Road, Chandmal Nagar, Bhayandar West, Thane 401101, MH",+91-9967025610,,
Parulekars Gym and Fitness Centre - Bhayandar - Thane,Gym,Thane,"Balda Bhavan, 1st Floor, Above Maharaja Sweets, Fatak Road, Geeta Nagar, Bhayandar West, Mira Bhayandar, Thane 401101, MH",+91-22-28140004,,
Parulekars Gym and Fitness Center - Mira Road East - Thane,Gym,Thane,"Adinath Shopping Center, 1st Floor, Near Roshni Hopsital Shanti Park, Mira Road East, Thane 401107, MH",+91-22-33126195,,
Parulekars Gym & Fitness Centre - Bhayandar - Thane,Gym,Thane,"Balda Bhavan, 1st Floor, Above Maharaja Sweets, Fatak Road, Geeta Nagar, Bhayandar West, Mira Bhayandar, Thane 401101, MH",+91-22-28140004,,
P9 Power Gym - Bhayandar - Thane,Gym,Thane,"Shubhlabh Plaza, 1st Floor, Opposite Raj Classic Tower, Indralok Phase 6, Bhayandar East, Thane 401105, MH",+91-9619068181,,
Ozone Gym - Dombivali - Thane,Gym,Thane,"001, Manorama Apartment, A-Wing, Near Vivekanand Society, Guru Mandir Road, Saraswat Colony, DombivAli East, Thane 421201, MH",,",franchise@ozoneclubs.com,",
Om Sai Health n Fitness - Thane West - Thane,Gym,Thane,"Vishal Apartment, Opposite Purshottam Plaza, Kasarvadavali Naka, GB Road, Kasarvadavali, Thane West 400610, MH",+91-9920775588,",info@powermaxfitness.net,",
Om Kirti Yoga Swastha Upchar Kendra - Thane West - Thane,Gym,Thane,"1003, Twinkal Towar, Highland Residency, Near Highland Residency, Dhokali Road, Manpada, Thane West 400607, MH",+91-9221219165,,
Nitrro World Gym - Thane West - Thane,Gym,Thane,"Flower Valley Complex, Near To Viviana Mall, Eastern Express Highway, Runwal Nagar, Thane West 400601, MH",+91-22-25479999,"info@worldgym.com,,",
Nirmal Yoga Classes - Mira Road East - Thane,Gym,Thane,"03-A/12, Broad Way Avenue Building, RNA Complex, Near Jangid Complex, Mira Road East, Thane 401107, MH",+91-9323631859,,
National Fitness Zone - Mira Road East - Thane,Gym,Thane,"2-3/A-4, Near New India Bank, Station Road, Sector 4, Mira Road East, Thane 401107, MH",+91-9821068002,",dhanvantrimedicalopd@gmail.com,",
Nagers Dance Emotion Studio - Thane West - Thane,Gym,Thane,"2, B Cabin, Near Santosho Mata Mandir, Sane Guruji Path, Thane 400601, MH",+91-9819640996,",curvesforher.fitness@gmail.com,",
Muscle Prime NX - Kalyan - Thane,Gym,Thane,"Mahendra Nivas Bungalow, Opposite Sandeep Hotel, Khadakpada, Chikanghar, Kalyan, Thane 421301, MH",+91-8830022571,"u003emuscleprimenx@gmail.com,,muscleprimenx@gmail.com,lakhan.dodeja24@gmail.com,",
Ms. Chandan's Yoga Classes - Dombivali - Thane,Gym,Thane,"A-002, Om Yamuna Madhav Building, Opposite Gokul Supermarket, Savarkar Road, Dombivali East, Thane 421201, MH",,",uma_mahesh1234@rediffmail.com,",
MK Gym (The Gyym Ghodbunder) - Thane West - Thane,Gym,Thane,"Vidarbh Mahesh Bhavan, 4th Floor, Coral Heights Compound, Next To Indusind Bank And Coral Heights, Ghodbunder Road, Vijay Garden Naka, Thane 400601, MH",+91-9320305122,",u003emayurkakde007007@gmail.com,mayurkakde007007@gmail.com,",
Mega Fitness Studio - Mira Road East - Thane,Gym,Thane,"2, Evershine Enclave, Next To Rassaz Mall, Naya Nagar, Mira Road, Thane 401107, MH",+91-8097740335,,
Max Pro Gym - Mira Road East - Thane,Gym,Thane,"Balaji Anexe, 1st Floor, Opposite UCO Bank, Ramdev Park, Mira Road East, Thane 401107, MH",+91-9326069238,,
MAS Gym The Empire of Fitness - Mira Road East - Thane,Gym,Thane,"Dev Paradise, D Wing, Kanakia Beverly Park, Next To IDBI Bank, Mira Road East, Thane 401107, MH",+91-9967039973,,
Maruti Gym - Thane East - Thane,Gym,Thane,"15, Near Shiv Temple, Kopri Colony, Hemu Kalani Path, Thane 400603, MH",+91-9892824860,",thane@totalsf.in,",
Mahi Fitness Studio - Thane West - Thane,Gym,Thane,"1, Shreenath Plaza, Near Malvan Hotel, Charai, Thane 400601, MH",,"RAMESH0280@YAHOO.COM,,curvesforher.fitness@gmail.com,",
Machineless Workout Gym - Thane West - Thane,Gym,Thane,"1, Sunil Niwas, Opposite Balkum Fire Brigade, Kalher Road, Kapurbaudi, Thane 400607, MH",+91-8104595445,",curvesforher.fitness@gmail.com,",
Looks Beauty And Fitness Center - Kalyan - Thane,Gym,Thane,"Hanuman Prasadik Building, 2nd Floor, Opposite Karachi Medical, Shivaji Chowk, Kalyan, Thane 421301, MH",+91-9167304644,",connect@vibrantvarsha.com,u003econnect@vibrantvarsha.com,",
Lime Light Gym - Thane West - Thane,Gym,Thane,"Waghle Estate, Road No 28, Shri Nagar, Thane 400607, MH",+91-9594842106,,
Life Fittness First Gym - Mira Road East - Thane,Gym,Thane,"Trivedi Complex, 3rd Floor, Above Sahakari Bhandar, Station Road, Mira Road East, Thane 401107, MH",+91-22-65525595,,
Life Fitness Gym - Kalyan - Thane,Gym,Thane,"Satlaj Apartment, 1st Floor, Near Union Bank, Aarti Nagari Main Road, Wayle Nagar, Khadak Pada, Kalyan, Thane 421301, MH",+91-9773848715,",consumerproducts@lifefitness.com,customersupport@lifefitness.com,",
Leo Gym - Thane West - Thane,Gym,Thane,+91-22-33126194,"Samarth Arcade, Opposite Holy Cross School, Prabhakar Hegde Marg, Uthalsar, Thane 400601, MH","Info@life-shots.com,,Sales@dynamixgroup.co.in,saptashree.thane@goldsgym.in,",
Leela's Gym - Thane West - Thane,Gym,Thane,+91-9987781103,"Near Ganpati Mandir, Swastik Park, Gate, Bramhand, Thane 400607, MH",,
La Gymnaasio - Thane West - Thane,Gym,Thane,+91-22-25473014,"Purnima Apartment, 1st Floor, B Wing, Opposite Babu Bhai Petrol Pump, LBS Road, Thane 400086, MH",,
Kuts N Kurves Jym - Thane West - Thane,Gym,Thane,+91-8080722234,"41, Kalpataru Industrial Estate, Behind R Mall, Manorma Nagar, Manpada, Thane 400607, MH",",sales@trexfitnessfactory.comOpens,",
Kingdom of Exercise - Bhayandar - Thane,Gym,Thane,+91-8383888555,"Kingdom Of Exercise, 1st Floor, New Shree Trade Center, Above Honda Activa Showroom, Fatak Road, Bhayandar, Thane 401105, MH",",myfitnessempiremumbai@gmail.com,",
Kerkars Fitness - Mira Road East - Thane,Gym,Thane,+91-22-28100527,"RNA Broadway Avenune, Shanti Park, Near Jangid Complex, Mira Road East, Thane 401107, MH",,
Keep Fit Yoga & Aerobics Centre - Thane West - Thane,Gym,Thane,+91-9323946166,"3, Amrapali Arcade, 1st Floor, Near Vasant Vihar High School, Vasant Vihar, Thane 400601, MH",,
Kamlakars The Advance Fitness Gym - Dahisar - Thane,Gym,Thane,+91-22-28481008,"Royal Plaza, Basement, Harishankar, Hari Shankar Joshi Road, Dahisar East, Thane 400068, MH",,
Jyos World - Thane West - Thane,Gym,Thane,+91-22-67304961,"607, Bharati Chambers, Balkum Pada No 2, Thane 400601, MH",",realty@raymond.in,",
Joints N Motion - Thane West - Thane,Gym,Thane,"1/4, 1st Floor, Vega, Hiranandani Estate, GB Road, Hiranandani Estate, Thane 400604, MH",,",jointnsnmotion@gmail.com,",
Joel Gym - Kalyan - Thane,Gym,Thane,+91-9987098237,"Joel Gym, Opposite Buttercup Building, Chinchpada, Kalyan, Thane 421505, MH",",mayuri.dr@gmail.com,goldgymkalyan@gmail.com,trpsnehalbhatkar@gmail.com,",
Joe's Gym - Bhayandar - Thane,Gym,Thane,+91-9819674821,"Star Correa Villa, Opposite Anne Apartments, Bakol Street, Bhayandar West, Thane 401101, MH",",cs@windsormachines.com,",
Javelin: The House Of Fitness - Thane West - Thane,Gym,Thane,+91-9833376975,"5, Dharmveer Co-operative Housing Society, Ground Floor, Agar Lane, Opposite Datta Mandir, Dhobi Ali, Thane 400601, MH",,
Jagriti Yoga Institute - Mira Road East - Thane,Gym,Thane,+91-9967784082,"202, Venus E, Gaurav Galaxy, Phase 2, Near ICICI Bank, Mira Road East, Mumbai 401107, MH",",shriambikayogakutir@gmail.com,",
J And U Fiternal - Thane West - Thane,Gym,Thane,+91-8657418480,"2, Ashar Tiara Commercial Complex, 2nd Floor, Pokhran Road, Gandhi Nagar, Thane 400610, MH",,
Iron Man Gym - Mira Road East - Thane,Gym,Thane,+91-9221046369,"7, Marvel Building, Sanghvi Complex, 60 Feet Road, Geeta Nagar, Mira Road East, Thane 401107, MH",",dhanvantrimedicalopd@gmail.com,",
Infinity Gym - Bhayandar - Thane,Gym,Thane,+91-9699621316,"14 To 18, Radha Raman Building, 1st Floor, Opposite D Mart, Bhayander West, Mumbai 401101, MH",",cs@windsormachines.com,absolutefitnessind@gmail.com,",
Icon Fitness - Mira Road East - Thane,Gym,Thane,+91-8097230517,"3, Sai Complex, Railway Station Road, Shanti Vihar, Mira Bhayandar, Mira Road East, Thane 401107, MH",,
I fitness Hub - Mira Road East - Thane,Gym,Thane,+91-7678046226,"1 & 2, Onlm Enclave Building, Ground Floor, Mira Road East, Thane 401107, MH",,
I Fit Gym - Mira Road East - Thane,Gym,Thane,+91-9152664216,"Ostwal House, Basement, Opposite Shivar Garden, Mira Bhayandar Road, Mira Road East, Thane 401107, MH",,
High Intensity Gym - Thane West - Thane,Gym,Thane,+91-22-65365551,"Prime Nest, 1st Floor, AB Wing, Near Wafa Park, Oasis Tower Road, Kausa, Mumbra East, Thane 400612, MH",",saptashree.thane@goldsgym.in,",
Hercules Gym - Bhayandar - Thane,Gym,Thane,+91-22-28186286,"3, Sahakar Apartment, Opposite Maharana Pratap Road, Narayan Nagar, Bhayandar, Thane 401101, MH",,
Health Campus - Bhayandar - Thane,Gym,Thane,+91-9820333577,"Venkateshwar Nagar, Bhayandar, Thane 401105, MH",",chkcmo@gmail.com,cmo01rc.phd@mcgm.gov.in,",
Happy Feet Dance and Fitness Studio - Bhayandar - Thane,Gym,Thane,+91-22-33126196,"1, Vishal Building, 1st Floor, Opposite Maxus Banquet, Maxus Mall Road, Bhayandar West, Thane 401101, MH",,
H M Fitness Centre - Dahisar - Thane,Gym,Thane,+91-9821106968,"B, Om Kadambari, Tawade Road, Mhatre Wadi, Dahisar West, Thane 400068, MH",,
Gurukrupa Yoga Classes - Dombivali - Thane,Gym,Thane,+91-9930159732,"6, Chandroday Vikas Society, Devi Chowk, Ram Mandir Road, Shastri Nagar, Dombivali West, Thane 421202, MH","email.raskar@gmail.com,uma_mahesh1234@rediffmail.com,,gurukrupa.abhi@gmail.com,",
Grace Yoga - Bhayandar - Thane,Gym,Thane,+91-9768053416,"5, Abhay Apartment, MP Road, Narayan Nagar, Bhayandar West, Thane 401101, MH",",bodygrace@verizon.net,",
Grace Fitness Centre - Thane West - Thane,Gym,Thane,+91-8655007366,"B-1, Kalika Prasad Co-operative Housing Society, Sahayog Mandir Path, Naupada, Thane 400602, MH",,
Gold's Gym Thane West - Thane West - Thane,Gym,Thane,+91-7718869999,"103, Gaurangi Chambers, Opposite Damani Estate, Bhakti Mandir, LBS Marg, Vishnu Nagar, Thane 400602, MH",",saptashree.thane@goldsgym.in,",
Gold Coin Gym Fitness Centre - Bhayandar - Thane,Gym,Thane,+91-9664660496,"28-29/48, Divine Sheraton Plaza, Near Jain Mandir, Jesal Park, Bhayandar East, Thane 401105, MH",,
Go Fitness - Thane West - Thane,Gym,Thane,+91-22-21714343,"Hiranandani Meadows, 3rd Floor, India Bulls Mint, Above HDFC Bank, Thane 400610, MH",",bodysculpt72@gmail.com,curvesforher.fitness@gmail.com,",
Gaonkars Fitness - Thane West - Thane,Gym,Thane,+91-7777060811,"1 To 5, Shankardham Apartment, 60 Feet Road, Kalwa West, Kharegaon, Thane 400605, MH","RAMESH0280@YAHOO.COM,,saptashree.thane@goldsgym.in,",
Future Fitness Gym - Mira Road East - Thane,Gym,Thane,"304, Shivar Garden, Ramdev Park Road, Medetiya Nagar, Mira Road East, Thane 401107, MH",+91-9702974179,,
Fun and Fit Pvt Ltd - Kolbad Road - Thane,Gym,Thane,"B-1, Agrasen Towers, Near Pratap Talkies, Kolbad Road, Thane West 400601, MH",+91-22-25475100,"support@funandfit.in,,",
Fun and Fit Pvt Ltd - Dombivali - Thane,Gym,Thane,"Date Mangal Karyalay, 1st Floor, Near Pooja Madhuban Cinema, Station Road, Dombivali East, Thane 421201, MH",+91-9152219745,,
Flex The Hardcore Gym - Dombivali - Thane,Gym,Thane,"Basement, Gautameshwar Dham, Near Om Hospital, Tondon Road, Dombivali East, Thane 421200, MH",+91-9920331697,,
Flex Studio Gym - Dahisar - Thane,Gym,Thane,"1/2/3/4, Amit Co-operative Housing Society, A Wing, Talav, Waman Rao Bhoir Road, Kandarpada, Dahisar West, Mumbai 400068, MH",+91-8433806853,,
Flex Fitness - Mira Road East - Thane,Gym,Thane,"Smital Avenue, 2nd Floor, Near GCC Club, Hatkesh Road, Mira Road East, Thane 401107, MH",+91-9029000898,,
Fitness Step - Mira Road East - Thane,Gym,Thane,"A-101 To 104, Rushab Plaza, Pleasant Park, Mira Bhayender Road, Mira Road, Thane 401107, MH",+91-9987857979,,
Fitness Priority - Bhayandar - Thane,Gym,Thane,"Sai Keshav Madhav, 1st Floor, Opposite Kasturi Garden, Swami Satyanand Maharaj Road, Bhayander, Thane 401101, MH",+91-7400159915,,
Fitness Plus Gym - Mira Road East - Thane,Gym,Thane,"Rose Apartment, Bharti Park, Next To Al Falah School, NH School Road, Mira Road East, Thane 401107, MH",+91-9892375577,",hello@cultfit.com,",
Fitness on Fire - Bhayandar - Thane,Gym,Thane,"12/16-17, Ashok Shopping Centre, Bunderwadi, Navghar Road, Bhayandar East, Thane 401105, MH",+91-9867107822,",mayuri.dr@gmail.com,",
Fitness First Gym - Bhayandar - Thane,Gym,Thane,"5-6-7/68-69, Divine Sheraton Plaza, Jessel Park, Near Vijaya Bank, Bhayander, Thane 401105, MH",+91-8976212156,",x3emembership.services@fitnessfirst.co.uk,membership.services@fitnessfirst.co.uk,",
Fitness Fever - Bhayandar - Thane,Gym,Thane,"G-2, Suraj Palace, Next To Sri Ram Jewellers, Navghar Road, Bhayander East, Thane 401105, MH",+91-9820555607,,
Fitness Factory - Mira Road East - Thane,Gym,Thane,"3rd Floor, Near McDonalds, Mira Bhayandar, Mira Road East, Thane 401107, MH",+91-9076006009,,
Fitness Addiction - Mira Road East - Thane,Gym,Thane,"Raj Enclave, 1st Floor, A Wing, Opposite Seven Square School, Ideal Park, Mira Road, Thane 401107, MH",+91-9821004413,,
Fitcise - Thane West - Thane,Gym,Thane,"102, Shree Datta Prasad Building, 1st Floor, Opposite New English School, Cross Lane, Ram Maruti Road, Thane West 400602, MH",+91-9987533884,",bodysculpt72@gmail.com,",
Figure Fabulous - Mira Road East - Thane,Gym,Thane,"Nine Galaxy, 1st Floor, Ramdev Park, Opposite Aakash Nidhi Co-operative Housing Society, Mira Road, Thane 401107, MH",+91-22-33126196,,
Fat2Fit Fitness Centre - Mira Road East - Thane,Gym,Thane,"119-124, Vasudev Sky High, Ramdev Park, Opposite Tuk Tuk Foods, Kanakia Road, Navaghar, Mira Road, Thane 401107, MH",+91-22-23698683,,
Evolve Fitness - Thane West - Thane,Gym,Thane,"Rosa Vista, 1st Floor, Opposite Suraj Water Park, Ghodbunder Road, Thane West 400615, MH",+91-22-25970515,",hello@cultfit.com,",
Epic Gym Zone - Thane West - Thane,Gym,Thane,"Kalyani Apartment, Near Sampada Hospital, Charai, Thane West 400601, MH",+91-8655404034,,
Energyia Gym - Thane West - Thane,Gym,Thane,"Bamandeo Compound, Near Vedant Hospital, Ghodbunder Road, Kadam Wadi, Kasarvadavali, Thane West 400615, MH",+91-9320553553,,
Elite Pro Fitness Gym - Mira Road East - Thane,Gym,Thane,"2 & 3, Ashley Tower, 1st Floor, Beverly Park, Next To Cinemax, Kanakia Road, Mira Road East, Thane 401107, MH",+91-8433579166,,
Edge Fitness - Thane West - Thane,Gym,Thane,"Unit No LG-1, Lower Ground, Orion Business Park, Next To Cinewonder Mall, Ghodbundar Road, Majiwada, Kapurbawdi, Thane 400608, MH",+91-22-65663333,",contact@edgefitness.in,",
Different Strokes The Dance School - Thane West - Thane,Gym,Thane,"Vasudev Sadan Building, Basement, Opposite Datta Mandir Ramwadi, Off Gokhale Road, Thane 400602, MH",+91-9819406235,,
Dhiraj Fitness Club - Thane East - Thane,Gym,Thane,"Ulhasnagar No 3, Town Hall, Near Central Police Station, Central Hospital Road, Thane East 421002, MH",+91-8485850000,",shankarnarayansudha@gmail.com,",
DG: The Gym - Dahisar - Thane,Gym,Thane,"2, Maheshwari, Opposite Shankar Temple, Bapu Barve Road, Kandarpada, Dahisar West, Mumbai 400068, MH",+91-22-45106655,",support@gymcompany.co.za,mayuri.dr@gmail.com,membership@thegymgroup.com,",
Devendra Yog Prashikshan Kendra - Bhayandar - Thane,Gym,Thane,"111-114, Oswal Tower No 1, D Wing, Opposite Lata Apartment, BP Road, Kharivillage, Bhayander East, Thane 401105, MH",+91-22-33126179,,
Cross Training 2.0 - Thane West - Thane,Gym,Thane,,,"commr-cexjpr@nic.in,,iti_wagle@yahoo.com,",
Classic Fitness - Mira Road East - Thane,Gym,Thane,"Sai Ashish No 6, Sundaram Building, Evershine Enclave, Behind Rassaz Mall, Bharti Nagar, Mira Road East, Thane 401107, MH",+91-9930107469,,
Chiplunkar's Fitness - Mira Road East - Thane,Gym,Thane,"Nine Galaxy Apartments, Ramdev Park Road, Beverly Park, Mira Road East, Thane 401107, MH",+91-22-65643304,",nchiplunkar@yahoo.in,",
Burn It - Mira Road East - Thane,Gym,Thane,"13-14-15, Antariksh, 1st Floor, Opposite Kanakia Police Station, Beverly Park Road, Mira Road East, Thane 401107, MH",+91-9029735037,",abfitness240918@gmail.com,",
Bull Neck Fitness - Thane West - Thane,Gym,Thane,"54 & 55, Building A-6 Brahmand, Near Hotel Aaswad, Godbhunder Road, Thane West 400607, MH",,",thane@totalsf.in,",
Brahma Vidya Sadhak Sangh - Thane West - Thane,Gym,Thane,"Ratneshwar Bhavan, 1st Floor, Behind Bank Of Maharashtra, Gokhale Road, Naupada, Thane West 400602, MH",+91-22-25339977,",brahmavidya88@gmail.com,info@brahmavidya.net,",
BodyFlex Gym - Mira Road East - Thane,Gym,Thane,"5 To 10, Swapnadeep Apartments, Poonam Sagar Complex, Near GM'S Holy Family College Of Commerce & Science, Mira Road East, Thane 401107, MH",+91-9029874990,,
Body Language Fitness and More - Dombivali - Thane,Gym,Thane,"Unique Plaza, 1st Floor, Opposite Omkar International School, Milap Nagar, Dombivali East, Thane 421203, MH",+91-9152264818,",ushamurali1973@gmail.com,",
Body garage - Thane West - Thane,Gym,Thane,"Satguru Elegance B, Behind Rutu Park, Majiwada, Thane West 400601, MH",+91-8976571077,,
Body Fuel Hardcore And Fitness - Dombivali - Thane,Gym,Thane,"Gurudatta Heights, Opposite Ashok Vatika, Sunil Nagar, Dombivali East, Thane 421201, MH",+91-9920680357,",patilchetan.1389@gmail.com,",
Body Fitness Zone - Thane West - Thane,Gym,Thane,"B-3/1/2, Ayodhya Kutir, Highland Park TMC Office, Yashaswi Nagar, Dhokali, Thane West 400602, MH",+91-9820011463,",bodysculpt72@gmail.com,",
Bhoir gymkhana - Dombivali - Thane,Gym,Thane,,,",bhoirgym1101@gmail.com,",
Ayurmantra Yoga Power Yoga Meditation Pranic Healing Clinic - Thane West - Thane,Gym,Thane,,,",pranicsantosh@gmail.com,",
Apple fitness club - Dombivali - Thane,Gym,Thane,,,",hello@cultfit.com,",
Anna's Gym - Bhayandar - Thane,Gym,Thane,,,",samirg89@gmail.com,",
AM Fitness - Dombivali - Thane,Gym,Thane,,,",thane.vi@totalsf.in,",
Allied Health Club - Dombivali - Thane,Gym,Thane,,,"pratimakamble2004@gmail.com,,mayuri.dr@gmail.com,",
Alka Mohan Salve Yoga - Thane East - Thane,Gym,Thane,,,",architect.ramesh@gmail.com,",
Aksh Academy Of Dance Aerobic - Mira Road East - Thane,Gym,Thane,,,",babluraj77@gmail.com,",
Absolute Fitness - Bhayandar - Thane,Gym,Thane,,,"u003eabsolutefitnessind@gmail.com,,absolutefitnessind@gmail.com,",
ABS STUDIO - Thane West - Thane,Gym,Thane,,,",bodysculpt72@gmail.com,",
A K Fitness - Mira Road East - Thane,Gym,Thane,,,",memberexperience@anytimefitness.in,",
90 Degree Gym - Thane West - Thane,Gym,Thane,,,",saptashree.thane@goldsgym.in,",
V Power Gym - Mira Road - Thane,Gym,Thane,,,",teamsupersupplement@gmail.com,",
World Gym - Runwal Nagar - Thane,Gym,Thane,,,"info@worldgym.com,,",
Springtime Club - Kalyan - Thane,Gym,Thane,,,"crm@springtimeclub.com,,countryclub@goldenswan.com,",
