Name,Sector,City,Address,Phone,Email,Lat-Long
Bank Of India,Banks,Mumbai, Fountain,,",boimnz@vsnl.com,manasi.phene@bankofindia.co.in,x3eboi.starconnect@bankofindia.com,boi.starconnect@bankofindia.com,x3eboimnz@vsnl.com,BOI.CallCentre@bankofindia.co.in,bombaymarket.vadodara@bankofindia.co.in,x3eBOI.CallCentre@bankofindia.co.in,boi.callcentre@bankofindia.co.in,","19.0347133,72.769618"
Bank Of India,Banks,Mumbai, Fort,,",boimnz@vsnl.com,manasi.phene@bankofindia.co.in,x3eboi.starconnect@bankofindia.com,boi.starconnect@bankofindia.com,x3eboimnz@vsnl.com,BOI.CallCentre@bankofindia.co.in,bombaymarket.vadodara@bankofindia.co.in,x3eBOI.CallCentre@bankofindia.co.in,boi.callcentre@bankofindia.co.in,","19.0347133,72.769618"
Bank Of INDIA,Banks,Mumbai,Post Box No 1618 Fort,,",boimnz@vsnl.com,manasi.phene@bankofindia.co.in,x3eboi.starconnect@bankofindia.com,boi.starconnect@bankofindia.com,x3eboimnz@vsnl.com,BOI.CallCentre@bankofindia.co.in,x3eBOI.CallCentre@bankofindia.co.in,boi.callcentre@bankofindia.co.in,","19.0347133,72.769618"
Bank Of INDIA,Banks,Mumbai,Near Colaba Causeway Apollo Bunder,,",boimnz@vsnl.com,manasi.phene@bankofindia.co.in,x3eboi.starconnect@bankofindia.com,boi.starconnect@bankofindia.com,x3eboimnz@vsnl.com,BOI.CallCentre@bankofindia.co.in,x3eBOI.CallCentre@bankofindia.co.in,boi.callcentre@bankofindia.co.in,","19.0347133,72.769618"
Bank Of India (NRI Branch),Banks,Mumbai,Near Mumbai Fort,,",x3eboi.starconnect@bankofindia.com,boi.starconnect@bankofindia.com,ErnakulamNRI.Kerala@bankofindia.co.in,callcentre@bankofindia.co.in,","19.0112121,72.7486694"
IDFC First Bank,Banks,Mumbai,Next Solitaire Corporate Park Opposite Holy Family School Andheri East,,",nodaldesk@idfcfirstbank.com,x3enriservices@idfcfirstbank.com,RNO.Mumbai@idfcfirstbank.com,firstcontactcomplaints@firstbanknigeria.com,x3enodaldesk@idfcfirstbank.com,nriservices@idfcfirstbank.com,x3efirstcontactcomplaints@firstbanknigeria.com,","19.0882275,72.7103437"
HDFC Bank (Central Processing Unit),Banks,Mumbai,Off Saki Vihar Road Sakinaka,,",complaint.ibugiftcity@hdfcbank.com,","19.0444391,72.7929425"
HDFC Bank (Corporate Office),Banks,Mumbai, Fort,,",complaint.ibugiftcity@hdfcbank.com,shareholder.grievances@hdfcbank.com,","19.0580713,72.7541392"
Reserve Bank Of India (Regional Office),Banks,Mumbai,Opposite New Central Office Building Kala Ghoda Fort,,",.in__rdlucknow@rbi.org,u003erdmumbai@rbi.org.in,cms.bochandigarh@rbi.org.in,rdkanpur@rbi.org.in,x3ecrpc@rbi.org.in,rdlucknow@rbi.org.in,rdmumbai@rbi.org.in,crpc@rbi.org.in,Email_rdkanpur@rbi.org,cgmfmod@rbi.org.in,","18.9990687,72.7695954"
Reserve Bank Of India,Banks,Mumbai, Fort,,".in_casrbi@nagpur.dot.net.in,,rdmumbai@rbi.org.in,u003erdmumbai@rbi.org.in,idpmssupport@rbi.org.in,fedcotrade@rbi.org.in,rdnagpur@rbi.org.in,x3eidpmssupport@rbi.org.in,dicgc@bom.5.vsnl.net.in,Cms.bonewdelhi3@rbi.org.in,cms.bochandigarh@rbi.org.in,casrbi@nagpur.dot.net.in,x3ecrpc@rbi.org.in,edpmssupportngp@rbi.org.in,u003e_dicgc@bom.5.vsnl.net,crpc@rbi.org.in,.in_rdnagpur@rbi.org,","18.999014,72.7549594"
NKGSB Co-op Bank Ltd (Thane Naupada Branch),Banks,Mumbai,"Raunak Arcade, 7/8, Ghantali Devi Rd, Naupada, Thane West, Thane, Maharashtra 400602",022 2537 0920,"laxmikantdesai@nkgsb-bank.com,,","19.1872493,72.9592989"
Thane Bharat Sahakari Bank Limited,Banks,Mumbai,"5XRC+6QQ, Sahayog Mandir Path · 022 2542 9432",,",main@tbsbl.com,complaint@tbsbl.com,rtgs.tbsb@thanebharatbank.net,","19.1154427,72.7510537"
CANARA BANK - THANE NAUPADA,Banks,Mumbai,"41A GOKHALE ROAD, NAUPADA NAUPADA S.O, Thane, Maharashtra 400602",1800 425 0018,",hocancard@canarabank.com,cb0228@canarabank.com,","19.1879666,72.9630783"
Thane Bharat Sahakari Bank Limited,Banks,Mumbai,"Western India Steel Industries Compound, Pokharan Rd Number 2, opp. Oswal Park · 022 2173 6262",,",main@tbsbl.com,complaint@tbsbl.com,rtgs.tbsb@thanebharatbank.net,","19.1154427,72.7510537"
"Bharat Co-operative Bank (Mumbai) LTD, Thane Branch",Banks,Mumbai,"Panama Planet, Gokhale Road, Naupada, opp. Hotel Amruta, Thane, Maharashtra 400602",022 2537 6552,",NodalOfficer@bharatbank.co.in,x3ebhandup@bharatbank.co.in,bhandup@bharatbank.co.in,kalyan.west@bharatbank.co.in,mbank@bharatbank.co.in,x3embank@bharatbank.co.in,","19.1880895,72.9628733"
Bank of India - Thane Corporate Banking Branch,Banks,Mumbai,"G-5, GR.FL, AKRUTI SMC, OFF LBS MARG, KHOPAT JUNCTION, THANE (WEST), Thane, Maharashtra 400601",1800 22 0229,",thane.raigadthane@bankofindia.co,ThaneMCB.RaigadThane@bankofindia.co.in,hooper@bankofindia.co.in,Thane.Navimumbai@bankofindia.co.india.co.in,","19.1906946,72.9661604"
"Thane Bharat Sahakari bank, Rutu Park Branch",Banks,Mumbai,"D-2, Eastern Express Hwy, Rutu Park, Panchsheel Nagar, Thane West, Thane, Maharashtra 400601",022 2544 2363,",response@tjsb.co.in,main@tbsbl.com,","19.2101215,72.9717825"
"NKGSB Co-operative Bank Limited- Vartak Nagar,Thane West Branch",Banks,Mumbai,"Shop No.S2, 23,24,25, Vedant Commercial Complex, Madrecha Rd, Tulsi Dham, Vartak Nagar, Thane West, Thane, Maharashtra 400606",022 2585 3349,,"19.2086066,72.9498613"
Karnataka Bank - Thane Branch & ATM,Banks,Mumbai,"Shop No.12, VIHANG GARDEN, Pokharan Rd Number 1, opp. raymonds, Tulsi Dham, Vartak Nagar, Thane West, Mumbai, Thane, Maharashtra 400606",1800 425 1444,,"19.2084566,72.9530569"
Thane Bharat Sahakari Bank Limited - Chandanwadi Branch,Banks,Mumbai,"5XXC+PM7, Mahesh Darshan, Near Makhmali Talao, Old Mumbai, Agra Road, Ganeshwadi, Thane West, Thane, Maharashtra 400601",022 2533 5237,",main@tbsbl.com,","19.1992975,72.9613849"
Punjab National Bank - Thane West Branch,Banks,Mumbai,"5XQ8+3WP, Satyam Apartment Mahatma Gandhi Rd Near Malhar Cinema · 1800 180 2222",,"corporatecare@pnb.com.ph,,cobangalorewest@pnb.co.in,pnbcreditcards@pnb.com.ph,bo3739@pnb.co.in,care@pnb.co,bo1144@pnb.co.in,x3ecare@pnb.co.in,care@pnb.co.in,bo090210@pnb.co.in,customercare@pnb.com.ph,bo2176@pnb.co.in,","19.1982202,72.9456491"
The Thane District Central co-op Bank R M Road Branch,Banks,Mumbai,,,",enquiry@thanedistrictbank.com,rrshinde@mumbaidistrictbank.com,x3errshinde@mumbaidistrictbank.com,","19.1892296,72.9615672"
ICICI BANK LTD,Banks,Mumbai,"ATM ID-S1CPS152,Icici Bank Atm Rajdeep Society, Gokhale Rd, near Malhar Cinema, opp. Hutch Gallery · 1860 120 7777",,",digitallending@icicibank.com,x3edigitallending@icicibank.com,IR@icicibank.com,x3enpshelpdesk@icicisecurities.com,x3ecustomer.care@icicibank.com,npshelpdesk@icicisecurities.com,managingdirector@icicibank.com,customer.care@icicibank.com,","19.0371365,72.7821504"
Thane Bharat Sahakari Bank LTD,Banks,Mumbai,"6XFV+2F9, Subh Vihar, opp to, Dadlani Rd",,",main@tbsbl.com,rtgs.tbsb@thanebharatbank.net,","19.1189072,72.7510537"
State Bank Of India,Banks,Mumbai,"425, Gokhale Rd · 1800 11 2211",,",gm.customer@sbi.co.in,x3eBoi.neft@bankofindia.co.in,inb.cinb@sbi.co.in,Rtgs.boi@bankofindia.co.in,Boi.neft@bankofindia.co.in,J.Smith@sbi.co.in,John.Smith@sbi.co.in,Smith.John@sbi.co.in,customercare@sbi.co.in,x3eJohn.Smith@sbi.co.in,JSmith@statebankofindia.com,x3eBOI.CallCentre@bankofindia.co.in,Smith@sbi.co.in,x3eRtgs.boi@bankofindia.co.in,cppc.mumbai@sbi.co.in,agmcustomer.lhomah@sbi.co.in,BOI.CallCentre@bankofindia.co.in,x3esanjeevani.hr@sbi.co.in,csdmumbai@sbmbank.co.in,boi.customerservices@oberthur.com,sanjeevani.hr@sbi.co.in,x3eboi.customerservices@oberthur.com,","19.0630146,72.6852371"
CENTRAL BANK OF INDIA - THANE (EAST) Branch,Banks,Mumbai,,022 2532 6037,",x3edgmoper@centralbank.co.in,complaints@centralbank.co.in,debitcard@centralbank.co,dgmoper@centralbank.co.in,","19.1811713,72.9620882"
Bank of Maharashtra,Banks,Mumbai,"Building No 22, Wing A & B Brinda, No 1 & 2 · 1800 233 4526",,",boi.customerservices@oberthur.com,Boi.neft@bankofindia.co.in,u003ecmcustomerservice@mahabank.co.in,cmcustomerservice@mahabank.co.in,BOI.CallCentre@bankofindia.co.in,x3eBoi.neft@bankofindia.co.in,hocomplaints@mahabank.co.in,u003ehocomplaints@mahabank.co.in,Rtgs.boi@bankofindia.co.in,mahasecure@mahabank.co.in,x3eBOI.CallCentre@bankofindia.co.in,x3eboi.customerservices@oberthur.com,x3eRtgs.boi@bankofindia.co.in,","19.04742,72.7956656"
ICICI BANK LTD,Banks,Mumbai,"ATM ID-S1CNC192,Icici Bank Atm, Shop No .3 Ganga pachvati CHS, bldg no.12 A, vrindavan, near bus depot · 1860 120 7777",,",digitallending@icicibank.com,x3edigitallending@icicibank.com,IR@icicibank.com,x3enpshelpdesk@icicisecurities.com,x3ecustomer.care@icicibank.com,npshelpdesk@icicisecurities.com,managingdirector@icicibank.com,customer.care@icicibank.com,","19.0371365,72.7821504"
Citizens Co-operative Bank Ltd,Banks,Mumbai,"3/4, Laxmi Palace, M. G. Road, Naupada Thane · 022 2538 1273",,",Ccbl@citizencreditbank.com,info@citizensbankrajkot.co.in,citizen.bank@rediffmail.com,","19.0993257,72.747048"
Bank of Maharashtra,Banks,Mumbai,"GF, Thane Municipal Corporation Building Panchpakhadi · 1800 233 4526",,",boi.customerservices@oberthur.com,Boi.neft@bankofindia.co.in,u003ecmcustomerservice@mahabank.co.in,cmcustomerservice@mahabank.co.in,BOI.CallCentre@bankofindia.co.in,x3eBoi.neft@bankofindia.co.in,hocomplaints@mahabank.co.in,u003ehocomplaints@mahabank.co.in,Rtgs.boi@bankofindia.co.in,mahasecure@mahabank.co.in,x3eBOI.CallCentre@bankofindia.co.in,x3eboi.customerservices@oberthur.com,x3eRtgs.boi@bankofindia.co.in,","19.04742,72.7956656"
Axis Bank ATM,Banks,Mumbai,"High Street Mall Bhiwandi Road, Junction, near Big Bazar · 1860 419 5555",,",pno@axisbank.com,x3epno@axisbank.com,x22merchant.helpdesk@axisbank.com,merchant.helpdesk@axisbank.com,x3emerchant.helpdesk@axisbank.com,","19.0694613,72.8025809"
Axis Bank Branch,Banks,Mumbai,"Shop No 2, Ground Floor, Sheth Avalon, G Wing, near Viviana Mall · 1860 500 5555",,",merchant.helpdesk@axisbank.com,x3emerchant.helpdesk@axisbank.com,x3enodal.officer@axisbank.com,nodal.officer@axisbank.com,","19.0439404,72.7708467"
Axis Bank Branch,Banks,Mumbai,"Shop No 13 to 18, GF, Rajdeep Galleria Ponda Madgaon Road, Ponda · 1860 500 5555",,",merchant.helpdesk@axisbank.com,x3emerchant.helpdesk@axisbank.com,x3enodal.officer@axisbank.com,nodal.officer@axisbank.com,","19.0439404,72.7715841"
"ICICI Bank Gokhale Road, Thane-Branch & ATM",Banks,Mumbai,"Gokhale Road, Pathare Building, Naupada, near Gaondevi Mandir, Thane, Maharashtra 400602",1860 120 6699,,"19.1906062,72.9605278"
"TJSB Bank, Khopat Branch",Banks,Mumbai,"Golden Heavens Apartment Near Pratap Talkies Khopat, Pokharan Rd Number 1",,",tjsb.053@tjsb.co,","19.2081446,72.9557047"
MAHARASHTRA GRAMIN BANK REGIONAL OFFICE RO,Banks,Mumbai,,,",chairman@mahagramin.co.in,hocomplaints@mahabank.co.in,x3ehocomplaints@mahabank.co.in,gmit@mahagramin.co.in,cmcustomerservice@mahabank.co.in,","19.1989543,72.9640817"
Citizen Credit Co-operative Bank,Banks,Mumbai,"Shop No.2 & 3, Angels’ Paradise, Veer Savarkar Marg, near Dagadi Shala · 022 2542 5447",,",ccbl@citizencreditbank.com,","19.0795656,72.6986274"
Suryoday Small Finance Bank,Banks,Mumbai,"Ground Floor, Flower Valley Complex, Eastern Express Hwy, opposite to Viviana Mall · 1800 266 7711",,",cs@suryodaybank.com,x3ecs@suryodaybank.com,geeta.krishnan@suryodaybank.com,x3ecustomercare@aubank.in,smile@suryodaybank.com,customercare@aubank.in,","19.1219746,72.768189"
"TJSB Bank, Ram Maruti Road Branch",Banks,Mumbai,"Building, Ground Floor, People Education Society, Ram Maruti Rd · 022 2174 8517",,",tjsb.053@tjsb.co,","19.1913775,72.9701978"
G P Parsik Bank,Banks,Mumbai,"GB-149, Ground Floor, Highland Corporate Center, Near Big Bazar, Majiwade · 022 2542 0359",,",helpdesk@gpparsikbank.net,","19.1548493,72.7690957"
State Bank of India PBB VASANT VIHAR THANE,Banks,Mumbai,"CHESTNUT PLAZA, Gladys Alwares Rd, opp. Eden Woods Road, Thane, Maharashtra 400616",022 2589 3426,",contactcentre@sbi.co.in,sbi.04314@sbi.co.in,sbi.04314@sbi.co,","19.2314307,72.9595922"
Axis Bank ATM,Banks,Mumbai,Survey No 166/1 A Pt · 1860 500 5555,,",pno@axisbank.com,x3epno@axisbank.com,x22merchant.helpdesk@axisbank.com,merchant.helpdesk@axisbank.com,x3emerchant.helpdesk@axisbank.com,","19.0575742,72.7838946"
Union Bank Of India,Banks,Mumbai,"1st Floor, Dhanalaxmi, Estate, Navneet Motors, Gokulnagar, Thane West, Kapur Bawdi · 022 2172 1746",,",x3ecustomer.service@unionbankph.com,customerservice@www.unionbankng.com,dgro@unionbankofindia.bank,boi.customerservices@oberthur.com,x3ecustomerservice@www.unionbankng.com,Boi.neft@bankofindia.co.in,BOI.CallCentre@bankofindia.co.in,customer.service@unionbankph.com,x3eBoi.neft@bankofindia.co.in,customercare@unionbankofindia.com,Rtgs.boi@bankofindia.co.in,cgo@unionbankofindia.com,x3eBOI.CallCentre@bankofindia.co.in,x3eboi.customerservices@oberthur.com,u003ecustomercare@unionbankofindia.com,x22customer.service@unionbankph.com,x3eRtgs.boi@bankofindia.co.in,","19.0808182,72.7046555"
G.P. Parsik Bank,Banks,Mumbai,"Green Rd, Opp Anurag Apartment · 022 2545 6500",,",helpdesk@gpparsikbank.net,","19.1548493,72.7690957"
Axis Bank ATM,Banks,Mumbai,"Shop No 2 to 4, Bhiwadiwala Building, near Thane Court · 1860 500 5555",,",pno@axisbank.com,x3epno@axisbank.com,x22merchant.helpdesk@axisbank.com,merchant.helpdesk@axisbank.com,x3emerchant.helpdesk@axisbank.com,","19.0575742,72.7838946"
Axis Bank ATM,Banks,Mumbai,"George Mansion, Lal Bahadur Shastri Marg · 1860 500 5555",,",pno@axisbank.com,x3epno@axisbank.com,x22merchant.helpdesk@axisbank.com,merchant.helpdesk@axisbank.com,x3emerchant.helpdesk@axisbank.com,","19.0575742,72.7838946"
The Thane District Central Co-Operative Bank Ltd,Banks,Mumbai,"5XMC+479, Siddharth Nagar, Bara Bungalow Rd · 022 2532 0527",,",John@thanedistrictbank.com,enquiry@thanedistrictbank.com,x3errshinde@mumbaidistrictbank.com,rrshinde@mumbaidistrictbank.com,","19.2094939,72.7781989"
Kotak Mahindra Bank,Banks,Mumbai,"Unit No. 2, Unique Building, Ground and Mezzanine Floor, Hiranandani Estate Rd, opp. TMC Commissioner Bungalow · 1860 266 2666",,",x3eservice.cards@kotak.com,x3ecare@kotak.com,x3eitsecurity.bank@kotak.com,x3eservice.securities@kotak.com,service.cards@kotak.com,x3eKprime.service@kotak.com,care@kotak.com,x3ejane.doe@kotak.com,itsecurity.bank@kotak.com,jane.doe@kotak.com,service.securities@kotak.com,Kprime.service@kotak.com,","19.0777825,72.711864"
TJSB Sahakari Bank Limited - Patlipada,Banks,Mumbai,"6XXH+57H, G.B. Road, Hiranandini Road · 1800 22 3466",,",response@tjsb.co.in,","19.2479798,72.9763324"
SyndicateBank Thane Gokhale Road (Shivajipet) Branch,Banks,Mumbai,"Saro - Darshan Towers, Nr.M.H.Highschool, Shivaji Path, Thane, Maharashtra 400601",099690 02764,",br.5474@syndicatebank.co.in,nrd@syndicatebank.co.in,","19.2043717,72.9676752"
The Thane District Co-Operative Bank,Banks,Mumbai,"7VCH+99F, Abid Patel House, Near Amar Palace Hotel, Near A.P. International School, Miragaon National Highway, Miragaon Rd · 022 2845 7707",,",John@thanedistrictbank.com,enquiry@thanedistrictbank.com,response@tjsb.co.in,sn.kadlag@mumbaidistrictbank.com,x3errshinde@mumbaidistrictbank.com,rrshinde@mumbaidistrictbank.com,ctrdccb@gmail.com,","19.2094939,72.7781989"
Parsik Bank Kalwa Naka,Banks,Mumbai,"1, Thane - Belapur Rd, Shastri Nagar, Budhaji Nagar, Kalwa, Thane, Maharashtra 400605",,",helpdesk@gpparsikbank.net,","19.1964541,72.9775753"
IDFC FIRST Bank ATM,Banks,Mumbai,"SN 5A, Bldg No 1 & 10, Maithili Pride MHBCol, Vartak Ngr, Pokhran Rd, 1, JK Gramm, near HP Gas Godown · 1800 10888",,",nodaldesk@idfcfirstbank.com,x3enriservices@idfcfirstbank.com,x3enodaldesk@idfcfirstbank.com,nriservices@idfcfirstbank.com,","19.0662384,72.689612"
C.K.P. Co-Operative Bank,Banks,Mumbai,"5XPG+X86, Paranjape Udyog Bhavan, Ambedkar Chowk, Yashodhan, Shivaji Path, TMT Reserved Flyover SATIS · 022 2538 9673",,",k.h.road@bharatbank.co.in,surekha.poojary@bharatbank.co.in,jagdish.bhosale@ckpbank.net,xxxx@ckpbank.net,vaishali_joshi@yahoo.com,x3errshinde@mumbaidistrictbank.com,rrshinde@mumbaidistrictbank.com,","19.1262955,72.8199869"
Punjab National Bank E Lobby,Banks,Mumbai,"Shop No.23, Soham Plaza, Manpada Junction, Ghodbunder Road · 1800 180 2222",,"corporatecare@pnb.com.ph,,pnbcreditcards@pnb.com.ph,bo027920@pnb.co.in,x3ecare@pnb.co.in,care@pnb.co.in,x3ecustomercare@pnb.com.ph,x22customercare@pnb.com.ph,customercare@pnb.com.ph,","19.1239877,72.7663604"
Axis Bank ATM,Banks,Mumbai,"GF, Vardhman Vatika Chs, SN 49 to 52, Kolshet Rd · 1860 500 5555",,",pno@axisbank.com,x3epno@axisbank.com,x22merchant.helpdesk@axisbank.com,merchant.helpdesk@axisbank.com,x3emerchant.helpdesk@axisbank.com,","19.0575742,72.7838946"
The Kalyan Janta Sahakri Bank,Banks,Mumbai,"Shop No.1 , Rajashri Plaza, Ground floor, Lal Bahadur Shastri Marg, near Mhakmali talav · 022 2538 2763",,"avbele@kalyanjanata.in,,u003eresponse@kalyanjanata.in,response@kalyanjanata.in,jsbho@janatabankpune.com,adharwadi@kalyanjanata.in,","19.0492378,72.8374867"
Axis Bank ATM,Banks,Mumbai,"SG 23, Gr Flr, Shoppe, Dosti Imperia, Ghodbunder Rd, opposite R Mall · 1860 500 5555",,",pno@axisbank.com,x3epno@axisbank.com,x22merchant.helpdesk@axisbank.com,merchant.helpdesk@axisbank.com,x3emerchant.helpdesk@axisbank.com,","19.0575742,72.7838946"
Shree Arihant Co.op Bank,Banks,Mumbai,"Thane Nagar Vachan Mandir, 1st Floor, Tembi Naka, Thane West · 022 2543 7977",,",info@indialei.in,","19.0909624,72.8054569"
Oriental Bank Of Commerce,Banks,Mumbai,"Shop No.2, Oasis Silver Stone, Ram Maruti Road, Naupada, Thane West, opposite Hotel Shiv Sagar · 022 2537 6084",,"infocppc@sbp.co.in,,mbd@obc.co.in,insp@obc.co.in,BOI.CallCentre@bankofindia.co.in,hocomplaints@mahabank.co.in,x3ehocomplaints@mahabank.co.in,x3eBOI.CallCentre@bankofindia.co.in,pnd@obc.co.in,cmcustomerservice@mahabank.co.in,","19.0607533,72.6898091"
CSB Bank Mulund - Mumbai Branch & ATM,Banks,Mumbai,"Anu Apartment, Lal Bahadur Shastri Marg, Mulund (W, Govardhan Nagar, Mulund West, Thane, Maharashtra 400080",090726 01233,,"19.2025726,72.9689141"
IDFC FIRST Bank ATM,Banks,Mumbai,"No 21, Ground Floor, DOSTI IMPERIA, Bldg, Ghodbunder Rd · 1800 10888",,",nodaldesk@idfcfirstbank.com,x3enriservices@idfcfirstbank.com,x3enodaldesk@idfcfirstbank.com,nriservices@idfcfirstbank.com,","19.0662384,72.689612"
State Bank Of India,Banks,Mumbai,"Akruti SMS, Lal Bahadur Shastri Marg, opposite ST Workshop · 1800 11 2211",,",gm.customer@sbi.co.in,x3eBoi.neft@bankofindia.co.in,inb.cinb@sbi.co.in,Rtgs.boi@bankofindia.co.in,Boi.neft@bankofindia.co.in,J.Smith@sbi.co.in,John.Smith@sbi.co.in,Smith.John@sbi.co.in,customercare@sbi.co.in,x3eJohn.Smith@sbi.co.in,JSmith@statebankofindia.com,x3eBOI.CallCentre@bankofindia.co.in,Smith@sbi.co.in,x3eRtgs.boi@bankofindia.co.in,cppc.mumbai@sbi.co.in,agmcustomer.lhomah@sbi.co.in,BOI.CallCentre@bankofindia.co.in,x3esanjeevani.hr@sbi.co.in,csdmumbai@sbmbank.co.in,boi.customerservices@oberthur.com,sanjeevani.hr@sbi.co.in,x3eboi.customerservices@oberthur.com,","19.0630146,72.6852371"
Bandhan Bank ATM,Banks,Mumbai,"6X6G+6R7, Golden Park, Muktai Nagar, Old Agra, Thane West",,",charniroad.branch@bandhanbank.com,kharroad.branch@bandhanbank.com,Prabhadevi.branch@bandhanbank.com,customercare@bandhanbank.com,kandivalieast.branch@bandhanbank.com,Andheri.branch@bandhanbank.com,Nariamanpoint.branch@bandhanbank.com,x22customercare@bandhanbank.com,x3ecustomercare@bandhanbank.com,","19.077446,72.7359057"
Thane District C C-op Bank Wagle Estate Branch,Banks,Mumbai,"5XP4+F9Q, MCED Office,, Thane West, Thane, Maharashtra 400080",,"thane.dccb@gmail.com,,rm_donde@yahoo.co.in,enquiry@thanedistrictbank.com,response@tjsb.co.in,x3errshinde@mumbaidistrictbank.com,rrshinde@mumbaidistrictbank.com,","19.1862053,72.9456895"
IDBI Bank,Banks,Mumbai,"Shop No.14,15, Chandan, MAITRI VATIKA, 16 &17, Pune - Mumbai Hwy · 1800 200 1947",,",a.khajuria@idbi.co.in,customercare@idbi.co.in,u003ecustomercare@idbi.co.in,rahul.nawkar@idbi.co.in,idbicards@idbi.co.in,","19.0322522,72.7723267"
Bank,Banks,Mumbai,"Samata Nagar, Sainath Nagar, Majiwada, Thane, Maharashtra 400601",,",x3edgmoper@centralbank.co.in,actsplg@citycoopbank.com,pkvasudeo@mumbaidistrictbank.com,cmcustomerservice@mahabank.co.in,hocomplaints@mahabank.co.in,audit@mcbbank.co.in,x3errshinde@mumbaidistrictbank.com,x3ehocomplaints@mahabank.co.in,personnel@citycoopbank.com,rrshinde@mumbaidistrictbank.com,dgmoper@centralbank.co.in,tribhuvanera@mcbbank.co,","19.0865776,72.7208749"
Bank of India,Banks,Mumbai,"Block No, P. O., Tehsil, 8, Mumbai - Agra National Hwy · 2806224",,",boimnz@vsnl.com,manasi.phene@bankofindia.co.in,x3eboi.starconnect@bankofindia.com,boi.starconnect@bankofindia.com,x3eboimnz@vsnl.com,BOI.CallCentre@bankofindia.co.in,x3eBOI.CallCentre@bankofindia.co.in,boi.callcentre@bankofindia.co.in,","19.0347133,72.769618"
Fino Payments Bank,Banks,Mumbai,"Near Masjid, Room-7882, Indira Nagar Rupadevipada-2, Road-34, Thane, Wagle I E · 081085 17910",,",care@finobank.com,customercare@finobank.com,custservice.lending@finopaytech.com,media@finobank.com,","19.0949488,72.7131836"
ICICI Bank ATM,Banks,Mumbai,"Wing-A, MANCHESTER CHS, 8, Smelting Koros Rd",,",digitallending@icicibank.com,x3eCustomer.care@icicibank.com,x3edigitallending@icicibank.com,Customer.care@icicibank.com,","19.0348532,72.7859928"
ICICI Bank ATM,Banks,Mumbai,"Shop no 2 3 4 G Elite buildings Sidhanchal Phase 07 Pokhran road, 02, west · 1860 120 7777",,",digitallending@icicibank.com,x3eCustomer.care@icicibank.com,x3edigitallending@icicibank.com,Customer.care@icicibank.com,","19.0348532,72.7956439"
CANARA BANK ATM,Banks,Mumbai,"T M C School, SHOP NO-02, SANGAM · 1800 425 0018",,",x3ehocancard@canarabank.com,u003ecsscomcity@canarabank.com,imps.recon@allahabadbank.in,hocancard@canarabank.com,x22hocancard@canarabank.com,mipdcopat@canarabank.com,csscopne@canarabank.com,x3ecallsupport@canarabank.com,ho.atm@allahabadbank.in,csscoranchi@canarabank.com,trfpwingom@canarabank.com,csscomcity@canarabank.com,canarabank.com_csscoranchi@canarabank.com,callsupport@canarabank.com,atmbo.mumbai@allahabadbank.in,hocancardacquiry@canarabank.com,","19.0246593,72.7777205"
New India Co Op Bank ATM,Banks,Mumbai,"400601, Mahapalika Bhavan Rd",,",atm@kalupurbank.com,x3errshinde@mumbaidistrictbank.com,rrshinde@mumbaidistrictbank.com,nmcb07@navimumbaibank.com,","19.0942371,72.7485824"
Bank of Baroda ATM,Banks,Mumbai,"16, SARASWATI SADAN, COLONY, Manpada Rd · 1800 258 4455",,",x3egm.ops.ho@bankofbaroda.com,x22crm@bobfinancial.com,x3ezm.mgz@bankofbaroda.com,zm.bojz@bankofbaroda.com,x3ezm.rajkot@bankofbaroda.com,zm.mgz@bankofbaroda.com,gm.ops.ho@bankofbaroda.com,ngm.ops.ho@bankofbaroda.com,crm@bobfinancial.com,barodaconnect@bankofbaroda.com,zm.rajkot@bankofbaroda.com,x3ecrm@bobfinancial.com,x3ebarodaconnect@bankofbaroda.com,x3ezm.bojz@bankofbaroda.com,","19.0264115,72.7779502"
Kotak Mahindra Bank ATM,Banks,Mumbai,"Jai Commercial Complex, Jai Siddhivinayak Premises Chs, Pokharan Rd Number 1 · 1860 266 2666",,",x3eservice.cards@kotak.com,x3ecare@kotak.com,x3eitsecurity.bank@kotak.com,x3eservice.securities@kotak.com,service.cards@kotak.com,x3eKprime.service@kotak.com,care@kotak.com,itsecurity.bank@kotak.com,service.securities@kotak.com,Kprime.service@kotak.com,","19.0475861,72.7955411"
ATM,Banks,Mumbai,"Bungalow Number 90, Naka, Madrecha Rd",,",rrshinde@mumbaidistrictbank.com,x3errshinde@mumbaidistrictbank.com,","19.0643261,72.7208136"
Axis Bank ATM,Banks,Mumbai,"Shop No.4 Building No.2, Ltd, Sahyog CHS · 1860 500 5555",,",pno@axisbank.com,x3epno@axisbank.com,x22merchant.helpdesk@axisbank.com,merchant.helpdesk@axisbank.com,x3emerchant.helpdesk@axisbank.com,","19.0694613,72.8025809"
IndusInd Bank ATM,Banks,Mumbai,"Shop No.1 A Wing, Suryadarshan Tower, Esic Road, off Eastern Express Highway · 1860 267 7777",,",customercare@indusind.com,reachus@indusind.com,x3eboiblbang@IndusInd.com,managingdirector@indusind.com,boiblbang@IndusInd.com,pioneer@indusind.com,","19.0675874,72.6981239"
CANARA BANK ATM,Banks,Mumbai,"SHOP NO-2, OMKAR NIWAS, near THAKUR COLLEGE · 1800 425 0018",,",x3ehocancard@canarabank.com,u003ecsscomcity@canarabank.com,imps.recon@allahabadbank.in,hocancard@canarabank.com,x22hocancard@canarabank.com,mipdcopat@canarabank.com,csscopne@canarabank.com,x3ecallsupport@canarabank.com,ho.atm@allahabadbank.in,csscoranchi@canarabank.com,trfpwingom@canarabank.com,csscomcity@canarabank.com,canarabank.com_csscoranchi@canarabank.com,callsupport@canarabank.com,atmbo.mumbai@allahabadbank.in,hocancardacquiry@canarabank.com,","19.0246593,72.7777205"
Bank,Banks,Mumbai,"Samata Nagar, Sainath Nagar, Majiwada, Thane, Maharashtra 400601",,",x3edgmoper@centralbank.co.in,actsplg@citycoopbank.com,pkvasudeo@mumbaidistrictbank.com,cmcustomerservice@mahabank.co.in,hocomplaints@mahabank.co.in,audit@mcbbank.co.in,x3errshinde@mumbaidistrictbank.com,x3ehocomplaints@mahabank.co.in,personnel@citycoopbank.com,rrshinde@mumbaidistrictbank.com,dgmoper@centralbank.co.in,tribhuvanera@mcbbank.co,","19.0865776,72.7162062"
IDBI Bank,Banks,Mumbai,"Shop No.14,15, Chandan, MAITRI VATIKA, 16 &17, Pune - Mumbai Hwy · 1800 200 1947",,",a.khajuria@idbi.co.in,customercare@idbi.co.in,u003ecustomercare@idbi.co.in,rahul.nawkar@idbi.co.in,idbicards@idbi.co.in,","19.0322522,72.7723267"
TJSB Sahakari Bank Limited - Patlipada,Banks,Mumbai,"6XXH+57H, G.B. Road, Hiranandini Road · 1800 22 3466",,",response@tjsb.co.in,","19.2479798,72.9763324"
ATM ICICI BANK,Banks,Mumbai,"6X23+PC9, Road No. 16/Z · 1860 120 7777",,",digitallending@icicibank.com,x3eCustomer.care@icicibank.com,x3edigitallending@icicibank.com,Customer.care@icicibank.com,","19.0348532,72.7955701"
CANARA BANK ATM,Banks,Mumbai,"SHOP NO.5, SHIVSADAN APARTMENT · 1800 425 0018",,",x3ehocancard@canarabank.com,u003ecsscomcity@canarabank.com,imps.recon@allahabadbank.in,hocancard@canarabank.com,x22hocancard@canarabank.com,mipdcopat@canarabank.com,csscopne@canarabank.com,x3ecallsupport@canarabank.com,ho.atm@allahabadbank.in,csscoranchi@canarabank.com,trfpwingom@canarabank.com,csscomcity@canarabank.com,canarabank.com_csscoranchi@canarabank.com,callsupport@canarabank.com,atmbo.mumbai@allahabadbank.in,hocancardacquiry@canarabank.com,","19.0246593,72.7777205"
Fino Payments Bank,Banks,Mumbai,"27, Salunkhe Niwas, Rupadevi Pada No.2 Roadno.33, Near Rupadevi Temple, Indira Nagar · 022 6868 1414",,",care@finobank.com,customercare@finobank.com,custservice.lending@finopaytech.com,media@finobank.com,","19.0949488,72.7131836"
ICICI BANK ATM,Banks,Mumbai,6X5C+3FR,,",digitallending@icicibank.com,x3eCustomer.care@icicibank.com,x3edigitallending@icicibank.com,Customer.care@icicibank.com,","19.0348532,72.7956439"
TJSB Sahakari Bank Atm,Banks,Mumbai,"Shop No. 5, Ratna Umed Residency , Umed Nagar ,, Pipe Lina Road. Louis Wadi , Thane (W)",,",response@tjsb.co.in,tjsb.012@tjsb.co.in,","19.1628731,72.7541761"
ICICI Bank Atm,Banks,Mumbai,"Shop No.1, Star View Apt, Nr Hari Om Traders, Lokmanya & 8232 Nagar, Pada No 4 · 1860 120 7777",,",digitallending@icicibank.com,x3eCustomer.care@icicibank.com,x3edigitallending@icicibank.com,Customer.care@icicibank.com,","19.0348532,72.7956439"
ICICI Bank Atm,Banks,Mumbai,"Shop No-07, Swapnavanchs · 1860 120 7777",,",digitallending@icicibank.com,x3eCustomer.care@icicibank.com,x3edigitallending@icicibank.com,Customer.care@icicibank.com,","19.0348532,72.7859928"
State Bank Of India ATM,Banks,Mumbai,"5, Dev Daya Nagar Society Rd · 1800 11 2211",,",gm.customer@sbi.co.in,boi.customerservices@oberthur.com,Boi.neft@bankofindia.co.in,customercare@sbi.co.in,BOI.CallCentre@bankofindia.co.in,customercare@sbicard.com,x3eBoi.neft@bankofindia.co.in,Rtgs.boi@bankofindia.co.in,n@sbmbank.co.in,contactcentre@sbi.co.in,x3ecustomercare@sbicard.com,x3eBOI.CallCentre@bankofindia.co.in,x3eboi.customerservices@oberthur.com,x3eRtgs.boi@bankofindia.co.in,","19.0027866,72.7872625"
Union Bank of India ATM,Banks,Mumbai,"Shop No. 8-12, Ratna Umed Residency, Umed Nagar, Pipeline Road, Louis Wadi, Thane West · 1800 22 2244",,",x3ecustomer.service@unionbankph.com,customerservice@www.unionbankng.com,x3ecustomerservice@www.unionbankng.com,x3ecustomercare@unionbankofindia.com,customer.service@unionbankph.com,customercare@unionbankofindia.com,x22customer.service@unionbankph.com,","19.0817748,72.6895115"
Kotak Mahindra Bank ATM,Banks,Mumbai,"463, Khopat Rd · 1860 266 2666",,",x3eservice.cards@kotak.com,x3ecare@kotak.com,x3eitsecurity.bank@kotak.com,x3eservice.securities@kotak.com,service.cards@kotak.com,x3eKprime.service@kotak.com,care@kotak.com,itsecurity.bank@kotak.com,service.securities@kotak.com,Kprime.service@kotak.com,","19.0475861,72.7918667"
ICICI Bank ATM,Banks,Mumbai,"5XX6+XWR, Surya Darshan Bldg, Kamger Hospital, Thane West, opp. Urekan · 1860 120 7777",,",digitallending@icicibank.com,x3eCustomer.care@icicibank.com,x3edigitallending@icicibank.com,Customer.care@icicibank.com,","19.0348532,72.7859928"
State Bank Of India ATM,Banks,Mumbai,"Jai Commercial Complex, Khopat Rd · 1800 11 2211",,",gm.customer@sbi.co.in,customercare@sbi.co.in,BOI.CallCentre@bankofindia.co.in,customercare@sbicard.com,x3ecustomercare@sbicard.com,x3eBOI.CallCentre@bankofindia.co.in,chairmansbi.customer@sbi.co.in,","19.0258458,72.7929473"
ICICI Bank Atm,Banks,Mumbai,"Shop No-4, Vhihang Park, near Laxmi Park · 1860 120 7777",,",digitallending@icicibank.com,x3eCustomer.care@icicibank.com,x3edigitallending@icicibank.com,Customer.care@icicibank.com,","19.0348532,72.7956439"
ICICI Bank ATM,Banks,Mumbai,"Shop No 2, 3, 4, Plot No. 297, Madhuban CHS Ltd Service Road, West · 1860 120 7777",,",digitallending@icicibank.com,x3eCustomer.care@icicibank.com,x3edigitallending@icicibank.com,Customer.care@icicibank.com,","19.0348532,72.7859928"
ICICI Bank ATM,Banks,Mumbai,"15, Neelkanth Heights, Rameswar Tower, Between Pokhran 1 & 2 · 1860 120 7777",,",digitallending@icicibank.com,x3eCustomer.care@icicibank.com,x3edigitallending@icicibank.com,Customer.care@icicibank.com,","19.0348532,72.7859928"
ICICI Bank - ATM,Banks,Mumbai,"5XX6+277, Pipeline Rd · 1860 120 7777",,",digitallending@icicibank.com,x3eCustomer.care@icicibank.com,x3edigitallending@icicibank.com,Customer.care@icicibank.com,","19.0348532,72.7859928"
Bandhan Bank,Banks,Mumbai,"Shop No.2 (Part), M/s Wood Plaza, Golden Dyes Compound, opp. Navneet Motors · 1800 258 8181",,",pno@axisbank.com,ch.kochi@bandhanbank.com,Secretary.Karthikeyan@bankofindia.co.in,kharroad.branch@bandhanbank.com,x3epno@axisbank.com,x3eSecretary.Karthikeyan@bankofindia.co.in,customercare@bandhanbank.com,Andheri.branch@bandhanbank.com,ch.delhi@bandhanbank.com,x3esujoy.roy@bandhanbank.com,ed1@mahabank.co.in,sujoy.roy@bandhanbank.com,Nariamanpoint.branch@bandhanbank.com,x22customercare@bandhanbank.com,x3ecustomercare@bandhanbank.com,x3eed1@mahabank.co.in,","19.0774621,72.7400238"
ICICI Bank Atm,Banks,Mumbai,"Chourishya Foot Wear,Road No-34,Nr Shiv Sena Shaka · 1860 120 7777",,",digitallending@icicibank.com,x3eCustomer.care@icicibank.com,x3edigitallending@icicibank.com,Customer.care@icicibank.com,","19.0348532,72.7859928"
Saraswat Bank ATM,Banks,Mumbai,"Ground Floor, Nitin Company, Nakshatra Tower, road, opp. Thane Municipal Corporation · 022 2534 8646",,"corporatecenter@saraswatbank.com,,x3ecustomerservicecentre@saraswatbank.com,customerservicecentre@saraswatbank.com,u2013customerservicecentre@saraswatbank.com,","19.0707134,72.7140439"
Tjsb bank atm.,Banks,Mumbai,"Kishan nagar no,2 Ful Gali pipeline, Rd Number 16",,",response@tjsb.co.in,tjsb.048@tjsb.co,","19.1263108,72.7563874"
"NKGSB Co-operative Bank Limited- Vartak Nagar,Thane West Branch",Banks,Mumbai,"Shop No.S2, 23,24,25, Vedant Commercial Complex, Madrecha Rd, Tulsi Dham, Vartak Nagar, Thane West, Thane, Maharashtra 400606",022 2585 3349,,"19.2086066,72.9498613"
Karnataka Bank - Thane Branch & ATM,Banks,Mumbai,"Shop No.12, VIHANG GARDEN, Pokharan Rd Number 1, opp. raymonds, Tulsi Dham, Vartak Nagar, Thane West, Mumbai, Thane, Maharashtra 400606",1800 425 1444,,"19.2084566,72.9530569"
The Thane District Central Co-Operative Bank Limited-Vartak Nagar,Banks,Mumbai,"Gitanjali Apartment, Shivaji Path. P. B. No. 19, Near Station Shivaji Path Road, Aai Mata Rd, Kores, Lokmanya Nagar, Thane West, Thane, Maharashtra 400606",022 2536 3042,",enquiry@thanedistrictbank.com,Thane.dccb@gmail.com,Atm@thanedistrictbank.com,x3errshinde@mumbaidistrictbank.com,rrshinde@mumbaidistrictbank.com,","19.2085247,72.9446732"
Bank of Maharashtra,Banks,Mumbai,"1st Floor, Jagdish Industrial Estate, Pokharan Rd Number 1, opposite Telegram Gate · 1800 233 4526",,",boi.customerservices@oberthur.com,Boi.neft@bankofindia.co.in,u003ecmcustomerservice@mahabank.co.in,cmcustomerservice@mahabank.co.in,BOI.CallCentre@bankofindia.co.in,x3eBoi.neft@bankofindia.co.in,hocomplaints@mahabank.co.in,u003ehocomplaints@mahabank.co.in,Rtgs.boi@bankofindia.co.in,mahasecure@mahabank.co.in,x3eBOI.CallCentre@bankofindia.co.in,x3eboi.customerservices@oberthur.com,x3eRtgs.boi@bankofindia.co.in,","19.04742,72.7956656"
State Bank of India SAMTA NAGAR THANE,Banks,Mumbai,"SHOP NO 8, 9 AND 10, VIHANG GARDEN, Pokharan Rd Number 1, Tulsi Dham, Samata Nagar, Thane West, Thane, Maharashtra 400606",022 2537 7941,",sbi.13035@sbi.co.in,x3econtactcentre@sbi.co.in,contactcentre@sbi.co.in,sbi.00174@sbi.co.in,","19.2083737,72.9529602"
Union Bank of India - Vartak Nagar Branch,Banks,Mumbai,"6, Acharya Atre Marg, Tulsi Dham, Vedant Complex, Vartak Nagar, Thane West, Thane, Maharashtra 400606",022 2585 5050,",x3ecustomer.service@unionbankph.com,x3ecustomercare@unionbankofindia.com,customer.service@unionbankph.com,cbsvartaknagar@unionbankofindia.com,customercare@unionbankofindia.com,x22customercare@unionbankofindia.com,","19.2090977,72.9513302"
Thane Bharat Sahakari Bank Limited,Banks,Mumbai,"Western India Steel Industries Compound, Pokharan Rd Number 2, opp. Oswal Park · 022 2173 6262",,",main@tbsbl.com,complaint@tbsbl.com,rtgs.tbsb@thanebharatbank.net,","19.1154427,72.7510537"
NKGSB Co-op Bank Ltd (Thane Naupada Branch),Banks,Mumbai,"Raunak Arcade, 7/8, Ghantali Devi Rd, Naupada, Thane West, Thane, Maharashtra 400602",022 2537 0920,"laxmikantdesai@nkgsb-bank.com,,","19.1872493,72.9592989"
Thane Bharat Sahakari Bank Limited,Banks,Mumbai,"Plot No. 78, Near Shivai Nagar Bus Stop, Shivai Nagar, Pokhran Road No. 1, Thane West, Upvan Lake Rd · 022 2173 6262",,",main@tbsbl.com,complaint@tbsbl.com,rtgs.tbsb@thanebharatbank.net,","19.1154427,72.7510537"
Thane Bharat Sahakari Bank Limited,Banks,Mumbai,"5XRC+6QQ, Sahayog Mandir Path · 022 2542 9432",,",main@tbsbl.com,complaint@tbsbl.com,rtgs.tbsb@thanebharatbank.net,","19.1154427,72.7510537"
State Bank of India,Banks,Mumbai,Pokharan Rd Number 1 · 1800 425 3800,,",gm.customer@sbi.co.in,x3eBoi.neft@bankofindia.co.in,inb.cinb@sbi.co.in,Rtgs.boi@bankofindia.co.in,Boi.neft@bankofindia.co.in,J.Smith@sbi.co.in,John.Smith@sbi.co.in,Smith.John@sbi.co.in,customercare@sbi.co.in,x3eJohn.Smith@sbi.co.in,JSmith@statebankofindia.com,x3eBOI.CallCentre@bankofindia.co.in,Smith@sbi.co.in,x3eRtgs.boi@bankofindia.co.in,cppc.mumbai@sbi.co.in,agmcustomer.lhomah@sbi.co.in,BOI.CallCentre@bankofindia.co.in,x3esanjeevani.hr@sbi.co.in,csdmumbai@sbmbank.co.in,boi.customerservices@oberthur.com,sanjeevani.hr@sbi.co.in,x3eboi.customerservices@oberthur.com,","19.0630146,72.6852371"
CANARA BANK - THANE NAUPADA,Banks,Mumbai,"41A GOKHALE ROAD, NAUPADA NAUPADA S.O, Thane, Maharashtra 400602",1800 425 0018,",hocancard@canarabank.com,cb0228@canarabank.com,","19.1879666,72.9630783"
Punjab National Bank - Thane West Branch,Banks,Mumbai,"5XQ8+3WP, Satyam Apartment Mahatma Gandhi Rd Near Malhar Cinema · 1800 180 2222",,"corporatecare@pnb.com.ph,,cobangalorewest@pnb.co.in,pnbcreditcards@pnb.com.ph,bo3739@pnb.co.in,care@pnb.co,bo1144@pnb.co.in,x3ecare@pnb.co.in,care@pnb.co.in,bo090210@pnb.co.in,customercare@pnb.com.ph,bo2176@pnb.co.in,","19.1982202,72.9456491"
Saraswat Bank,Banks,Mumbai,"5XX8+9M3, Ground Floor, Nakshatra Tower, Almeda Rd, Opp Municipal Corp · 022 2534 8645",,"corporatecenter@saraswatbank.com,,x3ecustomerservicecentre@saraswatbank.com,customerservicecentre@saraswatbank.com,arvinder.matta@saraswatbank.com,u2013customerservicecentre@saraswatbank.com,","19.0807039,72.7036407"
Ambarnath Jai-Hind Co-Operative Bank Limited- Yashodhan Nagar Branch,Banks,Mumbai,,022 2581 3882,,"19.2079099,72.944564"
"Thane Bharat Sahakari bank, Rutu Park Branch",Banks,Mumbai,,022 2544 2363,",response@tjsb.co.in,main@tbsbl.com,","19.2101215,72.9717825"
Thane Bharat Sahakari Bank Limited - Chandanwadi Branch,Banks,Mumbai,"5XXC+PM7, Mahesh Darshan, Near Makhmali Talao, Old Mumbai, Agra Road, Ganeshwadi, Thane West, Thane, Maharashtra 400601",022 2533 5237,",main@tbsbl.com,","19.1992975,72.9613849"
"RBL Bank Ltd - Vartak Nagar, Thane Branch & ATM",Banks,Mumbai,,022 2585 3975,,"19.2124303,72.9500452"
State Bank of India KHOPAT BRANCH THANE,Banks,Mumbai,"BUILDING PLOT NO 457, SREEJISWAMINARAYANA NAGAR SREEJI DARSHAN, 1, Pokhran Rd, Thane, Maharashtra 400601",022 2538 3699,"sbi.00300@sbi.co.in,,gm.customer@sbi.co.in,sbi.09056@sbi.co.in,customercare@sbi.co.in,contactcentre@sbi.co.in,","19.2069483,72.9468423"
"ICICI Bank Gokhale Road, Thane-Branch & ATM",Banks,Mumbai,"Gokhale Road, Pathare Building, Naupada, near Gaondevi Mandir, Thane, Maharashtra 400602",1860 120 6699,,"19.1906062,72.9605278"
State Bank of India,Banks,Mumbai,"Vakratunda Residency Shree Swami Krupa, Phase 2, Manorama Nagar Rd · 1800 425 1825",,",gm.customer@sbi.co.in,x3eBoi.neft@bankofindia.co.in,inb.cinb@sbi.co.in,Rtgs.boi@bankofindia.co.in,Boi.neft@bankofindia.co.in,J.Smith@sbi.co.in,John.Smith@sbi.co.in,Smith.John@sbi.co.in,customercare@sbi.co.in,x3eJohn.Smith@sbi.co.in,JSmith@statebankofindia.com,x3eBOI.CallCentre@bankofindia.co.in,Smith@sbi.co.in,x3eRtgs.boi@bankofindia.co.in,cppc.mumbai@sbi.co.in,agmcustomer.lhomah@sbi.co.in,BOI.CallCentre@bankofindia.co.in,x3esanjeevani.hr@sbi.co.in,csdmumbai@sbmbank.co.in,boi.customerservices@oberthur.com,sanjeevani.hr@sbi.co.in,x3eboi.customerservices@oberthur.com,","19.0630146,72.6884409"
GP Parsik Bank,Banks,Mumbai,SWASTIK REGALIA COMPLEX,,",helpdesk@gpparsikbank.net,","19.1548493,72.7690957"
DMK Jaoli BANK,Banks,Mumbai,5XW6+G9P · 022 2583 5443,,",complaints@jaolibank.in,hoadmin@jaolibank.in,","19.0903834,72.7574299"
Axis Bank Branch,Banks,Mumbai,"Thane, Maharashtra · 1860 500 5555",,",merchant.helpdesk@axisbank.com,x3emerchant.helpdesk@axisbank.com,x3enodal.officer@axisbank.com,nodal.officer@axisbank.com,","19.0439404,72.7708467"
Axis Bank ATM,Banks,Mumbai,"Arun Industries, near Kalpataru Prime · 1860 500 5555",,",pno@axisbank.com,x3epno@axisbank.com,x22merchant.helpdesk@axisbank.com,merchant.helpdesk@axisbank.com,x3emerchant.helpdesk@axisbank.com,","19.0694613,72.8025809"
"The National Co op Bank Ltd,Ghodbunder Branch",Banks,Mumbai,"4, Vijay Garden Rd, Kavesar, Thane West, Thane, Maharashtra 400615",084240 81717,",rrshinde@mumbaidistrictbank.com,x3errshinde@mumbaidistrictbank.com,hoclg@ncbmumbai.com,","19.261793,72.9636409"
ICICI Bank Thane Ghodbunder Road,Banks,Mumbai,"Shop No. 3, MK Plaza, ICICI Bank Ltd, Ghodbunder Rd · 1800 1080",,",customer.care@icicibank.com,x3ecustomer.care@icicibank.com,","19.2579549,72.9652599"
Axis Bank ATM,Banks,Mumbai,"KORUM MALL 2 (INFORMATION DESK, UPPER GROUND), MANGAL PANDEY ROAD Eastern Express Highway, Junction, near Cadbury · 1860 419 5555",,",pno@axisbank.com,x3epno@axisbank.com,x22merchant.helpdesk@axisbank.com,merchant.helpdesk@axisbank.com,x3emerchant.helpdesk@axisbank.com,","19.0694613,72.8025809"
icici bank thane west wagle estate,Banks,Mumbai,"5XX5+26X, Rd Number 16",,",customer.care@icicibank.com,","19.1963505,72.942614"
Axis Bank Branch,Banks,Mumbai,"Ground Floor, Shop No/ 1, 2 & 3, College, near Muchhala Polytechnic · 1860 500 5555",,",merchant.helpdesk@axisbank.com,x3emerchant.helpdesk@axisbank.com,x3enodal.officer@axisbank.com,nodal.officer@axisbank.com,","19.0439404,72.7708467"
Bharat Bank,Banks,Mumbai,"6XMG+565, Shop No. C, Solitaire Towers, Chitalsa, Khewra Cir Marg · 022 2589 2531",,",Feedback@bharatbank.co.in,x3ebhandup@bharatbank.co.in,bhandup@bharatbank.co.in,ghansoli@bharatbank.co.in,ibd@bharatbank.co.in,mbank@bharatbank.co.in,x3embank@bharatbank.co.in,","19.0875939,72.7204218"
IDFC FIRST Bank,Banks,Mumbai,"Shop No 7 to 10, Ground, MK Plaza, Ghodbunder Rd · 1800 10888",,",nodaldesk@idfcfirstbank.com,x3enriservices@idfcfirstbank.com,RNO.Mumbai@idfcfirstbank.com,firstcontactcomplaints@firstbanknigeria.com,x3enodaldesk@idfcfirstbank.com,nriservices@idfcfirstbank.com,x3efirstcontactcomplaints@firstbanknigeria.com,","19.0882275,72.7103437"
Apna Sahakari Bank,Banks,Mumbai,"Ghodbunder Shop No. 5 & 6 Shree Maa Trust, Ground Floor, S. N. 146 Patlipada, Ghodbunder Rd · 022 2586 2957",,",corporateoffice@apnabank.co.in,","19.0945479,72.8056548"
Axis Bank Branch,Banks,Mumbai,"Ground Floor, ACCEL HOUSE, SN 7 & 8, Rd Number 22 · 1860 500 5555",,",merchant.helpdesk@axisbank.com,x3emerchant.helpdesk@axisbank.com,x3enodal.officer@axisbank.com,nodal.officer@axisbank.com,","19.0439404,72.7715841"
Oriental Bank of Commerce,Banks,Mumbai,"Sidhanchal Shopping Centre, Off Pokharan Road 2 Tulshidham · 022 2171 4433",,"infocppc@sbp.co.in,,mbd@obc.co.in,insp@obc.co.in,BOI.CallCentre@bankofindia.co.in,hocomplaints@mahabank.co.in,x3ehocomplaints@mahabank.co.in,x3eBOI.CallCentre@bankofindia.co.in,pnd@obc.co.in,cmcustomerservice@mahabank.co.in,","19.0607533,72.6898091"
Axis Bank ATM,Banks,Mumbai,"Shop No 2 to 4, Bhiwadiwala Building, near Thane Court · 1860 500 5555",,",pno@axisbank.com,x3epno@axisbank.com,x22merchant.helpdesk@axisbank.com,merchant.helpdesk@axisbank.com,x3emerchant.helpdesk@axisbank.com,","19.0663137,72.720172"
Axis Bank ATM,Banks,Mumbai,"SN 7 & 8, PN A 125, A 126, Road No 22 MIDC · 1860 500 5555",,",pno@axisbank.com,x3epno@axisbank.com,x22merchant.helpdesk@axisbank.com,merchant.helpdesk@axisbank.com,x3emerchant.helpdesk@axisbank.com,","19.0575742,72.7838946"
State Bank ATM,Banks,Mumbai,"Shop No. 2, Gajanan heights, ESIC Road",,",cppc.mumbai@sbi.co.in,x3ePrincipalNodalOfficer@sbicard.com,dgm.atmnbg@sbi.co.in,customercare@sbi.co.in,customercare@sbicard.com,n@sbmbank.co.in,x3ecustomercare@sbicard.com,PrincipalNodalOfficer@sbicard.com,","19.1976916,72.8132092"
ICICI Bank ATM,Banks,Mumbai,"Shop no 2 3 4 G Elite buildings Sidhanchal Phase 07 Pokhran road, 02, west · 1860 120 7777",,",digitallending@icicibank.com,x3eCustomer.care@icicibank.com,x3edigitallending@icicibank.com,Customer.care@icicibank.com,","19.092948,72.7124495"
Fino Payments Bank,Banks,Mumbai,"Near Masjid, Room-7882, Indira Nagar Rupadevipada-2, Road-34, Thane, Wagle I E · 081085 17910",,",care@finobank.com,customercare@finobank.com,custservice.lending@finopaytech.com,media@finobank.com,","19.0949488,72.7131836"
Bank of Baroda ATM,Banks,Mumbai,"16, SARASWATI SADAN, COLONY, Manpada Rd · 1800 258 4455",,",x3egm.ops.ho@bankofbaroda.com,x22crm@bobfinancial.com,x3ezm.mgz@bankofbaroda.com,zm.bojz@bankofbaroda.com,x3ezm.rajkot@bankofbaroda.com,zm.mgz@bankofbaroda.com,gm.ops.ho@bankofbaroda.com,ngm.ops.ho@bankofbaroda.com,crm@bobfinancial.com,barodaconnect@bankofbaroda.com,zm.rajkot@bankofbaroda.com,x3ecrm@bobfinancial.com,x3ebarodaconnect@bankofbaroda.com,x3ezm.bojz@bankofbaroda.com,","19.0264115,72.7779502"
New India Co Op Bank ATM,Banks,Mumbai,"400601, Mahapalika Bhavan Rd",,",atm@kalupurbank.com,x3errshinde@mumbaidistrictbank.com,rrshinde@mumbaidistrictbank.com,nmcb07@navimumbaibank.com,","19.0942371,72.7485824"
Kotak Mahindra Bank ATM,Banks,Mumbai,"Jai Commercial Complex, Jai Siddhivinayak Premises Chs, Pokharan Rd Number 1 · 1860 266 2666",,",x3eservice.cards@kotak.com,x3ecare@kotak.com,x3eitsecurity.bank@kotak.com,x3eservice.securities@kotak.com,service.cards@kotak.com,x3eKprime.service@kotak.com,care@kotak.com,itsecurity.bank@kotak.com,service.securities@kotak.com,Kprime.service@kotak.com,","19.0475861,72.7955411"
CANARA BANK ATM,Banks,Mumbai,"SHOP NO-2, OMKAR NIWAS, near THAKUR COLLEGE · 1800 425 0018",,",x3ehocancard@canarabank.com,u003ecsscomcity@canarabank.com,imps.recon@allahabadbank.in,hocancard@canarabank.com,x22hocancard@canarabank.com,mipdcopat@canarabank.com,csscopne@canarabank.com,x3ecallsupport@canarabank.com,ho.atm@allahabadbank.in,csscoranchi@canarabank.com,trfpwingom@canarabank.com,csscomcity@canarabank.com,canarabank.com_csscoranchi@canarabank.com,callsupport@canarabank.com,atmbo.mumbai@allahabadbank.in,hocancardacquiry@canarabank.com,","19.0246593,72.7777205"
ICICI BANK ATM,Banks,Mumbai,6X5C+3FR,,",digitallending@icicibank.com,x3eCustomer.care@icicibank.com,x3edigitallending@icicibank.com,Customer.care@icicibank.com,","19.032198,72.7887784"
IndusInd Bank ATM,Banks,Mumbai,"Shop No.1 A Wing, Suryadarshan Tower, Esic Road, off Eastern Express Highway · 1860 267 7777",,",customercare@indusind.com,reachus@indusind.com,x3eboiblbang@IndusInd.com,managingdirector@indusind.com,boiblbang@IndusInd.com,pioneer@indusind.com,","19.0675874,72.6981239"
ATM ICICI BANK,Banks,Mumbai,"6X23+PC9, Road No. 16/Z · 1860 120 7777",,",digitallending@icicibank.com,x3eCustomer.care@icicibank.com,x3edigitallending@icicibank.com,Customer.care@icicibank.com,","19.0326605,72.7887784"
CANARA BANK ATM,Banks,Mumbai,"SHOP NO.5, SHIVSADAN APARTMENT · 1800 425 0018",,",x3ehocancard@canarabank.com,u003ecsscomcity@canarabank.com,imps.recon@allahabadbank.in,hocancard@canarabank.com,x22hocancard@canarabank.com,mipdcopat@canarabank.com,csscopne@canarabank.com,x3ecallsupport@canarabank.com,ho.atm@allahabadbank.in,csscoranchi@canarabank.com,trfpwingom@canarabank.com,csscomcity@canarabank.com,canarabank.com_csscoranchi@canarabank.com,callsupport@canarabank.com,atmbo.mumbai@allahabadbank.in,hocancardacquiry@canarabank.com,","19.0246593,72.7777205"
Kotak Mahindra Bank ATM,Banks,Mumbai,"463, Khopat Rd · 1860 266 2666",,",x3eservice.cards@kotak.com,x3ecare@kotak.com,x3eitsecurity.bank@kotak.com,x3eservice.securities@kotak.com,service.cards@kotak.com,x3eKprime.service@kotak.com,care@kotak.com,itsecurity.bank@kotak.com,service.securities@kotak.com,Kprime.service@kotak.com,","19.0475861,72.7918667"
ICICI Bank Atm,Banks,Mumbai,"Shop No-07, Swapnavanchs · 1860 120 7777",,",digitallending@icicibank.com,x3eCustomer.care@icicibank.com,x3edigitallending@icicibank.com,Customer.care@icicibank.com,","19.0348532,72.7859928"
TJSB Sahakari Bank Limited - Patlipada,Banks,Mumbai,"6XXH+57H, G.B. Road, Hiranandini Road · 1800 22 3466",,",response@tjsb.co.in,","19.2479798,72.9763324"
Fino Payments Bank,Banks,Mumbai,"27, Salunkhe Niwas, Rupadevi Pada No.2 Roadno.33, Near Rupadevi Temple, Indira Nagar · 022 6868 1414",,",care@finobank.com,customercare@finobank.com,custservice.lending@finopaytech.com,media@finobank.com,","19.0949488,72.7131836"
Union Bank of India ATM,Banks,Mumbai,"Shop No. 8-12, Ratna Umed Residency, Umed Nagar, Pipeline Road, Louis Wadi, Thane West · 1800 22 2244",,",x3ecustomer.service@unionbankph.com,customerservice@www.unionbankng.com,x3ecustomerservice@www.unionbankng.com,x3ecustomercare@unionbankofindia.com,customer.service@unionbankph.com,customercare@unionbankofindia.com,x22customer.service@unionbankph.com,","19.0817748,72.6895115"
ICICI Bank ATM,Banks,Mumbai,"Shop No 2, 3, 4, Plot No. 297, Madhuban CHS Ltd Service Road, West · 1860 120 7777",,",digitallending@icicibank.com,x3eCustomer.care@icicibank.com,x3edigitallending@icicibank.com,Customer.care@icicibank.com,","19.0348532,72.7956439"
ICICI Bank Atm,Banks,Mumbai,"Shop No-4, Vhihang Park, near Laxmi Park · 1860 120 7777",,",digitallending@icicibank.com,x3eCustomer.care@icicibank.com,x3edigitallending@icicibank.com,Customer.care@icicibank.com,","19.0348532,72.7956439"
Bank,Banks,Mumbai,"Samata Nagar, Sainath Nagar, Majiwada, Thane, Maharashtra 400601",,",x3edgmoper@centralbank.co.in,actsplg@citycoopbank.com,pkvasudeo@mumbaidistrictbank.com,cmcustomerservice@mahabank.co.in,hocomplaints@mahabank.co.in,audit@mcbbank.co.in,x3errshinde@mumbaidistrictbank.com,x3ehocomplaints@mahabank.co.in,personnel@citycoopbank.com,rrshinde@mumbaidistrictbank.com,dgmoper@centralbank.co.in,tribhuvanera@mcbbank.co,","19.0772908,72.7773858"
TJSB Sahakari Bank Atm,Banks,Mumbai,"Shop No. 5, Ratna Umed Residency , Umed Nagar ,, Pipe Lina Road. Louis Wadi , Thane (W)",,",response@tjsb.co.in,tjsb.012@tjsb.co.in,","19.1628731,72.7541761"
State Bank Of India ATM,Banks,Mumbai,"5, Dev Daya Nagar Society Rd · 1800 11 2211",,",gm.customer@sbi.co.in,boi.customerservices@oberthur.com,Boi.neft@bankofindia.co.in,customercare@sbi.co.in,BOI.CallCentre@bankofindia.co.in,customercare@sbicard.com,x3eBoi.neft@bankofindia.co.in,Rtgs.boi@bankofindia.co.in,n@sbmbank.co.in,contactcentre@sbi.co.in,x3ecustomercare@sbicard.com,x3eBOI.CallCentre@bankofindia.co.in,x3eboi.customerservices@oberthur.com,x3eRtgs.boi@bankofindia.co.in,","19.0258458,72.793569"
ICICI Bank - ATM,Banks,Mumbai,"5XX6+277, Pipeline Rd · 1860 120 7777",,",digitallending@icicibank.com,x3eCustomer.care@icicibank.com,x3edigitallending@icicibank.com,Customer.care@icicibank.com,","19.0348532,72.7956439"
ICICI Bank Atm,Banks,Mumbai,"Shop No.1, Star View Apt, Nr Hari Om Traders, Lokmanya & 8232 Nagar, Pada No 4 · 1860 120 7777",,",digitallending@icicibank.com,x3eCustomer.care@icicibank.com,x3edigitallending@icicibank.com,Customer.care@icicibank.com,","19.0348532,72.7859928"
ICICI Bank ATM,Banks,Mumbai,"5XX6+XWR, Surya Darshan Bldg, Kamger Hospital, Thane West, opp. Urekan · 1860 120 7777",,",digitallending@icicibank.com,x3eCustomer.care@icicibank.com,x3edigitallending@icicibank.com,Customer.care@icicibank.com,","19.0348532,72.7859928"
Axis Bank ATM,Banks,Mumbai,"Thane, Maharashtra · 1860 500 5555",,",pno@axisbank.com,x3epno@axisbank.com,x22merchant.helpdesk@axisbank.com,merchant.helpdesk@axisbank.com,x3emerchant.helpdesk@axisbank.com,","19.0575742,72.7838946"
State Bank Of India ATM,Banks,Mumbai,"Jai Commercial Complex, Khopat Rd · 1800 11 2211",,",gm.customer@sbi.co.in,boi.customerservices@oberthur.com,Boi.neft@bankofindia.co.in,customercare@sbi.co.in,BOI.CallCentre@bankofindia.co.in,customercare@sbicard.com,x3eBoi.neft@bankofindia.co.in,Rtgs.boi@bankofindia.co.in,n@sbmbank.co.in,contactcentre@sbi.co.in,x3ecustomercare@sbicard.com,x3eBOI.CallCentre@bankofindia.co.in,x3eboi.customerservices@oberthur.com,x3eRtgs.boi@bankofindia.co.in,","19.0258458,72.793569"
ICICI Bank ATM,Banks,Mumbai,"15, Neelkanth Heights, Rameswar Tower, Between Pokhran 1 & 2 · 1860 120 7777",,",digitallending@icicibank.com,x3eCustomer.care@icicibank.com,x3edigitallending@icicibank.com,Customer.care@icicibank.com,","19.0348532,72.7859928"
Saraswat Bank ATM,Banks,Mumbai,"Ground Floor, Nitin Company, Nakshatra Tower, road, opp. Thane Municipal Corporation · 022 2534 8646",,"corporatecenter@saraswatbank.com,,x3ecustomerservicecentre@saraswatbank.com,customerservicecentre@saraswatbank.com,u2013customerservicecentre@saraswatbank.com,","19.0707134,72.7140439"
ICICI Bank Atm,Banks,Mumbai,"Chourishya Foot Wear,Road No-34,Nr Shiv Sena Shaka · 1860 120 7777",,",digitallending@icicibank.com,x3eCustomer.care@icicibank.com,x3edigitallending@icicibank.com,Customer.care@icicibank.com,","19.0348532,72.7956439"
Icici Bank ATM,Banks,Mumbai,"A-186, Rd Number 16 · 1860 120 7777",,",digitallending@icicibank.com,x3eCustomer.care@icicibank.com,x3edigitallending@icicibank.com,Customer.care@icicibank.com,","19.0348532,72.7859928"
ICICI Bank Bhiwandi,Banks,Mumbai,"ICICI Bank Ltd, Shop No.8, 9 10 B Wing, Dhamankar Naka, Bhiwandi Thane Dist, Thane, Maharashtra 421305",,",customer.care@icicibank.com,","19.2547632,72.9647805"
Tjsb bank atm.,Banks,Mumbai,"Kishan nagar no,2 Ful Gali pipeline, Rd Number 16",,",response@tjsb.co.in,tjsb.048@tjsb.co,","19.1263108,72.7563874"
State Bank e-Corner,Banks,Mumbai,"Shop No. 10, Green Road & Off Eastern Express Highway, Sun Magnetica, Louis Wadi, Thane West",,",Customercare@sbi.co.in,x3ehrms@sbi.co.in,customercare@sbi.co.in,sanjeevani.hr@sbi.co.in,x3esanjeevani.hr@sbi.co.in,hrms@sbi.co.in,n@sbmbank.co.in,contactcentre@sbi.co.in,","19.0732184,72.7187205"
Karnatka Bank ATM,Banks,Mumbai,"7/55, Pokharan Rd Number 1",,",mangalore.ro@ktkbank.com,info@ktkbank.com,u003eatmcell@ktkbank.com,atmcell@ktkbank.com,","19.1692851,72.9563627"
Punjab National Bank - Thane (East) Branch,Banks,Mumbai,"5XMF+587, Behind Bharat English School, Harishchandra Raut Marg, Kopri, Thane East, Thane, Maharashtra 400603",1800 180 2222,"corporatecare@pnb.com.ph,,cobangaloreeast@pnb.co.in,pnbcreditcards@pnb.com.ph,x3ecare@pnb.co.in,care@pnb.co.in,bo3303@pnb.co.in,board@pnb.co.in,bo090210@pnb.co.in,customercare@pnb.com.ph,","19.1829152,72.9630027"
CENTRAL BANK OF INDIA - THANE (EAST) Branch,Banks,Mumbai,,022 2532 6037,",x3edgmoper@centralbank.co.in,complaints@centralbank.co.in,debitcard@centralbank.co,dgmoper@centralbank.co.in,","19.1811713,72.9620882"
Bank of Maharashtra,Banks,Mumbai,Renuka Apartment Adarsh Colony · 1800 233 4526,,",boi.customerservices@oberthur.com,Boi.neft@bankofindia.co.in,u003ecmcustomerservice@mahabank.co.in,cmcustomerservice@mahabank.co.in,BOI.CallCentre@bankofindia.co.in,x3eBoi.neft@bankofindia.co.in,hocomplaints@mahabank.co.in,u003ehocomplaints@mahabank.co.in,Rtgs.boi@bankofindia.co.in,mahasecure@mahabank.co.in,x3eBOI.CallCentre@bankofindia.co.in,x3eboi.customerservices@oberthur.com,x3eRtgs.boi@bankofindia.co.in,","19.04742,72.7956656"
Thane Bharat Sahakari Bank-Thane East Branch,Banks,Mumbai,"5XMG+485, Opposite Karam Ground, Ashirwad Hospital, Nav Aashirvad, Near Daulat Nagar, Harishchandra Raut Marg, Kopri, Thane East, Thane, Maharashtra 400603",022 2532 3951,",main@tbsbl.com,","19.1827664,72.9655736"
CANARA BANK - THANE KOPRI COLONY,Banks,Mumbai,"S.O, 5 STAR BUILDING, GROUND FLOOR, Kopri Colony, Thane East, Thane, Maharashtra 400603",1800 425 0018,",cb0266@canarabank.com,","19.1848661,72.9642457"
The Saraswat Co-Operative Bank Limited Kopri Colony Branch,Banks,Mumbai,,022 2532 5016,"corporatecenter@saraswatbank.com,,x3ecustomerservicecentre@saraswatbank.com,customerservicecentre@saraswatbank.com,u2013customerservicecentre@saraswatbank.com,","19.1827102,72.9606058"
Bank of India,Banks,Mumbai,"5XJF+82W, Raut House, Lokmanya Tilak Road · 25320589",,",boimnz@vsnl.com,manasi.phene@bankofindia.co.in,x3eboi.starconnect@bankofindia.com,boi.starconnect@bankofindia.com,x3eboimnz@vsnl.com,BOI.CallCentre@bankofindia.co.in,x3eBOI.CallCentre@bankofindia.co.in,boi.callcentre@bankofindia.co.in,","19.0347133,72.7636844"
ICICI Bank Thane Kopri,Banks,Mumbai,"No. F, Sai Tirth Tower, ICICI Bank Ltd, Shop No.18 to 21, Ground Floor B wing Bldg, Sidharth Nagar, Kopri, Thane(E, Thane, Maharashtra 400603",,",customer.care@icicibank.com,x3ecustomer.care@icicibank.com,","19.1827416,72.9603666"
Union Bank of India,Banks,Mumbai,"5XMF+R45, Dr. Chaithram Gidwani Marg, Kopri Colony, Kishor Nagar, Thane East · 1800 22 2244",,",x3ecustomer.service@unionbankph.com,customerservice@www.unionbankng.com,boi.customerservices@oberthur.com,x3ecustomerservice@www.unionbankng.com,Boi.neft@bankofindia.co.in,BOI.CallCentre@bankofindia.co.in,customer.service@unionbankph.com,x3eBoi.neft@bankofindia.co.in,customercare@unionbankofindia.com,Rtgs.boi@bankofindia.co.in,cgo@unionbankofindia.com,x3eBOI.CallCentre@bankofindia.co.in,x3eboi.customerservices@oberthur.com,u003ecustomercare@unionbankofindia.com,x22customer.service@unionbankph.com,x3eRtgs.boi@bankofindia.co.in,","19.0808182,72.7046555"
SVC Bank,Banks,Mumbai,"Ground Floor, Sri Datta Sai Tower, Vijay Nagar, Hari Om Nagar Road, Thane East · 022 2532 4011",,",tradefinancemumbai@svcbank.com,x3ergicl.queries@svcbank.com,sharmack@svcbank.com,rgicl.queries@svcbank.com,tradefinanceou@svcbank.com,","19.0442655,72.7930382"
State Bank of India THANE.,Banks,Mumbai,"Sadguru Gardens, Marigold, Mithbunder Rd · 1800 425 3800",,",gm.customer@sbi.co.in,x3eBoi.neft@bankofindia.co.in,Rtgs.boi@bankofindia.co.in,Boi.neft@bankofindia.co.in,sbi.00489@sbi.co,J.Smith@sbi.co.in,John.Smith@sbi.co.in,Smith.John@sbi.co.in,customercare@sbi.co.in,x3eJohn.Smith@sbi.co.in,JSmith@statebankofindia.com,x3eBOI.CallCentre@bankofindia.co.in,sbi.00489@sbi.co.in,Smith@sbi.co.in,x3eRtgs.boi@bankofindia.co.in,cppc.mumbai@sbi.co.in,agmcustomer.lhomah@sbi.co.in,BOI.CallCentre@bankofindia.co.in,x3esanjeevani.hr@sbi.co.in,boi.customerservices@oberthur.com,sanjeevani.hr@sbi.co.in,x3eboi.customerservices@oberthur.com,","19.2241327,72.9263338"
The Thane District Central Co-Operative Bank Ltd,Banks,Mumbai,"5XMC+479, Siddharth Nagar, Bara Bungalow Rd · 022 2532 0527",,",John@thanedistrictbank.com,enquiry@thanedistrictbank.com,x3errshinde@mumbaidistrictbank.com,rrshinde@mumbaidistrictbank.com,","19.2094939,72.7781989"
The Navjeevan Bank,Banks,Mumbai,,022 2532 3675,",rrshinde@mumbaidistrictbank.com,x3errshinde@mumbaidistrictbank.com,navjeevanbank@njcb.in,","19.1829244,72.9632187"
Axis Bank Branch,Banks,Mumbai,"Ground Floor, Geeta Construction Company Anand Cinema, Station Rd · 1860 500 5555",,",merchant.helpdesk@axisbank.com,x3emerchant.helpdesk@axisbank.com,x3enodal.officer@axisbank.com,nodal.officer@axisbank.com,","19.0439404,72.7715841"
Bank of Baroda,Banks,Mumbai,"Ratan House, Ganesh Purushottam Pai Rd · 1800 258 4455",,"cs.ho@bankofbaroda.com,,x3ezm.mgz@bankofbaroda.com,ngm.ops.ho@bankofbaroda.com,x3ehocomplaints@mahabank.co.in,zm.rajkot@bankofbaroda.com,x3ebarodaconnect@bankofbaroda.com,barodaconnect@bankofbaroda.com,x3ezm.bojz@bankofbaroda.com,x22barodaconnect@bankofbaroda.com,x3egm.ops.ho@bankofbaroda.com,zm.bojz@bankofbaroda.com,zm.mgz@bankofbaroda.com,hocomplaints@mahabank.co.in,x3ecmcustomerservice@mahabank.co.in,cmcustomerservice@mahabank.co.in,x3ezm.rajkot@bankofbaroda.com,gm.ops.ho@bankofbaroda.com,rm.tirupati@bankofbaroda.co.in,","19.0821357,72.6808679"
Bank Of India - Kopri Colony Branch,Banks,Mumbai,,1800 22 0229,"Kopricolony.NaviMumbai@bankofindia.co.in,,headoffice.csd@bankofindia.co.in,","19.1826952,72.9668704"
"TJSB Bank, Thane East Branch",Banks,Mumbai,"Bhivra Bhavan, Tilak Nagar, Thane East, Maharashtra 400603",022 2532 4330,"tjsb.071@tjsb.co.in,,","19.1827418,72.9668669"
Axis Bank ATM,Banks,Mumbai,"Shop No 1, Building No 25, near Thane · 1860 500 5555",,",pno@axisbank.com,x3epno@axisbank.com,x22merchant.helpdesk@axisbank.com,merchant.helpdesk@axisbank.com,x3emerchant.helpdesk@axisbank.com,","19.0575742,72.7838946"
Axis Bank ATM,Banks,Mumbai,"Shop No 2, Ground Floor, Narain Niwas, Railway Station, opposite Thane · 1860 419 5555",,",pno@axisbank.com,x3epno@axisbank.com,x22merchant.helpdesk@axisbank.com,merchant.helpdesk@axisbank.com,x3emerchant.helpdesk@axisbank.com,","19.0575742,72.7838946"
Kotak Mahindra Bank,Banks,Mumbai,"Anand Theatre Compound, Station Rd · 1860 266 0811",,",x3eservice.cards@kotak.com,x3ecare@kotak.com,x3eitsecurity.bank@kotak.com,x3eservice.securities@kotak.com,service.cards@kotak.com,x3eKprime.service@kotak.com,care@kotak.com,x3ejane.doe@kotak.com,itsecurity.bank@kotak.com,jane.doe@kotak.com,service.securities@kotak.com,Kprime.service@kotak.com,","19.0777825,72.711864"
Axis Bank ATM,Banks,Mumbai,"Ground floor, Geeta Construction Company Anand Cinema, Station Rd · 1860 500 5555",,",pno@axisbank.com,x3epno@axisbank.com,x22merchant.helpdesk@axisbank.com,merchant.helpdesk@axisbank.com,x3emerchant.helpdesk@axisbank.com,","19.0663137,72.720172"
ICICI BANK ATM,Banks,Mumbai,"Shop No. - 1, Room No. - 218, Anand Nagar, Kopri Bridge, near Kamgar Kalyan Kendra · 1800 1080",,",digitallending@icicibank.com,x3eCustomer.care@icicibank.com,x3edigitallending@icicibank.com,Customer.care@icicibank.com,","19.0348532,72.7956439"
Axis Bank ATM,Banks,Mumbai,"Shop No 3, Chendani Koliwada · 1860 500 5555",,",pno@axisbank.com,x3epno@axisbank.com,x22merchant.helpdesk@axisbank.com,merchant.helpdesk@axisbank.com,x3emerchant.helpdesk@axisbank.com,","19.0575742,72.7838946"
YES Bank,Banks,Mumbai,"Shop No7, 8, 9, Gautam Chs, Harishchandra Raut Marg",,",yestouch@yesbank.in,BOI.CallCentre@bankofindia.co.in,x3eBOI.CallCentre@bankofindia.co.in,yesfirst@yesbank.in,","19.0772908,72.7773858"
Thane Janata Sarkari Bank,Banks,Mumbai,"1, Lokmanya Tilak Path · 022 2583 8538",,"careers@tjsb.co.in,response@tjsb.co.in,jsbho@janatabankpune.com,,","19.182056,72.9741031"
Punjab National Bank - Thane (East) Branch,Banks,Mumbai,"5XMF+587, Behind Bharat English School, Harishchandra Raut Marg, Kopri, Thane East, Thane, Maharashtra 400603",1800 180 2222,"corporatecare@pnb.com.ph,,cobangaloreeast@pnb.co.in,pnbcreditcards@pnb.com.ph,x3ecare@pnb.co.in,care@pnb.co.in,bo3303@pnb.co.in,board@pnb.co.in,bo090210@pnb.co.in,customercare@pnb.com.ph,","19.1829152,72.9630027"
CENTRAL BANK OF INDIA - THANE (EAST) Branch,Banks,Mumbai,"SARVA SEWA SAMITI TRUST SHIVLEELA HOUSE, Kopri Colony, Thane, Maharashtra 400603",022 2532 6037,",x3edgmoper@centralbank.co.in,complaints@centralbank.co.in,debitcard@centralbank.co,dgmoper@centralbank.co.in,","19.1811713,72.9620882"
Bank of Maharashtra,Banks,Mumbai,Renuka Apartment Adarsh Colony · 1800 233 4526,,",boi.customerservices@oberthur.com,Boi.neft@bankofindia.co.in,u003ecmcustomerservice@mahabank.co.in,cmcustomerservice@mahabank.co.in,BOI.CallCentre@bankofindia.co.in,x3eBoi.neft@bankofindia.co.in,hocomplaints@mahabank.co.in,u003ehocomplaints@mahabank.co.in,Rtgs.boi@bankofindia.co.in,mahasecure@mahabank.co.in,x3eBOI.CallCentre@bankofindia.co.in,x3eboi.customerservices@oberthur.com,x3eRtgs.boi@bankofindia.co.in,","19.04742,72.7956656"
Thane Bharat Sahakari Bank-Thane East Branch,Banks,Mumbai,"5XMG+485, Opposite Karam Ground, Ashirwad Hospital, Nav Aashirvad, Near Daulat Nagar, Harishchandra Raut Marg, Kopri, Thane East, Thane, Maharashtra 400603",022 2532 3951,",main@tbsbl.com,","19.1827664,72.9655736"
CANARA BANK - THANE KOPRI COLONY,Banks,Mumbai,"S.O, 5 STAR BUILDING, GROUND FLOOR, Kopri Colony, Thane East, Thane, Maharashtra 400603",1800 425 0018,",cb0266@canarabank.com,","19.1848661,72.9642457"
The Saraswat Co-Operative Bank Limited Kopri Colony Branch,Banks,Mumbai,,022 2532 5016,"corporatecenter@saraswatbank.com,,x3ecustomerservicecentre@saraswatbank.com,customerservicecentre@saraswatbank.com,u2013customerservicecentre@saraswatbank.com,","19.1827102,72.9606058"
Bank of India,Banks,Mumbai,"5XJF+82W, Raut House, Lokmanya Tilak Road · 25320589",,",boimnz@vsnl.com,manasi.phene@bankofindia.co.in,x3eboi.starconnect@bankofindia.com,boi.starconnect@bankofindia.com,x3eboimnz@vsnl.com,BOI.CallCentre@bankofindia.co.in,x3eBOI.CallCentre@bankofindia.co.in,boi.callcentre@bankofindia.co.in,","19.0347133,72.769618"
ICICI Bank Thane Kopri,Banks,Mumbai,"No. F, Sai Tirth Tower, ICICI Bank Ltd, Shop No.18 to 21, Ground Floor B wing Bldg, Sidharth Nagar, Kopri, Thane(E, Thane, Maharashtra 400603",,",customer.care@icicibank.com,x3ecustomer.care@icicibank.com,","19.1827416,72.9603666"
Union Bank of India,Banks,Mumbai,"5XMF+R45, Dr. Chaithram Gidwani Marg, Kopri Colony, Kishor Nagar, Thane East · 1800 22 2244",,",x3ecustomer.service@unionbankph.com,customerservice@www.unionbankng.com,boi.customerservices@oberthur.com,x3ecustomerservice@www.unionbankng.com,Boi.neft@bankofindia.co.in,BOI.CallCentre@bankofindia.co.in,customer.service@unionbankph.com,x3eBoi.neft@bankofindia.co.in,customercare@unionbankofindia.com,Rtgs.boi@bankofindia.co.in,cgo@unionbankofindia.com,x3eBOI.CallCentre@bankofindia.co.in,x3eboi.customerservices@oberthur.com,u003ecustomercare@unionbankofindia.com,x22customer.service@unionbankph.com,x3eRtgs.boi@bankofindia.co.in,","19.0808182,72.7046555"
SVC Bank,Banks,Mumbai,"Ground Floor, Sri Datta Sai Tower, Vijay Nagar, Hari Om Nagar Road, Thane East · 022 2532 4011",,",tradefinancemumbai@svcbank.com,x3ergicl.queries@svcbank.com,sharmack@svcbank.com,rgicl.queries@svcbank.com,tradefinanceou@svcbank.com,","19.0442655,72.7930382"
State Bank of India THANE.,Banks,Mumbai,"Sadguru Gardens, Marigold, Mithbunder Rd · 1800 425 3800",,",gm.customer@sbi.co.in,x3eBoi.neft@bankofindia.co.in,Rtgs.boi@bankofindia.co.in,Boi.neft@bankofindia.co.in,sbi.00489@sbi.co,J.Smith@sbi.co.in,John.Smith@sbi.co.in,Smith.John@sbi.co.in,customercare@sbi.co.in,x3eJohn.Smith@sbi.co.in,JSmith@statebankofindia.com,x3eBOI.CallCentre@bankofindia.co.in,sbi.00489@sbi.co.in,Smith@sbi.co.in,x3eRtgs.boi@bankofindia.co.in,cppc.mumbai@sbi.co.in,agmcustomer.lhomah@sbi.co.in,BOI.CallCentre@bankofindia.co.in,x3esanjeevani.hr@sbi.co.in,boi.customerservices@oberthur.com,sanjeevani.hr@sbi.co.in,x3eboi.customerservices@oberthur.com,","19.2241327,72.9263338"
The Thane District Central Co-Operative Bank Ltd,Banks,Mumbai,"5XMC+479, Siddharth Nagar, Bara Bungalow Rd · 022 2532 0527",,",John@thanedistrictbank.com,enquiry@thanedistrictbank.com,x3errshinde@mumbaidistrictbank.com,rrshinde@mumbaidistrictbank.com,","19.2094939,72.7781989"
The Navjeevan Bank,Banks,Mumbai,,022 2532 3675,",rrshinde@mumbaidistrictbank.com,x3errshinde@mumbaidistrictbank.com,navjeevanbank@njcb.in,","19.1829244,72.9632187"
Axis Bank Branch,Banks,Mumbai,"Ground Floor, Geeta Construction Company Anand Cinema, Station Rd · 1860 500 5555",,",merchant.helpdesk@axisbank.com,x3emerchant.helpdesk@axisbank.com,x3enodal.officer@axisbank.com,nodal.officer@axisbank.com,","19.0439404,72.7708467"
Bank of Baroda,Banks,Mumbai,"Ratan House, Ganesh Purushottam Pai Rd · 1800 258 4455",,"cs.ho@bankofbaroda.com,,x3ezm.mgz@bankofbaroda.com,ngm.ops.ho@bankofbaroda.com,x3ehocomplaints@mahabank.co.in,zm.rajkot@bankofbaroda.com,x3ebarodaconnect@bankofbaroda.com,barodaconnect@bankofbaroda.com,x3ezm.bojz@bankofbaroda.com,x22barodaconnect@bankofbaroda.com,x3egm.ops.ho@bankofbaroda.com,zm.bojz@bankofbaroda.com,zm.mgz@bankofbaroda.com,hocomplaints@mahabank.co.in,x3ecmcustomerservice@mahabank.co.in,cmcustomerservice@mahabank.co.in,x3ezm.rajkot@bankofbaroda.com,gm.ops.ho@bankofbaroda.com,rm.tirupati@bankofbaroda.co.in,","19.0821357,72.6808679"
Bank Of India - Kopri Colony Branch,Banks,Mumbai,,1800 22 0229,"Kopricolony.NaviMumbai@bankofindia.co.in,,headoffice.csd@bankofindia.co.in,","19.1826952,72.9668704"
"TJSB Bank, Thane East Branch",Banks,Mumbai,"Bhivra Bhavan, Tilak Nagar, Thane East, Maharashtra 400603",022 2532 4330,"tjsb.071@tjsb.co.in,,","19.1827418,72.9668669"
Axis Bank ATM,Banks,Mumbai,"Shop No 1, Building No 25, near Thane · 1860 500 5555",,",pno@axisbank.com,x3epno@axisbank.com,x22merchant.helpdesk@axisbank.com,merchant.helpdesk@axisbank.com,x3emerchant.helpdesk@axisbank.com,","19.0694613,72.8025809"
Axis Bank ATM,Banks,Mumbai,"Shop No 2, Ground Floor, Narain Niwas, Railway Station, opposite Thane · 1860 419 5555",,",pno@axisbank.com,x3epno@axisbank.com,x22merchant.helpdesk@axisbank.com,merchant.helpdesk@axisbank.com,x3emerchant.helpdesk@axisbank.com,","19.0694613,72.8025809"
Bank Of India,Banks,Mumbai, Fountain,,",boimnz@vsnl.com,manasi.phene@bankofindia.co.in,x3eboi.starconnect@bankofindia.com,boi.starconnect@bankofindia.com,x3eboimnz@vsnl.com,BOI.CallCentre@bankofindia.co.in,x3eBOI.CallCentre@bankofindia.co.in,boi.callcentre@bankofindia.co.in,","19.0347133,72.7636844"
Bank Of India,Banks,Mumbai, Fort,,",boimnz@vsnl.com,manasi.phene@bankofindia.co.in,x3eboi.starconnect@bankofindia.com,boi.starconnect@bankofindia.com,x3eboimnz@vsnl.com,BOI.CallCentre@bankofindia.co.in,x3eBOI.CallCentre@bankofindia.co.in,boi.callcentre@bankofindia.co.in,","19.0347133,72.769618"
Bank Of INDIA,Banks,Mumbai,Post Box No 1618 Fort,,",boimnz@vsnl.com,manasi.phene@bankofindia.co.in,x3eboi.starconnect@bankofindia.com,boi.starconnect@bankofindia.com,x3eboimnz@vsnl.com,BOI.CallCentre@bankofindia.co.in,x3eBOI.CallCentre@bankofindia.co.in,boi.callcentre@bankofindia.co.in,","19.0347133,72.769618"
Bank Of INDIA,Banks,Mumbai,Near Colaba Causeway Apollo Bunder,,",boimnz@vsnl.com,manasi.phene@bankofindia.co.in,x3eboi.starconnect@bankofindia.com,boi.starconnect@bankofindia.com,x3eboimnz@vsnl.com,BOI.CallCentre@bankofindia.co.in,x3eBOI.CallCentre@bankofindia.co.in,boi.callcentre@bankofindia.co.in,","19.0347133,72.769618"
Bank Of India (NRI Branch),Banks,Mumbai,Near Mumbai Fort,,",x3eboi.starconnect@bankofindia.com,boi.starconnect@bankofindia.com,ErnakulamNRI.Kerala@bankofindia.co.in,callcentre@bankofindia.co.in,","19.0112121,72.7486694"
IDFC First Bank,Banks,Mumbai,Next Solitaire Corporate Park Opposite Holy Family School Andheri East,,",nodaldesk@idfcfirstbank.com,x3enriservices@idfcfirstbank.com,RNO.Mumbai@idfcfirstbank.com,firstcontactcomplaints@firstbanknigeria.com,x3enodaldesk@idfcfirstbank.com,nriservices@idfcfirstbank.com,x3efirstcontactcomplaints@firstbanknigeria.com,","19.0882275,72.7103437"
HDFC Bank (Central Processing Unit),Banks,Mumbai,Off Saki Vihar Road Sakinaka,,",complaint.ibugiftcity@hdfcbank.com,","19.0444391,72.7929425"
HDFC Bank (Corporate Office),Banks,Mumbai,"169, HT Parekh Marg, Churchgate, Mumbai, Maharashtra 400020",,",complaint.ibugiftcity@hdfcbank.com,shareholder.grievances@hdfcbank.com,","18.9295605,72.8159811"
Reserve Bank Of India (Regional Office),Banks,Mumbai,Opposite New Central Office Building Kala Ghoda Fort,,",.in__rdlucknow@rbi.org,u003erdmumbai@rbi.org.in,cms.bochandigarh@rbi.org.in,rdkanpur@rbi.org.in,x3ecrpc@rbi.org.in,rdlucknow@rbi.org.in,rdmumbai@rbi.org.in,crpc@rbi.org.in,Email_rdkanpur@rbi.org,cgmfmod@rbi.org.in,","18.9990687,72.7695954"
Reserve Bank Of India,Banks,Mumbai, Fort,,".in_casrbi@nagpur.dot.net.in,,rdmumbai@rbi.org.in,u003erdmumbai@rbi.org.in,idpmssupport@rbi.org.in,fedcotrade@rbi.org.in,rdnagpur@rbi.org.in,x3eidpmssupport@rbi.org.in,dicgc@bom.5.vsnl.net.in,Cms.bonewdelhi3@rbi.org.in,cms.bochandigarh@rbi.org.in,casrbi@nagpur.dot.net.in,x3ecrpc@rbi.org.in,edpmssupportngp@rbi.org.in,u003e_dicgc@bom.5.vsnl.net,crpc@rbi.org.in,.in_rdnagpur@rbi.org,","18.9990687,72.7695954"
NKGSB Co-op Bank Ltd (Thane Naupada Branch),Banks,Mumbai,"Raunak Arcade, 7/8, Ghantali Devi Rd, Naupada, Thane West, Thane, Maharashtra 400602",022 2537 0920,"laxmikantdesai@nkgsb-bank.com,,","19.1872496,72.9670238"
Thane Bharat Sahakari Bank Limited,Banks,Mumbai,"5XRC+6QQ, Sahayog Mandir Path · 022 2542 9432",,",main@tbsbl.com,complaint@tbsbl.com,rtgs.tbsb@thanebharatbank.net,","19.1154427,72.7510537"
CANARA BANK - THANE NAUPADA,Banks,Mumbai,"41A GOKHALE ROAD, NAUPADA NAUPADA S.O, Thane, Maharashtra 400602",1800 425 0018,",hocancard@canarabank.com,cb0228@canarabank.com,","19.1879669,72.9708032"
Thane Bharat Sahakari Bank Limited,Banks,Mumbai,"Western India Steel Industries Compound, Pokharan Rd Number 2, opp. Oswal Park · 022 2173 6262",,",main@tbsbl.com,complaint@tbsbl.com,rtgs.tbsb@thanebharatbank.net,","19.1154427,72.7510537"
"Bharat Co-operative Bank (Mumbai) LTD, Thane Branch",Banks,Mumbai,"Panama Planet, Gokhale Road, Naupada, opp. Hotel Amruta, Thane, Maharashtra 400602",022 2537 6552,",NodalOfficer@bharatbank.co.in,x3ebhandup@bharatbank.co.in,bhandup@bharatbank.co.in,kalyan.west@bharatbank.co.in,mbank@bharatbank.co.in,x3embank@bharatbank.co.in,","19.1880898,72.9705982"
Bank of India - Thane Corporate Banking Branch,Banks,Mumbai,"G-5, GR.FL, AKRUTI SMC, OFF LBS MARG, KHOPAT JUNCTION, THANE (WEST), Thane, Maharashtra 400601",1800 22 0229,",thane.raigadthane@bankofindia.co,ThaneMCB.RaigadThane@bankofindia.co.in,hooper@bankofindia.co.in,Thane.Navimumbai@bankofindia.co.india.co.in,","19.1906949,72.9738853"
"Thane Bharat Sahakari bank, Rutu Park Branch",Banks,Mumbai,"D-2, Eastern Express Hwy, Rutu Park, Panchsheel Nagar, Thane West, Thane, Maharashtra 400601",022 2544 2363,",response@tjsb.co.in,main@tbsbl.com,","19.2101218,72.9795074"
"NKGSB Co-operative Bank Limited- Vartak Nagar,Thane West Branch",Banks,Mumbai,"Shop No.S2, 23,24,25, Vedant Commercial Complex, Madrecha Rd, Tulsi Dham, Vartak Nagar, Thane West, Thane, Maharashtra 400606",022 2585 3349,,"19.2086069,72.9575862"
Karnataka Bank - Thane Branch & ATM,Banks,Mumbai,"Shop No.12, VIHANG GARDEN, Pokharan Rd Number 1, opp. raymonds, Tulsi Dham, Vartak Nagar, Thane West, Mumbai, Thane, Maharashtra 400606",1800 425 1444,,"19.2084569,72.9607818"
Thane Bharat Sahakari Bank Limited - Chandanwadi Branch,Banks,Mumbai,"5XXC+PM7, Mahesh Darshan, Near Makhmali Talao, Old Mumbai, Agra Road, Ganeshwadi, Thane West, Thane, Maharashtra 400601",022 2533 5237,",main@tbsbl.com,","19.1992978,72.9691098"
Punjab National Bank - Thane West Branch,Banks,Mumbai,"5XQ8+3WP, Satyam Apartment Mahatma Gandhi Rd Near Malhar Cinema · 1800 180 2222",,"corporatecare@pnb.com.ph,,cobangalorewest@pnb.co.in,pnbcreditcards@pnb.com.ph,bo3739@pnb.co.in,care@pnb.co,bo1144@pnb.co.in,x3ecare@pnb.co.in,care@pnb.co.in,bo090210@pnb.co.in,customercare@pnb.com.ph,bo2176@pnb.co.in,","19.1982202,72.9456491"
The Thane District Central co-op Bank R M Road Branch,Banks,Mumbai,"x 2, Ram Maruti Rd, Naupada, Thane West, Thane, Maharashtra 400602",,",enquiry@thanedistrictbank.com,rrshinde@mumbaidistrictbank.com,x3errshinde@mumbaidistrictbank.com,","19.1892299,72.9692921"
ICICI BANK LTD,Banks,Mumbai,"ATM ID-S1CPS152,Icici Bank Atm Rajdeep Society, Gokhale Rd, near Malhar Cinema, opp. Hutch Gallery · 1860 120 7777",,",digitallending@icicibank.com,x3edigitallending@icicibank.com,IR@icicibank.com,x3enpshelpdesk@icicisecurities.com,x3ecustomer.care@icicibank.com,npshelpdesk@icicisecurities.com,managingdirector@icicibank.com,customer.care@icicibank.com,","19.0371365,72.7836278"
Thane Bharat Sahakari Bank LTD,Banks,Mumbai,"6XFV+2F9, Subh Vihar, opp to, Dadlani Rd",,",main@tbsbl.com,rtgs.tbsb@thanebharatbank.net,","19.1189072,72.7510537"
State Bank Of India,Banks,Mumbai,"425, Gokhale Rd · 1800 11 2211",,",gm.customer@sbi.co.in,x3eBoi.neft@bankofindia.co.in,inb.cinb@sbi.co.in,Rtgs.boi@bankofindia.co.in,Boi.neft@bankofindia.co.in,J.Smith@sbi.co.in,John.Smith@sbi.co.in,Smith.John@sbi.co.in,customercare@sbi.co.in,x3eJohn.Smith@sbi.co.in,JSmith@statebankofindia.com,x3eBOI.CallCentre@bankofindia.co.in,Smith@sbi.co.in,x3eRtgs.boi@bankofindia.co.in,cppc.mumbai@sbi.co.in,agmcustomer.lhomah@sbi.co.in,BOI.CallCentre@bankofindia.co.in,x3esanjeevani.hr@sbi.co.in,csdmumbai@sbmbank.co.in,boi.customerservices@oberthur.com,sanjeevani.hr@sbi.co.in,x3eboi.customerservices@oberthur.com,","19.0630146,72.6884409"
CENTRAL BANK OF INDIA - THANE (EAST) Branch,Banks,Mumbai,"SARVA SEWA SAMITI TRUST SHIVLEELA HOUSE, Kopri Colony, Thane, Maharashtra 400603",022 2532 6037,",x3edgmoper@centralbank.co.in,complaints@centralbank.co.in,debitcard@centralbank.co,dgmoper@centralbank.co.in,","19.1811716,72.9698131"
Bank of Maharashtra,Banks,Mumbai,"Building No 22, Wing A & B Brinda, No 1 & 2 · 1800 233 4526",,",boi.customerservices@oberthur.com,Boi.neft@bankofindia.co.in,u003ecmcustomerservice@mahabank.co.in,cmcustomerservice@mahabank.co.in,BOI.CallCentre@bankofindia.co.in,x3eBoi.neft@bankofindia.co.in,hocomplaints@mahabank.co.in,u003ehocomplaints@mahabank.co.in,Rtgs.boi@bankofindia.co.in,mahasecure@mahabank.co.in,x3eBOI.CallCentre@bankofindia.co.in,x3eboi.customerservices@oberthur.com,x3eRtgs.boi@bankofindia.co.in,","19.04742,72.7956656"
ICICI BANK LTD,Banks,Mumbai,"ATM ID-S1CNC192,Icici Bank Atm, Shop No .3 Ganga pachvati CHS, bldg no.12 A, vrindavan, near bus depot · 1860 120 7777",,",digitallending@icicibank.com,x3edigitallending@icicibank.com,IR@icicibank.com,x3enpshelpdesk@icicisecurities.com,x3ecustomer.care@icicibank.com,npshelpdesk@icicisecurities.com,managingdirector@icicibank.com,customer.care@icicibank.com,","19.0371365,72.7836278"
Citizens Co-operative Bank Ltd,Banks,Mumbai,"3/4, Laxmi Palace, M. G. Road, Naupada Thane · 022 2538 1273",,",Ccbl@citizencreditbank.com,info@citizensbankrajkot.co.in,citizen.bank@rediffmail.com,","19.0993257,72.747048"
Bank of Maharashtra,Banks,Mumbai,"GF, Thane Municipal Corporation Building Panchpakhadi · 1800 233 4526",,",boi.customerservices@oberthur.com,Boi.neft@bankofindia.co.in,u003ecmcustomerservice@mahabank.co.in,cmcustomerservice@mahabank.co.in,BOI.CallCentre@bankofindia.co.in,x3eBoi.neft@bankofindia.co.in,hocomplaints@mahabank.co.in,u003ehocomplaints@mahabank.co.in,Rtgs.boi@bankofindia.co.in,mahasecure@mahabank.co.in,x3eBOI.CallCentre@bankofindia.co.in,x3eboi.customerservices@oberthur.com,x3eRtgs.boi@bankofindia.co.in,","19.04742,72.7956656"
Axis Bank ATM,Banks,Mumbai,"High Street Mall Bhiwandi Road, Junction, near Big Bazar · 1860 419 5555",,",pno@axisbank.com,x3epno@axisbank.com,x22merchant.helpdesk@axisbank.com,merchant.helpdesk@axisbank.com,x3emerchant.helpdesk@axisbank.com,","19.0575742,72.7838946"
Axis Bank Branch,Banks,Mumbai,"Shop No 2, Ground Floor, Sheth Avalon, G Wing, near Viviana Mall · 1860 500 5555",,",merchant.helpdesk@axisbank.com,x3emerchant.helpdesk@axisbank.com,x3enodal.officer@axisbank.com,nodal.officer@axisbank.com,","19.0439404,72.7708467"
Axis Bank Branch,Banks,Mumbai,"Shop No 13 to 18, GF, Rajdeep Galleria Ponda Madgaon Road, Ponda · 1860 500 5555",,",merchant.helpdesk@axisbank.com,x3emerchant.helpdesk@axisbank.com,x3enodal.officer@axisbank.com,nodal.officer@axisbank.com,","19.0439404,72.7708467"
"ICICI Bank Gokhale Road, Thane-Branch & ATM",Banks,Mumbai,"Gokhale Road, Pathare Building, Naupada, near Gaondevi Mandir, Thane, Maharashtra 400602",1860 120 6699,,"19.1906065,72.9682527"
"TJSB Bank, Khopat Branch",Banks,Mumbai,"Golden Heavens Apartment Near Pratap Talkies Khopat, Pokharan Rd Number 1",,",tjsb.053@tjsb.co,","19.2081446,72.9557047"
MAHARASHTRA GRAMIN BANK REGIONAL OFFICE RO,Banks,Mumbai,"3rd FLOOR MTNL EXCHANGE CHARAI OPP GANESH TALKIES, Charai, Thane West, 400601",,",chairman@mahagramin.co.in,hocomplaints@mahabank.co.in,x3ehocomplaints@mahabank.co.in,gmit@mahagramin.co.in,cmcustomerservice@mahabank.co.in,","19.1989546,72.9718066"
Citizen Credit Co-operative Bank,Banks,Mumbai,"Shop No.2 & 3, Angels’ Paradise, Veer Savarkar Marg, near Dagadi Shala · 022 2542 5447",,",ccbl@citizencreditbank.com,","19.0795656,72.6986274"
Suryoday Small Finance Bank,Banks,Mumbai,"Ground Floor, Flower Valley Complex, Eastern Express Hwy, opposite to Viviana Mall · 1800 266 7711",,",cs@suryodaybank.com,x3ecs@suryodaybank.com,geeta.krishnan@suryodaybank.com,x3ecustomercare@aubank.in,smile@suryodaybank.com,customercare@aubank.in,","19.1219746,72.768189"
"TJSB Bank, Ram Maruti Road Branch",Banks,Mumbai,"Building, Ground Floor, People Education Society, Ram Maruti Rd · 022 2174 8517",,",tjsb.053@tjsb.co,","19.1913775,72.9701978"
G P Parsik Bank,Banks,Mumbai,"GB-149, Ground Floor, Highland Corporate Center, Near Big Bazar, Majiwade · 022 2542 0359",,",helpdesk@gpparsikbank.net,","19.1548493,72.7690957"
State Bank of India PBB VASANT VIHAR THANE,Banks,Mumbai,"CHESTNUT PLAZA, Gladys Alwares Rd, opp. Eden Woods Road, Thane, Maharashtra 400616",022 2589 3426,",contactcentre@sbi.co.in,sbi.04314@sbi.co.in,sbi.04314@sbi.co,","19.231431,72.9673171"
Axis Bank ATM,Banks,Mumbai,Survey No 166/1 A Pt · 1860 500 5555,,",pno@axisbank.com,x3epno@axisbank.com,x22merchant.helpdesk@axisbank.com,merchant.helpdesk@axisbank.com,x3emerchant.helpdesk@axisbank.com,","19.0575742,72.7838946"
Union Bank Of India,Banks,Mumbai,"1st Floor, Dhanalaxmi, Estate, Navneet Motors, Gokulnagar, Thane West, Kapur Bawdi · 022 2172 1746",,",x3ecustomer.service@unionbankph.com,customerservice@www.unionbankng.com,dgro@unionbankofindia.bank,boi.customerservices@oberthur.com,x3ecustomerservice@www.unionbankng.com,Boi.neft@bankofindia.co.in,BOI.CallCentre@bankofindia.co.in,customer.service@unionbankph.com,x3eBoi.neft@bankofindia.co.in,customercare@unionbankofindia.com,Rtgs.boi@bankofindia.co.in,cgo@unionbankofindia.com,x3eBOI.CallCentre@bankofindia.co.in,x3eboi.customerservices@oberthur.com,u003ecustomercare@unionbankofindia.com,x22customer.service@unionbankph.com,x3eRtgs.boi@bankofindia.co.in,","19.0808182,72.7046555"
G.P. Parsik Bank,Banks,Mumbai,"Green Rd, Opp Anurag Apartment · 022 2545 6500",,",helpdesk@gpparsikbank.net,","19.1548493,72.7690957"
Axis Bank ATM,Banks,Mumbai,"Shop No 2 to 4, Bhiwadiwala Building, near Thane Court · 1860 500 5555",,",pno@axisbank.com,x3epno@axisbank.com,x22merchant.helpdesk@axisbank.com,merchant.helpdesk@axisbank.com,x3emerchant.helpdesk@axisbank.com,","19.0575742,72.7838946"
Axis Bank ATM,Banks,Mumbai,"George Mansion, Lal Bahadur Shastri Marg · 1860 500 5555",,",pno@axisbank.com,x3epno@axisbank.com,x22merchant.helpdesk@axisbank.com,merchant.helpdesk@axisbank.com,x3emerchant.helpdesk@axisbank.com,","19.0694613,72.8025809"
The Thane District Central Co-Operative Bank Ltd,Banks,Mumbai,"5XMC+479, Siddharth Nagar, Bara Bungalow Rd · 022 2532 0527",,",John@thanedistrictbank.com,enquiry@thanedistrictbank.com,x3errshinde@mumbaidistrictbank.com,rrshinde@mumbaidistrictbank.com,","19.2094939,72.7781989"
Kotak Mahindra Bank,Banks,Mumbai,"Unit No. 2, Unique Building, Ground and Mezzanine Floor, Hiranandani Estate Rd, opp. TMC Commissioner Bungalow · 1860 266 2666",,",x3eservice.cards@kotak.com,x3ecare@kotak.com,x3eitsecurity.bank@kotak.com,x3eservice.securities@kotak.com,service.cards@kotak.com,x3eKprime.service@kotak.com,care@kotak.com,x3ejane.doe@kotak.com,itsecurity.bank@kotak.com,jane.doe@kotak.com,service.securities@kotak.com,Kprime.service@kotak.com,","19.0777825,72.711864"
TJSB Sahakari Bank Limited - Patlipada,Banks,Mumbai,"6XXH+57H, G.B. Road, Hiranandini Road · 1800 22 3466",,",response@tjsb.co.in,","19.2479798,72.9763324"
SyndicateBank Thane Gokhale Road (Shivajipet) Branch,Banks,Mumbai,"Saro - Darshan Towers, Nr.M.H.Highschool, Shivaji Path, Thane, Maharashtra 400601",099690 02764,",br.5474@syndicatebank.co.in,nrd@syndicatebank.co.in,","19.204372,72.9754001"
The Thane District Co-Operative Bank,Banks,Mumbai,"7VCH+99F, Abid Patel House, Near Amar Palace Hotel, Near A.P. International School, Miragaon National Highway, Miragaon Rd · 022 2845 7707",,",John@thanedistrictbank.com,enquiry@thanedistrictbank.com,response@tjsb.co.in,sn.kadlag@mumbaidistrictbank.com,x3errshinde@mumbaidistrictbank.com,rrshinde@mumbaidistrictbank.com,ctrdccb@gmail.com,","19.2094939,72.7781989"
Parsik Bank Kalwa Naka,Banks,Mumbai,"1, Thane - Belapur Rd, Shastri Nagar, Budhaji Nagar, Kalwa, Thane, Maharashtra 400605",,",helpdesk@gpparsikbank.net,","19.1964544,72.9853002"
IDFC FIRST Bank ATM,Banks,Mumbai,"SN 5A, Bldg No 1 & 10, Maithili Pride MHBCol, Vartak Ngr, Pokhran Rd, 1, JK Gramm, near HP Gas Godown · 1800 10888",,",nodaldesk@idfcfirstbank.com,x3enriservices@idfcfirstbank.com,x3enodaldesk@idfcfirstbank.com,nriservices@idfcfirstbank.com,","19.0662384,72.689612"
C.K.P. Co-Operative Bank,Banks,Mumbai,"5XPG+X86, Paranjape Udyog Bhavan, Ambedkar Chowk, Yashodhan, Shivaji Path, TMT Reserved Flyover SATIS · 022 2538 9673",,",k.h.road@bharatbank.co.in,surekha.poojary@bharatbank.co.in,jagdish.bhosale@ckpbank.net,xxxx@ckpbank.net,vaishali_joshi@yahoo.com,x3errshinde@mumbaidistrictbank.com,rrshinde@mumbaidistrictbank.com,","19.1262955,72.8199869"
Punjab National Bank E Lobby,Banks,Mumbai,"Shop No.23, Soham Plaza, Manpada Junction, Ghodbunder Road · 1800 180 2222",,"corporatecare@pnb.com.ph,,pnbcreditcards@pnb.com.ph,bo027920@pnb.co.in,x3ecare@pnb.co.in,care@pnb.co.in,x3ecustomercare@pnb.com.ph,x22customercare@pnb.com.ph,customercare@pnb.com.ph,","19.1239877,72.7663604"
Axis Bank ATM,Banks,Mumbai,"GF, Vardhman Vatika Chs, SN 49 to 52, Kolshet Rd · 1860 500 5555",,",pno@axisbank.com,x3epno@axisbank.com,x22merchant.helpdesk@axisbank.com,merchant.helpdesk@axisbank.com,x3emerchant.helpdesk@axisbank.com,","19.0694613,72.8025809"
The Kalyan Janta Sahakri Bank,Banks,Mumbai,"Shop No.1 , Rajashri Plaza, Ground floor, Lal Bahadur Shastri Marg, near Mhakmali talav · 022 2538 2763",,"avbele@kalyanjanata.in,,u003eresponse@kalyanjanata.in,response@kalyanjanata.in,jsbho@janatabankpune.com,adharwadi@kalyanjanata.in,","19.0492378,72.8374867"
Axis Bank ATM,Banks,Mumbai,"SG 23, Gr Flr, Shoppe, Dosti Imperia, Ghodbunder Rd, opposite R Mall · 1860 500 5555",,",pno@axisbank.com,x3epno@axisbank.com,x22merchant.helpdesk@axisbank.com,merchant.helpdesk@axisbank.com,x3emerchant.helpdesk@axisbank.com,","19.0663137,72.720172"
Shree Arihant Co.op Bank,Banks,Mumbai,"Thane Nagar Vachan Mandir, 1st Floor, Tembi Naka, Thane West · 022 2543 7977",,",info@indialei.in,","19.0909624,72.8054569"
Oriental Bank Of Commerce,Banks,Mumbai,"Shop No.2, Oasis Silver Stone, Ram Maruti Road, Naupada, Thane West, opposite Hotel Shiv Sagar · 022 2537 6084",,"infocppc@sbp.co.in,,mbd@obc.co.in,insp@obc.co.in,BOI.CallCentre@bankofindia.co.in,hocomplaints@mahabank.co.in,x3ehocomplaints@mahabank.co.in,x3eBOI.CallCentre@bankofindia.co.in,pnd@obc.co.in,cmcustomerservice@mahabank.co.in,","19.0607533,72.6898091"
CSB Bank Mulund - Mumbai Branch & ATM,Banks,Mumbai,"Anu Apartment, Lal Bahadur Shastri Marg, Mulund (W, Govardhan Nagar, Mulund West, Thane, Maharashtra 400080",090726 01233,,"19.2025729,72.976639"
IDFC FIRST Bank ATM,Banks,Mumbai,"No 21, Ground Floor, DOSTI IMPERIA, Bldg, Ghodbunder Rd · 1800 10888",,",nodaldesk@idfcfirstbank.com,x3enriservices@idfcfirstbank.com,x3enodaldesk@idfcfirstbank.com,nriservices@idfcfirstbank.com,","19.0662384,72.689612"
State Bank Of India,Banks,Mumbai,"Akruti SMS, Lal Bahadur Shastri Marg, opposite ST Workshop · 1800 11 2211",,",gm.customer@sbi.co.in,x3eBoi.neft@bankofindia.co.in,inb.cinb@sbi.co.in,Rtgs.boi@bankofindia.co.in,Boi.neft@bankofindia.co.in,J.Smith@sbi.co.in,John.Smith@sbi.co.in,Smith.John@sbi.co.in,customercare@sbi.co.in,x3eJohn.Smith@sbi.co.in,JSmith@statebankofindia.com,x3eBOI.CallCentre@bankofindia.co.in,Smith@sbi.co.in,x3eRtgs.boi@bankofindia.co.in,cppc.mumbai@sbi.co.in,agmcustomer.lhomah@sbi.co.in,BOI.CallCentre@bankofindia.co.in,x3esanjeevani.hr@sbi.co.in,csdmumbai@sbmbank.co.in,boi.customerservices@oberthur.com,sanjeevani.hr@sbi.co.in,x3eboi.customerservices@oberthur.com,","19.0630146,72.6884409"
Bandhan Bank ATM,Banks,Mumbai,"6X6G+6R7, Golden Park, Muktai Nagar, Old Agra, Thane West",,",charniroad.branch@bandhanbank.com,kharroad.branch@bandhanbank.com,Prabhadevi.branch@bandhanbank.com,customercare@bandhanbank.com,kandivalieast.branch@bandhanbank.com,Andheri.branch@bandhanbank.com,Nariamanpoint.branch@bandhanbank.com,x22customercare@bandhanbank.com,x3ecustomercare@bandhanbank.com,","19.077446,72.7359057"
Thane District C C-op Bank Wagle Estate Branch,Banks,Mumbai,"5XP4+F9Q, MCED Office,, Thane West, Thane, Maharashtra 400080",,"thane.dccb@gmail.com,,rm_donde@yahoo.co.in,enquiry@thanedistrictbank.com,response@tjsb.co.in,x3errshinde@mumbaidistrictbank.com,rrshinde@mumbaidistrictbank.com,","19.1862056,72.9534144"
IDBI Bank,Banks,Mumbai,"Shop No.14,15, Chandan, MAITRI VATIKA, 16 &17, Pune - Mumbai Hwy · 1800 200 1947",,",a.khajuria@idbi.co.in,customercare@idbi.co.in,u003ecustomercare@idbi.co.in,rahul.nawkar@idbi.co.in,idbicards@idbi.co.in,","19.0322522,72.7723267"
Bank,Banks,Mumbai,"Samata Nagar, Sainath Nagar, Majiwada, Thane, Maharashtra 400601",,",x3edgmoper@centralbank.co.in,actsplg@citycoopbank.com,pkvasudeo@mumbaidistrictbank.com,cmcustomerservice@mahabank.co.in,hocomplaints@mahabank.co.in,audit@mcbbank.co.in,x3errshinde@mumbaidistrictbank.com,x3ehocomplaints@mahabank.co.in,personnel@citycoopbank.com,rrshinde@mumbaidistrictbank.com,dgmoper@centralbank.co.in,tribhuvanera@mcbbank.co,","19.0865776,72.7208749"
Bank of India,Banks,Mumbai,"Block No, P. O., Tehsil, 8, Mumbai - Agra National Hwy · 2806224",,",boimnz@vsnl.com,manasi.phene@bankofindia.co.in,x3eboi.starconnect@bankofindia.com,boi.starconnect@bankofindia.com,x3eboimnz@vsnl.com,BOI.CallCentre@bankofindia.co.in,bombaymarket.vadodara@bankofindia.co.in,x3eBOI.CallCentre@bankofindia.co.in,boi.callcentre@bankofindia.co.in,","19.0347133,72.769618"
Fino Payments Bank,Banks,Mumbai,"Near Masjid, Room-7882, Indira Nagar Rupadevipada-2, Road-34, Thane, Wagle I E · 081085 17910",,",care@finobank.com,customercare@finobank.com,custservice.lending@finopaytech.com,media@finobank.com,","19.0949488,72.7131836"
ICICI Bank ATM,Banks,Mumbai,"Wing-A, MANCHESTER CHS, 8, Smelting Koros Rd",,",digitallending@icicibank.com,x3eCustomer.care@icicibank.com,x3edigitallending@icicibank.com,Customer.care@icicibank.com,","19.0348532,72.7956439"
ICICI Bank ATM,Banks,Mumbai,"Shop no 2 3 4 G Elite buildings Sidhanchal Phase 07 Pokhran road, 02, west · 1860 120 7777",,",digitallending@icicibank.com,x3eCustomer.care@icicibank.com,x3edigitallending@icicibank.com,Customer.care@icicibank.com,","19.0348532,72.7859928"
CANARA BANK ATM,Banks,Mumbai,"T M C School, SHOP NO-02, SANGAM · 1800 425 0018",,",x3ehocancard@canarabank.com,u003ecsscomcity@canarabank.com,imps.recon@allahabadbank.in,hocancard@canarabank.com,x22hocancard@canarabank.com,mipdcopat@canarabank.com,csscopne@canarabank.com,x3ecallsupport@canarabank.com,ho.atm@allahabadbank.in,csscoranchi@canarabank.com,trfpwingom@canarabank.com,csscomcity@canarabank.com,canarabank.com_csscoranchi@canarabank.com,callsupport@canarabank.com,atmbo.mumbai@allahabadbank.in,hocancardacquiry@canarabank.com,","19.0246593,72.7777205"
New India Co Op Bank ATM,Banks,Mumbai,"400601, Mahapalika Bhavan Rd",,",atm@kalupurbank.com,x3errshinde@mumbaidistrictbank.com,rrshinde@mumbaidistrictbank.com,nmcb07@navimumbaibank.com,","19.0942371,72.7485824"
Bank of Baroda ATM,Banks,Mumbai,"16, SARASWATI SADAN, COLONY, Manpada Rd · 1800 258 4455",,",x3egm.ops.ho@bankofbaroda.com,x22crm@bobfinancial.com,x3ezm.mgz@bankofbaroda.com,zm.bojz@bankofbaroda.com,x3ezm.rajkot@bankofbaroda.com,zm.mgz@bankofbaroda.com,gm.ops.ho@bankofbaroda.com,ngm.ops.ho@bankofbaroda.com,crm@bobfinancial.com,barodaconnect@bankofbaroda.com,zm.rajkot@bankofbaroda.com,x3ecrm@bobfinancial.com,x3ebarodaconnect@bankofbaroda.com,x3ezm.bojz@bankofbaroda.com,","19.0264115,72.7779502"
Kotak Mahindra Bank ATM,Banks,Mumbai,"Jai Commercial Complex, Jai Siddhivinayak Premises Chs, Pokharan Rd Number 1 · 1860 266 2666",,",x3eservice.cards@kotak.com,x3ecare@kotak.com,x3eitsecurity.bank@kotak.com,x3eservice.securities@kotak.com,service.cards@kotak.com,x3eKprime.service@kotak.com,care@kotak.com,itsecurity.bank@kotak.com,service.securities@kotak.com,Kprime.service@kotak.com,","19.0414144,72.7758647"
Axis Bank ATM,Banks,Mumbai,"Shop No.4 Building No.2, Ltd, Sahyog CHS · 1860 500 5555",,",pno@axisbank.com,x3epno@axisbank.com,x22merchant.helpdesk@axisbank.com,merchant.helpdesk@axisbank.com,x3emerchant.helpdesk@axisbank.com,","19.0575742,72.7838946"
IndusInd Bank ATM,Banks,Mumbai,"Shop No.1 A Wing, Suryadarshan Tower, Esic Road, off Eastern Express Highway · 1860 267 7777",,",customercare@indusind.com,reachus@indusind.com,x3eboiblbang@IndusInd.com,managingdirector@indusind.com,boiblbang@IndusInd.com,pioneer@indusind.com,","19.0675874,72.6981239"
CANARA BANK ATM,Banks,Mumbai,"SHOP NO-2, OMKAR NIWAS, near THAKUR COLLEGE · 1800 425 0018",,",x3ehocancard@canarabank.com,u003ecsscomcity@canarabank.com,x22hocancard@canarabank.com,hocancard@canarabank.com,mipdcopat@canarabank.com,csscopne@canarabank.com,x3ecallsupport@canarabank.com,csscoranchi@canarabank.com,csscomcity@canarabank.com,callsupport@canarabank.com,canarabank.com_csscoranchi@canarabank.com,","19.0246593,72.7777205"
Bank,Banks,Mumbai,"Samata Nagar, Sainath Nagar, Majiwada, Thane, Maharashtra 400601",,",clearing@greaterbank.com,x3edgmoper@centralbank.co.in,pkvasudeo@mumbaidistrictbank.com,cmcustomerservice@mahabank.co.in,hocomplaints@mahabank.co.in,audit@mcbbank.co.in,x3errshinde@mumbaidistrictbank.com,x3ehocomplaints@mahabank.co.in,rrshinde@mumbaidistrictbank.com,dgmoper@centralbank.co.in,tribhuvanera@mcbbank.co,","19.0865776,72.7208749"
IDBI Bank,Banks,Mumbai,"Shop No.14,15, Chandan, MAITRI VATIKA, 16 &17, Pune - Mumbai Hwy · 1800 200 1947",,",customercare@idbi.co.in,u003ecustomercare@idbi.co.in,rahul.nawkar@idbi.co.in,idbicards@idbi.co.in,","19.0322522,72.7723267"
TJSB Sahakari Bank Limited - Patlipada,Banks,Mumbai,"6XXH+57H, G.B. Road, Hiranandini Road · 1800 22 3466",,",response@tjsb.co.in,tjsb.012@tjsb.co.in,","19.2479798,72.9763324"
ATM ICICI BANK,Banks,Mumbai,"6X23+PC9, Road No. 16/Z · 1860 120 7777",,",digitallending@icicibank.com,x3eCustomer.care@icicibank.com,x3edigitallending@icicibank.com,Customer.care@icicibank.com,","19.0326605,72.7887784"
CANARA BANK ATM,Banks,Mumbai,"SHOP NO.5, SHIVSADAN APARTMENT · 1800 425 0018",,",x3ehocancard@canarabank.com,u003ecsscomcity@canarabank.com,x22hocancard@canarabank.com,hocancard@canarabank.com,mipdcopat@canarabank.com,csscopne@canarabank.com,x3ecallsupport@canarabank.com,csscoranchi@canarabank.com,csscomcity@canarabank.com,callsupport@canarabank.com,canarabank.com_csscoranchi@canarabank.com,","19.0246593,72.7777205"
Fino Payments Bank,Banks,Mumbai,"27, Salunkhe Niwas, Rupadevi Pada No.2 Roadno.33, Near Rupadevi Temple, Indira Nagar · 022 6868 1414",,",nodalofficer@finobank.com,cs@finobank.com,","19.0949488,72.7131836"
ICICI BANK ATM,Banks,Mumbai,6X5C+3FR,,",digitallending@icicibank.com,x3eCustomer.care@icicibank.com,x3edigitallending@icicibank.com,Customer.care@icicibank.com,","19.0348532,72.7859928"
TJSB Sahakari Bank Atm,Banks,Mumbai,"Shop No. 5, Ratna Umed Residency , Umed Nagar ,, Pipe Lina Road. Louis Wadi , Thane (W)",,",response@tjsb.co.in,tjsb.012@tjsb.co.in,","19.1628731,72.7541761"
ICICI Bank Atm,Banks,Mumbai,"Shop No.1, Star View Apt, Nr Hari Om Traders, Lokmanya & 8232 Nagar, Pada No 4 · 1860 120 7777",,",digitallending@icicibank.com,x3eCustomer.care@icicibank.com,x3edigitallending@icicibank.com,Customer.care@icicibank.com,","19.0348532,72.7956439"
ICICI Bank Atm,Banks,Mumbai,"Shop No-07, Swapnavanchs · 1860 120 7777",,",digitallending@icicibank.com,x3eCustomer.care@icicibank.com,x3edigitallending@icicibank.com,Customer.care@icicibank.com,","19.0348532,72.7859928"
State Bank Of India ATM,Banks,Mumbai,"5, Dev Daya Nagar Society Rd · 1800 11 2211",,",gm.customer@sbi.co.in,customercare@sbi.co.in,BOI.CallCentre@bankofindia.co.in,customercare@sbicard.com,n@sbmbank.co.in,x3ecustomercare@sbicard.com,x3eBOI.CallCentre@bankofindia.co.in,","19.0027866,72.7872625"
Union Bank of India ATM,Banks,Mumbai,"Shop No. 8-12, Ratna Umed Residency, Umed Nagar, Pipeline Road, Louis Wadi, Thane West · 1800 22 2244",,",x3ecustomer.service@unionbankph.com,customerservice@www.unionbankng.com,x3ecustomerservice@www.unionbankng.com,x3ecustomercare@unionbankofindia.com,customer.service@unionbankph.com,customercare@unionbankofindia.com,x22customer.service@unionbankph.com,","19.0817748,72.6895115"
Kotak Mahindra Bank ATM,Banks,Mumbai,"463, Khopat Rd · 1860 266 2666",,",x3eservice.cards@kotak.com,x3ecare@kotak.com,x3eitsecurity.bank@kotak.com,x3eservice.securities@kotak.com,service.cards@kotak.com,x3eKprime.service@kotak.com,care@kotak.com,itsecurity.bank@kotak.com,service.securities@kotak.com,Kprime.service@kotak.com,","19.0475861,72.7918667"
ICICI Bank ATM,Banks,Mumbai,"5XX6+XWR, Surya Darshan Bldg, Kamger Hospital, Thane West, opp. Urekan · 1860 120 7777",,",digitallending@icicibank.com,x3eCustomer.care@icicibank.com,x3edigitallending@icicibank.com,Customer.care@icicibank.com,","19.0348532,72.7959022"
State Bank Of India ATM,Banks,Mumbai,"Jai Commercial Complex, Khopat Rd · 1800 11 2211",,",gm.customer@sbi.co.in,customercare@sbi.co.in,BOI.CallCentre@bankofindia.co.in,customercare@sbicard.com,n@sbmbank.co.in,x3ecustomercare@sbicard.com,x3eBOI.CallCentre@bankofindia.co.in,","19.0258458,72.793569"
ICICI Bank Atm,Banks,Mumbai,"Shop No-4, Vhihang Park, near Laxmi Park · 1860 120 7777",,",digitallending@icicibank.com,x3eCustomer.care@icicibank.com,x3edigitallending@icicibank.com,Customer.care@icicibank.com,","19.0348532,72.7859928"
ICICI Bank ATM,Banks,Mumbai,"Shop No 2, 3, 4, Plot No. 297, Madhuban CHS Ltd Service Road, West · 1860 120 7777",,",digitallending@icicibank.com,x3eCustomer.care@icicibank.com,x3edigitallending@icicibank.com,Customer.care@icicibank.com,","19.0348532,72.7956439"
ICICI Bank ATM,Banks,Mumbai,"15, Neelkanth Heights, Rameswar Tower, Between Pokhran 1 & 2 · 1860 120 7777",,",digitallending@icicibank.com,x3eCustomer.care@icicibank.com,x3edigitallending@icicibank.com,Customer.care@icicibank.com,","19.0348532,72.7859928"
ICICI Bank - ATM,Banks,Mumbai,"5XX6+277, Pipeline Rd · 1860 120 7777",,",digitallending@icicibank.com,x3eCustomer.care@icicibank.com,x3edigitallending@icicibank.com,Customer.care@icicibank.com,","19.0348532,72.7859928"
Bandhan Bank,Banks,Mumbai,"Shop No.2 (Part), M/s Wood Plaza, Golden Dyes Compound, opp. Navneet Motors · 1800 258 8181",,",pno@axisbank.com,x3eSecretary.Karthikeyan@bankofindia.co.in,Secretary.Karthikeyan@bankofindia.co.in,ch.kochi@bandhanbank.com,x3epno@axisbank.com,Andheri.branch@bandhanbank.com,ed1@mahabank.co.in,x22customercare@bandhanbank.com,customercare@bandhanbank.com,x3esujoy.roy@bandhanbank.com,pno@bandhanbank.com,sujoy.roy@bandhanbank.com,Nariamanpoint.branch@bandhanbank.com,x3ecustomercare@bandhanbank.com,kharroad.branch@bandhanbank.com,chembur.branch@bandhanbank.com,ch.delhi@bandhanbank.com,x3eed1@mahabank.co.in,","19.0774621,72.7400238"
ICICI Bank Atm,Banks,Mumbai,"Chourishya Foot Wear,Road No-34,Nr Shiv Sena Shaka · 1860 120 7777",,",digitallending@icicibank.com,x3eCustomer.care@icicibank.com,x3edigitallending@icicibank.com,Customer.care@icicibank.com,","19.0348532,72.7956439"
Saraswat Bank ATM,Banks,Mumbai,"Ground Floor, Nitin Company, Nakshatra Tower, road, opp. Thane Municipal Corporation · 022 2534 8646",,"corporatecenter@saraswatbank.com,,x3ecustomerservicecentre@saraswatbank.com,customerservicecentre@saraswatbank.com,u2013customerservicecentre@saraswatbank.com,","19.0707134,72.7140439"
Tjsb bank atm.,Banks,Mumbai,"Kishan nagar no,2 Ful Gali pipeline, Rd Number 16",,",response@tjsb.co.in,","19.1263108,72.7563874"
"NKGSB Co-operative Bank Limited- Vartak Nagar,Thane West Branch",Banks,Mumbai,"Shop No.S2, 23,24,25, Vedant Commercial Complex, Madrecha Rd, Tulsi Dham, Vartak Nagar, Thane West, Thane, Maharashtra 400606",022 2585 3349,"laxmikantdesai@nkgsb-bank.com,,","19.2086069,72.9575862"
Karnataka Bank - Thane Branch & ATM,Banks,Mumbai,"Shop No.12, VIHANG GARDEN, Pokharan Rd Number 1, opp. raymonds, Tulsi Dham, Vartak Nagar, Thane West, Mumbai, Thane, Maharashtra 400606",1800 425 1444,,"19.2084569,72.9607818"
The Thane District Central Co-Operative Bank Limited-Vartak Nagar,Banks,Mumbai,"Gitanjali Apartment, Shivaji Path. P. B. No. 19, Near Station Shivaji Path Road, Aai Mata Rd, Kores, Lokmanya Nagar, Thane West, Thane, Maharashtra 400606",022 2536 3042,",enquiry@thanedistrictbank.com,Thane.dccb@gmail.com,Atm@thanedistrictbank.com,x3errshinde@mumbaidistrictbank.com,rrshinde@mumbaidistrictbank.com,","19.208525,72.9523981"
Bank of Maharashtra,Banks,Mumbai,"1st Floor, Jagdish Industrial Estate, Pokharan Rd Number 1, opposite Telegram Gate · 1800 233 4526",,",boi.customerservices@oberthur.com,Boi.neft@bankofindia.co.in,u003ecmcustomerservice@mahabank.co.in,cmcustomerservice@mahabank.co.in,BOI.CallCentre@bankofindia.co.in,x3eBoi.neft@bankofindia.co.in,hocomplaints@mahabank.co.in,u003ehocomplaints@mahabank.co.in,Rtgs.boi@bankofindia.co.in,mahasecure@mahabank.co.in,x3eBOI.CallCentre@bankofindia.co.in,x3eboi.customerservices@oberthur.com,x3eRtgs.boi@bankofindia.co.in,","19.04742,72.7956656"
State Bank of India SAMTA NAGAR THANE,Banks,Mumbai,"SHOP NO 8, 9 AND 10, VIHANG GARDEN, Pokharan Rd Number 1, Tulsi Dham, Samata Nagar, Thane West, Thane, Maharashtra 400606",022 2537 7941,",sbi.13035@sbi.co.in,contactcentre@sbi.co.in,x3econtactcentre@sbi.co.in,","19.208374,72.9606851"
Union Bank of India - Vartak Nagar Branch,Banks,Mumbai,"6, Acharya Atre Marg, Tulsi Dham, Vedant Complex, Vartak Nagar, Thane West, Thane, Maharashtra 400606",022 2585 5050,",x3ecustomer.service@unionbankph.com,x3ecustomercare@unionbankofindia.com,customer.service@unionbankph.com,cbsvartaknagar@unionbankofindia.com,customercare@unionbankofindia.com,x22customercare@unionbankofindia.com,","19.209098,72.9590551"
Thane Bharat Sahakari Bank Limited,Banks,Mumbai,"Western India Steel Industries Compound, Pokharan Rd Number 2, opp. Oswal Park · 022 2173 6262",,",main@tbsbl.com,complaint@tbsbl.com,rtgs.tbsb@thanebharatbank.net,","19.1154427,72.7510537"
NKGSB Co-op Bank Ltd (Thane Naupada Branch),Banks,Mumbai,"Raunak Arcade, 7/8, Ghantali Devi Rd, Naupada, Thane West, Thane, Maharashtra 400602",022 2537 0920,"laxmikantdesai@nkgsb-bank.com,,","19.1872496,72.9670238"
Thane Bharat Sahakari Bank Limited,Banks,Mumbai,"Plot No. 78, Near Shivai Nagar Bus Stop, Shivai Nagar, Pokhran Road No. 1, Thane West, Upvan Lake Rd · 022 2173 6262",,",main@tbsbl.com,complaint@tbsbl.com,rtgs.tbsb@thanebharatbank.net,","19.1154427,72.7510537"
Thane Bharat Sahakari Bank Limited,Banks,Mumbai,"5XRC+6QQ, Sahayog Mandir Path · 022 2542 9432",,",main@tbsbl.com,complaint@tbsbl.com,rtgs.tbsb@thanebharatbank.net,","19.1154427,72.7510537"
State Bank of India,Banks,Mumbai,Pokharan Rd Number 1 · 1800 425 3800,,",PrincipalNodalOfficer@sbicard.com,gm.customer@sbi.co.in,boi.customerservices@oberthur.com,agmcustomer.lhomah@sbi.co.in,cppc.mumbai@sbi.co.in,x3ePrincipalNodalOfficer@sbicard.com,Boi.neft@bankofindia.co.in,customercare@sbi.co.in,BOI.CallCentre@bankofindia.co.in,x3eBoi.neft@bankofindia.co.in,sanjeevani.hr@sbi.co.in,Rtgs.boi@bankofindia.co.in,inb.cinb@sbi.co.in,x3esanjeevani.hr@sbi.co.in,x3eBOI.CallCentre@bankofindia.co.in,x3eboi.customerservices@oberthur.com,x3eRtgs.boi@bankofindia.co.in,","19.0630146,72.6884409"
CANARA BANK - THANE NAUPADA,Banks,Mumbai,"41A GOKHALE ROAD, NAUPADA NAUPADA S.O, Thane, Maharashtra 400602",1800 425 0018,",x22hocancard@canarabank.com,hocancard@canarabank.com,cb0228@canarabank.com,x3ehocancard@canarabank.com,","19.1879669,72.9708032"
Punjab National Bank - Thane West Branch,Banks,Mumbai,"5XQ8+3WP, Satyam Apartment Mahatma Gandhi Rd Near Malhar Cinema · 1800 180 2222",,"corporatecare@pnb.com.ph,,bo3739@pnb.co.in,pnbcreditcards@pnb.com.ph,bo1144@pnb.co.in,x3ecare@pnb.co.in,care@pnb.co.in,bo090210@pnb.co.in,customercare@pnb.com.ph,bo2176@pnb.co.in,","19.1982202,72.9456491"
Saraswat Bank,Banks,Mumbai,"5XX8+9M3, Ground Floor, Nakshatra Tower, Almeda Rd, Opp Municipal Corp · 022 2534 8645",,"corporatecenter@saraswatbank.com,,x3ecustomerservicecentre@saraswatbank.com,customerservicecentre@saraswatbank.com,arvinder.matta@saraswatbank.com,u2013customerservicecentre@saraswatbank.com,","19.0807039,72.7036407"
Ambarnath Jai-Hind Co-Operative Bank Limited- Yashodhan Nagar Branch,Banks,Mumbai,"Shop.No.2, Ground Floor C-2,Opposite Happy Height’s Telephone Exchange, Sai Prasad Sociman Rd, Patil Nagar, Thane West, Thane, Maharashtra 400606",022 2581 3882,,"19.2079102,72.9522889"
"Thane Bharat Sahakari bank, Rutu Park Branch",Banks,Mumbai,"D-2, Eastern Express Hwy, Rutu Park, Panchsheel Nagar, Thane West, Thane, Maharashtra 400601",022 2544 2363,",main@tbsbl.com,","19.2101218,72.9795074"
Thane Bharat Sahakari Bank Limited - Chandanwadi Branch,Banks,Mumbai,"5XXC+PM7, Mahesh Darshan, Near Makhmali Talao, Old Mumbai, Agra Road, Ganeshwadi, Thane West, Thane, Maharashtra 400601",022 2533 5237,",main@tbsbl.com,","19.1992978,72.9691098"
"RBL Bank Ltd - Vartak Nagar, Thane Branch & ATM",Banks,Mumbai,"Shop No. 2D, Ground & First floor, Maithili Pride Building No.1 & 10, MHB Colony, Vartak Nagar, Pokharan Rd Number 1, J K Gram, Thane West, Maharashtra 400606",022 2585 3975,,"19.2124306,72.9577701"
State Bank of India KHOPAT BRANCH THANE,Banks,Mumbai,"BUILDING PLOT NO 457, SREEJISWAMINARAYANA NAGAR SREEJI DARSHAN, 1, Pokhran Rd, Thane, Maharashtra 400601",022 2538 3699,",sbi.09056@sbi.co.in,contactcentre@sbi.co.in,x3econtactcentre@sbi.co.in,","19.2069486,72.9545672"
"ICICI Bank Gokhale Road, Thane-Branch & ATM",Banks,Mumbai,"Gokhale Road, Pathare Building, Naupada, near Gaondevi Mandir, Thane, Maharashtra 400602",1860 120 6699,,"19.1906065,72.9682527"
State Bank of India,Banks,Mumbai,"Vakratunda Residency Shree Swami Krupa, Phase 2, Manorama Nagar Rd · 1800 425 1825",,",PrincipalNodalOfficer@sbicard.com,gm.customer@sbi.co.in,boi.customerservices@oberthur.com,agmcustomer.lhomah@sbi.co.in,cppc.mumbai@sbi.co.in,x3ePrincipalNodalOfficer@sbicard.com,Boi.neft@bankofindia.co.in,customercare@sbi.co.in,BOI.CallCentre@bankofindia.co.in,x3eBoi.neft@bankofindia.co.in,sanjeevani.hr@sbi.co.in,Rtgs.boi@bankofindia.co.in,inb.cinb@sbi.co.in,x3esanjeevani.hr@sbi.co.in,x3eBOI.CallCentre@bankofindia.co.in,x3eboi.customerservices@oberthur.com,x3eRtgs.boi@bankofindia.co.in,","19.0630146,72.6884409"
GP Parsik Bank,Banks,Mumbai,SWASTIK REGALIA COMPLEX,,",helpdesk@gpparsikbank.net,","19.1548493,72.7690957"
DMK Jaoli BANK,Banks,Mumbai,5XW6+G9P · 022 2583 5443,,",complaints@jaolibank.in,hoadmin@jaolibank.in,","19.0903834,72.7574299"
Axis Bank Branch,Banks,Mumbai,"Thane, Maharashtra · 1860 500 5555",,",merchant.helpdesk@axisbank.com,x3emerchant.helpdesk@axisbank.com,x3enodal.officer@axisbank.com,nodal.officer@axisbank.com,","19.0439404,72.7708467"
Axis Bank ATM,Banks,Mumbai,"Arun Industries, near Kalpataru Prime · 1860 500 5555",,",pno@axisbank.com,x3epno@axisbank.com,x22merchant.helpdesk@axisbank.com,merchant.helpdesk@axisbank.com,x3emerchant.helpdesk@axisbank.com,","19.0694613,72.8025809"
"The National Co op Bank Ltd,Ghodbunder Branch",Banks,Mumbai,"4, Vijay Garden Rd, Kavesar, Thane West, Thane, Maharashtra 400615",084240 81717,",hoclg@ncbmumbai.com,","19.2617933,72.9713658"
ICICI Bank Thane Ghodbunder Road,Banks,Mumbai,"Shop No. 3, MK Plaza, ICICI Bank Ltd, Ghodbunder Rd · 1800 1080",,",x22Customer.care@icicibank.com,x3eCustomer.care@icicibank.com,Customer.care@icicibank.com,customer.care@icicibank.com,","19.2579549,72.9652599"
Axis Bank ATM,Banks,Mumbai,"KORUM MALL 2 (INFORMATION DESK, UPPER GROUND), MANGAL PANDEY ROAD Eastern Express Highway, Junction, near Cadbury · 1860 419 5555",,",pno@axisbank.com,x3epno@axisbank.com,x22merchant.helpdesk@axisbank.com,merchant.helpdesk@axisbank.com,x3emerchant.helpdesk@axisbank.com,","19.0575742,72.7838946"
icici bank thane west wagle estate,Banks,Mumbai,"5XX5+26X, Rd Number 16",,",customer.care@icicibank.com,x3ecustomer.care@icicibank.com,","19.1963505,72.942614"
Axis Bank Branch,Banks,Mumbai,"Ground Floor, Shop No/ 1, 2 & 3, College, near Muchhala Polytechnic · 1860 500 5555",,",merchant.helpdesk@axisbank.com,x3emerchant.helpdesk@axisbank.com,x3enodal.officer@axisbank.com,nodal.officer@axisbank.com,","19.0439404,72.7708467"
Bharat Bank,Banks,Mumbai,"6XMG+565, Shop No. C, Solitaire Towers, Chitalsa, Khewra Cir Marg · 022 2589 2531",,",Feedback@bharatbank.co.in,x3ebhandup@bharatbank.co.in,bhandup@bharatbank.co.in,ghansoli@bharatbank.co.in,ibd@bharatbank.co.in,mbank@bharatbank.co.in,x3embank@bharatbank.co.in,","19.0875939,72.7204218"
IDFC FIRST Bank,Banks,Mumbai,"Shop No 7 to 10, Ground, MK Plaza, Ghodbunder Rd · 1800 10888",,",nodaldesk@idfcfirstbank.com,COO@idfcfirstbank.com,x3enriservices@idfcfirstbank.com,CEO@idfcfirstbank.com,pno@idfcfirstbank.com,RNO.Mumbai@idfcfirstbank.com,banker@idfcfirstbank.com,firstcontactcomplaints@firstbanknigeria.com,x3enodaldesk@idfcfirstbank.com,nriservices@idfcfirstbank.com,x3efirstcontactcomplaints@firstbanknigeria.com,","19.0882275,72.7103437"
Apna Sahakari Bank,Banks,Mumbai,"Ghodbunder Shop No. 5 & 6 Shree Maa Trust, Ground Floor, S. N. 146 Patlipada, Ghodbunder Rd · 022 2586 2957",,"apna.lic@apnabank.co.in,,corporateoffice@apnabank.co.in,","19.0945479,72.8056548"
Axis Bank Branch,Banks,Mumbai,"Ground Floor, ACCEL HOUSE, SN 7 & 8, Rd Number 22 · 1860 500 5555",,",merchant.helpdesk@axisbank.com,x3emerchant.helpdesk@axisbank.com,x3enodal.officer@axisbank.com,nodal.officer@axisbank.com,","19.0439404,72.7708467"
Oriental Bank of Commerce,Banks,Mumbai,"Sidhanchal Shopping Centre, Off Pokharan Road 2 Tulshidham · 022 2171 4433",,"infocppc@sbp.co.in,,insp@obc.co.in,BOI.CallCentre@bankofindia.co.in,hocomplaints@mahabank.co.in,x3ehocomplaints@mahabank.co.in,x3eBOI.CallCentre@bankofindia.co.in,pnd@obc.co.in,cmcustomerservice@mahabank.co.in,","19.0607533,72.6898091"
Axis Bank ATM,Banks,Mumbai,"Shop No 2 to 4, Bhiwadiwala Building, near Thane Court · 1860 500 5555",,",pno@axisbank.com,x3epno@axisbank.com,x22merchant.helpdesk@axisbank.com,merchant.helpdesk@axisbank.com,x3emerchant.helpdesk@axisbank.com,","19.0575742,72.7838946"
Axis Bank ATM,Banks,Mumbai,"SN 7 & 8, PN A 125, A 126, Road No 22 MIDC · 1860 500 5555",,",pno@axisbank.com,x3epno@axisbank.com,x22merchant.helpdesk@axisbank.com,merchant.helpdesk@axisbank.com,x3emerchant.helpdesk@axisbank.com,","19.0663137,72.720172"
State Bank ATM,Banks,Mumbai,"Shop No. 2, Gajanan heights, ESIC Road",,",gm.customer@sbi.co.in,x3ePrincipalNodalOfficer@sbicard.com,customercare@sbi.co.in,customercare@sbicard.com,x22customercare@sbicard.com,n@sbmbank.co.in,x3ecustomercare@sbicard.com,PrincipalNodalOfficer@sbicard.com,","19.1976916,72.8132092"
ICICI Bank ATM,Banks,Mumbai,"Shop no 2 3 4 G Elite buildings Sidhanchal Phase 07 Pokhran road, 02, west · 1860 120 7777",,",digitallending@icicibank.com,x3eCustomer.care@icicibank.com,x3edigitallending@icicibank.com,Customer.care@icicibank.com,","19.0310821,72.7859928"
Fino Payments Bank,Banks,Mumbai,"Near Masjid, Room-7882, Indira Nagar Rupadevipada-2, Road-34, Thane, Wagle I E · 081085 17910",,",nodalofficer@finobank.com,cs@finobank.com,","19.0949488,72.7131836"
Bank of Baroda ATM,Banks,Mumbai,"16, SARASWATI SADAN, COLONY, Manpada Rd · 1800 258 4455",,",x3egm.ops.ho@bankofbaroda.com,x22crm@bobfinancial.com,x3ezm.mgz@bankofbaroda.com,dbbmmo@bankofbaroda.com,zm.bojz@bankofbaroda.com,x3ezm.rajkot@bankofbaroda.com,zm.mgz@bankofbaroda.com,gm.ops.ho@bankofbaroda.com,ngm.ops.ho@bankofbaroda.com,crm@bobfinancial.com,barodaconnect@bankofbaroda.com,zm.rajkot@bankofbaroda.com,x3ecrm@bobfinancial.com,x3ebarodaconnect@bankofbaroda.com,x3ezm.bojz@bankofbaroda.com,","19.0264115,72.7779502"
New India Co Op Bank ATM,Banks,Mumbai,"400601, Mahapalika Bhavan Rd",,",atm@kalupurbank.com,x3errshinde@mumbaidistrictbank.com,rrshinde@mumbaidistrictbank.com,nmcb07@navimumbaibank.com,","19.0942371,72.7485824"
Kotak Mahindra Bank ATM,Banks,Mumbai,"Jai Commercial Complex, Jai Siddhivinayak Premises Chs, Pokharan Rd Number 1 · 1860 266 2666",,",x3eservice.cards@kotak.com,x3ecare@kotak.com,x3eitsecurity.bank@kotak.com,x3eservice.securities@kotak.com,service.cards@kotak.com,x3eKprime.service@kotak.com,care@kotak.com,itsecurity.bank@kotak.com,service.securities@kotak.com,Kprime.service@kotak.com,","19.0414144,72.7758647"
CANARA BANK ATM,Banks,Mumbai,"SHOP NO-2, OMKAR NIWAS, near THAKUR COLLEGE · 1800 425 0018",,",x3ehocancard@canarabank.com,u003ecsscomcity@canarabank.com,x22hocancard@canarabank.com,hocancard@canarabank.com,mipdcopat@canarabank.com,csscopne@canarabank.com,x3ecallsupport@canarabank.com,csscoranchi@canarabank.com,csscomcity@canarabank.com,callsupport@canarabank.com,canarabank.com_csscoranchi@canarabank.com,","19.0246593,72.7777205"
ICICI BANK ATM,Banks,Mumbai,6X5C+3FR,,",digitallending@icicibank.com,x3eCustomer.care@icicibank.com,x3edigitallending@icicibank.com,Customer.care@icicibank.com,","19.0348532,72.7859928"
IndusInd Bank ATM,Banks,Mumbai,"Shop No.1 A Wing, Suryadarshan Tower, Esic Road, off Eastern Express Highway · 1860 267 7777",,",customercare@indusind.com,x3eboiblbang@IndusInd.com,managingdirector@indusind.com,boiblbang@IndusInd.com,pioneer@indusind.com,","19.0675874,72.6981239"
ATM ICICI BANK,Banks,Mumbai,"6X23+PC9, Road No. 16/Z · 1860 120 7777",,",digitallending@icicibank.com,x3eCustomer.care@icicibank.com,x3edigitallending@icicibank.com,Customer.care@icicibank.com,","19.0310821,72.7887784"
CANARA BANK ATM,Banks,Mumbai,"SHOP NO.5, SHIVSADAN APARTMENT · 1800 425 0018",,",x3ehocancard@canarabank.com,u003ecsscomcity@canarabank.com,x22hocancard@canarabank.com,hocancard@canarabank.com,mipdcopat@canarabank.com,csscopne@canarabank.com,x3ecallsupport@canarabank.com,csscoranchi@canarabank.com,csscomcity@canarabank.com,callsupport@canarabank.com,canarabank.com_csscoranchi@canarabank.com,","19.0246593,72.7777205"
Kotak Mahindra Bank ATM,Banks,Mumbai,"463, Khopat Rd · 1860 266 2666",,",x3eservice.cards@kotak.com,x3ecare@kotak.com,x3eitsecurity.bank@kotak.com,x3eservice.securities@kotak.com,service.cards@kotak.com,x3eKprime.service@kotak.com,care@kotak.com,itsecurity.bank@kotak.com,service.securities@kotak.com,Kprime.service@kotak.com,","19.0475861,72.7918667"
ICICI Bank Atm,Banks,Mumbai,"Shop No-07, Swapnavanchs · 1860 120 7777",,",digitallending@icicibank.com,x3eCustomer.care@icicibank.com,x3edigitallending@icicibank.com,Customer.care@icicibank.com,","19.0348532,72.7859928"
TJSB Sahakari Bank Limited - Patlipada,Banks,Mumbai,"6XXH+57H, G.B. Road, Hiranandini Road · 1800 22 3466",,",response@tjsb.co.in,tjsb.012@tjsb.co.in,","19.2479798,72.9763324"
Fino Payments Bank,Banks,Mumbai,"27, Salunkhe Niwas, Rupadevi Pada No.2 Roadno.33, Near Rupadevi Temple, Indira Nagar · 022 6868 1414",,",nodalofficer@finobank.com,cs@finobank.com,","19.0949488,72.7131836"
Union Bank of India ATM,Banks,Mumbai,"Shop No. 8-12, Ratna Umed Residency, Umed Nagar, Pipeline Road, Louis Wadi, Thane West · 1800 22 2244",,",x3ecustomer.service@unionbankph.com,customerservice@www.unionbankng.com,x3ecustomerservice@www.unionbankng.com,x3ecustomercare@unionbankofindia.com,customer.service@unionbankph.com,customercare@unionbankofindia.com,x22customer.service@unionbankph.com,","19.0817748,72.6895115"
ICICI Bank ATM,Banks,Mumbai,"Shop No 2, 3, 4, Plot No. 297, Madhuban CHS Ltd Service Road, West · 1860 120 7777",,",digitallending@icicibank.com,x3eCustomer.care@icicibank.com,x3edigitallending@icicibank.com,Customer.care@icicibank.com,","19.0348532,72.7956439"
ICICI Bank Atm,Banks,Mumbai,"Shop No-4, Vhihang Park, near Laxmi Park · 1860 120 7777",,",digitallending@icicibank.com,x3eCustomer.care@icicibank.com,x3edigitallending@icicibank.com,Customer.care@icicibank.com,","19.0348532,72.7859928"
Bank,Banks,Mumbai,"Samata Nagar, Sainath Nagar, Majiwada, Thane, Maharashtra 400601",,",clearing@greaterbank.com,pkvasudeo@mumbaidistrictbank.com,cmcustomerservice@mahabank.co.in,BOI.CallCentre@bankofindia.co.in,hocomplaints@mahabank.co.in,audit@mcbbank.co.in,x3errshinde@mumbaidistrictbank.com,x3ehocomplaints@mahabank.co.in,x3eBOI.CallCentre@bankofindia.co.in,rrshinde@mumbaidistrictbank.com,tribhuvanera@mcbbank.co,","19.0865776,72.7208749"
TJSB Sahakari Bank Atm,Banks,Mumbai,"Shop No. 5, Ratna Umed Residency , Umed Nagar ,, Pipe Lina Road. Louis Wadi , Thane (W)",,",response@tjsb.co.in,tjsb.012@tjsb.co.in,","19.1628731,72.7541761"
State Bank Of India ATM,Banks,Mumbai,"5, Dev Daya Nagar Society Rd · 1800 11 2211",,",gm.customer@sbi.co.in,customercare@sbi.co.in,BOI.CallCentre@bankofindia.co.in,customercare@sbicard.com,n@sbmbank.co.in,x3ecustomercare@sbicard.com,x3eBOI.CallCentre@bankofindia.co.in,","19.0027866,72.7872625"
ICICI Bank - ATM,Banks,Mumbai,"5XX6+277, Pipeline Rd · 1860 120 7777",,",digitallending@icicibank.com,x3eCustomer.care@icicibank.com,x3edigitallending@icicibank.com,Customer.care@icicibank.com,","19.0348532,72.7956439"
ICICI Bank Atm,Banks,Mumbai,"Shop No.1, Star View Apt, Nr Hari Om Traders, Lokmanya & 8232 Nagar, Pada No 4 · 1860 120 7777",,",digitallending@icicibank.com,x3eCustomer.care@icicibank.com,x3edigitallending@icicibank.com,Customer.care@icicibank.com,","19.0348532,72.7859928"
ICICI Bank ATM,Banks,Mumbai,"5XX6+XWR, Surya Darshan Bldg, Kamger Hospital, Thane West, opp. Urekan · 1860 120 7777",,",digitallending@icicibank.com,x3eCustomer.care@icicibank.com,x3edigitallending@icicibank.com,Customer.care@icicibank.com,","19.0348532,72.7859928"
Axis Bank ATM,Banks,Mumbai,"Thane, Maharashtra · 1860 500 5555",,",pno@axisbank.com,x3epno@axisbank.com,x22merchant.helpdesk@axisbank.com,merchant.helpdesk@axisbank.com,x3emerchant.helpdesk@axisbank.com,","19.0663137,72.720172"
State Bank Of India ATM,Banks,Mumbai,"Jai Commercial Complex, Khopat Rd · 1800 11 2211",,",gm.customer@sbi.co.in,customercare@sbi.co.in,BOI.CallCentre@bankofindia.co.in,customercare@sbicard.com,n@sbmbank.co.in,x3ecustomercare@sbicard.com,x3eBOI.CallCentre@bankofindia.co.in,","19.0258458,72.7929473"
ICICI Bank ATM,Banks,Mumbai,"15, Neelkanth Heights, Rameswar Tower, Between Pokhran 1 & 2 · 1860 120 7777",,",digitallending@icicibank.com,x3eCustomer.care@icicibank.com,x3edigitallending@icicibank.com,Customer.care@icicibank.com,","19.092948,72.7124495"
Saraswat Bank ATM,Banks,Mumbai,"Ground Floor, Nitin Company, Nakshatra Tower, road, opp. Thane Municipal Corporation · 022 2534 8646",,"corporatecenter@saraswatbank.com,,x3ecustomerservicecentre@saraswatbank.com,customerservicecentre@saraswatbank.com,u2013customerservicecentre@saraswatbank.com,","19.0707134,72.7140439"
ICICI Bank Atm,Banks,Mumbai,"Chourishya Foot Wear,Road No-34,Nr Shiv Sena Shaka · 1860 120 7777",,",digitallending@icicibank.com,x3eCustomer.care@icicibank.com,x3edigitallending@icicibank.com,Customer.care@icicibank.com,","19.0348532,72.7859928"
Icici Bank ATM,Banks,Mumbai,"A-186, Rd Number 16 · 1860 120 7777",,",digitallending@icicibank.com,x3eCustomer.care@icicibank.com,x3edigitallending@icicibank.com,Customer.care@icicibank.com,","19.0348532,72.7956439"
ICICI Bank Bhiwandi,Banks,Mumbai,"ICICI Bank Ltd, Shop No.8, 9 10 B Wing, Dhamankar Naka, Bhiwandi Thane Dist, Thane, Maharashtra 421305",,",x22Customer.care@icicibank.com,x3eCustomer.care@icicibank.com,Customer.care@icicibank.com,","19.2547635,72.9725054"
Tjsb bank atm.,Banks,Mumbai,"Kishan nagar no,2 Ful Gali pipeline, Rd Number 16",,",response@tjsb.co.in,","19.1263108,72.7563874"
State Bank e-Corner,Banks,Mumbai,"Shop No. 10, Green Road & Off Eastern Express Highway, Sun Magnetica, Louis Wadi, Thane West",,",Customercare@sbi.co.in,x3ehrms@sbi.co.in,customercare@sbi.co.in,sanjeevani.hr@sbi.co.in,x3esanjeevani.hr@sbi.co.in,hrms@sbi.co.in,n@sbmbank.co.in,contactcentre@sbi.co.in,","18.4760628,73.9007086"
Karnatka Bank ATM,Banks,Mumbai,"7/55, Pokharan Rd Number 1",,"mangalore.ro@ktkbank.com,,atmcell@ktkbank.com,x3eatmcell@ktkbank.com,","19.1397724,72.7381523"
Punjab National Bank - Thane (East) Branch,Banks,Mumbai,"5XMF+587, Behind Bharat English School, Harishchandra Raut Marg, Kopri, Thane East, Thane, Maharashtra 400603",1800 180 2222,"corporatecare@pnb.com.ph,,pnbcreditcards@pnb.com.ph,x3ecare@pnb.co.in,care@pnb.co.in,bo3303@pnb.co.in,board@pnb.co.in,bo0552@pnb.co.in,bo090210@pnb.co.in,customercare@pnb.com.ph,","19.1829155,72.9707276"
CENTRAL BANK OF INDIA - THANE (EAST) Branch,Banks,Mumbai,"SARVA SEWA SAMITI TRUST SHIVLEELA HOUSE, Kopri Colony, Thane, Maharashtra 400603",022 2532 6037,",x3edgmoper@centralbank.co.in,complaints@centralbank.co.in,cmmums0619@centralbank.co.in,rmmsro@centralbank.co.in,agmmmo0621@centralbank.co.in,debitcard@centralbank.co,dgmoper@centralbank.co.in,","19.1811716,72.9698131"
Bank of Maharashtra,Banks,Mumbai,Renuka Apartment Adarsh Colony · 1800 233 4526,,",boi.customerservices@oberthur.com,Boi.neft@bankofindia.co.in,u003ecmcustomerservice@mahabank.co.in,cmcustomerservice@mahabank.co.in,BOI.CallCentre@bankofindia.co.in,x3eBoi.neft@bankofindia.co.in,hocomplaints@mahabank.co.in,u003ehocomplaints@mahabank.co.in,Rtgs.boi@bankofindia.co.in,mahasecure@mahabank.co.in,x3eBOI.CallCentre@bankofindia.co.in,x3eboi.customerservices@oberthur.com,x3eRtgs.boi@bankofindia.co.in,","19.04742,72.7956656"
Thane Bharat Sahakari Bank-Thane East Branch,Banks,Mumbai,"5XMG+485, Opposite Karam Ground, Ashirwad Hospital, Nav Aashirvad, Near Daulat Nagar, Harishchandra Raut Marg, Kopri, Thane East, Thane, Maharashtra 400603",022 2532 3951,",main@tbsbl.com,rtgs.tbsb@thanebharatbank.net,","19.1827667,72.9732985"
CANARA BANK - THANE KOPRI COLONY,Banks,Mumbai,"S.O, 5 STAR BUILDING, GROUND FLOOR, Kopri Colony, Thane East, Thane, Maharashtra 400603",1800 425 0018,",cb0266@canarabank.com,","19.1848664,72.9719706"
The Saraswat Co-Operative Bank Limited Kopri Colony Branch,Banks,Mumbai,"6-11, Saitirtha, Bara Bungalow Rd, Kopri Colony, Siddharth Nagar, Thane East, Thane, Maharashtra 400603",022 2532 5016,"corporatecenter@saraswatbank.com,,x3ecustomerservicecentre@saraswatbank.com,customerservicecentre@saraswatbank.com,u2013customerservicecentre@saraswatbank.com,","19.1827105,72.9683307"
Bank of India,Banks,Mumbai,"5XJF+82W, Raut House, Lokmanya Tilak Road · 25320589",,",boimnz@vsnl.com,manasi.phene@bankofindia.co.in,x3eboi.starconnect@bankofindia.com,boi.starconnect@bankofindia.com,x3eboimnz@vsnl.com,BOI.CallCentre@bankofindia.co.in,x3eBOI.CallCentre@bankofindia.co.in,boi.callcentre@bankofindia.co.in,","19.0347133,72.769618"
ICICI Bank Thane Kopri,Banks,Mumbai,"No. F, Sai Tirth Tower, ICICI Bank Ltd, Shop No.18 to 21, Ground Floor B wing Bldg, Sidharth Nagar, Kopri, Thane(E, Thane, Maharashtra 400603",,",customer.care@icicibank.com,x3ecustomer.care@icicibank.com,","19.1827419,72.9680915"
Union Bank of India,Banks,Mumbai,"5XMF+R45, Dr. Chaithram Gidwani Marg, Kopri Colony, Kishor Nagar, Thane East · 1800 22 2244",,",customerservice@www.unionbankng.com,x3eBoi.neft@bankofindia.co.in,Rtgs.boi@bankofindia.co.in,Boi.neft@bankofindia.co.in,ccd.grievances@unionbankofindia.bank,x3ecustomerservice@www.unionbankng.com,x3eBOI.CallCentre@bankofindia.co.in,x3eRtgs.boi@bankofindia.co.in,x3ecustomer.service@unionbankph.com,BOI.CallCentre@bankofindia.co.in,customercare@unionbankofindia.com,u003ecustomercare@unionbankofindia.com,boi.customerservices@oberthur.com,Mumbai@unionbankofindia.com,customer.service@unionbankph.com,x3eboi.customerservices@oberthur.com,x22customer.service@unionbankph.com,cgo@unionbankofindia.com,","19.0808182,72.7046555"
SVC Bank,Banks,Mumbai,"Ground Floor, Sri Datta Sai Tower, Vijay Nagar, Hari Om Nagar Road, Thane East · 022 2532 4011",,",forexCell@svcbank.com,tradefinancemumbai@svcbank.com,x3ergicl.queries@svcbank.com,sharmack@svcbank.com,rgicl.queries@svcbank.com,tradefinanceou@svcbank.com,","19.0442655,72.7930382"
State Bank of India THANE.,Banks,Mumbai,"Sadguru Gardens, Marigold, Mithbunder Rd · 1800 425 3800",,",John.Smith@sbi.co.in,Smith.John@sbi.co.in,gm.customer@sbi.co.in,agmcustomer.lhomah@sbi.co.in,cppc.mumbai@sbi.co.in,customercare@sbi.co.in,x3eJohn.Smith@sbi.co.in,BOI.CallCentre@bankofindia.co.in,sanjeevani.hr@sbi.co.in,x3esanjeevani.hr@sbi.co.in,JSmith@statebankofindia.com,x3eBOI.CallCentre@bankofindia.co.in,sbi.00489@sbi.co.in,Smith@sbi.co.in,J.Smith@sbi.co.in,","19.2241327,72.9263338"
The Thane District Central Co-Operative Bank Ltd,Banks,Mumbai,"5XMC+479, Siddharth Nagar, Bara Bungalow Rd · 022 2532 0527",,",enquiry@thanedistrictbank.com,Thane.dccb@gmail.com,Atm@thanedistrictbank.com,x3errshinde@mumbaidistrictbank.com,rrshinde@mumbaidistrictbank.com,dccb@gmail.com,","19.2094939,72.7781989"
The Navjeevan Bank,Banks,Mumbai,"5XMF+5C6, Krishna Niwas, Chhatrapati Shivaji Society, Harishchandra Raut Marg, Kopri Colony, Daulat Nagar, Thane East, Thane, Maharashtra 400603",022 2532 3675,",feedback@njcb.in,navjeevanbank@njcb.in,x3errshinde@mumbaidistrictbank.com,rrshinde@mumbaidistrictbank.com,","19.1829247,72.9709436"
Axis Bank Branch,Banks,Mumbai,"Ground Floor, Geeta Construction Company Anand Cinema, Station Rd · 1860 500 5555",,",merchant.helpdesk@axisbank.com,x3emerchant.helpdesk@axisbank.com,x3enodal.officer@axisbank.com,nodal.officer@axisbank.com,","19.0439404,72.7708467"
Bank of Baroda,Banks,Mumbai,"Ratan House, Ganesh Purushottam Pai Rd · 1800 258 4455",,"cs.ho@bankofbaroda.com,,bankofbaroda.com_zm.mgz@bankofbaroda.com,x3ezm.mgz@bankofbaroda.com,ngm.ops.ho@bankofbaroda.com,relations.ibu@bankofbaroda.com,zm.rajkot@bankofbaroda.com,ZM.GMZ@BANKOFBARODA.COM,x3ebarodaconnect@bankofbaroda.com,x3eBOI.CallCentre@bankofindia.co.in,u003eZM.GMZ@BANKOFBARODA.COM,x3ezm.bojz@bankofbaroda.com,barodaconnect@bankofbaroda.com,x3egm.ops.ho@bankofbaroda.com,zm.bojz@bankofbaroda.com,zm.mgz@bankofbaroda.com,BOI.CallCentre@bankofindia.co.in,ifscbu@bankofbaroda.com,gm.ops.ho@bankofbaroda.com,x3ezm.rajkot@bankofbaroda.com,rm.tirupati@bankofbaroda.co.in,zm.nz@bankofbaroda.com,","19.0821357,72.679884"
Bank Of India - Kopri Colony Branch,Banks,Mumbai,"5XJF+82W Raut House, Datta Mandir Marg, near Sunita Society, Kopri Colony, Rajlaxman Society, Kopri, Thane East, Thane, Maharashtra 400603",1800 22 0229,"Kopricolony.NaviMumbai@bankofindia.co.in,,headoffice.csd@bankofindia.co.in,","19.1826955,72.9745953"
"TJSB Bank, Thane East Branch",Banks,Mumbai,"Bhivra Bhavan, Tilak Nagar, Thane East, Maharashtra 400603",022 2532 4330,"tjsb.071@tjsb.co.in,,","19.1827421,72.9745918"
Axis Bank ATM,Banks,Mumbai,"Shop No 1, Building No 25, near Thane · 1860 500 5555",,",pno@axisbank.com,x3epno@axisbank.com,x22merchant.helpdesk@axisbank.com,merchant.helpdesk@axisbank.com,x3emerchant.helpdesk@axisbank.com,","19.0663137,72.720172"
Axis Bank ATM,Banks,Mumbai,"Shop No 2, Ground Floor, Narain Niwas, Railway Station, opposite Thane · 1860 419 5555",,",pno@axisbank.com,x3epno@axisbank.com,x22merchant.helpdesk@axisbank.com,merchant.helpdesk@axisbank.com,x3emerchant.helpdesk@axisbank.com,","19.0575742,72.7838946"
Kotak Mahindra Bank,Banks,Mumbai,"Anand Theatre Compound, Station Rd · 1860 266 0811",,",x3eservice.cards@kotak.com,x3ecare@kotak.com,x3eitsecurity.bank@kotak.com,x3eservice.securities@kotak.com,service.cards@kotak.com,x3eKprime.service@kotak.com,care@kotak.com,x3ejane.doe@kotak.com,itsecurity.bank@kotak.com,jane.doe@kotak.com,service.securities@kotak.com,Kprime.service@kotak.com,","19.0777825,72.711864"
Axis Bank ATM,Banks,Mumbai,"Ground floor, Geeta Construction Company Anand Cinema, Station Rd · 1860 500 5555",,",pno@axisbank.com,x3epno@axisbank.com,x22merchant.helpdesk@axisbank.com,merchant.helpdesk@axisbank.com,x3emerchant.helpdesk@axisbank.com,","19.0663137,72.720172"
ICICI BANK ATM,Banks,Mumbai,"Shop No. - 1, Room No. - 218, Anand Nagar, Kopri Bridge, near Kamgar Kalyan Kendra · 1800 1080",,",digitallending@icicibank.com,x3eCustomer.care@icicibank.com,x3edigitallending@icicibank.com,Customer.care@icicibank.com,","19.0348532,72.7956439"
Axis Bank ATM,Banks,Mumbai,"Shop No 3, Chendani Koliwada · 1860 500 5555",,",pno@axisbank.com,x3epno@axisbank.com,x22merchant.helpdesk@axisbank.com,merchant.helpdesk@axisbank.com,x3emerchant.helpdesk@axisbank.com,","19.0575742,72.7838946"
YES Bank,Banks,Mumbai,"Shop No7, 8, 9, Gautam Chs, Harishchandra Raut Marg",,",yestouch@yesbank.in,u003eyestouch@yesbank.in,BOI.CallCentre@bankofindia.co.in,x3eBOI.CallCentre@bankofindia.co.in,yesfirst@yesbank.in,","19.0865776,72.7208749"
Thane Janata Sarkari Bank,Banks,Mumbai,"1, Lokmanya Tilak Path · 022 2583 8538",,"careers@tjsb.co.in,response@tjsb.co.in,jsbho@janatabankpune.com,,","19.182056,72.9741031"
Punjab National Bank - Thane (East) Branch,Banks,Mumbai,"5XMF+587, Behind Bharat English School, Harishchandra Raut Marg, Kopri, Thane East, Thane, Maharashtra 400603",1800 180 2222,"corporatecare@pnb.com.ph,,pnbcreditcards@pnb.com.ph,x3ecare@pnb.co.in,care@pnb.co.in,bo3303@pnb.co.in,board@pnb.co.in,bo0552@pnb.co.in,bo090210@pnb.co.in,customercare@pnb.com.ph,","19.1829155,72.9707276"
CENTRAL BANK OF INDIA - THANE (EAST) Branch,Banks,Mumbai,"SARVA SEWA SAMITI TRUST SHIVLEELA HOUSE, Kopri Colony, Thane, Maharashtra 400603",022 2532 6037,",x3edgmoper@centralbank.co.in,complaints@centralbank.co.in,cmmums0619@centralbank.co.in,rmmsro@centralbank.co.in,agmmmo0621@centralbank.co.in,debitcard@centralbank.co,dgmoper@centralbank.co.in,","19.1811716,72.9698131"
Bank of Maharashtra,Banks,Mumbai,Renuka Apartment Adarsh Colony · 1800 233 4526,,",boi.customerservices@oberthur.com,Boi.neft@bankofindia.co.in,u003ecmcustomerservice@mahabank.co.in,cmcustomerservice@mahabank.co.in,BOI.CallCentre@bankofindia.co.in,x3eBoi.neft@bankofindia.co.in,hocomplaints@mahabank.co.in,u003ehocomplaints@mahabank.co.in,Rtgs.boi@bankofindia.co.in,mahasecure@mahabank.co.in,x3eBOI.CallCentre@bankofindia.co.in,x3eboi.customerservices@oberthur.com,x3eRtgs.boi@bankofindia.co.in,","19.04742,72.7956656"
Thane Bharat Sahakari Bank-Thane East Branch,Banks,Mumbai,"5XMG+485, Opposite Karam Ground, Ashirwad Hospital, Nav Aashirvad, Near Daulat Nagar, Harishchandra Raut Marg, Kopri, Thane East, Thane, Maharashtra 400603",022 2532 3951,",main@tbsbl.com,rtgs.tbsb@thanebharatbank.net,","19.1827667,72.9732985"
CANARA BANK - THANE KOPRI COLONY,Banks,Mumbai,"S.O, 5 STAR BUILDING, GROUND FLOOR, Kopri Colony, Thane East, Thane, Maharashtra 400603",1800 425 0018,",cb0266@canarabank.com,","19.1848664,72.9719706"
The Saraswat Co-Operative Bank Limited Kopri Colony Branch,Banks,Mumbai,"6-11, Saitirtha, Bara Bungalow Rd, Kopri Colony, Siddharth Nagar, Thane East, Thane, Maharashtra 400603",022 2532 5016,"corporatecenter@saraswatbank.com,,x3ecustomerservicecentre@saraswatbank.com,customerservicecentre@saraswatbank.com,u2013customerservicecentre@saraswatbank.com,","19.1827105,72.9683307"
Bank of India,Banks,Mumbai,"5XJF+82W, Raut House, Lokmanya Tilak Road · 25320589",,",boimnz@vsnl.com,manasi.phene@bankofindia.co.in,x3eboi.starconnect@bankofindia.com,boi.starconnect@bankofindia.com,x3eboimnz@vsnl.com,BOI.CallCentre@bankofindia.co.in,x3eBOI.CallCentre@bankofindia.co.in,boi.callcentre@bankofindia.co.in,","19.0347133,72.769618"
ICICI Bank Thane Kopri,Banks,Mumbai,"No. F, Sai Tirth Tower, ICICI Bank Ltd, Shop No.18 to 21, Ground Floor B wing Bldg, Sidharth Nagar, Kopri, Thane(E, Thane, Maharashtra 400603",,",customer.care@icicibank.com,x3ecustomer.care@icicibank.com,","19.1827419,72.9680915"
Union Bank of India,Banks,Mumbai,"5XMF+R45, Dr. Chaithram Gidwani Marg, Kopri Colony, Kishor Nagar, Thane East · 1800 22 2244",,",customerservice@www.unionbankng.com,x3eBoi.neft@bankofindia.co.in,Rtgs.boi@bankofindia.co.in,Boi.neft@bankofindia.co.in,ccd.grievances@unionbankofindia.bank,x3ecustomerservice@www.unionbankng.com,x3eBOI.CallCentre@bankofindia.co.in,x3eRtgs.boi@bankofindia.co.in,x3ecustomer.service@unionbankph.com,BOI.CallCentre@bankofindia.co.in,customercare@unionbankofindia.com,u003ecustomercare@unionbankofindia.com,boi.customerservices@oberthur.com,Mumbai@unionbankofindia.com,customer.service@unionbankph.com,x3eboi.customerservices@oberthur.com,x22customer.service@unionbankph.com,cgo@unionbankofindia.com,","19.0808182,72.7046555"
SVC Bank,Banks,Mumbai,"Ground Floor, Sri Datta Sai Tower, Vijay Nagar, Hari Om Nagar Road, Thane East · 022 2532 4011",,",forexCell@svcbank.com,tradefinancemumbai@svcbank.com,x3ergicl.queries@svcbank.com,sharmack@svcbank.com,rgicl.queries@svcbank.com,tradefinanceou@svcbank.com,","19.0442655,72.7930382"
State Bank of India THANE.,Banks,Mumbai,"Sadguru Gardens, Marigold, Mithbunder Rd · 1800 425 3800",,",John.Smith@sbi.co.in,Smith.John@sbi.co.in,gm.customer@sbi.co.in,agmcustomer.lhomah@sbi.co.in,cppc.mumbai@sbi.co.in,customercare@sbi.co.in,x3eJohn.Smith@sbi.co.in,BOI.CallCentre@bankofindia.co.in,sanjeevani.hr@sbi.co.in,x3esanjeevani.hr@sbi.co.in,JSmith@statebankofindia.com,x3eBOI.CallCentre@bankofindia.co.in,sbi.00489@sbi.co.in,Smith@sbi.co.in,J.Smith@sbi.co.in,","19.2241327,72.9263338"
The Thane District Central Co-Operative Bank Ltd,Banks,Mumbai,"5XMC+479, Siddharth Nagar, Bara Bungalow Rd · 022 2532 0527",,",enquiry@thanedistrictbank.com,Thane.dccb@gmail.com,Atm@thanedistrictbank.com,x3errshinde@mumbaidistrictbank.com,rrshinde@mumbaidistrictbank.com,dccb@gmail.com,","19.2094939,72.7781989"
The Navjeevan Bank,Banks,Mumbai,"5XMF+5C6, Krishna Niwas, Chhatrapati Shivaji Society, Harishchandra Raut Marg, Kopri Colony, Daulat Nagar, Thane East, Thane, Maharashtra 400603",022 2532 3675,",feedback@njcb.in,navjeevanbank@njcb.in,x3errshinde@mumbaidistrictbank.com,rrshinde@mumbaidistrictbank.com,","19.1829247,72.9709436"
Axis Bank Branch,Banks,Mumbai,"Ground Floor, Geeta Construction Company Anand Cinema, Station Rd · 1860 500 5555",,",merchant.helpdesk@axisbank.com,x3emerchant.helpdesk@axisbank.com,x3enodal.officer@axisbank.com,nodal.officer@axisbank.com,","19.0439404,72.7715841"
Bank of Baroda,Banks,Mumbai,"Ratan House, Ganesh Purushottam Pai Rd · 1800 258 4455",,"cs.ho@bankofbaroda.com,,x3egm.ops.ho@bankofbaroda.com,x3ezm.mgz@bankofbaroda.com,zm.bojz@bankofbaroda.com,x3ezm.rajkot@bankofbaroda.com,zm.mgz@bankofbaroda.com,gm.ops.ho@bankofbaroda.com,BOI.CallCentre@bankofindia.co.in,barodafastag@viaplus.com,rm.tirupati@bankofbaroda.co.in,ngm.ops.ho@bankofbaroda.com,x3eBOI.CallCentre@bankofindia.co.in,barodaconnect@bankofbaroda.com,zm.rajkot@bankofbaroda.com,x3ebarodaconnect@bankofbaroda.com,x3ezm.bojz@bankofbaroda.com,","19.0821357,72.679884"
Bank Of India - Kopri Colony Branch,Banks,Mumbai,"5XJF+82W Raut House, Datta Mandir Marg, near Sunita Society, Kopri Colony, Rajlaxman Society, Kopri, Thane East, Thane, Maharashtra 400603",1800 22 0229,"Kopricolony.NaviMumbai@bankofindia.co.in,,headoffice.csd@bankofindia.co.in,","19.1826955,72.9745953"
"TJSB Bank, Thane East Branch",Banks,Mumbai,"Bhivra Bhavan, Tilak Nagar, Thane East, Maharashtra 400603",022 2532 4330,"tjsb.071@tjsb.co.in,,","19.1827421,72.9745918"
Axis Bank ATM,Banks,Mumbai,"Shop No 1, Building No 25, near Thane · 1860 500 5555",,",pno@axisbank.com,x3epno@axisbank.com,x22merchant.helpdesk@axisbank.com,merchant.helpdesk@axisbank.com,x3emerchant.helpdesk@axisbank.com,","19.0575742,72.7838946"
Axis Bank ATM,Banks,Mumbai,"Shop No 2, Ground Floor, Narain Niwas, Railway Station, opposite Thane · 1860 419 5555",,",pno@axisbank.com,x3epno@axisbank.com,x22merchant.helpdesk@axisbank.com,merchant.helpdesk@axisbank.com,x3emerchant.helpdesk@axisbank.com,","19.0575742,72.7838946"
Bank Of India,Banks,Mumbai, Fountain,,",boimnz@vsnl.com,manasi.phene@bankofindia.co.in,x3eboi.starconnect@bankofindia.com,boi.starconnect@bankofindia.com,x3eboimnz@vsnl.com,BOI.CallCentre@bankofindia.co.in,x3eBOI.CallCentre@bankofindia.co.in,","19.0347133,72.769618"
Bank Of India,Banks,Mumbai, Fort,,",boimnz@vsnl.com,manasi.phene@bankofindia.co.in,x3eboi.starconnect@bankofindia.com,boi.starconnect@bankofindia.com,x3eboimnz@vsnl.com,BOI.CallCentre@bankofindia.co.in,x3eBOI.CallCentre@bankofindia.co.in,","19.0347133,72.769618"
Bank Of INDIA,Banks,Mumbai,Post Box No 1618 Fort,,",boimnz@vsnl.com,manasi.phene@bankofindia.co.in,x3eboi.starconnect@bankofindia.com,boi.starconnect@bankofindia.com,x3eboimnz@vsnl.com,BOI.CallCentre@bankofindia.co.in,x3eBOI.CallCentre@bankofindia.co.in,","19.0347133,72.769618"
Bank Of INDIA,Banks,Mumbai,Near Colaba Causeway Apollo Bunder,,",boimnz@vsnl.com,manasi.phene@bankofindia.co.in,x3eboi.starconnect@bankofindia.com,boi.starconnect@bankofindia.com,x3eboimnz@vsnl.com,BOI.CallCentre@bankofindia.co.in,x3eBOI.CallCentre@bankofindia.co.in,","19.0347133,72.769618"
Bank Of India (NRI Branch),Banks,Mumbai,Near Mumbai Fort,,",x3eboi.starconnect@bankofindia.com,boi.starconnect@bankofindia.com,ErnakulamNRI.Kerala@bankofindia.co.in,FEBO.NRI@bankofindia.co.in,","19.0112121,72.7486694"
IDFC First Bank,Banks,Mumbai,Next Solitaire Corporate Park Opposite Holy Family School Andheri East,,",nodaldesk@idfcfirstbank.com,COO@idfcfirstbank.com,x3enriservices@idfcfirstbank.com,CEO@idfcfirstbank.com,pno@idfcfirstbank.com,RNO.Mumbai@idfcfirstbank.com,banker@idfcfirstbank.com,firstcontactcomplaints@firstbanknigeria.com,x3enodaldesk@idfcfirstbank.com,nriservices@idfcfirstbank.com,x3efirstcontactcomplaints@firstbanknigeria.com,","19.0882275,72.7103437"
HDFC Bank (Central Processing Unit),Banks,Mumbai,Off Saki Vihar Road Sakinaka,,",x3ebohdfcdel@hdfcbank.com,bohdfcdel@hdfcbank.com,","19.0444391,72.7929425"
HDFC Bank (Corporate Office),Banks,Mumbai,"169, HT Parekh Marg, Churchgate, Mumbai, Maharashtra 400020",,",corpcomm@hdfcbank.com,","18.9295608,72.823706"
Reserve Bank Of India (Regional Office),Banks,Mumbai,Opposite New Central Office Building Kala Ghoda Fort,,".in_casrbi@nagpur.dot.net.in,,u003erdmumbai@rbi.org.in,cgmidmd@rbi.org.in,rdnagpur@rbi.org.in,dicgc@bom.5.vsnl.net.in,cms.bochandigarh@rbi.org.in,casrbi@nagpur.dot.net.in,x3ecrpc@rbi.org.in,rdmumbai@rbi.org.in,u003e_dicgc@bom.5.vsnl.net,crpc@rbi.org.in,.in_rdnagpur@rbi.org,","18.9990687,72.7695954"
Reserve Bank Of India,Banks,Mumbai, Fort,,",idpmssupport@rbi.org.in,fedcotrade@rbi.org.in,cgmfmod@rbi.org.in,x3eidpmssupport@rbi.org.in,aaos@rbi.org.in,x3ecrpc@rbi.org.in,edpmssupportngp@rbi.org.in,crpc@rbi.org.in,x3eaaos@rbi.org.in,","18.999014,72.7549594"
NKGSB Co-op Bank Ltd (Thane Naupada Branch),Banks,Mumbai,"Raunak Arcade, 7/8, Ghantali Devi Rd, Naupada, Thane West, Thane, Maharashtra 400602",022 2537 0920,"laxmikantdesai@nkgsb-bank.com,,","19.1872496,72.9670238"
Thane Bharat Sahakari Bank Limited,Banks,Mumbai,"5XRC+6QQ, Sahayog Mandir Path · 022 2542 9432",,",main@tbsbl.com,complaint@tbsbl.com,rtgs.tbsb@thanebharatbank.net,","19.1154427,72.7510537"
CANARA BANK - THANE NAUPADA,Banks,Mumbai,"41A GOKHALE ROAD, NAUPADA NAUPADA S.O, Thane, Maharashtra 400602",1800 425 0018,",x22hocancard@canarabank.com,hocancard@canarabank.com,cb0228@canarabank.com,x3ehocancard@canarabank.com,","19.1879669,72.9708032"
Thane Bharat Sahakari Bank Limited,Banks,Mumbai,"Western India Steel Industries Compound, Pokharan Rd Number 2, opp. Oswal Park · 022 2173 6262",,",main@tbsbl.com,complaint@tbsbl.com,rtgs.tbsb@thanebharatbank.net,","19.1154427,72.7510537"
"Bharat Co-operative Bank (Mumbai) LTD, Thane Branch",Banks,Mumbai,"Panama Planet, Gokhale Road, Naupada, opp. Hotel Amruta, Thane, Maharashtra 400602",022 2537 6552,",NodalOfficer@bharatbank.co.in,x3ebhandup@bharatbank.co.in,bhandup@bharatbank.co.in,kalyan.west@bharatbank.co.in,mbank@bharatbank.co.in,x3embank@bharatbank.co.in,","19.1880898,72.9705982"
Bank of India - Thane Corporate Banking Branch,Banks,Mumbai,"G-5, GR.FL, AKRUTI SMC, OFF LBS MARG, KHOPAT JUNCTION, THANE (WEST), Thane, Maharashtra 400601",1800 22 0229,",thane.raigadthane@bankofindia.co,ThaneMCB.RaigadThane@bankofindia.co.in,callcentre@bankofindia.co.in,hooper@bankofindia.co.in,","19.1906949,72.9738853"
"Thane Bharat Sahakari bank, Rutu Park Branch",Banks,Mumbai,"D-2, Eastern Express Hwy, Rutu Park, Panchsheel Nagar, Thane West, Thane, Maharashtra 400601",022 2544 2363,",response@tjsb.co.in,main@tbsbl.com,","19.2101218,72.9795074"
"NKGSB Co-operative Bank Limited- Vartak Nagar,Thane West Branch",Banks,Mumbai,"Shop No.S2, 23,24,25, Vedant Commercial Complex, Madrecha Rd, Tulsi Dham, Vartak Nagar, Thane West, Thane, Maharashtra 400606",022 2585 3349,"laxmikantdesai@nkgsb-bank.com,,","19.2086069,72.9575862"
Karnataka Bank - Thane Branch & ATM,Banks,Mumbai,"Shop No.12, VIHANG GARDEN, Pokharan Rd Number 1, opp. raymonds, Tulsi Dham, Vartak Nagar, Thane West, Mumbai, Thane, Maharashtra 400606",1800 425 1444,,"19.2084569,72.9607818"
Thane Bharat Sahakari Bank Limited - Chandanwadi Branch,Banks,Mumbai,"5XXC+PM7, Mahesh Darshan, Near Makhmali Talao, Old Mumbai, Agra Road, Ganeshwadi, Thane West, Thane, Maharashtra 400601",022 2533 5237,",main@tbsbl.com,","19.1992978,72.9691098"
Punjab National Bank - Thane West Branch,Banks,Mumbai,"5XQ8+3WP, Satyam Apartment Mahatma Gandhi Rd Near Malhar Cinema · 1800 180 2222",,"corporatecare@pnb.com.ph,,bo3739@pnb.co.in,pnbcreditcards@pnb.com.ph,bo1144@pnb.co.in,x3ecare@pnb.co.in,care@pnb.co.in,bo090210@pnb.co.in,customercare@pnb.com.ph,bo2176@pnb.co.in,","19.1982202,72.9456491"
The Thane District Central co-op Bank R M Road Branch,Banks,Mumbai,"x 2, Ram Maruti Rd, Naupada, Thane West, Thane, Maharashtra 400602",,",enquiry@thanedistrictbank.com,","19.1892299,72.9692921"
ICICI BANK LTD,Banks,Mumbai,"ATM ID-S1CPS152,Icici Bank Atm Rajdeep Society, Gokhale Rd, near Malhar Cinema, opp. Hutch Gallery · 1860 120 7777",,",digitallending@icicibank.com,x3edigitallending@icicibank.com,IR@icicibank.com,x3enpshelpdesk@icicisecurities.com,x3ecustomer.care@icicibank.com,npshelpdesk@icicisecurities.com,managingdirector@icicibank.com,customer.care@icicibank.com,","19.0371365,72.7821504"
Thane Bharat Sahakari Bank LTD,Banks,Mumbai,"6XFV+2F9, Subh Vihar, opp to, Dadlani Rd",,",main@tbsbl.com,rtgs.tbsb@thanebharatbank.net,","19.1189072,72.7510537"
State Bank Of India,Banks,Mumbai,"425, Gokhale Rd · 1800 11 2211",,",PrincipalNodalOfficer@sbicard.com,gm.customer@sbi.co.in,boi.customerservices@oberthur.com,agmcustomer.lhomah@sbi.co.in,cppc.mumbai@sbi.co.in,x3ePrincipalNodalOfficer@sbicard.com,Boi.neft@bankofindia.co.in,customercare@sbi.co.in,BOI.CallCentre@bankofindia.co.in,x3eBoi.neft@bankofindia.co.in,sanjeevani.hr@sbi.co.in,Rtgs.boi@bankofindia.co.in,inb.cinb@sbi.co.in,x3esanjeevani.hr@sbi.co.in,x3eBOI.CallCentre@bankofindia.co.in,x3eboi.customerservices@oberthur.com,x3eRtgs.boi@bankofindia.co.in,","19.0630146,72.6852371"
CENTRAL BANK OF INDIA - THANE (EAST) Branch,Banks,Mumbai,"SARVA SEWA SAMITI TRUST SHIVLEELA HOUSE, Kopri Colony, Thane, Maharashtra 400603",022 2532 6037,",x3edgmoper@centralbank.co.in,complaints@centralbank.co.in,cmmums0619@centralbank.co.in,rmmsro@centralbank.co.in,agmmmo0621@centralbank.co.in,debitcard@centralbank.co,dgmoper@centralbank.co.in,","19.1811716,72.9698131"
Bank of Maharashtra,Banks,Mumbai,"Building No 22, Wing A & B Brinda, No 1 & 2 · 1800 233 4526",,",boi.customerservices@oberthur.com,Boi.neft@bankofindia.co.in,u003ecmcustomerservice@mahabank.co.in,cmcustomerservice@mahabank.co.in,BOI.CallCentre@bankofindia.co.in,x3eBoi.neft@bankofindia.co.in,hocomplaints@mahabank.co.in,u003ehocomplaints@mahabank.co.in,Rtgs.boi@bankofindia.co.in,mahasecure@mahabank.co.in,x3eBOI.CallCentre@bankofindia.co.in,x3eboi.customerservices@oberthur.com,x3eRtgs.boi@bankofindia.co.in,","19.04742,72.7956656"
ICICI BANK LTD,Banks,Mumbai,"ATM ID-S1CNC192,Icici Bank Atm, Shop No .3 Ganga pachvati CHS, bldg no.12 A, vrindavan, near bus depot · 1860 120 7777",,",digitallending@icicibank.com,x3edigitallending@icicibank.com,IR@icicibank.com,x3enpshelpdesk@icicisecurities.com,x3ecustomer.care@icicibank.com,npshelpdesk@icicisecurities.com,managingdirector@icicibank.com,customer.care@icicibank.com,","19.0371365,72.7836278"
Citizens Co-operative Bank Ltd,Banks,Mumbai,"3/4, Laxmi Palace, M. G. Road, Naupada Thane · 022 2538 1273",,",Ccbl@citizencreditbank.com,info@citizensbankrajkot.co.in,citizen.bank@rediffmail.com,","19.0993257,72.747048"
Bank of Maharashtra,Banks,Mumbai,"GF, Thane Municipal Corporation Building Panchpakhadi · 1800 233 4526",,",boi.customerservices@oberthur.com,Boi.neft@bankofindia.co.in,u003ecmcustomerservice@mahabank.co.in,cmcustomerservice@mahabank.co.in,BOI.CallCentre@bankofindia.co.in,x3eBoi.neft@bankofindia.co.in,hocomplaints@mahabank.co.in,u003ehocomplaints@mahabank.co.in,Rtgs.boi@bankofindia.co.in,mahasecure@mahabank.co.in,x3eBOI.CallCentre@bankofindia.co.in,x3eboi.customerservices@oberthur.com,x3eRtgs.boi@bankofindia.co.in,","19.04742,72.7956656"
Axis Bank ATM,Banks,Mumbai,"High Street Mall Bhiwandi Road, Junction, near Big Bazar · 1860 419 5555",,",pno@axisbank.com,x3epno@axisbank.com,x22merchant.helpdesk@axisbank.com,merchant.helpdesk@axisbank.com,x3emerchant.helpdesk@axisbank.com,","19.0575742,72.7838946"
Axis Bank Branch,Banks,Mumbai,"Shop No 2, Ground Floor, Sheth Avalon, G Wing, near Viviana Mall · 1860 500 5555",,",merchant.helpdesk@axisbank.com,x3emerchant.helpdesk@axisbank.com,x3enodal.officer@axisbank.com,nodal.officer@axisbank.com,","19.0439404,72.7715841"
Axis Bank Branch,Banks,Mumbai,"Shop No 13 to 18, GF, Rajdeep Galleria Ponda Madgaon Road, Ponda · 1860 500 5555",,",merchant.helpdesk@axisbank.com,x3emerchant.helpdesk@axisbank.com,x3enodal.officer@axisbank.com,nodal.officer@axisbank.com,","19.0439404,72.7708467"
"ICICI Bank Gokhale Road, Thane-Branch & ATM",Banks,Mumbai,"Gokhale Road, Pathare Building, Naupada, near Gaondevi Mandir, Thane, Maharashtra 400602",1860 120 6699,,"19.1906065,72.9682527"
"TJSB Bank, Khopat Branch",Banks,Mumbai,"Golden Heavens Apartment Near Pratap Talkies Khopat, Pokharan Rd Number 1",,",tjsb.053@tjsb.co,","19.2081446,72.9557047"
MAHARASHTRA GRAMIN BANK REGIONAL OFFICE RO,Banks,Mumbai,"3rd FLOOR MTNL EXCHANGE CHARAI OPP GANESH TALKIES, Charai, Thane West, 400601",,",chairman@mahagramin.co.in,hocomplaints@mahabank.co.in,x3ehocomplaints@mahabank.co.in,gmit@mahagramin.co.in,cmcustomerservice@mahabank.co.in,","19.1989546,72.9718066"
Citizen Credit Co-operative Bank,Banks,Mumbai,"Shop No.2 & 3, Angels’ Paradise, Veer Savarkar Marg, near Dagadi Shala · 022 2542 5447",,",ccbl@citizencreditbank.com,","19.0795656,72.6986274"
Suryoday Small Finance Bank,Banks,Mumbai,"Ground Floor, Flower Valley Complex, Eastern Express Hwy, opposite to Viviana Mall · 1800 266 7711",,",cs@suryodaybank.com,x3ecs@suryodaybank.com,geeta.krishnan@suryodaybank.com,x3ecustomercare@aubank.in,smile@suryodaybank.com,customercare@aubank.in,","19.1219746,72.768189"
"TJSB Bank, Ram Maruti Road Branch",Banks,Mumbai,"Building, Ground Floor, People Education Society, Ram Maruti Rd · 022 2174 8517",,",response@tjsb.co.in,tjsb.053@tjsb.co,","19.1913775,72.9701978"
G P Parsik Bank,Banks,Mumbai,"GB-149, Ground Floor, Highland Corporate Center, Near Big Bazar, Majiwade · 022 2542 0359",,",helpdesk@gpparsikbank.net,","19.1548493,72.7690957"
State Bank of India PBB VASANT VIHAR THANE,Banks,Mumbai,"CHESTNUT PLAZA, Gladys Alwares Rd, opp. Eden Woods Road, Thane, Maharashtra 400616",022 2589 3426,",contactcentre@sbi.co.in,sbi.04314@sbi.co.in,sbi.04314@sbi.co,","19.231431,72.9673171"
Axis Bank ATM,Banks,Mumbai,Survey No 166/1 A Pt · 1860 500 5555,,",pno@axisbank.com,x3epno@axisbank.com,x22merchant.helpdesk@axisbank.com,merchant.helpdesk@axisbank.com,x3emerchant.helpdesk@axisbank.com,","19.0694613,72.8025809"
Union Bank Of India,Banks,Mumbai,"1st Floor, Dhanalaxmi, Estate, Navneet Motors, Gokulnagar, Thane West, Kapur Bawdi · 022 2172 1746",,",customerservice@www.unionbankng.com,x3eBoi.neft@bankofindia.co.in,Rtgs.boi@bankofindia.co.in,Boi.neft@bankofindia.co.in,ccd.grievances@unionbankofindia.bank,x3ecustomerservice@www.unionbankng.com,x3eBOI.CallCentre@bankofindia.co.in,x3eRtgs.boi@bankofindia.co.in,x3ecustomer.service@unionbankph.com,BOI.CallCentre@bankofindia.co.in,customercare@unionbankofindia.com,u003ecustomercare@unionbankofindia.com,dgro@unionbankofindia.bank,boi.customerservices@oberthur.com,Mumbai@unionbankofindia.com,customer.service@unionbankph.com,x3eboi.customerservices@oberthur.com,x22customer.service@unionbankph.com,cgo@unionbankofindia.com,","19.0808182,72.7046555"
G.P. Parsik Bank,Banks,Mumbai,"Green Rd, Opp Anurag Apartment · 022 2545 6500",,",helpdesk@gpparsikbank.net,","19.1548493,72.7690957"
Axis Bank ATM,Banks,Mumbai,"Shop No 2 to 4, Bhiwadiwala Building, near Thane Court · 1860 500 5555",,",pno@axisbank.com,x3epno@axisbank.com,x22merchant.helpdesk@axisbank.com,merchant.helpdesk@axisbank.com,x3emerchant.helpdesk@axisbank.com,","19.0663137,72.720172"
Axis Bank ATM,Banks,Mumbai,"George Mansion, Lal Bahadur Shastri Marg · 1860 500 5555",,",pno@axisbank.com,x3epno@axisbank.com,x22merchant.helpdesk@axisbank.com,merchant.helpdesk@axisbank.com,x3emerchant.helpdesk@axisbank.com,","19.0694613,72.8025809"
The Thane District Central Co-Operative Bank Ltd,Banks,Mumbai,"5XMC+479, Siddharth Nagar, Bara Bungalow Rd · 022 2532 0527",,",enquiry@thanedistrictbank.com,Thane.dccb@gmail.com,Atm@thanedistrictbank.com,x3errshinde@mumbaidistrictbank.com,rrshinde@mumbaidistrictbank.com,dccb@gmail.com,","19.2094939,72.7781989"
Kotak Mahindra Bank,Banks,Mumbai,"Unit No. 2, Unique Building, Ground and Mezzanine Floor, Hiranandani Estate Rd, opp. TMC Commissioner Bungalow · 1860 266 2666",,",x3eservice.cards@kotak.com,x3ecare@kotak.com,x3eitsecurity.bank@kotak.com,x3eservice.securities@kotak.com,service.cards@kotak.com,x3eKprime.service@kotak.com,care@kotak.com,x3ejane.doe@kotak.com,itsecurity.bank@kotak.com,jane.doe@kotak.com,service.securities@kotak.com,Kprime.service@kotak.com,","19.0777825,72.711864"
TJSB Sahakari Bank Limited - Patlipada,Banks,Mumbai,"6XXH+57H, G.B. Road, Hiranandini Road · 1800 22 3466",,",response@tjsb.co.in,tjsb.012@tjsb.co.in,","19.2479798,72.9763324"
SyndicateBank Thane Gokhale Road (Shivajipet) Branch,Banks,Mumbai,"Saro - Darshan Towers, Nr.M.H.Highschool, Shivaji Path, Thane, Maharashtra 400601",099690 02764,",br.5474@syndicatebank.co.in,br.5460@syndicatebank.co.in,","19.204372,72.9754001"
The Thane District Co-Operative Bank,Banks,Mumbai,"7VCH+99F, Abid Patel House, Near Amar Palace Hotel, Near A.P. International School, Miragaon National Highway, Miragaon Rd · 022 2845 7707",,",John@thanedistrictbank.com,enquiry@thanedistrictbank.com,response@tjsb.co.in,sn.kadlag@mumbaidistrictbank.com,x3errshinde@mumbaidistrictbank.com,rrshinde@mumbaidistrictbank.com,ctrdccb@gmail.com,","19.2094939,72.7687421"
Parsik Bank Kalwa Naka,Banks,Mumbai,"1, Thane - Belapur Rd, Shastri Nagar, Budhaji Nagar, Kalwa, Thane, Maharashtra 400605",,",helpdesk@gpparsikbank.net,","19.1964544,72.9853002"
IDFC FIRST Bank ATM,Banks,Mumbai,"SN 5A, Bldg No 1 & 10, Maithili Pride MHBCol, Vartak Ngr, Pokhran Rd, 1, JK Gramm, near HP Gas Godown · 1800 10888",,",nodaldesk@idfcfirstbank.com,x3enriservices@idfcfirstbank.com,x3enodaldesk@idfcfirstbank.com,nriservices@idfcfirstbank.com,","19.0662384,72.689612"
C.K.P. Co-Operative Bank,Banks,Mumbai,"5XPG+X86, Paranjape Udyog Bhavan, Ambedkar Chowk, Yashodhan, Shivaji Path, TMT Reserved Flyover SATIS · 022 2538 9673",,",k.h.road@bharatbank.co.in,surekha.poojary@bharatbank.co.in,xxxx@ckpbank.net,x3errshinde@mumbaidistrictbank.com,rrshinde@mumbaidistrictbank.com,","18.4760628,73.9007086"
Punjab National Bank E Lobby,Banks,Mumbai,"Shop No.23, Soham Plaza, Manpada Junction, Ghodbunder Road · 1800 180 2222",,"corporatecare@pnb.com.ph,,pnbcreditcards@pnb.com.ph,bo027920@pnb.co.in,x3ecustomercare@pnb.com.ph,x22customercare@pnb.com.ph,customercare@pnb.com.ph,",
Axis Bank ATM,Banks,Mumbai,"GF, Vardhman Vatika Chs, SN 49 to 52, Kolshet Rd · 1860 500 5555",,",pno@axisbank.com,x3epno@axisbank.com,x22merchant.helpdesk@axisbank.com,merchant.helpdesk@axisbank.com,x3emerchant.helpdesk@axisbank.com,",
The Kalyan Janta Sahakri Bank,Banks,Mumbai,"Shop No.1 , Rajashri Plaza, Ground floor, Lal Bahadur Shastri Marg, near Mhakmali talav · 022 2538 2763",,"avbele@kalyanjanata.in,,u003eresponse@kalyanjanata.in,response@kalyanjanata.in,jsbho@janatabankpune.com,adharwadi@kalyanjanata.in,",
Axis Bank ATM,Banks,Mumbai,"SG 23, Gr Flr, Shoppe, Dosti Imperia, Ghodbunder Rd, opposite R Mall · 1860 500 5555",,",pno@axisbank.com,x3epno@axisbank.com,x22merchant.helpdesk@axisbank.com,merchant.helpdesk@axisbank.com,x3emerchant.helpdesk@axisbank.com,",
Shree Arihant Co.op Bank,Banks,Mumbai,"Thane Nagar Vachan Mandir, 1st Floor, Tembi Naka, Thane West · 022 2543 7977",,",x3ehocomplaints@mahabank.co.in,cmcustomerservice@mahabank.co.in,hocomplaints@mahabank.co.in,",
Oriental Bank Of Commerce,Banks,Mumbai,"Shop No.2, Oasis Silver Stone, Ram Maruti Road, Naupada, Thane West, opposite Hotel Shiv Sagar · 022 2537 6084",,"infocppc@sbp.co.in,,insp@obc.co.in,BOI.CallCentre@bankofindia.co.in,hocomplaints@mahabank.co.in,x3ehocomplaints@mahabank.co.in,x3eBOI.CallCentre@bankofindia.co.in,pnd@obc.co.in,cmcustomerservice@mahabank.co.in,",
CSB Bank Mulund - Mumbai Branch & ATM,Banks,Mumbai,"Anu Apartment, Lal Bahadur Shastri Marg, Mulund (W, Govardhan Nagar, Mulund West, Thane, Maharashtra 400080",090726 01233,,"19.2025729,72.976639"
ICICI Bank Thane Kalher,Banks,Mumbai,"Ground Floor, Shop No. 1 & 2 H, Patel Arcade, 827, Thane Rd, Kalher, Thane, Bhiwandi, Maharashtra 421302",,",x22Customer.care@icicibank.com,x3eCustomer.care@icicibank.com,Customer.care@icicibank.com,","19.2502823,73.0146846"
IDFC FIRST Bank ATM,Banks,Mumbai,"No 21, Ground Floor, DOSTI IMPERIA, Bldg, Ghodbunder Rd · 1800 10888",,",nodaldesk@idfcfirstbank.com,x3enriservices@idfcfirstbank.com,x3enodaldesk@idfcfirstbank.com,nriservices@idfcfirstbank.com,",
State Bank Of India,Banks,Mumbai,"Akruti SMS, Lal Bahadur Shastri Marg, opposite ST Workshop · 1800 11 2211",,",PrincipalNodalOfficer@sbicard.com,gm.customer@sbi.co.in,boi.customerservices@oberthur.com,agmcustomer.lhomah@sbi.co.in,cppc.mumbai@sbi.co.in,x3ePrincipalNodalOfficer@sbicard.com,Boi.neft@bankofindia.co.in,customercare@sbi.co.in,BOI.CallCentre@bankofindia.co.in,x3eBoi.neft@bankofindia.co.in,sanjeevani.hr@sbi.co.in,Rtgs.boi@bankofindia.co.in,inb.cinb@sbi.co.in,x3esanjeevani.hr@sbi.co.in,x3eBOI.CallCentre@bankofindia.co.in,x3eboi.customerservices@oberthur.com,x3eRtgs.boi@bankofindia.co.in,",
Bandhan Bank ATM,Banks,Mumbai,"6X6G+6R7, Golden Park, Muktai Nagar, Old Agra, Thane West",,",charniroad.branch@bandhanbank.com,kharroad.branch@bandhanbank.com,customercare@bandhanbank.com,kandivalieast.branch@bandhanbank.com,Andheri.branch@bandhanbank.com,pno@bandhanbank.com,Nariamanpoint.branch@bandhanbank.com,x22customercare@bandhanbank.com,x3ecustomercare@bandhanbank.com,",
Thane District C C-op Bank Wagle Estate Branch,Banks,Mumbai,"5XP4+F9Q, MCED Office,, Thane West, Thane, Maharashtra 400080",,"thane.dccb@gmail.com,,rm_donde@yahoo.co.in,enquiry@thanedistrictbank.com,response@tjsb.co.in,x3errshinde@mumbaidistrictbank.com,rrshinde@mumbaidistrictbank.com,","19.1862056,72.9534144"
IDBI Bank,Banks,Mumbai,"Shop No.14,15, Chandan, MAITRI VATIKA, 16 &17, Pune - Mumbai Hwy · 1800 200 1947",,",a.khajuria@idbi.co.in,x3ecustomercare@idbi.co.in,customercare@idbi.co.in,rahul.nawkar@idbi.co.in,idbicards@idbi.co.in,",
Bank,Banks,Mumbai,"Samata Nagar, Sainath Nagar, Majiwada, Thane, Maharashtra 400601",,",clearing@greaterbank.com,pkvasudeo@mumbaidistrictbank.com,BOI.CallCentre@bankofindia.co.in,hocomplaints@mahabank.co.in,x3errshinde@mumbaidistrictbank.com,x3ehocomplaints@mahabank.co.in,x3eBOI.CallCentre@bankofindia.co.in,rrshinde@mumbaidistrictbank.com,cmcustomerservice@mahabank.co.in,",
Bank of India,Banks,Mumbai,"Block No, P. O., Tehsil, 8, Mumbai - Agra National Hwy · 2806224",,",boimnz@vsnl.com,manasi.phene@bankofindia.co.in,x3eboi.starconnect@bankofindia.com,boi.starconnect@bankofindia.com,x3eboimnz@vsnl.com,BOI.CallCentre@bankofindia.co.in,x3eBOI.CallCentre@bankofindia.co.in,",
Fino Payments Bank,Banks,Mumbai,"Near Masjid, Room-7882, Indira Nagar Rupadevipada-2, Road-34, Thane, Wagle I E · 081085 17910",,",nodalofficer@finobank.com,cs@finobank.com,",
ICICI Bank ATM,Banks,Mumbai,"Wing-A, MANCHESTER CHS, 8, Smelting Koros Rd",,",digitallending@icicibank.com,x3eCustomer.care@icicibank.com,x3edigitallending@icicibank.com,Customer.care@icicibank.com,",
ICICI Bank ATM,Banks,Mumbai,"Shop no 2 3 4 G Elite buildings Sidhanchal Phase 07 Pokhran road, 02, west · 1860 120 7777",,",digitallending@icicibank.com,x3eCustomer.care@icicibank.com,x3edigitallending@icicibank.com,Customer.care@icicibank.com,",
CANARA BANK ATM,Banks,Mumbai,"T M C School, SHOP NO-02, SANGAM · 1800 425 0018",,",x3ehocancard@canarabank.com,u003ecsscomcity@canarabank.com,x22hocancard@canarabank.com,hocancard@canarabank.com,mipdcopat@canarabank.com,csscopne@canarabank.com,x3ecallsupport@canarabank.com,csscoranchi@canarabank.com,csscomcity@canarabank.com,callsupport@canarabank.com,canarabank.com_csscoranchi@canarabank.com,",
New India Co Op Bank ATM,Banks,Mumbai,"400601, Mahapalika Bhavan Rd",,",rrshinde@mumbaidistrictbank.com,x3errshinde@mumbaidistrictbank.com,nmcb07@navimumbaibank.com,",
Bank of Baroda ATM,Banks,Mumbai,"16, SARASWATI SADAN, COLONY, Manpada Rd · 1800 258 4455",,",x3egm.ops.ho@bankofbaroda.com,x22crm@bobfinancial.com,x3ezm.mgz@bankofbaroda.com,dbbmmo@bankofbaroda.com,zm.bojz@bankofbaroda.com,x3ezm.rajkot@bankofbaroda.com,zm.mgz@bankofbaroda.com,gm.ops.ho@bankofbaroda.com,ngm.ops.ho@bankofbaroda.com,crm@bobfinancial.com,barodaconnect@bankofbaroda.com,zm.rajkot@bankofbaroda.com,x3ecrm@bobfinancial.com,x3ebarodaconnect@bankofbaroda.com,x3ezm.bojz@bankofbaroda.com,",
Kotak Mahindra Bank ATM,Banks,Mumbai,"Jai Commercial Complex, Jai Siddhivinayak Premises Chs, Pokharan Rd Number 1 · 1860 266 2666",,",x3eservice.cards@kotak.com,x3ecare@kotak.com,x3eitsecurity.bank@kotak.com,x3eservice.securities@kotak.com,service.cards@kotak.com,x3eKprime.service@kotak.com,care@kotak.com,itsecurity.bank@kotak.com,service.securities@kotak.com,Kprime.service@kotak.com,",
Axis Bank ATM,Banks,Mumbai,"Shop No.4 Building No.2, Ltd, Sahyog CHS · 1860 500 5555",,",pno@axisbank.com,x3epno@axisbank.com,x22merchant.helpdesk@axisbank.com,merchant.helpdesk@axisbank.com,x3emerchant.helpdesk@axisbank.com,",
IndusInd Bank ATM,Banks,Mumbai,"Shop No.1 A Wing, Suryadarshan Tower, Esic Road, off Eastern Express Highway · 1860 267 7777",,",customercare@indusind.com,x3eboiblbang@IndusInd.com,managingdirector@indusind.com,boiblbang@IndusInd.com,pioneer@indusind.com,",
CANARA BANK ATM,Banks,Mumbai,"SHOP NO-2, OMKAR NIWAS, near THAKUR COLLEGE · 1800 425 0018",,",x3ehocancard@canarabank.com,u003ecsscomcity@canarabank.com,x22hocancard@canarabank.com,hocancard@canarabank.com,mipdcopat@canarabank.com,csscopne@canarabank.com,x3ecallsupport@canarabank.com,csscoranchi@canarabank.com,csscomcity@canarabank.com,callsupport@canarabank.com,canarabank.com_csscoranchi@canarabank.com,",
Bank,Banks,Mumbai,"Samata Nagar, Sainath Nagar, Majiwada, Thane, Maharashtra 400601",,",clearing@greaterbank.com,x3edgmoper@centralbank.co.in,pkvasudeo@mumbaidistrictbank.com,cmcustomerservice@mahabank.co.in,hocomplaints@mahabank.co.in,audit@mcbbank.co.in,x3errshinde@mumbaidistrictbank.com,x3ehocomplaints@mahabank.co.in,rrshinde@mumbaidistrictbank.com,dgmoper@centralbank.co.in,tribhuvanera@mcbbank.co,",
IDBI Bank,Banks,Mumbai,"Shop No.14,15, Chandan, MAITRI VATIKA, 16 &17, Pune - Mumbai Hwy · 1800 200 1947",,",customercare@idbi.co.in,u003ecustomercare@idbi.co.in,rahul.nawkar@idbi.co.in,idbicards@idbi.co.in,",
TJSB Sahakari Bank Limited - Patlipada,Banks,Mumbai,"6XXH+57H, G.B. Road, Hiranandini Road · 1800 22 3466",,",response@tjsb.co.in,tjsb.012@tjsb.co.in,",
ATM ICICI BANK,Banks,Mumbai,"6X23+PC9, Road No. 16/Z · 1860 120 7777",,",digitallending@icicibank.com,x3eCustomer.care@icicibank.com,x3edigitallending@icicibank.com,Customer.care@icicibank.com,",
CANARA BANK ATM,Banks,Mumbai,"SHOP NO.5, SHIVSADAN APARTMENT · 1800 425 0018",,",x3ehocancard@canarabank.com,u003ecsscomcity@canarabank.com,x22hocancard@canarabank.com,hocancard@canarabank.com,mipdcopat@canarabank.com,csscopne@canarabank.com,x3ecallsupport@canarabank.com,csscoranchi@canarabank.com,csscomcity@canarabank.com,callsupport@canarabank.com,canarabank.com_csscoranchi@canarabank.com,",
Fino Payments Bank,Banks,Mumbai,"27, Salunkhe Niwas, Rupadevi Pada No.2 Roadno.33, Near Rupadevi Temple, Indira Nagar · 022 6868 1414",,",nodalofficer@finobank.com,cs@finobank.com,",
ICICI BANK ATM,Banks,Mumbai,6X5C+3FR,,",digitallending@icicibank.com,x3eCustomer.care@icicibank.com,x3edigitallending@icicibank.com,Customer.care@icicibank.com,",
TJSB Sahakari Bank Atm,Banks,Mumbai,"Shop No. 5, Ratna Umed Residency , Umed Nagar ,, Pipe Lina Road. Louis Wadi , Thane (W)",,",response@tjsb.co.in,tjsb.012@tjsb.co.in,",
ICICI Bank Atm,Banks,Mumbai,"Shop No.1, Star View Apt, Nr Hari Om Traders, Lokmanya & 8232 Nagar, Pada No 4 · 1860 120 7777",,",digitallending@icicibank.com,x3eCustomer.care@icicibank.com,x3edigitallending@icicibank.com,Customer.care@icicibank.com,",
ICICI Bank Atm,Banks,Mumbai,"Shop No-07, Swapnavanchs · 1860 120 7777",,",digitallending@icicibank.com,x3eCustomer.care@icicibank.com,x3edigitallending@icicibank.com,Customer.care@icicibank.com,",
State Bank Of India ATM,Banks,Mumbai,"5, Dev Daya Nagar Society Rd · 1800 11 2211",,",gm.customer@sbi.co.in,customercare@sbi.co.in,BOI.CallCentre@bankofindia.co.in,customercare@sbicard.com,n@sbmbank.co.in,x3ecustomercare@sbicard.com,x3eBOI.CallCentre@bankofindia.co.in,",
Union Bank of India ATM,Banks,Mumbai,"Shop No. 8-12, Ratna Umed Residency, Umed Nagar, Pipeline Road, Louis Wadi, Thane West · 1800 22 2244",,",x3ecustomer.service@unionbankph.com,customerservice@www.unionbankng.com,x3ecustomerservice@www.unionbankng.com,x3ecustomercare@unionbankofindia.com,customer.service@unionbankph.com,customercare@unionbankofindia.com,x22customer.service@unionbankph.com,",
Kotak Mahindra Bank ATM,Banks,Mumbai,"463, Khopat Rd · 1860 266 2666",,",x3eservice.cards@kotak.com,x3ecare@kotak.com,x3eitsecurity.bank@kotak.com,x3eservice.securities@kotak.com,service.cards@kotak.com,x3eKprime.service@kotak.com,care@kotak.com,itsecurity.bank@kotak.com,service.securities@kotak.com,Kprime.service@kotak.com,",
ICICI Bank ATM,Banks,Mumbai,"5XX6+XWR, Surya Darshan Bldg, Kamger Hospital, Thane West, opp. Urekan · 1860 120 7777",,",digitallending@icicibank.com,x3eCustomer.care@icicibank.com,x3edigitallending@icicibank.com,Customer.care@icicibank.com,",
State Bank Of India ATM,Banks,Mumbai,"Jai Commercial Complex, Khopat Rd · 1800 11 2211",,",gm.customer@sbi.co.in,customercare@sbi.co.in,BOI.CallCentre@bankofindia.co.in,customercare@sbicard.com,n@sbmbank.co.in,x3ecustomercare@sbicard.com,x3eBOI.CallCentre@bankofindia.co.in,",
ICICI Bank Atm,Banks,Mumbai,"Shop No-4, Vhihang Park, near Laxmi Park · 1860 120 7777",,",digitallending@icicibank.com,x3eCustomer.care@icicibank.com,x3edigitallending@icicibank.com,Customer.care@icicibank.com,",
ICICI Bank ATM,Banks,Mumbai,"Shop No 2, 3, 4, Plot No. 297, Madhuban CHS Ltd Service Road, West · 1860 120 7777",,",digitallending@icicibank.com,x3eCustomer.care@icicibank.com,x3edigitallending@icicibank.com,Customer.care@icicibank.com,",
ICICI Bank ATM,Banks,Mumbai,"15, Neelkanth Heights, Rameswar Tower, Between Pokhran 1 & 2 · 1860 120 7777",,",digitallending@icicibank.com,x3eCustomer.care@icicibank.com,x3edigitallending@icicibank.com,Customer.care@icicibank.com,",
ICICI Bank - ATM,Banks,Mumbai,"5XX6+277, Pipeline Rd · 1860 120 7777",,",digitallending@icicibank.com,x3eCustomer.care@icicibank.com,x3edigitallending@icicibank.com,Customer.care@icicibank.com,",
Bandhan Bank,Banks,Mumbai,"Shop No.2 (Part), M/s Wood Plaza, Golden Dyes Compound, opp. Navneet Motors · 1800 258 8181",,",pno@axisbank.com,x3eSecretary.Karthikeyan@bankofindia.co.in,Secretary.Karthikeyan@bankofindia.co.in,ch.kochi@bandhanbank.com,x3epno@axisbank.com,Andheri.branch@bandhanbank.com,ed1@mahabank.co.in,x22customercare@bandhanbank.com,customercare@bandhanbank.com,x3esujoy.roy@bandhanbank.com,pno@bandhanbank.com,sujoy.roy@bandhanbank.com,Nariamanpoint.branch@bandhanbank.com,x3ecustomercare@bandhanbank.com,kharroad.branch@bandhanbank.com,chembur.branch@bandhanbank.com,ch.delhi@bandhanbank.com,x3eed1@mahabank.co.in,",
ICICI Bank Atm,Banks,Mumbai,"Chourishya Foot Wear,Road No-34,Nr Shiv Sena Shaka · 1860 120 7777",,",digitallending@icicibank.com,x3eCustomer.care@icicibank.com,x3edigitallending@icicibank.com,Customer.care@icicibank.com,",
Saraswat Bank ATM,Banks,Mumbai,"Ground Floor, Nitin Company, Nakshatra Tower, road, opp. Thane Municipal Corporation · 022 2534 8646",,"corporatecenter@saraswatbank.com,,x3ecustomerservicecentre@saraswatbank.com,customerservicecentre@saraswatbank.com,u2013customerservicecentre@saraswatbank.com,",
Tjsb bank atm.,Banks,Mumbai,"Kishan nagar no,2 Ful Gali pipeline, Rd Number 16",,",response@tjsb.co.in,",
"NKGSB Co-operative Bank Limited- Vartak Nagar,Thane West Branch",Banks,Mumbai,"Shop No.S2, 23,24,25, Vedant Commercial Complex, Madrecha Rd, Tulsi Dham, Vartak Nagar, Thane West, Thane, Maharashtra 400606",022 2585 3349,"laxmikantdesai@nkgsb-bank.com,,","19.2086069,72.9575862"
Karnataka Bank - Thane Branch & ATM,Banks,Mumbai,"Shop No.12, VIHANG GARDEN, Pokharan Rd Number 1, opp. raymonds, Tulsi Dham, Vartak Nagar, Thane West, Mumbai, Thane, Maharashtra 400606",1800 425 1444,,"19.2084569,72.9607818"
The Thane District Central Co-Operative Bank Limited-Vartak Nagar,Banks,Mumbai,"Gitanjali Apartment, Shivaji Path. P. B. No. 19, Near Station Shivaji Path Road, Aai Mata Rd, Kores, Lokmanya Nagar, Thane West, Thane, Maharashtra 400606",022 2536 3042,",enquiry@thanedistrictbank.com,Thane.dccb@gmail.com,Atm@thanedistrictbank.com,x3errshinde@mumbaidistrictbank.com,rrshinde@mumbaidistrictbank.com,","19.208525,72.9523981"
Bank of Maharashtra,Banks,Mumbai,"1st Floor, Jagdish Industrial Estate, Pokharan Rd Number 1, opposite Telegram Gate · 1800 233 4526",,",boi.customerservices@oberthur.com,Boi.neft@bankofindia.co.in,u003ecmcustomerservice@mahabank.co.in,cmcustomerservice@mahabank.co.in,BOI.CallCentre@bankofindia.co.in,x3eBoi.neft@bankofindia.co.in,hocomplaints@mahabank.co.in,u003ehocomplaints@mahabank.co.in,Rtgs.boi@bankofindia.co.in,mahasecure@mahabank.co.in,x3eBOI.CallCentre@bankofindia.co.in,x3eboi.customerservices@oberthur.com,x3eRtgs.boi@bankofindia.co.in,",
State Bank of India SAMTA NAGAR THANE,Banks,Mumbai,"SHOP NO 8, 9 AND 10, VIHANG GARDEN, Pokharan Rd Number 1, Tulsi Dham, Samata Nagar, Thane West, Thane, Maharashtra 400606",022 2537 7941,",sbi.13035@sbi.co.in,contactcentre@sbi.co.in,x3econtactcentre@sbi.co.in,","19.208374,72.9606851"
Union Bank of India - Vartak Nagar Branch,Banks,Mumbai,"6, Acharya Atre Marg, Tulsi Dham, Vedant Complex, Vartak Nagar, Thane West, Thane, Maharashtra 400606",022 2585 5050,",x3ecustomer.service@unionbankph.com,x3ecustomercare@unionbankofindia.com,customer.service@unionbankph.com,cbsvartaknagar@unionbankofindia.com,customercare@unionbankofindia.com,x22customercare@unionbankofindia.com,","19.209098,72.9590551"
Thane Bharat Sahakari Bank Limited,Banks,Mumbai,"Western India Steel Industries Compound, Pokharan Rd Number 2, opp. Oswal Park · 022 2173 6262",,",main@tbsbl.com,complaint@tbsbl.com,rtgs.tbsb@thanebharatbank.net,",
NKGSB Co-op Bank Ltd (Thane Naupada Branch),Banks,Mumbai,"Raunak Arcade, 7/8, Ghantali Devi Rd, Naupada, Thane West, Thane, Maharashtra 400602",022 2537 0920,"laxmikantdesai@nkgsb-bank.com,,","19.1872496,72.9670238"
Thane Bharat Sahakari Bank Limited,Banks,Mumbai,"Plot No. 78, Near Shivai Nagar Bus Stop, Shivai Nagar, Pokhran Road No. 1, Thane West, Upvan Lake Rd · 022 2173 6262",,",main@tbsbl.com,complaint@tbsbl.com,rtgs.tbsb@thanebharatbank.net,",
Thane Bharat Sahakari Bank Limited,Banks,Mumbai,"5XRC+6QQ, Sahayog Mandir Path · 022 2542 9432",,",main@tbsbl.com,complaint@tbsbl.com,rtgs.tbsb@thanebharatbank.net,",
State Bank of India,Banks,Mumbai,Pokharan Rd Number 1 · 1800 425 3800,,",PrincipalNodalOfficer@sbicard.com,gm.customer@sbi.co.in,boi.customerservices@oberthur.com,agmcustomer.lhomah@sbi.co.in,cppc.mumbai@sbi.co.in,x3ePrincipalNodalOfficer@sbicard.com,Boi.neft@bankofindia.co.in,customercare@sbi.co.in,BOI.CallCentre@bankofindia.co.in,x3eBoi.neft@bankofindia.co.in,sanjeevani.hr@sbi.co.in,Rtgs.boi@bankofindia.co.in,inb.cinb@sbi.co.in,x3esanjeevani.hr@sbi.co.in,x3eBOI.CallCentre@bankofindia.co.in,x3eboi.customerservices@oberthur.com,x3eRtgs.boi@bankofindia.co.in,",
CANARA BANK - THANE NAUPADA,Banks,Mumbai,"41A GOKHALE ROAD, NAUPADA NAUPADA S.O, Thane, Maharashtra 400602",1800 425 0018,",x22hocancard@canarabank.com,hocancard@canarabank.com,cb0228@canarabank.com,x3ehocancard@canarabank.com,","19.1879669,72.9708032"
Punjab National Bank - Thane West Branch,Banks,Mumbai,"5XQ8+3WP, Satyam Apartment Mahatma Gandhi Rd Near Malhar Cinema · 1800 180 2222",,"corporatecare@pnb.com.ph,,cobangalorewest@pnb.co.in,bo3739@pnb.co.in,pnbcreditcards@pnb.com.ph,bo1144@pnb.co.in,x3ecare@pnb.co.in,care@pnb.co.in,bo090210@pnb.co.in,customercare@pnb.com.ph,",
Saraswat Bank,Banks,Mumbai,"5XX8+9M3, Ground Floor, Nakshatra Tower, Almeda Rd, Opp Municipal Corp · 022 2534 8645",,"corporatecenter@saraswatbank.com,,x3ecustomerservicecentre@saraswatbank.com,customerservicecentre@saraswatbank.com,arvinder.matta@saraswatbank.com,u2013customerservicecentre@saraswatbank.com,",
Ambarnath Jai-Hind Co-Operative Bank Limited- Yashodhan Nagar Branch,Banks,Mumbai,"Shop.No.2, Ground Floor C-2,Opposite Happy Height’s Telephone Exchange, Sai Prasad Sociman Rd, Patil Nagar, Thane West, Thane, Maharashtra 400606",022 2581 3882,",rrshinde@mumbaidistrictbank.com,x3errshinde@mumbaidistrictbank.com,","19.2079102,72.9522889"
"Thane Bharat Sahakari bank, Rutu Park Branch",Banks,Mumbai,"D-2, Eastern Express Hwy, Rutu Park, Panchsheel Nagar, Thane West, Thane, Maharashtra 400601",022 2544 2363,",response@tjsb.co.in,main@tbsbl.com,","19.2101218,72.9795074"
Thane Bharat Sahakari Bank Limited - Chandanwadi Branch,Banks,Mumbai,"5XXC+PM7, Mahesh Darshan, Near Makhmali Talao, Old Mumbai, Agra Road, Ganeshwadi, Thane West, Thane, Maharashtra 400601",022 2533 5237,",main@tbsbl.com,","19.1992978,72.9691098"
"RBL Bank Ltd - Vartak Nagar, Thane Branch & ATM",Banks,Mumbai,"Shop No. 2D, Ground & First floor, Maithili Pride Building No.1 & 10, MHB Colony, Vartak Nagar, Pokharan Rd Number 1, J K Gram, Thane West, Maharashtra 400606",022 2585 3975,,"19.2124306,72.9577701"
State Bank of India KHOPAT BRANCH THANE,Banks,Mumbai,"BUILDING PLOT NO 457, SREEJISWAMINARAYANA NAGAR SREEJI DARSHAN, 1, Pokhran Rd, Thane, Maharashtra 400601",022 2538 3699,",gm.customer@sbi.co.in,sbi.09056@sbi.co.in,x3econtactcentre@sbi.co.in,contactcentre@sbi.co.in,x3egm.customer@sbi.co.in,","19.2069486,72.9545672"
"ICICI Bank Gokhale Road, Thane-Branch & ATM",Banks,Mumbai,"Gokhale Road, Pathare Building, Naupada, near Gaondevi Mandir, Thane, Maharashtra 400602",1860 120 6699,,"19.1906065,72.9682527"
State Bank of India,Banks,Mumbai,"Vakratunda Residency Shree Swami Krupa, Phase 2, Manorama Nagar Rd · 1800 425 1825",,",PrincipalNodalOfficer@sbicard.com,gm.customer@sbi.co.in,boi.customerservices@oberthur.com,agmcustomer.lhomah@sbi.co.in,cppc.mumbai@sbi.co.in,x3ePrincipalNodalOfficer@sbicard.com,Boi.neft@bankofindia.co.in,customercare@sbi.co.in,BOI.CallCentre@bankofindia.co.in,x3eBoi.neft@bankofindia.co.in,sanjeevani.hr@sbi.co.in,Rtgs.boi@bankofindia.co.in,inb.cinb@sbi.co.in,x3esanjeevani.hr@sbi.co.in,x3eBOI.CallCentre@bankofindia.co.in,x3eboi.customerservices@oberthur.com,x3eRtgs.boi@bankofindia.co.in,",
GP Parsik Bank,Banks,Mumbai,SWASTIK REGALIA COMPLEX,,",helpdesk@gpparsikbank.net,",
DMK Jaoli BANK,Banks,Mumbai,5XW6+G9P · 022 2583 5443,,",complaints@jaolibank.in,hoadmin@jaolibank.in,",
Axis Bank Branch,Banks,Mumbai,"Thane, Maharashtra · 1860 500 5555",,",merchant.helpdesk@axisbank.com,x3emerchant.helpdesk@axisbank.com,x3enodal.officer@axisbank.com,nodal.officer@axisbank.com,",
Axis Bank ATM,Banks,Mumbai,"Arun Industries, near Kalpataru Prime · 1860 500 5555",,",pno@axisbank.com,x3epno@axisbank.com,x22merchant.helpdesk@axisbank.com,merchant.helpdesk@axisbank.com,x3emerchant.helpdesk@axisbank.com,",
"The National Co op Bank Ltd,Ghodbunder Branch",Banks,Mumbai,"4, Vijay Garden Rd, Kavesar, Thane West, Thane, Maharashtra 400615",084240 81717,",hoclg@ncbmumbai.com,","19.2617933,72.9713658"
ICICI Bank Thane Ghodbunder Road,Banks,Mumbai,"Shop No. 3, MK Plaza, ICICI Bank Ltd, Ghodbunder Rd · 1800 1080",,",x22Customer.care@icicibank.com,x3eCustomer.care@icicibank.com,Customer.care@icicibank.com,customer.care@icicibank.com,",
Axis Bank ATM,Banks,Mumbai,"KORUM MALL 2 (INFORMATION DESK, UPPER GROUND), MANGAL PANDEY ROAD Eastern Express Highway, Junction, near Cadbury · 1860 419 5555",,",pno@axisbank.com,x3epno@axisbank.com,x22merchant.helpdesk@axisbank.com,merchant.helpdesk@axisbank.com,x3emerchant.helpdesk@axisbank.com,",
icici bank thane west wagle estate,Banks,Mumbai,"5XX5+26X, Rd Number 16",,",customer.care@icicibank.com,x3ecustomer.care@icicibank.com,",
Axis Bank Branch,Banks,Mumbai,"Ground Floor, Shop No/ 1, 2 & 3, College, near Muchhala Polytechnic · 1860 500 5555",,",merchant.helpdesk@axisbank.com,x3emerchant.helpdesk@axisbank.com,x3enodal.officer@axisbank.com,nodal.officer@axisbank.com,",
Bharat Bank,Banks,Mumbai,"6XMG+565, Shop No. C, Solitaire Towers, Chitalsa, Khewra Cir Marg · 022 2589 2531",,",Feedback@bharatbank.co.in,x3ebhandup@bharatbank.co.in,bhandup@bharatbank.co.in,ghansoli@bharatbank.co.in,ibd@bharatbank.co.in,mbank@bharatbank.co.in,x3embank@bharatbank.co.in,",
IDFC FIRST Bank,Banks,Mumbai,"Shop No 7 to 10, Ground, MK Plaza, Ghodbunder Rd · 1800 10888",,",nodaldesk@idfcfirstbank.com,COO@idfcfirstbank.com,x3enriservices@idfcfirstbank.com,CEO@idfcfirstbank.com,pno@idfcfirstbank.com,secretarial@idfcfirstbank.com,RNO.Mumbai@idfcfirstbank.com,banker@idfcfirstbank.com,firstcontactcomplaints@firstbanknigeria.com,x3enodaldesk@idfcfirstbank.com,nriservices@idfcfirstbank.com,x3efirstcontactcomplaints@firstbanknigeria.com,",
Apna Sahakari Bank,Banks,Mumbai,"Ghodbunder Shop No. 5 & 6 Shree Maa Trust, Ground Floor, S. N. 146 Patlipada, Ghodbunder Rd · 022 2586 2957",,"apna.lic@apnabank.co.in,,corporateoffice@apnabank.co.in,",
Axis Bank Branch,Banks,Mumbai,"Ground Floor, ACCEL HOUSE, SN 7 & 8, Rd Number 22 · 1860 500 5555",,",merchant.helpdesk@axisbank.com,x3emerchant.helpdesk@axisbank.com,x3enodal.officer@axisbank.com,nodal.officer@axisbank.com,",
Oriental Bank of Commerce,Banks,Mumbai,"Sidhanchal Shopping Centre, Off Pokharan Road 2 Tulshidham · 022 2171 4433",,"infocppc@sbp.co.in,,insp@obc.co.in,BOI.CallCentre@bankofindia.co.in,hocomplaints@mahabank.co.in,x3ehocomplaints@mahabank.co.in,x3eBOI.CallCentre@bankofindia.co.in,pnd@obc.co.in,cmcustomerservice@mahabank.co.in,",
Axis Bank ATM,Banks,Mumbai,"Shop No 2 to 4, Bhiwadiwala Building, near Thane Court · 1860 500 5555",,",pno@axisbank.com,x3epno@axisbank.com,x22merchant.helpdesk@axisbank.com,merchant.helpdesk@axisbank.com,x3emerchant.helpdesk@axisbank.com,",
TSJB Sahakari Bank Limited - ATM - Patlipada,Banks,Mumbai,"6XXH+685, Ghodbunder Rd, Patlipada Village, Thane West, Thane, Maharashtra 400607",022 2586 1497,,"19.2480194,72.9757922"
Axis Bank ATM,Banks,Mumbai,"SN 7 & 8, PN A 125, A 126, Road No 22 MIDC · 1860 500 5555",,",pno@axisbank.com,x3epno@axisbank.com,x22merchant.helpdesk@axisbank.com,merchant.helpdesk@axisbank.com,x3emerchant.helpdesk@axisbank.com,",
State Bank ATM,Banks,Mumbai,"Shop No. 2, Gajanan heights, ESIC Road",,",gm.customer@sbi.co.in,x3ePrincipalNodalOfficer@sbicard.com,customercare@sbi.co.in,customercare@sbicard.com,x22customercare@sbicard.com,n@sbmbank.co.in,x3ecustomercare@sbicard.com,PrincipalNodalOfficer@sbicard.com,",
ICICI Bank ATM,Banks,Mumbai,"Shop no 2 3 4 G Elite buildings Sidhanchal Phase 07 Pokhran road, 02, west · 1860 120 7777",,",digitallending@icicibank.com,x3eCustomer.care@icicibank.com,x3edigitallending@icicibank.com,Customer.care@icicibank.com,",
Fino Payments Bank,Banks,Mumbai,"Near Masjid, Room-7882, Indira Nagar Rupadevipada-2, Road-34, Thane, Wagle I E · 081085 17910",,",nodalofficer@finobank.com,cs@finobank.com,",
Bank of Baroda ATM,Banks,Mumbai,"16, SARASWATI SADAN, COLONY, Manpada Rd · 1800 258 4455",,",x3egm.ops.ho@bankofbaroda.com,x22crm@bobfinancial.com,x3ezm.mgz@bankofbaroda.com,dbbmmo@bankofbaroda.com,zm.bojz@bankofbaroda.com,x3ezm.rajkot@bankofbaroda.com,zm.mgz@bankofbaroda.com,gm.ops.ho@bankofbaroda.com,ngm.ops.ho@bankofbaroda.com,crm@bobfinancial.com,barodaconnect@bankofbaroda.com,zm.rajkot@bankofbaroda.com,x3ecrm@bobfinancial.com,x3ebarodaconnect@bankofbaroda.com,x3ezm.bojz@bankofbaroda.com,",
New India Co Op Bank ATM,Banks,Mumbai,"400601, Mahapalika Bhavan Rd",,",rrshinde@mumbaidistrictbank.com,x3errshinde@mumbaidistrictbank.com,nmcb07@navimumbaibank.com,",
Kotak Mahindra Bank ATM,Banks,Mumbai,"Jai Commercial Complex, Jai Siddhivinayak Premises Chs, Pokharan Rd Number 1 · 1860 266 2666",,",x3eservice.cards@kotak.com,x3ecare@kotak.com,x3eitsecurity.bank@kotak.com,x3eservice.securities@kotak.com,service.cards@kotak.com,x3eKprime.service@kotak.com,care@kotak.com,itsecurity.bank@kotak.com,service.securities@kotak.com,Kprime.service@kotak.com,",
CANARA BANK ATM,Banks,Mumbai,"SHOP NO-2, OMKAR NIWAS, near THAKUR COLLEGE · 1800 425 0018",,",x3ehocancard@canarabank.com,u003ecsscomcity@canarabank.com,x22hocancard@canarabank.com,hocancard@canarabank.com,mipdcopat@canarabank.com,csscopne@canarabank.com,x3ecallsupport@canarabank.com,csscoranchi@canarabank.com,csscomcity@canarabank.com,callsupport@canarabank.com,canarabank.com_csscoranchi@canarabank.com,",
ICICI BANK ATM,Banks,Mumbai,6X5C+3FR,,",digitallending@icicibank.com,x3eCustomer.care@icicibank.com,x3edigitallending@icicibank.com,Customer.care@icicibank.com,",
IndusInd Bank ATM,Banks,Mumbai,"Shop No.1 A Wing, Suryadarshan Tower, Esic Road, off Eastern Express Highway · 1860 267 7777",,",customercare@indusind.com,x3eboiblbang@IndusInd.com,managingdirector@indusind.com,boiblbang@IndusInd.com,pioneer@indusind.com,",
ATM ICICI BANK,Banks,Mumbai,"6X23+PC9, Road No. 16/Z · 1860 120 7777",,",digitallending@icicibank.com,x3eCustomer.care@icicibank.com,x3edigitallending@icicibank.com,Customer.care@icicibank.com,",
CANARA BANK ATM,Banks,Mumbai,"SHOP NO.5, SHIVSADAN APARTMENT · 1800 425 0018",,",x3ehocancard@canarabank.com,u003ecsscomcity@canarabank.com,x22hocancard@canarabank.com,hocancard@canarabank.com,mipdcopat@canarabank.com,csscopne@canarabank.com,x3ecallsupport@canarabank.com,csscoranchi@canarabank.com,csscomcity@canarabank.com,callsupport@canarabank.com,canarabank.com_csscoranchi@canarabank.com,",
Kotak Mahindra Bank ATM,Banks,Mumbai,"463, Khopat Rd · 1860 266 2666",,",x3eservice.cards@kotak.com,x3ecare@kotak.com,x3eitsecurity.bank@kotak.com,x3eservice.securities@kotak.com,service.cards@kotak.com,x3eKprime.service@kotak.com,care@kotak.com,itsecurity.bank@kotak.com,service.securities@kotak.com,Kprime.service@kotak.com,",
ICICI Bank Atm,Banks,Mumbai,"Shop No-07, Swapnavanchs · 1860 120 7777",,",digitallending@icicibank.com,x3eCustomer.care@icicibank.com,x3edigitallending@icicibank.com,Customer.care@icicibank.com,",
TJSB Sahakari Bank Limited - Patlipada,Banks,Mumbai,"6XXH+57H, G.B. Road, Hiranandini Road · 1800 22 3466",,",response@tjsb.co.in,tjsb.012@tjsb.co.in,",
Fino Payments Bank,Banks,Mumbai,"27, Salunkhe Niwas, Rupadevi Pada No.2 Roadno.33, Near Rupadevi Temple, Indira Nagar · 022 6868 1414",,",nodalofficer@finobank.com,cs@finobank.com,",
Union Bank of India ATM,Banks,Mumbai,"Shop No. 8-12, Ratna Umed Residency, Umed Nagar, Pipeline Road, Louis Wadi, Thane West · 1800 22 2244",,",x3ecustomer.service@unionbankph.com,customerservice@www.unionbankng.com,x3ecustomerservice@www.unionbankng.com,x3ecustomercare@unionbankofindia.com,customer.service@unionbankph.com,customercare@unionbankofindia.com,x22customer.service@unionbankph.com,",
ICICI Bank ATM,Banks,Mumbai,"Shop No 2, 3, 4, Plot No. 297, Madhuban CHS Ltd Service Road, West · 1860 120 7777",,",digitallending@icicibank.com,x3eCustomer.care@icicibank.com,x3edigitallending@icicibank.com,Customer.care@icicibank.com,",
ICICI Bank Atm,Banks,Mumbai,"Shop No-4, Vhihang Park, near Laxmi Park · 1860 120 7777",,",digitallending@icicibank.com,x3eCustomer.care@icicibank.com,x3edigitallending@icicibank.com,Customer.care@icicibank.com,",
Bank,Banks,Mumbai,"Samata Nagar, Sainath Nagar, Majiwada, Thane, Maharashtra 400601",,",clearing@greaterbank.com,x3edgmoper@centralbank.co.in,pkvasudeo@mumbaidistrictbank.com,cmcustomerservice@mahabank.co.in,hocomplaints@mahabank.co.in,audit@mcbbank.co.in,x3errshinde@mumbaidistrictbank.com,x3ehocomplaints@mahabank.co.in,rrshinde@mumbaidistrictbank.com,dgmoper@centralbank.co.in,tribhuvanera@mcbbank.co,",
TJSB Sahakari Bank Atm,Banks,Mumbai,"Shop No. 5, Ratna Umed Residency , Umed Nagar ,, Pipe Lina Road. Louis Wadi , Thane (W)",,",response@tjsb.co.in,tjsb.012@tjsb.co.in,",
State Bank Of India ATM,Banks,Mumbai,"5, Dev Daya Nagar Society Rd · 1800 11 2211",,",gm.customer@sbi.co.in,customercare@sbi.co.in,BOI.CallCentre@bankofindia.co.in,customercare@sbicard.com,n@sbmbank.co.in,x3ecustomercare@sbicard.com,x3eBOI.CallCentre@bankofindia.co.in,",
ICICI Bank - ATM,Banks,Mumbai,"5XX6+277, Pipeline Rd · 1860 120 7777",,",digitallending@icicibank.com,x3eCustomer.care@icicibank.com,x3edigitallending@icicibank.com,Customer.care@icicibank.com,",
ICICI Bank Atm,Banks,Mumbai,"Shop No.1, Star View Apt, Nr Hari Om Traders, Lokmanya & 8232 Nagar, Pada No 4 · 1860 120 7777",,",digitallending@icicibank.com,x3eCustomer.care@icicibank.com,x3edigitallending@icicibank.com,Customer.care@icicibank.com,",
ICICI Bank ATM,Banks,Mumbai,"5XX6+XWR, Surya Darshan Bldg, Kamger Hospital, Thane West, opp. Urekan · 1860 120 7777",,",digitallending@icicibank.com,x3eCustomer.care@icicibank.com,x3edigitallending@icicibank.com,Customer.care@icicibank.com,",
Axis Bank ATM,Banks,Mumbai,"Thane, Maharashtra · 1860 500 5555",,",pno@axisbank.com,x3epno@axisbank.com,x22merchant.helpdesk@axisbank.com,merchant.helpdesk@axisbank.com,x3emerchant.helpdesk@axisbank.com,",
State Bank Of India ATM,Banks,Mumbai,"Jai Commercial Complex, Khopat Rd · 1800 11 2211",,",gm.customer@sbi.co.in,customercare@sbi.co.in,BOI.CallCentre@bankofindia.co.in,customercare@sbicard.com,n@sbmbank.co.in,x3ecustomercare@sbicard.com,x3eBOI.CallCentre@bankofindia.co.in,",
ICICI Bank ATM,Banks,Mumbai,"15, Neelkanth Heights, Rameswar Tower, Between Pokhran 1 & 2 · 1860 120 7777",,",digitallending@icicibank.com,x3eCustomer.care@icicibank.com,x3edigitallending@icicibank.com,Customer.care@icicibank.com,",
Saraswat Bank ATM,Banks,Mumbai,"Ground Floor, Nitin Company, Nakshatra Tower, road, opp. Thane Municipal Corporation · 022 2534 8646",,"corporatecenter@saraswatbank.com,,x3ecustomerservicecentre@saraswatbank.com,customerservicecentre@saraswatbank.com,u2013customerservicecentre@saraswatbank.com,",
ICICI Bank Atm,Banks,Mumbai,"Chourishya Foot Wear,Road No-34,Nr Shiv Sena Shaka · 1860 120 7777",,",digitallending@icicibank.com,x3eCustomer.care@icicibank.com,x3edigitallending@icicibank.com,Customer.care@icicibank.com,",
Icici Bank ATM,Banks,Mumbai,"A-186, Rd Number 16 · 1860 120 7777",,",digitallending@icicibank.com,x3eCustomer.care@icicibank.com,x3edigitallending@icicibank.com,Customer.care@icicibank.com,",
ICICI Bank Bhiwandi,Banks,Mumbai,"ICICI Bank Ltd, Shop No.8, 9 10 B Wing, Dhamankar Naka, Bhiwandi Thane Dist, Thane, Maharashtra 421305",,",x22Customer.care@icicibank.com,x3eCustomer.care@icicibank.com,Customer.care@icicibank.com,","19.2547635,72.9725054"
Tjsb bank atm.,Banks,Mumbai,"Kishan nagar no,2 Ful Gali pipeline, Rd Number 16",,",response@tjsb.co.in,",
State Bank e-Corner,Banks,Mumbai,"Shop No. 10, Green Road & Off Eastern Express Highway, Sun Magnetica, Louis Wadi, Thane West",,",Customercare@sbi.co.in,x3ehrms@sbi.co.in,customercare@sbi.co.in,sanjeevani.hr@sbi.co.in,x3esanjeevani.hr@sbi.co.in,hrms@sbi.co.in,n@sbmbank.co.in,contactcentre@sbi.co.in,",
Karnatka Bank ATM,Banks,Mumbai,"7/55, Pokharan Rd Number 1",,"mangalore.ro@ktkbank.com,,u003eatmcell@ktkbank.com,atmcell@ktkbank.com,",
Punjab National Bank - Thane (East) Branch,Banks,Mumbai,"5XMF+587, Behind Bharat English School, Harishchandra Raut Marg, Kopri, Thane East, Thane, Maharashtra 400603",1800 180 2222,"corporatecare@pnb.com.ph,,cobangaloreeast@pnb.co.in,pnbcreditcards@pnb.com.ph,x3ecare@pnb.co.in,care@pnb.co.in,bo3303@pnb.co.in,board@pnb.co.in,bo0552@pnb.co.in,bo090210@pnb.co.in,customercare@pnb.com.ph,","19.1829155,72.9707276"
CENTRAL BANK OF INDIA - THANE (EAST) Branch,Banks,Mumbai,"SARVA SEWA SAMITI TRUST SHIVLEELA HOUSE, Kopri Colony, Thane, Maharashtra 400603",022 2532 6037,",x3edgmoper@centralbank.co.in,complaints@centralbank.co.in,cmmums0619@centralbank.co.in,rmmsro@centralbank.co.in,agmmmo0621@centralbank.co.in,debitcard@centralbank.co,dgmoper@centralbank.co.in,","19.1811716,72.9698131"
Bank of Maharashtra,Banks,Mumbai,Renuka Apartment Adarsh Colony · 1800 233 4526,,",boi.customerservices@oberthur.com,Boi.neft@bankofindia.co.in,u003ecmcustomerservice@mahabank.co.in,cmcustomerservice@mahabank.co.in,BOI.CallCentre@bankofindia.co.in,x3eBoi.neft@bankofindia.co.in,hocomplaints@mahabank.co.in,u003ehocomplaints@mahabank.co.in,Rtgs.boi@bankofindia.co.in,mahasecure@mahabank.co.in,x3eBOI.CallCentre@bankofindia.co.in,x3eboi.customerservices@oberthur.com,x3eRtgs.boi@bankofindia.co.in,",
Thane Bharat Sahakari Bank-Thane East Branch,Banks,Mumbai,"5XMG+485, Opposite Karam Ground, Ashirwad Hospital, Nav Aashirvad, Near Daulat Nagar, Harishchandra Raut Marg, Kopri, Thane East, Thane, Maharashtra 400603",022 2532 3951,",main@tbsbl.com,rtgs.tbsb@thanebharatbank.net,","19.1827667,72.9732985"
CANARA BANK - THANE KOPRI COLONY,Banks,Mumbai,"S.O, 5 STAR BUILDING, GROUND FLOOR, Kopri Colony, Thane East, Thane, Maharashtra 400603",1800 425 0018,",cb0266@canarabank.com,","19.1848664,72.9719706"
The Saraswat Co-Operative Bank Limited Kopri Colony Branch,Banks,Mumbai,"6-11, Saitirtha, Bara Bungalow Rd, Kopri Colony, Siddharth Nagar, Thane East, Thane, Maharashtra 400603",022 2532 5016,"corporatecenter@saraswatbank.com,,x3ecustomerservicecentre@saraswatbank.com,customerservicecentre@saraswatbank.com,u2013customerservicecentre@saraswatbank.com,","19.1827105,72.9683307"
Bank of India,Banks,Mumbai,"5XJF+82W, Raut House, Lokmanya Tilak Road · 25320589",,",boimnz@vsnl.com,manasi.phene@bankofindia.co.in,x3eboi.starconnect@bankofindia.com,boi.starconnect@bankofindia.com,x3eboimnz@vsnl.com,BOI.CallCentre@bankofindia.co.in,x3eBOI.CallCentre@bankofindia.co.in,boi.callcentre@bankofindia.co.in,",
ICICI Bank Thane Kopri,Banks,Mumbai,"No. F, Sai Tirth Tower, ICICI Bank Ltd, Shop No.18 to 21, Ground Floor B wing Bldg, Sidharth Nagar, Kopri, Thane(E, Thane, Maharashtra 400603",,",customer.care@icicibank.com,x3ecustomer.care@icicibank.com,","19.1827419,72.9680915"
Union Bank of India,Banks,Mumbai,"5XMF+R45, Dr. Chaithram Gidwani Marg, Kopri Colony, Kishor Nagar, Thane East · 1800 22 2244",,",customerservice@www.unionbankng.com,x3eBoi.neft@bankofindia.co.in,Rtgs.boi@bankofindia.co.in,Boi.neft@bankofindia.co.in,ccd.grievances@unionbankofindia.bank,x3ecustomerservice@www.unionbankng.com,x3eBOI.CallCentre@bankofindia.co.in,x3eRtgs.boi@bankofindia.co.in,x3ecustomer.service@unionbankph.com,BOI.CallCentre@bankofindia.co.in,customercare@unionbankofindia.com,u003ecustomercare@unionbankofindia.com,boi.customerservices@oberthur.com,Mumbai@unionbankofindia.com,customer.service@unionbankph.com,x3eboi.customerservices@oberthur.com,x22customer.service@unionbankph.com,cgo@unionbankofindia.com,",
SVC Bank,Banks,Mumbai,"Ground Floor, Sri Datta Sai Tower, Vijay Nagar, Hari Om Nagar Road, Thane East · 022 2532 4011",,",forexCell@svcbank.com,tradefinancemumbai@svcbank.com,x3ergicl.queries@svcbank.com,sharmack@svcbank.com,rgicl.queries@svcbank.com,tradefinanceou@svcbank.com,",
State Bank of India THANE.,Banks,Mumbai,"Sadguru Gardens, Marigold, Mithbunder Rd · 1800 425 3800",,",John.Smith@sbi.co.in,Smith.John@sbi.co.in,gm.customer@sbi.co.in,agmcustomer.lhomah@sbi.co.in,cppc.mumbai@sbi.co.in,customercare@sbi.co.in,x3eJohn.Smith@sbi.co.in,BOI.CallCentre@bankofindia.co.in,sbi.51232@sbi.co,sanjeevani.hr@sbi.co.in,x3esanjeevani.hr@sbi.co.in,JSmith@statebankofindia.com,csdmumbai@sbmbank.co.in,x3eBOI.CallCentre@bankofindia.co.in,sbi.00489@sbi.co.in,Smith@sbi.co.in,J.Smith@sbi.co.in,",
The Thane District Central Co-Operative Bank Ltd,Banks,Mumbai,"5XMC+479, Siddharth Nagar, Bara Bungalow Rd · 022 2532 0527",,",enquiry@thanedistrictbank.com,Thane.dccb@gmail.com,Atm@thanedistrictbank.com,x3errshinde@mumbaidistrictbank.com,rrshinde@mumbaidistrictbank.com,dccb@gmail.com,",
The Navjeevan Bank,Banks,Mumbai,"5XMF+5C6, Krishna Niwas, Chhatrapati Shivaji Society, Harishchandra Raut Marg, Kopri Colony, Daulat Nagar, Thane East, Thane, Maharashtra 400603",022 2532 3675,",feedback@njcb.in,navjeevanbank@njcb.in,x3errshinde@mumbaidistrictbank.com,rrshinde@mumbaidistrictbank.com,","19.1829247,72.9709436"
Axis Bank Branch,Banks,Mumbai,"Ground Floor, Geeta Construction Company Anand Cinema, Station Rd · 1860 500 5555",,",merchant.helpdesk@axisbank.com,x3emerchant.helpdesk@axisbank.com,x3enodal.officer@axisbank.com,nodal.officer@axisbank.com,",
Bank of Baroda,Banks,Mumbai,"Ratan House, Ganesh Purushottam Pai Rd · 1800 258 4455",,"cs.ho@bankofbaroda.com,,bankofbaroda.com_zm.mgz@bankofbaroda.com,x3ezm.mgz@bankofbaroda.com,ngm.ops.ho@bankofbaroda.com,relations.ibu@bankofbaroda.com,zm.rajkot@bankofbaroda.com,ZM.GMZ@BANKOFBARODA.COM,x3ebarodaconnect@bankofbaroda.com,x3eBOI.CallCentre@bankofindia.co.in,u003eZM.GMZ@BANKOFBARODA.COM,x3ezm.bojz@bankofbaroda.com,barodaconnect@bankofbaroda.com,x3egm.ops.ho@bankofbaroda.com,zm.bojz@bankofbaroda.com,zm.mgz@bankofbaroda.com,BOI.CallCentre@bankofindia.co.in,ifscbu@bankofbaroda.com,gm.ops.ho@bankofbaroda.com,x3ezm.rajkot@bankofbaroda.com,rm.tirupati@bankofbaroda.co.in,zm.nz@bankofbaroda.com,",
Bank Of India - Kopri Colony Branch,Banks,Mumbai,"5XJF+82W Raut House, Datta Mandir Marg, near Sunita Society, Kopri Colony, Rajlaxman Society, Kopri, Thane East, Thane, Maharashtra 400603",1800 22 0229,"Kopricolony.NaviMumbai@bankofindia.co.in,,headoffice.csd@bankofindia.co.in,","19.1826955,72.9745953"
"TJSB Bank, Thane East Branch",Banks,Mumbai,"Bhivra Bhavan, Tilak Nagar, Thane East, Maharashtra 400603",022 2532 4330,"tjsb.071@tjsb.co.in,,","19.1827421,72.9745918"
Axis Bank ATM,Banks,Mumbai,"Shop No 1, Building No 25, near Thane · 1860 500 5555",,",pno@axisbank.com,x3epno@axisbank.com,x22merchant.helpdesk@axisbank.com,merchant.helpdesk@axisbank.com,x3emerchant.helpdesk@axisbank.com,",
Axis Bank ATM,Banks,Mumbai,"Shop No 2, Ground Floor, Narain Niwas, Railway Station, opposite Thane · 1860 419 5555",,",pno@axisbank.com,x3epno@axisbank.com,x22merchant.helpdesk@axisbank.com,merchant.helpdesk@axisbank.com,x3emerchant.helpdesk@axisbank.com,",
Kotak Mahindra Bank,Banks,Mumbai,"Anand Theatre Compound, Station Rd · 1860 266 0811",,",x3eservice.cards@kotak.com,x3ecare@kotak.com,x3eitsecurity.bank@kotak.com,x3eservice.securities@kotak.com,service.cards@kotak.com,x3eKprime.service@kotak.com,care@kotak.com,x3ejane.doe@kotak.com,itsecurity.bank@kotak.com,jane.doe@kotak.com,service.securities@kotak.com,Kprime.service@kotak.com,",
Axis Bank ATM,Banks,Mumbai,"Ground floor, Geeta Construction Company Anand Cinema, Station Rd · 1860 500 5555",,",pno@axisbank.com,x3epno@axisbank.com,x22merchant.helpdesk@axisbank.com,merchant.helpdesk@axisbank.com,x3emerchant.helpdesk@axisbank.com,",
ICICI BANK ATM,Banks,Mumbai,"Shop No. - 1, Room No. - 218, Anand Nagar, Kopri Bridge, near Kamgar Kalyan Kendra · 1800 1080",,",digitallending@icicibank.com,x3eCustomer.care@icicibank.com,x3edigitallending@icicibank.com,Customer.care@icicibank.com,",
Axis Bank ATM,Banks,Mumbai,"Shop No 3, Chendani Koliwada · 1860 500 5555",,",pno@axisbank.com,x3epno@axisbank.com,x22merchant.helpdesk@axisbank.com,merchant.helpdesk@axisbank.com,x3emerchant.helpdesk@axisbank.com,",
YES Bank,Banks,Mumbai,"Shop No7, 8, 9, Gautam Chs, Harishchandra Raut Marg",,",yestouch@yesbank.in,u003eyestouch@yesbank.in,BOI.CallCentre@bankofindia.co.in,x3eBOI.CallCentre@bankofindia.co.in,yesfirst@yesbank.in,",
Thane Janata Sarkari Bank,Banks,Mumbai,"1, Lokmanya Tilak Path · 022 2583 8538",,"careers@tjsb.co.in,response@tjsb.co.in,jsbho@janatabankpune.com,,",
Punjab National Bank - Thane (East) Branch,Banks,Mumbai,"5XMF+587, Behind Bharat English School, Harishchandra Raut Marg, Kopri, Thane East, Thane, Maharashtra 400603",1800 180 2222,"corporatecare@pnb.com.ph,,cobangaloreeast@pnb.co.in,pnbcreditcards@pnb.com.ph,x3ecare@pnb.co.in,care@pnb.co.in,bo3303@pnb.co.in,board@pnb.co.in,bo0552@pnb.co.in,bo090210@pnb.co.in,customercare@pnb.com.ph,","19.1829155,72.9707276"
CENTRAL BANK OF INDIA - THANE (EAST) Branch,Banks,Mumbai,"SARVA SEWA SAMITI TRUST SHIVLEELA HOUSE, Kopri Colony, Thane, Maharashtra 400603",022 2532 6037,",x3edgmoper@centralbank.co.in,complaints@centralbank.co.in,cmmums0619@centralbank.co.in,rmmsro@centralbank.co.in,agmmmo0621@centralbank.co.in,debitcard@centralbank.co,dgmoper@centralbank.co.in,","19.1811716,72.9698131"
Bank of Maharashtra,Banks,Mumbai,Renuka Apartment Adarsh Colony · 1800 233 4526,,",boi.customerservices@oberthur.com,Boi.neft@bankofindia.co.in,u003ecmcustomerservice@mahabank.co.in,cmcustomerservice@mahabank.co.in,BOI.CallCentre@bankofindia.co.in,x3eBoi.neft@bankofindia.co.in,hocomplaints@mahabank.co.in,u003ehocomplaints@mahabank.co.in,Rtgs.boi@bankofindia.co.in,mahasecure@mahabank.co.in,x3eBOI.CallCentre@bankofindia.co.in,x3eboi.customerservices@oberthur.com,x3eRtgs.boi@bankofindia.co.in,",
Thane Bharat Sahakari Bank-Thane East Branch,Banks,Mumbai,"5XMG+485, Opposite Karam Ground, Ashirwad Hospital, Nav Aashirvad, Near Daulat Nagar, Harishchandra Raut Marg, Kopri, Thane East, Thane, Maharashtra 400603",022 2532 3951,",main@tbsbl.com,rtgs.tbsb@thanebharatbank.net,","19.1827667,72.9732985"
CANARA BANK - THANE KOPRI COLONY,Banks,Mumbai,"S.O, 5 STAR BUILDING, GROUND FLOOR, Kopri Colony, Thane East, Thane, Maharashtra 400603",1800 425 0018,",cb0266@canarabank.com,","19.1848664,72.9719706"
The Saraswat Co-Operative Bank Limited Kopri Colony Branch,Banks,Mumbai,"6-11, Saitirtha, Bara Bungalow Rd, Kopri Colony, Siddharth Nagar, Thane East, Thane, Maharashtra 400603",022 2532 5016,"corporatecenter@saraswatbank.com,,x3ecustomerservicecentre@saraswatbank.com,customerservicecentre@saraswatbank.com,u2013customerservicecentre@saraswatbank.com,","19.1827105,72.9683307"
Bank of India,Banks,Mumbai,"5XJF+82W, Raut House, Lokmanya Tilak Road · 25320589",,",boimnz@vsnl.com,manasi.phene@bankofindia.co.in,x3eboi.starconnect@bankofindia.com,boi.starconnect@bankofindia.com,x3eboimnz@vsnl.com,BOI.CallCentre@bankofindia.co.in,x3eBOI.CallCentre@bankofindia.co.in,boi.callcentre@bankofindia.co.in,",
ICICI Bank Thane Kopri,Banks,Mumbai,"No. F, Sai Tirth Tower, ICICI Bank Ltd, Shop No.18 to 21, Ground Floor B wing Bldg, Sidharth Nagar, Kopri, Thane(E, Thane, Maharashtra 400603",,",customer.care@icicibank.com,x3ecustomer.care@icicibank.com,","19.1827419,72.9680915"
Union Bank of India,Banks,Mumbai,"5XMF+R45, Dr. Chaithram Gidwani Marg, Kopri Colony, Kishor Nagar, Thane East · 1800 22 2244",,",customerservice@www.unionbankng.com,x3eBoi.neft@bankofindia.co.in,Rtgs.boi@bankofindia.co.in,Boi.neft@bankofindia.co.in,ccd.grievances@unionbankofindia.bank,x3ecustomerservice@www.unionbankng.com,x3eBOI.CallCentre@bankofindia.co.in,x3eRtgs.boi@bankofindia.co.in,x3ecustomer.service@unionbankph.com,BOI.CallCentre@bankofindia.co.in,customercare@unionbankofindia.com,u003ecustomercare@unionbankofindia.com,boi.customerservices@oberthur.com,Mumbai@unionbankofindia.com,customer.service@unionbankph.com,x3eboi.customerservices@oberthur.com,x22customer.service@unionbankph.com,cgo@unionbankofindia.com,",
SVC Bank,Banks,Mumbai,"Ground Floor, Sri Datta Sai Tower, Vijay Nagar, Hari Om Nagar Road, Thane East · 022 2532 4011",,",forexCell@svcbank.com,tradefinancemumbai@svcbank.com,x3ergicl.queries@svcbank.com,sharmack@svcbank.com,rgicl.queries@svcbank.com,tradefinanceou@svcbank.com,",
State Bank of India THANE.,Banks,Mumbai,"Sadguru Gardens, Marigold, Mithbunder Rd · 1800 425 3800",,",John.Smith@sbi.co.in,Smith.John@sbi.co.in,gm.customer@sbi.co.in,agmcustomer.lhomah@sbi.co.in,cppc.mumbai@sbi.co.in,customercare@sbi.co.in,x3eJohn.Smith@sbi.co.in,BOI.CallCentre@bankofindia.co.in,sbi.51232@sbi.co,sanjeevani.hr@sbi.co.in,x3esanjeevani.hr@sbi.co.in,JSmith@statebankofindia.com,csdmumbai@sbmbank.co.in,x3eBOI.CallCentre@bankofindia.co.in,sbi.00489@sbi.co.in,Smith@sbi.co.in,J.Smith@sbi.co.in,",
The Thane District Central Co-Operative Bank Ltd,Banks,Mumbai,"5XMC+479, Siddharth Nagar, Bara Bungalow Rd · 022 2532 0527",,",enquiry@thanedistrictbank.com,Thane.dccb@gmail.com,Atm@thanedistrictbank.com,x3errshinde@mumbaidistrictbank.com,rrshinde@mumbaidistrictbank.com,dccb@gmail.com,",
The Navjeevan Bank,Banks,Mumbai,"5XMF+5C6, Krishna Niwas, Chhatrapati Shivaji Society, Harishchandra Raut Marg, Kopri Colony, Daulat Nagar, Thane East, Thane, Maharashtra 400603",022 2532 3675,",feedback@njcb.in,navjeevanbank@njcb.in,x3errshinde@mumbaidistrictbank.com,rrshinde@mumbaidistrictbank.com,","19.1829247,72.9709436"
Axis Bank Branch,Banks,Mumbai,"Ground Floor, Geeta Construction Company Anand Cinema, Station Rd · 1860 500 5555",,",merchant.helpdesk@axisbank.com,x3emerchant.helpdesk@axisbank.com,x3enodal.officer@axisbank.com,nodal.officer@axisbank.com,",
Bank of Baroda,Banks,Mumbai,"Ratan House, Ganesh Purushottam Pai Rd · 1800 258 4455",,"cs.ho@bankofbaroda.com,,bankofbaroda.com_zm.mgz@bankofbaroda.com,x3ezm.mgz@bankofbaroda.com,ngm.ops.ho@bankofbaroda.com,relations.ibu@bankofbaroda.com,zm.rajkot@bankofbaroda.com,ZM.GMZ@BANKOFBARODA.COM,x3ebarodaconnect@bankofbaroda.com,x3eBOI.CallCentre@bankofindia.co.in,u003eZM.GMZ@BANKOFBARODA.COM,x3ezm.bojz@bankofbaroda.com,barodaconnect@bankofbaroda.com,x3egm.ops.ho@bankofbaroda.com,zm.bojz@bankofbaroda.com,zm.mgz@bankofbaroda.com,BOI.CallCentre@bankofindia.co.in,ifscbu@bankofbaroda.com,gm.ops.ho@bankofbaroda.com,x3ezm.rajkot@bankofbaroda.com,rm.tirupati@bankofbaroda.co.in,zm.nz@bankofbaroda.com,",
Bank Of India - Kopri Colony Branch,Banks,Mumbai,"5XJF+82W Raut House, Datta Mandir Marg, near Sunita Society, Kopri Colony, Rajlaxman Society, Kopri, Thane East, Thane, Maharashtra 400603",1800 22 0229,"Kopricolony.NaviMumbai@bankofindia.co.in,,headoffice.csd@bankofindia.co.in,","19.1826955,72.9745953"
"TJSB Bank, Thane East Branch",Banks,Mumbai,"Bhivra Bhavan, Tilak Nagar, Thane East, Maharashtra 400603",022 2532 4330,"tjsb.071@tjsb.co.in,,","19.1827421,72.9745918"
Axis Bank ATM,Banks,Mumbai,"Shop No 1, Building No 25, near Thane · 1860 500 5555",,",pno@axisbank.com,x3epno@axisbank.com,x22merchant.helpdesk@axisbank.com,merchant.helpdesk@axisbank.com,x3emerchant.helpdesk@axisbank.com,",
Axis Bank ATM,Banks,Mumbai,"Shop No 2, Ground Floor, Narain Niwas, Railway Station, opposite Thane · 1860 419 5555",,",pno@axisbank.com,x3epno@axisbank.com,x22merchant.helpdesk@axisbank.com,merchant.helpdesk@axisbank.com,x3emerchant.helpdesk@axisbank.com,",
