Name,Sector,City,Address,Phone,Email,Lat-Long
Culture Fitness - Girgaon - Mumbai,Gym,Mumbai,"30th Mangal Wadi Cross Lane, Jagannath Shankar Seth Rd, Charni Road, Girgaon, Mumbai, Maharashtra 400004",086552 90990,,"18.9522959,72.8176403"
Pro One Studio - Mira Road - Mumbai,Gym,Mumbai,"shop no 109, Suvidha Place, near Cinemax Theatre, Ramdev Park, Beverly Park, Mira Road East, Mira Bhayandar, Maharashtra 401107",075060 53555,"info@pro1supplements.com,,proonestudio15@gmail.com,","19.2962048,72.8664136"
Jupito Fitness - Malad West - Mumbai,Gym,Mumbai,"A- Ahimsa, Keshav Srishti Apartment, CHSL, New Link Rd, above Bank Of India, Malad, Sunder Nagar, Malad West, Branch, Mumbai, Maharashtra 400064",096197 02324,",jupitofitness@gmail.com,","19.1765703,72.8348027"
K11 School of Fitness Sciences - Santacruz East - Mumbai,Gym,Mumbai,"Dunhill Corner, 7th Rd, TPS III, Sen Nagar, Santacruz East, Mumbai, Maharashtra 400055",076666 11011,",info@keleven.com,","19.0779436,72.84025"
Fitness Factory - Andheri - Mumbai,Gym,Mumbai,,,"info@fitnessfactorymumbai.com,,","19.1522057,72.7808985"
VieFit Vile - Parle West - Mumbai,Gym,Mumbai,"A6--171, Dadabhai Cross Rd Number 3, opp. Hanuman Temple, Ville Parle West, Mumbai, Snehadhara Society, Navpada, Irla, Vile Parle West, Mumbai, Maharashtra 400056",075066 16611,",contact@viefit.in,keawpilatestc@gmail.com,u003econtact@viefit.in,","19.1087528,72.8416017"
Ketan Muscle Fitness - Goregaon - Mumbai,Gym,Mumbai,"BEST workers and staff colony, Oshiwara, Sant Gajanan Maharaj Marg, opp. fish Market, near Imperial, Best Nagar, Goregaon West, Mumbai, Maharashtra 400104",098211 73792,,"19.1537923,72.8363938"
Triyog Fit Dance & Fitness Studio - Miraa Bhayandar - Mumbai,Gym,Mumbai,"Triyog Fit Studio 1st Floor, The Recreation Club Shastri Nagar lane 1, Lokhandwala Circle, Andheri West, Mumbai, Maharashtra 400053",093720 79678,,"19.1396422,72.8251692"
Plus Fitness 24/7 - Mumbai Central - Mumbai,Gym,Mumbai,"Commercial, Navjeevan Society Wing-A, Shop No 105, 1st Floor Nathani Heights, Lamington Rd, Mumbai Central, Mumbai, Maharashtra 400008",077009 54224,,"18.9661948,72.8169849"
MMA Fitness Zone - Vile Parle - Mumbai,Gym,Mumbai,,,"kudoindia@gmail.com,,customercare@gymsforall.in,mehul.vora@mmawithmehulvora.com,","19.1043826,72.8346354"
Zumasaa Studios - Kemps Corner - Mumbai,Gym,Mumbai,"574, Advani Chambers, 1st Floor, August Kranti Marg, Kemps Corner, Mumbai 400036, MH",+91-9892060100,,
"Zorba: Yoga, Fitness And Beyond - Vile Parle East - Mumbai",Gym,Mumbai,"CTC No 458/517, E'Square, 5th Floor, Subhash Road, Vile Parle East, Mumbai 400057, MH",,",customercare@gymsforall.in,",
"Zorba: Yoga, Fitness And Beyond - Goregaon West - Mumbai",Gym,Mumbai,"Ozone Club, Prabodhan Krida Bhavan, Near Vivek College, Siddharth Nagar, Goregaon West, Mumbai 400104, MH",+91-22-33126202,,
Zion Fitness - Andheri East - Mumbai,Gym,Mumbai,"Unit No 2, HEK Compound, Home For The Aged Lane, Near Canossa School, Shere Punjab Circle, Mahakali Caves Road, Andheri East, Mumbai 400093, MH",+91-7738258050,",zionthegym@gmail.com,youremail@yourdomain.com,",
Zest Fitness - Byculla - Mumbai,Gym,Mumbai,"65, Patanwala Buiuilding, 1st Floor, Dhaku Prabhuchiwadi, Next To Bank Of Maharshtra, Byculla, Mumbai 400027, MH",+91-8828256068,,
Zenergy Way to Fitness - Khar West - Mumbai,Gym,Mumbai,"94, Makija Royale Building, 9th Floor, Next To Rajashtan Classes, SV Road, Khar West, Mumbai 400052, MH",+91-9930834480,"me@nehaagarwal.in,,",
Your Gym - Malad West - Mumbai,Gym,Mumbai,"Divya Park, Jankalyan Nagar, Malad West, Mumbai 400095, MH",+91-9152995997,",support@gymcompany.co.za,hello@cultfit.com,",
Your Fitness Club - Sion - Mumbai,Gym,Mumbai,"47/45, Durga Sadan, Sion, Mumbai 400022, MH",+91-7506652050,",support@yourfitnessclub.in,rizwan@yourfitnessclub.in,",
Your Fitness Club - Kandivali East - Mumbai,Gym,Mumbai,"Thakur Complex, 1st & 2nd Floor, Thakur Enclave Sankul, Opposite Sai Hosiptal, 90 Feet Road, Kandivali East, Mumbai 400101, MH",+91-7506652068,",fitnessgroovebnb@gmail.com,",
Your Fitness Club - Charni Road - Mumbai,Gym,Mumbai,"265/267, Near Central Plaza, Rajaram Mohan Roy Road, Girgaon, Opera House, Charni Road, Mumbai 400004, MH",+91-9920194096,,
Yogsagar - Juhu - Mumbai,Gym,Mumbai,"Janki House, 1st Floor, Janki Kutir, Near Prithvi Theatre, Juhu Church Road, Juhu, Mumbai 400049, MH",+91-8082552551,"WeCare@GoldsGym.in,,",
Yogmudra Studio - Bandra West - Mumbai,Gym,Mumbai,"Unit No 201/202, 182, Asra Building, 2nd Floor, Near National College, Waterfield Road, Bandra West, Mumbai 400050, MH",+91-22-26400830,",hello@cultfit.com,",
Yogjyoti - Andheri East - Mumbai,Gym,Mumbai,"Bikash Dance And Fitness centre, Yog Jyoti Classes, Behind Kalgidhar School, Wireless Road, JB Nagar, Andheri East, Mumbai 400099, MH",+91-9821168404,",hello@cultfit.com,",
Yogesh Fitness Centre - Kandivali East - Mumbai,Gym,Mumbai,"B-105, Golden Palace, Lokhandwala Township, Opposite Wellness Forever Medical Shop, Kandivali East, Mumbai 400101, MH",+91-22-32483414,,
Yogeeism - Andheri West - Mumbai,Gym,Mumbai,"Sia Group, Karmveer Sports Complex, Andheri West, Mumbai 400053, MH",+91-9833924099,"WeCare@GoldsGym.in,,hello@cultfit.com,andheri@ymcabombay.com,",
Yogatech - Santacruz East - Mumbai,Gym,Mumbai,"B-34/136, Ashwini, Near Vighneshawar Temple, Sundar Nagar Road 3, Kalina, Santacruz East, Mumbai 400098, MH",+91-9869229890,",saha.biswanath88@gmail.com,Biswanath.saha88@gmail.com,",
Yogasan Class - Vile Parle East - Mumbai,Gym,Mumbai,"Uttkarsh Building, Malvia Road, Vile Parle East, Mumbai 400057, MH",+91-9833692362,",hello@cultfit.com,",
Yogacara Healing Arts - Mahalaxmi - Mumbai,Gym,Mumbai,"Rewa House Bungalow, Opposite Cadbury House And National Garage, Bhulabhai Desai Road, Mahalaxmi, Mumbai 400026, MH",+91-22-23520580,,
Yogabae Studio - Prabhadevi - Mumbai,Gym,Mumbai,"Bharatnatyam Hall, 4th Floor, Near Siddhivinayak Temple, Ravindra Natya Mandir, Prabhadevi, Mumbai 400025, MH",,",hello@cultfit.com,",
Yoga101 - Versova - Mumbai,Gym,Mumbai,"Yoga 101, Opposite Subway, Aram Nagar 2, Versova, Mumbai 400061, MH",+91-9820125963,,
Yoga Works Divine Studio - Andheri West - Mumbai,Gym,Mumbai,"Bhakti Vendanta, 6th Floor, Swami Mission School, Shastri Nagar, Andheri West, Mumbai 400102, MH",+91-22-33126199,,
Yoga Tantra - Mulund East - Mumbai,Gym,Mumbai,"B-7, Samruddhi Society, Opposite ICICI Bank, VB Phadake Marg, 90 Feet Road, Sane Gurujee Nagar, Mulund East, Mumbai 400081, MH",+91-9152815809,,
Yoga Positive - Bandra West - Mumbai,Gym,Mumbai,"11, Corana Garden, Next Bungalow 9 Restaurant, St. John Baptist Road, Bandra West, Mumbai 400050, MH",+91-9920085239,",info@namasteyogaclasses.com,",
Yoga Niketan - Goregaon West - Mumbai,Gym,Mumbai,"163/102, Rajhan Enclave, 1st Floor, Behind Canara Bank, Bangur Nagar, Goregaon West, Mumbai 400104, MH",+91-22-33126195,",yoganiketan2019@gmail.comFacebook,",
Yoga Kids House Of Knowledge - Hughes Road - Mumbai,Gym,Mumbai,"Frequency Studio, Pancshil Palaza, Opposite Ghana Singh Jwellers, Hughes Road, Mumbai , MH",,",hello@cultfit.com,",
Yoga Hut - Borivali West - Mumbai,Gym,Mumbai,"202, AHCL Tower, Opposite MTNL Telephone Exchange, Shimpoli Link Road, Borivali West, Mumbai 400092, MH",+91-9221313717,",info@yogahut.in,",
Yoga For Inner Peace - Kandivali West - Mumbai,Gym,Mumbai,"Rubiinus Fitness Center, Opposite RNA Regency Park, RNA Royale Park, Off Link Road, Kandivali West, Mumbai 400067, MH",+91-9819882048,,
Yoga Central - Bandra West - Mumbai,Gym,Mumbai,"76, Temperance Wadia House, Near Pali Hill, Nargis Dutt Road, Bandra West, Mumbai 400050, MH",+91-9967531905,,
Yoga Astika - Lower Parel - Mumbai,Gym,Mumbai,"1/11, Ganesh Nagar Lane, Next To Poonam Park, Kalachowki, Lower Parel, Mumbai 400064, MH",+91-9152379959,",yuvraj.wagh@goldsgym.in,",
Yog Power Studio - Kandivali West - Mumbai,Gym,Mumbai,"Shri Krishna Co-operative Housing Society, 1st Floor, Opposite Panchasheel Residency, Near Profit Center, Off New Mahavir Nagar, Kandivali West, Mumbai 400067, MH",+91-9819123291,,
Yog Power Studio - Malad West - Mumbai,Gym,Mumbai,"Universal Corporate Building, F Wing, Opposite Madhur Society, Chincholi Bunder Road, Off Link Road, Malad West, Mumbai 400064, MH",+91-9833406070,,
Yog Power Studio - Lokhandwala - Mumbai,Gym,Mumbai,"Unit No 1207 & 1208, Aston Towers, Sundervan Complex, Mercedes Benz Showroom Building, Lokhandwala, Mumbai 400067, MH",+91-9152284364,,
Yasmeen's aerobics and yoga centre - Borivali West - Mumbai,Gym,Mumbai,"002, Basement 02, Sea Lord Tower, Behind Axis Bank, Ram Nagar, Borivali, Mumbai 400092, MH",+91-9820726323,,
XTrim Fitness - Powai - Mumbai,Gym,Mumbai,"2, IIT Market, Opposite Thakre Hospital, Nana Palshikar Marg, Chaitanya Nagar, Powai, Mumbai 400076, MH",+91-9769631110,,
Xtrim Fitness - Goregaon West - Mumbai,Gym,Mumbai,"4/26, Near Shabri Hotel, MG Road, Unnat Nagar 3, Goregaon West, Mumbai 400062, MH",+91-22-28721414,",sagar.fitness@gmail.com,",
Xtreme Fitness Force - Grant Road - Mumbai,Gym,Mumbai,"C-402, Fuego Commercial, 4th Floor, Shuklaji Street, Near Delhi Zaika, Grant Road, Mumbai 400008, MH",+91-8433615511,,
Xersize (Ladies) - Vile Parle West - Mumbai,Gym,Mumbai,"Matru Chhaya, Dadabhai Cross Road No 3, Vile Parle West, Mumbai 400056, MH",+91-9189788767,,
Xersize (Ladies) - Kandivali West - Mumbai,Gym,Mumbai,"G-102, Kandivali Sai Krupa, 1st Floor, Above Tiny Tots Nursery, Dahanukar Wadi, Kandivali West, Mumbai 400067, MH",+91-22-26716084,,
Xcode - Andheri East - Mumbai,Gym,Mumbai,"Gala No 2, Ravi Industrial Estate, Off Mahakali Caves Road, Paper Box Area, Andheri East, Mumbai 400053, MH",,"WeCare@GoldsGym.in,8169898258CONTACT@GYMXAPPAREL.COM,hello@cultfit.com,,",
X Sport Fitness Centre - Kurla - Mumbai,Gym,Mumbai,"285, Sapana Commercial Complex, Opposite Anjuman I Islam School, SG Barve Marg, CST Road, Kurla West, Mumbai 400070, MH",+91-9702444455,,
X Fitt Forever - Andheri East - Mumbai,Gym,Mumbai,"Gala No 2, HEK Compound, Opposite Dominos Pizza, Sher-E-Punjab, Mahakali Caves Road, Andheri East, Mumbai 400093, MH",+91-7400230001,",hello@cultfit.com,info@xfitt.in,",
X Fitt - Vile Parle East - Mumbai,Gym,Mumbai,"101, Varalakshmi Co-operative Housing Society, Om Shri Siddhivinayak Society, Hanuman Road, Navpada, Vile Parle East, Mumbai 400057, MH",+91-9870282588,",info@xfitt.in,INFO@XFITT.IN,",
World Gym - Ghatkopar East - Mumbai,Gym,Mumbai,"206-207, Platinum Mall, Jawahar Road, Ghatkopar East, Mumbai 400077, MH",+91-7045948481,",worldgym699@gmail.com,",
Workouts The Gym - Versova - Mumbai,Gym,Mumbai,"Bungalow No 167, Mhada Layout, Near Versova Telephone Exchange, SVP Nagar, Versova, Mumbai 400053, MH",+91-22-26361443,",support@gymcompany.co.za,hello@cultfit.com,bodydesigngfc@gmail.com,",
Workouts Gym - Andheri East - Mumbai,Gym,Mumbai,"The Qube, Near International Airport, Lane Of Wellington Park, Andheri East, Mumbai 400059, MH",+91-9223593178,",support@gymcompany.co.za,hello@cultfit.com,contact@ufcgym.in,jdsgymmumbai@gmail.com,",
Workout The Fitness Zone - Andheri East - Mumbai,Gym,Mumbai,"Near Bombay Cambridge High School, Sahar Road, JB Nagar, Chakala, Andheri East, Mumbai 400099, MH",+91-8082222911,"WeCare@GoldsGym.in,,hello@cultfit.com,",
Workout The Fitness Studio - Andheri East - Mumbai,Gym,Mumbai,"Unit No 6-9, Kanta Kunj Building, 1st Floor, Next To City Point, Rajashree Sahu Marg, Andheri East, Mumbai 400069, MH",+91-22-40054678,"WeCare@GoldsGym.in,,hello@cultfit.com,",
Workout Ladies Gym - Byculla - Mumbai,Gym,Mumbai,"12, Wool House, 2nd Floor, Above Server Food Products, Duncun Road, Nagpada, Byculla, Mumbai 400008, MH",+91-9867358151,,
Workout Gym - Mumbai Central - Mumbai,Gym,Mumbai,"243-F, Near American Express Bakery, Clare Road, Mumbai Central, Mumbai 400008, MH",+91-9324521201,",support@gymcompany.co.za,info@nitrro.in,",
Wellness Chakra - Kandivali East - Mumbai,Gym,Mumbai,"D-001, Lodha House, Zarna Enclave, Next To Saidham, Service Road, Asha Nagar, Kandivali East, Mumbai 400101, MH",+91-22-28856695,",fitnessgroovebnb@gmail.com,",
Well n Trim - Dadar - Mumbai,Gym,Mumbai,"Scout & Guide Hall, 1st Floor, Opposite Mayor Banglow, Shivaji Park, Dadar West, Mumbai 400028, MH",+91-9152179131,",info.wellntrim@gmail.com,",
Well N Trim - Churchgate - Mumbai,Gym,Mumbai,"Eros Building, 2nd Floor, Above Archies Gallery, Consultaire Investment, Churchgate, Mumbai 400020, MH",+91-9930928710,",info.wellntrim@gmail.com,",
War X Fit - Bandra West - Mumbai,Gym,Mumbai,"Bandra To Lokhandwala, Bandra West, Mumbai 400050, MH",,",fitnessmafia321@gmail.com,",
Vyayamshala Fitness Centre - Borivali West - Mumbai,Gym,Mumbai,"Dharma Nagar Co-operative Housing Society, Near Yogi Nagar, Off Link Road, Dharma Nagar, Borivali West, Mumbai 400091, MH",+91-9136611556,,
Voltage Fitness - Andheri East - Mumbai,Gym,Mumbai,"39, Mehara Industrial Estate, Opposite Sakinaka Telephone Exchange, Andheri Kurla Road, Sakinaka, Andheri East, Mumbai 400072, MH",+91-9821014275,",8169898258CONTACT@GYMXAPPAREL.COM,hello@cultfit.com,",
VK Fitness Center - Kandivali East - Mumbai,Gym,Mumbai,"Bungalow No 5, Emerald Sea, Near ICICI Bank, Gaondevi Road, Saraf Chaudhari Nagar, Kandivali East, Mumbai 400101, MH",+91-9004002334,,
Vits Luxury Hotel Health Club and Swimming Pool - Andheri East - Mumbai,Gym,Mumbai,"International Airport Zone, Opposite Trade Star, Andheri Kurla Road, Kondivita Lane, Andheri East, Mumbai 400059, MH",+91-22-61517555,,
Vision Fitness - Andheri East - Mumbai,Gym,Mumbai,"10A, 1st Floor, Opposite Mary Matta Church, Khairani Road, Jose Nagar, Sakinaka, Andheri East, Mumbai 400072, MH",+91-22-33126203,",hello@cultfit.com,mumbai@classicfitnessgroup.com,",
Vishal Gym And Fitness Centre - Kandivali West - Mumbai,Gym,Mumbai,"RAC-59, BMC Garden, Near Oxford School, Sector 5, Charkop, Kandivali West, Mumbai 400067, MH",+91-8898761806,,
Vinipul Fitness - Borivali West - Mumbai,Gym,Mumbai,"7, Satra Park, Opposite Veg Treat Hotel, Shimpoli Road, Borivali West, Mumbai 400092, MH",+91-9029043011,,
Vijay Gym - Kandivali West - Mumbai,Gym,Mumbai,"38/376, Near Ekta Nagar, New Link Road, Mahavir Nagar, Kandivali West, Mumbai 400067, MH",+91-9820949250,,
Viikings Trance Fitness - Powai - Mumbai,Gym,Mumbai,"JMJ House, 4th Floor, Near Beatle Hotel & Hiranandani Garden, Orchird Avenue Road, Hiranandani, Powai, Mumbai 400076, MH",+91-22-61121314,",tanveeronefitness@gmail.com,",
Vigour Gym - Borivali East - Mumbai,Gym,Mumbai,"002, New Shivam Building, Opposite Sai Mandir, Kulupwadi Road, Borivali East, Mumbai 400066, MH",+91-9869585701,,
Vidya's Yoga Classes - Juhu - Mumbai,Gym,Mumbai,"Ketan Kendra, Opposite 10th Road, Utpal Sanghvi, Juhu, Mumbai 400049, MH",+91-22-27669710,"ac.kw@mcgm.gov.in,,bhavansyoga@gmail.com,info@avmschools.ac.in,",
Victory Gym - Kandivali West - Mumbai,Gym,Mumbai,"2, Sai Raj Garden, Opposite Modi Park, Road No 3, Irani Wadi, Kandivali West, Mumbai 400067, MH",+91-22-28068999,,
Vfitness - Dadar - Mumbai,Gym,Mumbai,"Himmat Mansion, Opposite Airtel Gallery, Lady Jamshedji Road, Dadar, Mumbai 400028, MH",+91-22-24467777,",support@gymcompany.co.za,support@totalsf.in,",
Vervesity New Ajinkyatara Fitness - Bandra East - Mumbai,Gym,Mumbai,"HQ Building, 2nd Floor, Opposite Collector Office, Baba Saheb Shinde Marg, Bandra East, Mumbai 400051, MH",+91-9137764276,,
Verve Fitness (Only For Ladies) - Andheri West - Mumbai,Gym,Mumbai,"513/14, Samarth Vaibhav, Near Millat Nagar Circle, Off Link Road, Oshiwara, Andheri West, Mumbai 400058, MH",+91-8452982883,,
Vakratunda Gym and Fitness Club - Kurla - Mumbai,Gym,Mumbai,"Ganesh Natya Mandir, Opposite Building No 40 & 54, Tilak Nagar, Kurla East, Mumbai 400089, MH",+91-9819753927,",agrawalrealtors9@gmail.com,rkfitnessdwarka@gmail.com,",
V33 Gymnasium - Andheri West - Mumbai,Gym,Mumbai,"Joe's Cottage, Jai Bhavani Mata Road, Vahatuk Nagar, Amboli, Andheri West, Mumbai 400058, MH",+91-9892352877,,
V1 Activity Center - Kandivali West - Mumbai,Gym,Mumbai,"Bungalow No 1, Vishal Villa, Highland Complex, Charkop Village, Next To Rana Bhavan, Kandivali West, Mumbai 400067, MH",+91-22-60607071,,
V's Fitness - Khar West - Mumbai,Gym,Mumbai,"202, Everest Classic Building, Next To Anita Dongre Store, Linking Road, Khar West, Mumbai 400052, MH",+91-9833368742,",minthealth@gmail.com,Kharwest.mumbai@anytimefitness.in,",
V.S. Fitness and Bodybuilding - Sion - Mumbai,Gym,Mumbai,"4/252, Khanna Chambers, Near PMC Bank, Road 31-A, Namdev Koli Marg, Sion, Mumbai 400022, MH",+91-9920931289,",vikramrothe@gmail.com,",
V: Tone Gym - Mulund West - Mumbai,Gym,Mumbai,"Aashirwad Bungalow, 1st Floor, Mehul Talkies Circle, Opposite Yes Bank, Mulund West, Mumbai 400080, MH",+91-22-25685655,",kandivaliwest.mumbai@goldsgym.in,",
Utsav Yoga Institute - Ghatkopar West - Mumbai,Gym,Mumbai,"Munisuvrat Ashish Co-operative Society, 1st Floor, Building Cama Lane, Opposite SNDT College, Ghatkopar West, Mumbai 400086, MH",+91-9323036863,",utsavinstitute@gmail.com,ratnadeep.dalvi@gmail.com,",
Urban Dancera Company - Andheri West - Mumbai,Gym,Mumbai,"6, Urban Dancera, Anuradha Co-operative Housing Society, Next To Jain Temple, SV Road, Andheri West, Mumbai 400056, MH",+91-9820058092,",info@urbandancera.com,",
Upendra Acharya - Andheri East - Mumbai,Gym,Mumbai,"4, Indragiri Apartment, Jivdani Apartments, Hasmukh Watch Co, Virar East, Thane 401303, MH",+91-22-33126188,"omgupta_786@yahoo.in,,ac.ke@mcgm.gov.in,drminal21@gmail.com,",
Unique Fitness Club - Kurla - Mumbai,Gym,Mumbai,"166-A/1 & 166-A/2, Abdulla Fauzdar Compound, Behind Sangam Building, LBS Road, Kurla West, Mumbai 400070, MH",+91-9022227764,,
Unicorn gym - Chembur West - Mumbai,Gym,Mumbai,"30, Sagar Heritage, 1st Floor, Near Reliance Office, Tilaknagar Colony, Chembur West, Mumbai 400089, MH",+91-9820084609,,
Umesh Patekars Gym - Andheri East - Mumbai,Gym,Mumbai,"14/15, Next To ST. John School, Marol Church Road, Andheri East, Mumbai 400059, MH",+91-9820996656,,
U Can Health Care Centre - Mulund West - Mumbai,Gym,Mumbai,"6, 2nd Floor, Near Sangeeta Enclave Tower, Sarvodaya Nagar, Mumbai 400080, MH",+91-9321101239,,
U K Fitness - Andheri East - Mumbai,Gym,Mumbai,"Euro Kids, Opposite Lok Bharti, Marol Marshi Road, Andheri East, Mumbai 400059, MH",+91-9152225075,",support@gymcompany.co.za,hello@cultfit.com,jdsgymmumbai@gmail.com,",
Twins Dance Art Studio - Ghatkopar East - Mumbai,Gym,Mumbai,"Twins Dance Art Studio, Ghungroo Hotel Lane, Opposite Building 148, 90 Feet Road, Ghatkopar East, Mumbai 400077, MH",+91-8369917418,,
Turbo Fitness - Bandra West - Mumbai,Gym,Mumbai,"213, Silver Pearl Building, Waterfield Road, Bandra West, Mumbai 400050, MH",+91-7777050093,,
TUFF: The Urban Fit Factory - Borivali West - Mumbai,Gym,Mumbai,"Royal Complex, Near Eksar Masjid, CKP Colony, Eksar Road, Borivali West, Mumbai 400091, MH",+91-7738505323,",darshanab.mail@gmail.com,gandhiofficeinfo@gmail.com,",
True Shades Studio - Andheri West - Mumbai,Gym,Mumbai,"1105/2, Crescent Royale, 11th Floor, Opposite VIP Plaza, Off New Link Road, Andheri West, Mumbai 400053, MH",+91-9920576059,",info@wavesgym.com,info@trueshadesphotography.com,",
Trio Fitness - Kandivali East - Mumbai,Gym,Mumbai,"5-6, Autumn Groove Building, Lokhandwala Complex, Opposite Lokhandwala Foundation School, Kandivali East, Mumbai 400101, MH",+91-22-29660154,",triofitness75@gmail.com,",
Trim - Vile Parle East - Mumbai,Gym,Mumbai,"3, Opposite Gomantak Seva Sangh, Malviya Cross Road, Vile Parle East, Mumbai 400057, MH",+91-9820144061,,
Tribal Combat - Andheri West - Mumbai,Gym,Mumbai,"GK Studios, Maruti Business Park, Near Yash Raj Films, Off Vera Desai Road, Andheri West, Mumbai 400053, MH",+91-8692928941,,
Trends Fitness - Mahim - Mumbai,Gym,Mumbai,"Near Gold Cinema, Mahim Road, Palghar 401404, MH",+91-9673233125,",ds-Gym-India-Actress-Pooja-Chopra-G-Ramachandran-Director-Golds-Gym-India-Karan-Valecha-Director-Golds-Gym-India-@-Pune-Hadapsar-Golds-Gym-launch1.jpg,",
Transformation Centre: Home Of Sweet Pain - Goregaon East - Mumbai,Gym,Mumbai,"Basement Of Omkar Complex, Opposite Oberoi Mall, Dindoshi, Goregaon East, Mumbai 400097, MH",+91-8291029442,,
Transform Gym - Vile Parle East - Mumbai,Gym,Mumbai,"67, Krishna Bhavan, Opposite Green House Restaurant, Nehru Road, Vile Parle East, Mumbai 400057, MH",+91-7506687669,",u003ecustomercare@gymsforall.in,customercare@gymsforall.in,transform.vileparle@gymsforall.in,",
Transform Gym - Santacruz West - Mumbai,Gym,Mumbai,"Chheda Arcade, 4th Floor, Opposite Bata Showroom, SV Road, Khira Nagar, Santacruz West, Mumbai 400047, MH",+91-7506687663,",customercare@gymsforall.in,u003ecustomercare@gymsforall.in,",
Transform Gym - Mulund West - Mumbai,Gym,Mumbai,"158, Asma House, 1st Floor, Near Nirmal Lifestyle Mall, Lal Bahadur Shastri Road, Moti Nagar, Mulund West, Mumbai 400080, MH",+91-22-25915717,",customercare@gymsforall.in,u003ecustomercare@gymsforall.in,",
Transform Gym - Kandivali West - Mumbai,Gym,Mumbai,"Next To Balaji Banquets, Khajuria Tank Road, Bhadran Nagar, Kandivali West, Mumbai 400067, MH",+91-8828436291,",u003ecustomercare@gymsforall.in,customercare@gymsforall.in,transform.kandivali@gymsforall.in,",
Transform Gym - Chembur East - Mumbai,Gym,Mumbai,"203, Kaumundi Bungalow, Next To Post Office, DK Sandhu Marg, Chembur, Mumbai 400071, MH",+91-22-25260138,",customercare@gymsforall.in,nchembur@ymail.com,u003ecustomercare@gymsforall.in,",
Transform Gym - Prabhadevi - Mumbai,Gym,Mumbai,"Orbit Plaza, 4th Floor, Near Reliance Digital, New Prabhadevi Road, Prabhadevi, Mumbai 400025, MH",+91-8828436298,",customercare@gymsforall.in,u003ecustomercare@gymsforall.in,",
Transcend Holistic Fitness - Prabhadevi - Mumbai,Gym,Mumbai,"Gala No 8, Kamat Industrial Estate, Near Siddhivinayak Temple, Prabhadevi, Mumbai 400025, MH",+91-9029990997,",fitness@transcendgroup.in,customercare@gymsforall.in,",
TORBA - Santacruz West - Mumbai,Gym,Mumbai,"Lido Cinema Building, 2nd Floor, Opposite Sndt College, Juhu Road, Santacruz West, Mumbai 400049, MH",+91-9967080541,",dessusfitness@gmail.com,",
Tone Up With Props With Richa Wig - Chembur East - Mumbai,Gym,Mumbai,"Stellar Towers, 12th Floor, Opposite K Star Mall, Chembur, Mumbai 400071, MH",+91-9870178866,"reesto@etcline.com,gssc72ipr@gmail.com,,",
Toes N Tunes - Kandivali West - Mumbai,Gym,Mumbai,"315/11/12/15/19, Raghuleela Mega Mall, 1st Floor, Near Poisar Bus Depot, SV Road, Kandivali West, Mumbai 400067, MH",+91-22-33126182,",hello@cultfit.com,falgunishah1206@gmail.com,falgunishah@gmail.com,",
To The Core Fitness - Grant Road - Mumbai,Gym,Mumbai,"2, Hira Cottage Building, Opposite Cama Baug, Raja Ram Mohan Roy Road, Grant Road East, Mumbai 400004, MH",+91-9820311464,,
Tiny Steps Activity Centre - Napensea Road - Mumbai,Gym,Mumbai,"4, Om Dariya Mahal, Opposite Walsinghum House School, Road 80, Napensea Road, Mumbai 400006, MH",+91-9323216776,",smitatinysteps67@gmail.com,",
Thera Wellness - Lower Parel - Mumbai,Gym,Mumbai,"P-6, Club Peninsula 022, Peninsula Business Park, Lower Parel, Mumbai 400013, MH",+91-22-24905130,",therapbp@gmail.com,",
The Yoga Loft - Lokhandwala - Mumbai,Gym,Mumbai,"A-202, Oberoi Chambers, Opposite Sab TV, Off New Link Road, Andheri West, Mumbai 400053, MH",+91-9930120089,,
The Yoga Institute - Juhu - Mumbai,Gym,Mumbai,"23, Kanti, 1st Floor, Opposite Sundriges Hospital, VM Road, Juhu, Mumbai 400049, MH",+91-9821367588,",dhhruv.s@gmail.com,",
The Yoga House - Bandra West - Mumbai,Gym,Mumbai,"Nargis Villa, Water Bungalow, Opposite ICICI Bank, Sherly Rajan Road, Bandra West, Mumbai 400050, MH",+91-8655045001,",info@yogahouse.in,",
The Yoga Hive - Borivali West - Mumbai,Gym,Mumbai,"6, Popular Terrace Co-operative Housing Society, Near Haridas Nagar Circle, Shimpoli Road, Borivali West, Mumbai 400092, MH",+91-9768326136,"shriganpatifinger@gmail.com,,info@yogahut.in,",
The Wooden Stage - Vile Parle West - Mumbai,Gym,Mumbai,"705-D, Square Building, Opposite Chatrabhuj Narsee Memorial School, Dadabhai Road, Vile Parle West, Mumbai 400056, MH",+91-9892077468,"thewoodenstage@gmail.com,,",
The Vibe Studio - Malad East - Mumbai,Gym,Mumbai,"110, Shah Arcade 3, Near Balaji Hospital, Rani Sati Marg, Malad East, Mumbai 400097, MH",+91-9152227656,",hello@cultfit.com,",
The St. Regis - Lower Parel - Mumbai,Gym,Mumbai,"462, Near Phoenix Mall, Senapati Bapat Marg, Lower Parel, Mumbai 400013, MH",+91-22-61628000,"stregismumbai.reservation@stregis.com,,",
The Square Gym - Mulund East - Mumbai,Gym,Mumbai,"Vaity Villa Building, 1st Floor, Opposite To Vihar Hotel, Ramchandra B Kadam Marg, Jivdaya Lane, Mulund East, Mumbai 400084, MH",+91-22-65264395,,
The Square - Powai - Mumbai,Gym,Mumbai,"1001, Hiranandani Gardens, Heera Panna Shopping Centre, Powai, Mumbai 400076, MH",+91-9820446286,",wecare@goldsgym.in,",
The Space - Juhu - Mumbai,Gym,Mumbai,"14, The Space, Jeeva Bungalow, Silver Beach Estate, Entry Next To Harry's Bar, AB Nair Road, Juhu, Mumbai 400049, MH",+91-9892035182,",studio@thespacejuhu.in,",
The Soul Studio - Lokhandwala - Mumbai,Gym,Mumbai,"404, Veera Desai Industrial Estate, New Link Road, Shree Krishna Nagar, Andheri West, Mumbai 400102, MH",+91-9820729837,",lokhandwala.mumbai@goldsgymindia.com,",
The Seventh Sense - Charni Road - Mumbai,Gym,Mumbai,"Chowpatty Terrace, 4th Floor, Next To New Yorker, Morvi Lane, Girgaon, Charni Road, Mumbai 400007, MH",+91-22-33126194,",info@theseventhsense.in,",
The Resort Hotel - Malad West - Mumbai,Gym,Mumbai,"11, Aksa Beach, Near Dariya Kinara Family Restaurant, Madh Marve Road, Malad West, Mumbai 400095, MH",+91-22-61367777,,
The Pilates Studio - Andheri West - Mumbai,Gym,Mumbai,"306, Sundervan Complex, Aston Building, 3rd Floor, Next To Kokilaben Hospital, Lokhandwala Road, Andheri West, Mumbai 400053, MH",+91-9821154492,",hello@cultfit.com,thepilatesstudioenq@gmail.com,",
The Pilates and Altitude Training Studio - Santacruz West - Mumbai,Gym,Mumbai,"301-302, Business Plaza, Opposite Dhan Potohar Sports Ground, Gazdhar Bandh Road, Santacruz West, Mumbai 400054, MH",+91-8657234634,",thepilatesstudioenq@gmail.com,",
The Pilates And Altitude Training Studio - Hughes Road - Mumbai,Gym,Mumbai,"712, Panchsheel Plaza, 7th Floor, Opposite Motor House Mercedes Showroom, Hughes Road, Mumbai 400007, MH",+91-22-26600096,",thepilatesstudioenq@gmail.com,",
The Phoenix Dance Studio - Chembur East - Mumbai,Gym,Mumbai,"438-A, Premalaya Tower, Next To CCD, VN Purav Marg, Deonar, Mumbai 400088, MH",+91-9892096606,,
The Little Gym - Khar West - Mumbai,Gym,Mumbai,"6, Chitrakar Dhurandhar Road, Anand Vihar Society, Ambedkar Colony, Khar West, Mumbai 400052, MH",+91-22-26483355,",tlgbandra@gmail.com,khargym@hotmail.com,me@nehaagarwal.in,accounts@khargymkhana.com,",
The Learning Studio - Juhu - Mumbai,Gym,Mumbai,"1, Cosmaria, Near Millionaire Showroom, Juhu Koliwada, Khar Danda, Mumbai 400049, MH",+91-7045847277,,
The Iyengar Yoga - Juhu - Mumbai,Gym,Mumbai,"Shree Kirtan Kendra, Near Juhu PVR, Off 10th Road, Juhu, Mumbai 400047, MH",+91-9619142122,",info@iyengaryoga.in,",
The Integral Space - Lower Parel - Mumbai,Gym,Mumbai,"14, Janata Estate, 1st Floor, Opposite The Palladium Mall, Senapati Bapat Marg, Lower Parel, Mumbai 400013, MH",+91-22-24973138,",sportsparkgym@gmail.com,info@theintegralspace.com,hasolkar.umesh@gmail.com,zumbafitnessmumbai@gmail.com,",
The Hive Gym - Versova - Mumbai,Gym,Mumbai,"G-7 Mall, 1st Floor, Seven Bungalow, Near Versova Metro Station, Versova, Mumbai 400061, MH",+91-9820068304,"thehivegym@gmail.com,,bodydesigngfc@gmail.com,",
The HEAL Institute - Colaba - Mumbai,Gym,Mumbai,"B-5, Ionic Building, 1st Floor, Justice Vyas Marg, Near State Bank Of India ATM, Thomas Cross Lane, Colaba, Mumbai 400005, MH",+91-7506887637,",Info@thehealinstitute.in,",
The HEAL Institute - Khar West - Mumbai,Gym,Mumbai,"10-B, Vinky Villa, 20th Road, Khar West, Mumbai 400052, MH",+91-7506882175,",Info@thehealinstitute.in,",
The Gymnaasio - Mulund West - Mumbai,Gym,Mumbai,"108, Vikas Paradise, 1st Floor, Opposite Kodak Mahindra Bank, Lal Bahadur Shastri Marg, Mulund West, Mumbai 400080, MH",+91-8828425997,",support@gymcompany.co.za,dahisar1@sk27gym.com,",
The Gym - Bhandup - Mumbai,Gym,Mumbai,"1-2-3, Shurud Co-operative Housing Society, Near Datar Colony, Veer Savarkar Road, Bhandup, Mumbai 400042, MH",+91-9167192382,",support@gymcompany.co.za,membership@thegymgroup.com,",
The Freakout Garage - Prabhadevi - Mumbai,Gym,Mumbai,"Unit 002, Prabhadevi Industrial Estate, Opposite Siddhivinayak Temple, Prabhadevi, Mumbai 400025, MH",+91-9920888379,",priyalvakharia91@gmail.com,",
The Flex Studio - Lokhandwala - Mumbai,Gym,Mumbai,"Sindhudurg Bhavan, 1st Floor, Opposite YES Bank, Suresh Nagar, Lokhandwala, Mumbai 400047, MH",+91-9930003712,",info@theflexstudiomumbai.com,",
The Fitness Yard - Mulund West - Mumbai,Gym,Mumbai,"Vasudha Building, Near Institute Of Foreign Studies, BPS Road, Mulund West, Mumbai 400080, MH",+91-9707036060,,
The District - Lokhandwala - Mumbai,Gym,Mumbai,"96, Janki Devi School Lane, Near Janki Devi School, SVP Nagar, Mahada, Lokhandwala, Mumbai 400053, MH",+91-9819851509,",elixir@gmail.com,support@gymsprit.com,enquiries@theclubmumbai.com,",
The Cloud 9 Fitness Club - Malad West - Mumbai,Gym,Mumbai,"6th Floor, 1st Avenue, Opposite Inorbit Mall, GM Link Road, Malad West, Mumbai 400064, MH",+91-7400068975,"sales@cloud9gym.com,,",
The Body Craft House - Khar West - Mumbai,Gym,Mumbai,"103, Poonam Building, Ramkrishna Mission Signal Junction, Above Noble Chemist, Linking Road, Khar West, Mumbai 400052, MH",+91-9152278961,",support@youngbutterfly.in,",
The Babyfitjoy Studio - Mulund West - Mumbai,Gym,Mumbai,"F-63, R-Galleria, Runwal Greens, Mulund Goregaon Link Road, Nahur West, Mumbai 400078, MH",+91-9167170717,",babyfitjoy@gmail.com,",
TFC Gym - Andheri East - Mumbai,Gym,Mumbai,"Rajendra Niwas, Mahakali Caves Road, Roma Store, Takshila, Andheri East, Mumbai 400093, MH",+91-9920593984,",hello@cultfit.com,",
Tangerine Arts Studio - Bandra West - Mumbai,Gym,Mumbai,"9, Rukhsana, 2nd Floor, Next To Ambedkar Statue, Off Pali Hill, Bandra West, Mumbai 400050, MH",+91-9867369960,",info@tangerineartsstudio.com,info@tangerineartstudio.com,",
Talwalkars - Vile Parle East - Mumbai,Gym,Mumbai,"CTS No 458/01, E-Square, 5th Floor, Subhash Road, Netaji Subhash Nagar, Vile Parle East, Mumbai 400057, MH",+91-22-26110404,,
Talwalkars - Mulund West - Mumbai,Gym,Mumbai,"Samridhi Building, 1st Floor, Near PNT Colony, Pandit Madan, Mohan Malaviya Road, Mulund West, Mumbai 400080, MH",+91-22-25614777,,
Talwalkars - Goregaon West - Mumbai,Gym,Mumbai,"Ozone Club, Prabodhan Krida Bhavan, Near Vivek College, Siddharth Nagar, Goregaon West, Mumbai 400104, MH",+91-22-28777885,,
Talwalkars - Versova - Mumbai,Gym,Mumbai,,,",ic_talwalkars@yahoo.co.in,care@talwalkars.net,",
Talwalkars - Chembur East - Mumbai,Gym,Mumbai,"3rd & 4th Floor, Opposite Sadguru Hotel, Chembur East, Mumbai 400071, MH",+91-22-61525252,,
Talwalkars - Bandra West - Mumbai,Gym,Mumbai,"TPS-3, Mangal Simran Building, Behind Tavaa Restaurant, 28th Road, Off Turner Road, Bandra West, Mumbai 400050, MH",+91-22-66946990,",investor@talwalkars.net,ig@talwalkars.net,u003eig@talwalkars.net,",
Talwalkars - Andheri East - Mumbai,Gym,Mumbai,"196, Tegh House, Opposite Kohinoor Continental, Kurla Road, JB Nagar, Andheri East, Mumbai 400059, MH",+91-22-28325842,",andheri@talwalkars.net,avanicreation170a@gmail.com,",
Talwalkars - Churchgate - Mumbai,Gym,Mumbai,"Shalakha Building, 1st Floor, Queens Barack Area, Opposite Cooperage Football Ground, Maharshi Karve Road, Nariman Point, Churchgate, Mumbai 400021, MH",+91-22-22024884,",care@Talwalkars.net,u003ecare@Talwalkars.net,lite.project@centrum.co.in,",
Talent Studio - Grant Road - Mumbai,Gym,Mumbai,"9, Siddesh Darshan, 10th Khetwadi Main Road, Grant Road, Mumbai 400004, MH",+91-9867678867,",keshavpolytechnic@gmail.com,",
Taj Land Ends - Bandra West - Mumbai,Gym,Mumbai,,,",jivaspa.landsend@tajhotels.com,jwellnesscircle.tajlandsend@tajhotels.com,",
TAG Fitness Studio - Malad West - Mumbai,Gym,Mumbai,"D-9, Flat No 4, Asmita Jyoti Co-operative Housing Society, Marve Road, Malad West, Mumbai 400095, MH",+91-22-33126201,",hello@cultfit.com,info@wavesgym.com,",
TAC Studio - Worli - Mumbai,Gym,Mumbai,"87, Atur House, 3rd Floor, Dr. Annie Besant Road, Worli, Mumbai 400018, MH",,",info@wavesgym.com,yuvraj.wagh@goldsgym.in,",
Synergym (ST Fitness) - Andheri West - Mumbai,Gym,Mumbai,"202, Rajesh Shopping Centre, Opposite Nadco Shopping Centre, SV Road, Andheri West, Mumbai 400058, MH",+91-9773320619,",bodydesigngfc@gmail.com,",
Synergy Yoga - Andheri West - Mumbai,Gym,Mumbai,"Evershine Embassy, Opposite To Country Club, Veera Desai Road, Andheri West, Mumbai 400053, MH",,",hello@cultfit.com,",
Synergy Fitness - Mulund West - Mumbai,Gym,Mumbai,"501, Parmeshwari Plaza, Above HDFC Bank, NS Road, Siddharth Nagar, Mulund West, Mumbai 400081, MH",+91-9819000062,",justlookonmumbai@gmail.com,",
Sykz Gym - Andheri West - Mumbai,Gym,Mumbai,"201-214, Samartha Vaibhav, Off New Link Road, Oshiwara, Andheri West, Mumbai 400053, MH",+91-22-66923233,"sykzfitness@ymail.com,,",
Swing 2 Salsa Raunaque's Dance and Fitness Education - Malad West - Mumbai,Gym,Mumbai,"1, New Bhoomi Park 2, Marve Road, Jankalyan Nagar, Malad West, Mumbai 400095, MH",+91-9221552155,",raunaques@yahoo.co.in,",
Sweat on Fitness Satellite Tower - Goregaon East - Mumbai,Gym,Mumbai,"10, Satellite Tower, Film City Road, Goregaon, Mumbai 400065, MH",+91-9833517282,"arun.sweaton@gmail.com,,",
Sweat On Fitness - Goregaon East - Mumbai,Gym,Mumbai,"Vasant Valley Tower, IVY Towers, Beside Shagun Arcade, Goregaon East, Mumbai 400063, MH",+91-9833517282,"arun.sweaton@gmail.com,,",
Swayum Yoga - Andheri West - Mumbai,Gym,Mumbai,"Blind School, 1st Floor, Opposite Lallubhai Park, Road No 2, Andheri West, Mumbai 400058, MH",,"andheri@ymcabombay.com,,",
Swayum Yoga - Vile Parle West - Mumbai,Gym,Mumbai,"B-6, ML Spaces, Opposite McDonalds, DJ Road, Vile Parle West, Mumbai 400056, MH",+91-9152430056,,
Swastik League Gym - Grant Road - Mumbai,Gym,Mumbai,"324-A, Vitthalbhai Patel Road, Elogallli, Ethmriyal Cinema, Shapur Baug, Grant Road, Mumbai 400004, MH",+91-22-23821532,,
Swaasthyam - Andheri East - Mumbai,Gym,Mumbai,"12-A, Alpine Industrial Estate, Opposite Mumbai Residency Military Road, Marol, Andheri East, Mumbai 400059, MH",+91-9152250925,"WeCare@GoldsGym.in,8169898258CONTACT@GYMXAPPAREL.COM,hello@cultfit.com,,",
Svasti: The Fitness Nutrition Studio - Juhu - Mumbai,Gym,Mumbai,"A-7/1, Svasti The Fitness Nutrition Studio, Nalanda College, Next To ICICI Bank, JVPD Scheme, NS Road No 10, Juhu, Mumbai 400049, MH",+91-9820424424,",svasti@outlook.com,",
Superb Fitness Center - Malad West - Mumbai,Gym,Mumbai,"Sumathi Sadan, Next To Orchid International School, Lourdes Colony, Marve Road, Orlem, Malad West, Mumbai 400064, MH",+91-9920697543,,
Sunita's Yoga - Andheri West - Mumbai,Gym,Mumbai,"Behind City Mall, Lokhandwala Complex, Behind City Mall, Andheri West, Mumbai 400053, MH",+91-22-33126199,,
Sunaina Rekhi - Bandra West - Mumbai,Gym,Mumbai,"54/11, Yoga Gallery, 4th Floor, Sea Doll, Chembai Village, Behind St Andrew Church, Hill Road, Bandra West, Mumbai 400050, MH",+91-22-33126188,"unleashyourblissretreat@gmail.com,,u003eunleashyourblissretreat@gmail.com,sunainarekhi@gmail.com,",
Sun N Sand - Juhu - Mumbai,Gym,Mumbai,"39, Juhu Beach, Juhu, Mumbai 400049, MH",+91-22-26201811,",hr.mumbai@sunnsandhotels.com,reservations@sunnsandhotel.com,",
Sufi's Fitness - Mumbai Central - Mumbai,Gym,Mumbai,"B-10/A, Klassic Towers, Dr. Anandrao Nair Marg, Near Celejor Cake Shop, RTO Colony, Agripada, Mumbai Central, Mumbai 400011, MH",+91-7302572266,,
Success The Yoga Studio - Ghatkopar West - Mumbai,Gym,Mumbai,"A-8, Shantiniketan Society, Groud Floor, Opposite Vijay Sales, LBS Marg, Ghatkopar West, Mumbai 400086, MH",+91-9930473696,,
Studio Rhythm Dance Class - Chembur East - Mumbai,Gym,Mumbai,"Spastic Society, Behind Gregorious School, Chembur East, Mumbai 400071, MH",+91-9833977800,",manoj.r.chhabra@gmail.com,",
Studio One Eighty Nine - Tardeo - Mumbai,Gym,Mumbai,"15/16, Everest Building, Opposite Bus Depot, DJ Dadaji Road, Tardeo, Mumbai 400034, MH",+91-9920990444,,
Studio Balance - Hughes Road - Mumbai,Gym,Mumbai,"29/30, Krishna Kunj Co-operative Housing Society, KM Munshi Marg, Opposite Gogo Snacks, Hughes Road, Girgaum Chowpatty, Mumbai 400007, MH",+91-9619802724,",hello@cultfit.com,info@wavesgym.com,",
Stronghold Gym - Kandivali East - Mumbai,Gym,Mumbai,"21/D-1, Opposite Shaloni Tai Hospital, Akurli Road, Kandivali East, Mumbai 400101, MH",+91-9870813914,",info@strongholdclimb.com,membership@strongholdclimb.com,u003einfo@strongholdclimb.com,",
Sterone- The Transforming Gym - Sion - Mumbai,Gym,Mumbai,"10-4, Sadminee Building, Opposite Vallabh School, Sion West, Mumbai 400022, MH",+91-8655109990,,
Step Up Dance & Fitness Studio - Bhandup - Mumbai,Gym,Mumbai,"G-164, Dreams The Mall, Off Station Road, LBS Marg, Bhandup West, Mumbai 400070, MH",+91-9619280809,,
Steel Body Gym - Malad East - Mumbai,Gym,Mumbai,"Steel Body Gym, Kurar Village Road, Triveni Nagar, Pathanwadi, Malad East, Mumbai 400097, MH",+91-8655535500,",support@gymcompany.co.za,mail@cosco.in,",
Stay Fit Fitness Center - Kandivali West - Mumbai,Gym,Mumbai,"5/11, Kartitay Apartment, Sector No 8, New Charkop Gaon, Kandivali West, Mumbai 400067, MH",+91-9867001909,,
Star Trek Fitness Centre - Borivali West - Mumbai,Gym,Mumbai,"184/189, Manujeet Bungalow, Near Chand Ganga, Junction Of RSC-1-A, Borivali West, Mumbai 400092, MH",+91-9967759263,,
Squat Up - Ghatkopar West - Mumbai,Gym,Mumbai,"101, Neelkanth Corporate Park, Near State Bank Of India, Kirol Road, Ghatkopar West, Mumbai 400086, MH",+91-22-25090511,",INFO@SQUATUP.IN,",
Square Fitness - Bhandup - Mumbai,Gym,Mumbai,"S Pratap Singh Road, Sarvodaya Nagar, Bhandup, Mumbai 400078, MH",+91-8108777535,,
Spirit 4 Vigor - Lower Parel - Mumbai,Gym,Mumbai,"Khtiza Manzil, 1st Floor, Near Parel St Bus Depot, Elphinstone Road, Lower Parel, Mumbai 400013, MH",,"WeCare@GoldsGym.in,,yuvraj.wagh@goldsgym.in,",
Spartans Gymnasium - Ghatkopar West - Mumbai,Gym,Mumbai,"Gala No 2, CR Loyalka Estate, Near Jangleshwar Mahadev Temple, JMT Road, Asalfa Village, Ghatkopar West, Mumbai 400084, MH",+91-9323955123,"ghatkopar@ymcabombay.com,,",
Spartan fitness temple - Andheri East - Mumbai,Gym,Mumbai,"G-11, Unique House, Near PMC Bank, Off Mahakali Caves Road, PMGP Colony, Poonam Nagar, Andheri East, Mumbai 400093, MH",+91-9594042719,"WeCare@GoldsGym.in,,hello@cultfit.com,",
Sparrc Institute - Bandra West - Mumbai,Gym,Mumbai,"105, Anand Building, 2nd Floor, Near State Bank Of India, Dr. Ambedkar Road, Pali Hills, Bandra West, Mumbai 400050, MH",+91-7738333967,",sparrcmumbai@gmail.com,",
Spanish Fitness Centre - Mulund East - Mumbai,Gym,Mumbai,"3, A Wing, Dnyaneshwar Darshan, Near Municipal Hospital, GV Scheme Road No 4, Mulund East, Mumbai 400081, MH",+91-7738626976,,
Sp Fitness Centre - Grant Road - Mumbai,Gym,Mumbai,"1/1721, Shivprerana, Gaumdevi Kennedy Bridge, Grant Road, Mumbai 400007, MH",+91-9820798117,",ac.d@mcgm.gov.in,",
Soul Fitness Solution - Dadar - Mumbai,Gym,Mumbai,"278, Ganga Heritage, Chedda Optics, Devdar Road, Matunga, Dadar, Mumbai 400014, MH",+91-22-33126189,,
Soul Club - Bandra West - Mumbai,Gym,Mumbai,"Sunrise Building, 2nd Floor, Near St. Theresa Church, Off Linking Road, Bandra West, Mumbai 400050, MH",+91-8657440550,",enquiries@theclubmumbai.com,",
SN Explode Gym - Borivali East - Mumbai,Gym,Mumbai,"SN Explode Gym, Green Avenue 2, Kulupwadi Lane, Near TCS, Raheja Estate, Borivali East, Mumbai 400066, MH",+91-9821520680,,
Smitai Fitness - Bhandup - Mumbai,Gym,Mumbai,"Br Nath Pai School, 2nd Floor, TP Road, Nardas Nagar, Bhandup, Mumbai 400078, MH",+91-9594062033,",ingleramdas@gmail.com,",
Smita Shah - Mulund West - Mumbai,Gym,Mumbai,"A-103, Mount Classic 1, Yogi Hills, Opposite Yogi Hill Club, Off BR Road, Mulund West, Mumbai 400081, MH",+91-9820819557,",ac.t@mcgm.gov.in,",
Smart Flex gym - Borivali West - Mumbai,Gym,Mumbai,"Sai Charan Co-operative Housing Society, Basement Floor, Kotak Mahindra Bank Building, Opposite Aura Hotel, Link Road, Yogi Nagar, Borivali West, Mumbai 400091, MH",+91-9869408969,,
Smaaash Shivfit - Lower Parel - Mumbai,Gym,Mumbai,"Gate No 4, Trade View Building, Kamala Mills, 2nd Floor, Pandurang Budhkar Marg, Lower Parel, Mumbai 400013, MH",+91-8291960776,"hello@smaaash.in,,shivfit@smaaash.in,",
Slimwell - Dadar - Mumbai,Gym,Mumbai,"252, Near Bet Mayor`S Bungalow, At Swatantryaveer Savarkar Rashtriya Smarak, Veer Savarkar Marg, Shivaji Park, Dadar West, Mumbai 400028, MH",+91-9833346047,,
Slim Fitness Wheel - Khar West - Mumbai,Gym,Mumbai,"703, Makhija Royale Building, 8th Floor, Next To Rajasthan Hotel, SV Road, Khar West, Mumbai 400052, MH",+91-9930067839,",Fitnesswheel03@gmail.com,",
Sky Meditation Center - Chembur East - Mumbai,Gym,Mumbai,"Vocational Guidance Building, Opposite To Acres Club, Sindhi Society, Chembur East, Mumbai 400071, MH",+91-9322277766,"mvkm.mtp@gmail.com,,hello@cultfit.com,srihemchand@hotmail.com,",
SiroFit24 Gym - Goregaon East - Mumbai,Gym,Mumbai,"Unit No 20, Lower Level 1, Orchard Road Mall, Royal Palms Estate, Aarey Colony, Goregaon East, Mumbai 400065, MH",+91-9699499399,",hello@cultfit.com,hanman.juhu@gmail.com,",
Shree Hariom Yoga - Borivali East - Mumbai,Gym,Mumbai,"Room No 81, MG Road, Borivali East, Mumbai 400066, MH",+91-22-68888809,,
Shredz Fitness - Borivali West - Mumbai,Gym,Mumbai,"1-2-3, Vivek Enclave, Opposite Shivaji Nagar Bus Stop, LM Road, Borivali West, Mumbai 400103, MH",+91-7900042299,",nareshkurale@gmail.com,",
Shredders gym - Ghatkopar East - Mumbai,Gym,Mumbai,"C-101 & C-101/A, Integrated Karma Co-operative Housing Sociey, 1st Floor, Janta Colony, Hingwala Cross Lane, Pant Nagar, Ghatkopar East, Mumbai 400077, MH",+91-22-25017373,,
Shonet's Dance Art Studio - Malad West - Mumbai,Gym,Mumbai,"7, Siddhi Vinayak Apartment, Lourdes Colony, Sdas, Orlem, Orlem Tank Road, Malad West, Mumbai 400064, MH",+91-9820915626,",rahul.miranda1@gmail.com,u003eshonetsdanceartstudio@gmail.com,shonetsdanceartstudio@gmail.com,",
Shobana Zumba - Borivali East - Mumbai,Gym,Mumbai,"Raheja Estate, Kulupwadi, Borivali East, Mumbai 400066, MH",,",fitnessgroovebnb@gmail.com,",
Shivsena Health Club - Borivali East - Mumbai,Gym,Mumbai,"Near Rajendra Nagar Flyover Bridge, Carter Road, Borivali East, Mumbai 400092, MH",+91-22-33126183,",hello@cultfit.com,cmo01rc.phd@mcgm.gov.in,chkcmo@gmail.com,ac.e@mcgm.gov.in,",
Shivgarjana gym - Santacruz East - Mumbai,Gym,Mumbai,"C-7, Near Grand Hyatt Hotel, Pipeline Road, Pratiksha Nagar, Vakola, Santacruz East, Mumbai 400055, MH",+91-22-33126180,",hello@cultfit.com,customercare@gymsforall.in,",
Shivfit - Bandra West - Mumbai,Gym,Mumbai,"33, Anthonio Rest, Opposite New Sunrise Restaurant, Shirley Rajan Road, Bandra West, Mumbai 400050, MH",,",hello@cultfit.com,",
Shivasana Fitness Centre - Andheri West - Mumbai,Gym,Mumbai,"42, Ink Plaza, 1st Floor, Near Oshiwara Police Station, New Link Road, Andheri West, Mumbai 400053, MH",+91-9867440565,,
Shivas Gymnasium - Marine Lines - Mumbai,Gym,Mumbai,"36, Near Anandash Hotel, Sonapur Street, Chira Bazar, JSS Road, Kalbadevi, Marine Lines, Mumbai 400002, MH",+91-9920761192,,
Shivai Gym - Andheri East - Mumbai,Gym,Mumbai,"Opposite ICICI Bank, MMRDA Colony, Mahakali Caves Road, Poonam Nagar, Andheri East, Mumbai 400093, MH",+91-7208856785,,
Shiva Yoga Center - Kandivali East - Mumbai,Gym,Mumbai,"Dr. Pankaj Clinic, Opposite Banarsi Hotel, Akruli Road, Hanuman Nagar, Kandivali East, Mumbai 400101, MH",+91-9152225916,,
Shiv sai ganesh gym - Andheri East - Mumbai,Gym,Mumbai,"Gundavli Hill, Usman Chawl, Gundavali Gaothan, Azad Road, Andheri East, Mumbai 400069, MH",,"WeCare@GoldsGym.in,,ac.ke@mcgm.gov.in,",
Shiv Holistic Yoga - Mumbai Central - Mumbai,Gym,Mumbai,"12/28, Building No 3, Navjivan Commercial Society, 12th Floor, Shree Sagar Fast Food & Juice Center, Mumbai Central, Mumbai 400007, MH",+91-22-23095988,",shivholistic99@gmail.com,",
Shirin's Fitness Freakkzz - Bandra West - Mumbai,Gym,Mumbai,"Manuel Gonsalves Road, Bandra West, Mumbai 400050, MH",+91-22-33126192,",fitnessfreakkzz@gmail.com,",
Shilpkar Fitness - Goregaon East - Mumbai,Gym,Mumbai,"Aaary Bhaskar Garden, Opposite Rayan High School, Gokuldham Colony, Goregaon, Mumbai 400063, MH",+91-9594367861,,
Shilpa's Yoga - Byculla - Mumbai,Gym,Mumbai,"2/39-S, Shilpa Yoga, Sudio, Noor Bhag Circle, Sandhust Road, Byculla, Mumbai 400009, MH",+91-9167934222,,
Sharda Yoga Classes - Bandra West - Mumbai,Gym,Mumbai,"Domnic Holm, Opposite Mickey Mehta Gym, 29th Road, Bandra West, Mumbai 400050, MH",+91-9821236219,,
Shapers - Ghatkopar East - Mumbai,Gym,Mumbai,"504/505, Dhoot Business Centre, 5th Floor, Next To Baskin Robbins, RB Mehta Marg, 60 Feet Road, Ghatkopar East, Mumbai 400077, MH",+91-9323697912,",Enquiry@shapersworld.in,",
Shape N Curves Fitness Studio - Bhandup - Mumbai,Gym,Mumbai,"1, Matoshree Kunj Society, MD Kini Road, Industrial Area, Bhandup East, Mumbai 400042, MH",+91-9664765331,,
Shanky Fitness - Chembur West - Mumbai,Gym,Mumbai,"2-A, Near Marthoma Church, Opposite Amarnath School, Vaibhav Nagar, Chembur West, Mumbai 400071, MH",+91-9594683617,,
Shalet dance Academy - Bhandup - Mumbai,Gym,Mumbai,"Mayuresh Residency, Opposite Asian Paints, LBS Marg, Bhandup West, Mumbai 400078, MH",+91-9820361165,,
SG Fitness Gym - Jogeshwari West - Mumbai,Gym,Mumbai,"Galla No 9 & 10, Panna Mall, Reliable Business Centre, Next To Heera, Anand Nagar, Jogeshwari West, Mumbai 400102, MH",+91-9867122439,",shashikrishna1986@yahoo.in,",
SFS Gym - Grant Road - Mumbai,Gym,Mumbai,"6, Mangalmurti Plaza, A-Wing, Behind Sanghavi Galaxy, 10th Lane Khetwadi, Grant Road, Mumbai 400004, MH",+91-9819431272,,
SDWM Shirishs Dancing and Fitness Studio - Juhu - Mumbai,Gym,Mumbai,"65, Nutan Laxmi Society, Kirandevi Saraf Road, JVPD Scheme, Juhu, Mumbai 400049, MH",+91-9820067123,,
Sarvoday Vyayam Shalla - Goregaon West - Mumbai,Gym,Mumbai,"Bhagat Singh No 1, Anna Bhau Sathe Maidan, Link Road, Motilal Nagar No 1, Goregaon West, Mumbai 400104, MH",,",fitnessmafia321@gmail.com,",
Santosh Vyayam Mandir - Goregaon West - Mumbai,Gym,Mumbai,"108, Motilal Nagar 1, Goregaon West, Mumbai 400104, MH",+91-9820013480,",seemamange07@yahoo.co.in,",
Sandy's Elite Dance and Fitness Studio - Bhandup - Mumbai,Gym,Mumbai,"21, Near D Bazaar, Manbai Keshvajiwadi, Village Road, Bhandup, Mumbai 400078, MH",+91-8082014609,,
Sanctum Fitness - Borivali East - Mumbai,Gym,Mumbai,"602, Goyal Trade Centre, 6th Floor, Near Sona Theatre, Shantivan Complex Colony, Borivali East, Mumbai 400066, MH",+91-22-28282099,",sanctumfitness@gmail.com,",
Samrat Fitness - Santacruz East - Mumbai,Gym,Mumbai,"Government Housing Scheme, Near Zooomberg, Nehru Road, Sen Nagar, Santacruz East, Mumbai 400055, MH",+91-9987353512,,
Sameeta Power Yoga Studio - Santacruz East - Mumbai,Gym,Mumbai,"1, C-Wing, Near Phatuck College, Vakola Road, Santacruz East, Mumbai 400055, MH",+91-9920151635,,
Samarth Shree Gym - Santacruz East - Mumbai,Gym,Mumbai,"Samarth Compound, Vakola Bridge, Chaitanya Nagar Lane, Santacruz East, Mumbai 400055, MH",+91-9920310029,"me@nehaagarwal.in,,",
Samanta Duggal - Breach Candy - Mumbai,Gym,Mumbai,"3, Building Vaikunt, 5th Floor, Opposite Breach Candy Hospital, Haji Ali, Breach Candy, Mumbai 103234, MH",+91-22-33126188,",samantaduggal7@hotmail.com,u003esamantaduggal7@hotmail.com,",
Saifee Hospital Cam Dept - Charni Road - Mumbai,Gym,Mumbai,"15/17, Maharshi Karve Road, Charni Road, Mumbai 400004, MH",+91-22-33126186,",write@saifeehospital.com,",
Sadgurus Mission Fitness - Grant Road - Mumbai,Gym,Mumbai,"Near Sandhurst Road Railway Station, Navroji Hill, Dongri, Mumbai 400009, MH",+91-22-23717649,",missionfitness3@gmail.com,",
Sadgurus Mission Fitness - Chembur West - Mumbai,Gym,Mumbai,"G-3/1, 1st & 2nd Floor, Opposite Indian Oil Nagar, Ghatkopar-Mankhurd Link Road, Shankara Colony, Chembur West, Mumbai 400089, MH",+91-22-55510064,,
Saalam Gym - Jogeshwari East - Mumbai,Gym,Mumbai,"Near Suresh Super Market, Geetanjali Railway Colony, Bandrekar Wadi, Laxmi Nagar, Jogeshwari East, Mumbai 400060, MH",,",bentharakan@gmail.com,",
S. Fitness - Andheri West - Mumbai,Gym,Mumbai,"Grande Imperal, Siddhart Banquets, 2nd Floor, Andheri West, Mumbai 400052, MH",,",rupal@cambridgediet.in,",
S Zumba - Andheri West - Mumbai,Gym,Mumbai,"Grand Imperial Banquet, 2nd Floor, Near Kamdhenu Shopping Centre, St. Louis Convent Road, Andheri West, Mumbai 400053, MH",+91-9930007802,,
Rudram Fitness - Powai - Mumbai,Gym,Mumbai,"Gala No 2, Kazim Manjil A, Prem Nagar, Saki Vihar Road, Tunga Village, Powai, Mumbai 400072, MH",+91-8104663988,,
Rudebox Fitness - Khar West - Mumbai,Gym,Mumbai,"Empresa, 2nd Floor, Same Building As 24 Lounge, Near Khar Railway Station, Off SV Road, Ram Krishna Nagar, Khar West, Mumbai 400052, MH",+91-9892231507,"me@nehaagarwal.in,,",
Rolly's Yoga - Powai - Mumbai,Gym,Mumbai,"1024, Jal Vayu Vihar, Heera Panna Mall, Hiranandani Gardens, Powai, Mumbai 400078, MH",+91-9869058109,",support@youngbutterfly.in,",
RJ'S Muscle Miracle Fitness - Andheri West - Mumbai,Gym,Mumbai,"103, Venus Tower, 2nd Floor, B-Wing, Near Andheri Ka Raja, Near Court Yard Hotel, Veera Desai Marg, Andheri West, Mumbai 400053, MH",+91-9167840102,",info@wavesgym.com,",
Ritesh's Dance and Fitness Studio - Bandra East - Mumbai,Gym,Mumbai,"37/1925, MHB Colony, Next To Hotel Saheb, Service Road, Gandhi Nagar, Bandra East, Mumbai 400051, MH",+91-9920971211,",riteshdancefitnessstudio@gmail.com,u003eriteshdancefitnessstudio@gmail.com,",
Rima Thakker's Yoga - Chembur East - Mumbai,Gym,Mumbai,"Wiz Kids Nursery Hall, Anjali Building, Green Fields Society, Ghatla Village Road, Green Fields Society, Chembur East, Mumbai 400071, MH",+91-9819609943,,
Riddham Dance Academy & Yoga Centre - Ghatkopar West - Mumbai,Gym,Mumbai,"A-13, Deepa Building, Valji Ladha R New Manik Lal Estate, Opposite Muncipal School, Off LBS Road, Ghatkopar West, Mumbai 400086, MH",+91-9320182494,,
Riaz Zumba Classes - Chembur East - Mumbai,Gym,Mumbai,"D-50, Near Chembur Post Office, Gaotan, Chembur East, Mumbai 400071, MH",+91-9820782813,,
Rhythm Dance Academy - Hughes Road - Mumbai,Gym,Mumbai,"29/30, Krishna Kunj Co-operative Housing Society, 1st Floor, Studio Balance, Behind Wilson College, Chowpatty, Gymnasium Hall, KM Munshi Marg, Hughes Road, Mumbai 400007, MH",+91-9833343003,,
Rhythm And Beats Studio - Vile Parle East - Mumbai,Gym,Mumbai,"B-102, Sunvision Classic, Near PTV School, Hanuman Road, Vile Parle East, Mumbai 400057, MH",+91-8419957666,,
Rewind Fitness - Mulund West - Mumbai,Gym,Mumbai,"17/18/19, New Anupam Industrial Estate No 2, Opposite Marathon Monte Vista, Off PK Road, Mulund West, Mumbai 400080, MH",+91-9702614111,,
Revolution Fitness The Gym - Andheri East - Mumbai,Gym,Mumbai,"Atul Blue Fortuna Tower, 1st Floor, Near Tanvi Supermarket, Marol, Andheri East, Mumbai 400059, MH",+91-8433557470,",hello@cultfit.com,",
Reset - Bandra West - Mumbai,Gym,Mumbai,"Bombay Art Society, 5th Floor, Opposite Hotel Rangsharda, Bandra Reclamation, Bandra West, Mumbai 400050, MH",+91-9920088880,,
Resculpt Fitness - Juhu - Mumbai,Gym,Mumbai,"120, Saket Building, Juhu Gulmohar Road, JVPD Scheme, Juhu, Mumbai 400058, MH",+91-9867342979,",contact@resculpt.fitness,",
Repps Fitness - Malabar Hill - Mumbai,Gym,Mumbai,"146, Panchshil Plaza, Near Dharam Palace, Hughes Road, Malabar Hill, Mumbai 400007, MH",+91-9004037452,",info@reppsfitness.com,",
Relive Dance And Fitness - Andheri East - Mumbai,Gym,Mumbai,"Opposite Vaishno Devi Temple, Suprameet Building, JB Nagar, Andheri East, Mumbai 400059, MH",+91-8828571648,",hello@cultfit.com,",
Regius The Fitness Factory - Mahim - Mumbai,Gym,Mumbai,"8, Behind Raja Rani Travels, Gopi Tank Marg, Mahim West, Mumbai 400016, MH",+91-22-65316555,",regiusthefitnessfactory@gmail.com,",
Reetas Revive Gym and Fitness Studio - Powai - Mumbai,Gym,Mumbai,"406/9, Crystal Center, 4th Floor, Raheja Vihar Road, Chandivali, Powai, Mumbai 400072, MH",+91-9833403018,,
Reebok CF at PDP - Malabar Hill - Mumbai,Gym,Mumbai,"Priyadarshini Park Bus Stop, Nepean Sea Road, Navshanti Nagar, Malabar Hill, Mumbai 400006, MH",+91-22-61344326,,
Red Gym - Santacruz East - Mumbai,Gym,Mumbai,"37-B, Near Dena Bank, Kishish Kunj, 6th Road, Santacruz East, Mumbai 400055, MH",+91-9819679042,,
Recharge Mind and Body - Andheri West - Mumbai,Gym,Mumbai,"L-1, Zaa Tower, Yari Road, Amit Nagar, Versova, Andheri West, Mumbai 400061, MH",+91-9833111351,",hello@cultfit.com,",
Rebounce Fitness - Kandivali West - Mumbai,Gym,Mumbai,"16/159, Rebounce Fitness, Pragatti Co-operative Housing Society, Near Kosh School, Link Road, Mahavir Nagar, Kandivali West, Mumbai 400067, MH",,",customercare@gymsforall.in,",
Rao Yoga - Matunga East - Mumbai,Gym,Mumbai,"Ka Subramanyam Road, Matunga East, Mumbai 400019, MH",+91-22-33126180,",ac.fn@mcgm.gov.in,",
Raj Gym - Goregaon East - Mumbai,Gym,Mumbai,"5, Hariom Sai Compound, Near Sahakarwadi, Mulund Link Road, Goregaon East, Mumbai 400063, MH",+91-9820479649,",mtgupta@rediffmail.com,info@tifc.co.in,santoshguptaca@gmail.com,",
R 2 Rocks Dance Academy - Sion - Mumbai,Gym,Mumbai,"18/B -5, Near Shiv Dasani Garden, Sindhi Colony, Sion, Mumbai 400022, MH",,",rasika.jog@gmail.com,",
QueensLadies FitnessCentre - Parel - Mumbai,Gym,Mumbai,"64-J, Chemburkar House, BG Village, Near Haffkine Institute, Parelkar Road, Parel, Mumbai 400012, MH",+91-9223265955,",yuvraj.wagh@goldsgym.in,",
Qi Lifecare - Churchgate - Mumbai,Gym,Mumbai,"Eros Cinema Building, 1st Floor, West Wing, Opposite Churchgate Building, J Tata Road, Churchgate, Mumbai 400020, MH",+91-22-66390011,,
Purple Grape - Sion - Mumbai,Gym,Mumbai,"4, Block No 10-A, The New Sion Co-operative Housing Society, Sion Sindhi Colony, Next To Kisan Dosawala, Road No 24, Sion West, Mumbai 400022, MH",,",justlookonmumbai@gmail.com,dance@purplegrape.co.in,",
Purna Swasthya - Grant Road - Mumbai,Gym,Mumbai,"1, Saraswath Mahila Samaj, Grant Road, Mumbai 400007, MH",+91-9820094403,",ac.d@mcgm.gov.in,dychews01.roads@mcgm.gov.in,",
Pure Soul with Yoga - Santacruz East - Mumbai,Gym,Mumbai,"C-9, Shri Kumar Co-operative Housing Society, Near Kalina Military Camp, Vakola Nehru Road, Santacruz East, Mumbai 400055, MH",+91-22-26550617,",cnbandra@jbcn.in,",
Pure Max - Malad West - Mumbai,Gym,Mumbai,"214, Link Way Estate, 2nd Floor, Near Inorbit Mall, Next To Chincholi Fire Brigade, New Link Road, Malad West, Mumbai 400064, MH",+91-9867355993,",mayuri.dr@gmail.com,",
Pumpkino Dance And Fitness - Borivali West - Mumbai,Gym,Mumbai,"Raghuvir Tower, 3rd Floor, Near Prabhodhankar Thackrey Hall, SVP Road, Borivali West, Mumbai 400092, MH",+91-9619149936,",fitnessgroovebnb@gmail.com,",
ProSports Fitness - Andheri West - Mumbai,Gym,Mumbai,"1301, Morya Bluemoon, Near Monginis Factory, New Link Road, Andheri West, Mumbai 400053, MH",+91-22-33126201,",info@wavesgym.com,",
Prosport Fitness - Bandra West - Mumbai,Gym,Mumbai,"4, H3M Cleden Holm, 1st Floor, Near Hawaiian Shack, 15th Road, Bandra West, Mumbai 400050, MH",+91-7045626971,,
Profit FST Gym And Crossfit - Kandivali East - Mumbai,Gym,Mumbai,"Thakur Complex, Thakur Mall, 3rd Floor, Thakur Village, Kandivali East, Mumbai 400101, MH",+91-7400430486,",sales@profitgym.in,",
Profit - Chembur East - Mumbai,Gym,Mumbai,"411-B, Astro Park Acres Club, Near Bhakthi Bhavan Temple, Hemu Kalani Marg, Sindhi Society, Chembur East, Mumbai 400071, MH",,",hello@cultfit.com,",
Pride Power Yoga And Aerobics - Borivali West - Mumbai,Gym,Mumbai,"B-1, Narmada Co-operative Housing Society, Off Link Road, Jayraj Nagar, Borivali West, Mumbai 400067, MH",+91-9322597898,,
Pride Power Yoga And Aerobics - Kandivali West - Mumbai,Gym,Mumbai,"217/8, Charkop Zenth Co-operative Housing Society, Near Ambaji Temple, RDP 8, Sector No 3, Kandivali West, Mumbai 400067, MH",+91-9022312227,,
Pride Power Yoga And Aerobics - Borivali West - Mumbai,Gym,Mumbai,"B-1, Narmada Co-operative Housing Society, Off Link Road, Jayraj Nagar, Borivali West, Mumbai 400067, MH",+91-9322597898,,
Pride Power Yoga And Aerobics - Kandivali West - Mumbai,Gym,Mumbai,"217/8, Charkop Zenth Co-operative Housing Society, Near Ambaji Temple, RDP 8, Sector No 3, Kandivali West, Mumbai 400067, MH",+91-9022312227,,
Premanand Yoga - Kandivali East - Mumbai,Gym,Mumbai,"1, Whispering Palms, Lokhandwala Complex, Near D'Decor Exports Guest House, Akurli Road, Alika Nagar, Kandivali East, Mumbai 400101, MH",+91-9167961116,",premanandyoga@gmail.com,premanandyoga2023@gmail.com,",
Pranava Yoga and Fitness - Powai - Mumbai,Gym,Mumbai,"103, Bhavani Industrial Estate, Lit, Next To Excel Tower, Powai, Mumbai 400076, MH",+91-9152280869,,
Prana Yoga Therapy Center - Borivali West - Mumbai,Gym,Mumbai,"Ram Mandir Hall, Chogles Shree Vithal Maruti Panchayatan Devasthan, Near Bhargav Hopital, Ram Mandir Road, Babhai, Borivali West, Mumbai 400091, MH",+91-9820346185,"pranayogatc@gmail.com,,",
Powerhouse Gym Mumbai Central - Mumbai Central - Mumbai,Gym,Mumbai,"35, Saibaba Shopping Centre, Ramdut Housing Society, Dalal Estate, Opposite Navjeevan Post Office, Keshavrao Kadam Marg, Mumbai Central, Mumbai 400008, MH",,",bombaycentral@powerhousegymindia.com,",
Powerhouse Gym - Vile Parle East - Mumbai,Gym,Mumbai,"Mahavir Apartment, Near Suncity Theatre, Subhash Road, Vile Parle East, Mumbai 400057, MH",+91-22-26134400,",akshat.gupta1987@googlemail.com,",
Powerhouse Gym - Matunga East - Mumbai,Gym,Mumbai,"24-C, Modern Health Home, Near Matunga Gymkhana, Lakhamsi Napoo Road, Matunga, Mumbai 400019, MH",,",socialmedia@powerhousegym.com,rushabh@focl.in,investorcomplaints@focl.in,",
Powerhouse Gym - Kandivali West - Mumbai,Gym,Mumbai,"Vaishali Bhawan, 1st Floor, Above Dominos, Mahatma Gandhi Road, Gaothan, Pushp Heritage, Dahanukar Wadi, Kandivali West, Mumbai 400067, MH",+91-8433954055,,
Powerhouse Gym - Hughes Road - Mumbai,Gym,Mumbai,"Krishna Hindu Merchant Club, Behind Wilson College, 44 Belle View, Hughes Road, Mumbai 400007, MH",+91-22-60023152,,
Powerhouse Gym - Ghatkopar East - Mumbai,Gym,Mumbai,"201, Pranay Sudarshan Building, 2nd Floor, Joshi Lane, Near Brahman Samaj Hall, Pant Nagar, Ghatkopar East, Mumbai 400077, MH",+91-22-60023150,",ghatkopar@powerhousegymindia.com,",
Powerhouse Gym - Chembur East - Mumbai,Gym,Mumbai,"Darshan House, 6th Floor, Near Jama Sweets, Sion-Trombay Road, Maitri Park, Chembur East, Mumbai 400071, MH",+91-22-25210103,,
Powerhouse Gym - Borivali West - Mumbai,Gym,Mumbai,"Aditya Apartment, & 1st Floor, Opposite Kotak Bank, Chandavarkar Road, Borivali West, Mumbai 400092, MH",+91-22-65335055,",info@powerhousegymindia.com,",
Powerhouse Gym - Bandra East - Mumbai,Gym,Mumbai,"Near MIG Club, Road No 1, MIG Colony, Gandhi Nagar, Bandra East, Mumbai 400051, MH",+91-22-33126187,,
Powerhouse Gym - Kandivali East - Mumbai,Gym,Mumbai,"Gayatri Bhavan, 3rd Floor, 90 Feet Road, Gayatri Nagar, Kandivali East, Mumbai 400101, MH",+91-22-65155051,,
Powerhouse FX - Juhu - Mumbai,Gym,Mumbai,"Concord Apartments, Basement, Gulmohar Road, Gulmohar Colony, Juhu, Mumbai 400049, MH",+91-22-26713212,,
Power Pack Fitness Center - Santacruz East - Mumbai,Gym,Mumbai,"10-B/3-A, Asgar Ali, Near Santosh Hotel, Nehru Road, Santscruz East, Mumbai 400055, MH",+91-9167703110,,
Power N Fitness Gym - Bhandup - Mumbai,Gym,Mumbai,"Sayadri Vidya Mandir, 2nd Floor, C-Wing, Near Janata College, Lal Bahadur Shastri Marg, Jaydev Singh Nagar, Bhandup, Mumbai 400078, MH",+91-8779704703,,
Power Gym - Kurla - Mumbai,Gym,Mumbai,"Saffron Residency, MN Patankar Marg, Pipe Road, Brahmanwadi, Kurla West, Mumbai 400070, MH",+91-7738260460,"inquiry@wellnessclub.co,,",
Power Fitness Gym - Kandivali West - Mumbai,Gym,Mumbai,"90 Feet Link Road, Gandhi Nagar, Kandivali West, Mumbai 400067, MH",+91-9702140465,",customercare@gymsforall.in,",
Potential Activity Centre - Mulund West - Mumbai,Gym,Mumbai,"Chip And Dale Nursery, Next To Mulund High School, Chandan Baugh Road, Mulund West, Mumbai 400080, MH",+91-9323801988,",bhagwatintc@gmail.com,ac.t@mcgm.gov.in,",
Posture Fitness - Borivali West - Mumbai,Gym,Mumbai,"14, Mayfair, Basement, Tulsibaug Co-operative Housing Society, Opposite ICICI Bank, Chandavarkar Cross Road No 1, Ramdas Sutrale Marg, Borivali West, Mumbai 400092, MH",+91-22-28918842,,
Poonam Singh Yoga Trainer - Powai - Mumbai,Gym,Mumbai,"17/1/3, Marol Maroshi Road, Bhawani Nagar, Powai, Mumbai 400059, MH",,",aadarsh.iti@gmail.com,",
Poojas Fitness Studio - Bandra West - Mumbai,Gym,Mumbai,"202, De Joss, Near Elco Market, Ice Factory Lane, Off Hill Road, Bandra West, Mumbai 400050, MH",+91-9152624777,,
Plera Wellness - Khar West - Mumbai,Gym,Mumbai,"401, Seasons Avenue, 4th Floor, Near Ramkrishna Math, Linking Road, Khar West, Mumbai 400052, MH",+91-9326063072,,
Play Studio - Ghatkopar East - Mumbai,Gym,Mumbai,"105-106, Monterossa, Opposite Ganesh Temple, 90 Feet Road, Ghatkopar East, Mumbai 400075, MH",+91-8080666222,",info@proadvisors.in,",
Platinum gym and Spa - Mulund West - Mumbai,Gym,Mumbai,"1-4, Golden Willows, 1st Floor, Vasant Garden, Near Tara Singh Garden, Swapna Nagari, Mulund West, Mumbai 400080, MH",+91-8369467139,",platinumgymandspa@gmail.com,",
Planet Health - Santacruz East - Mumbai,Gym,Mumbai,"Golden Tower, Kole Kalyan-An-Village, Mani Prada, Opposite Golden Square, Vidya Nagari, Kalina, Santacruz East, Mumbai 400098, MH",+91-22-33126184,,
Planet Health - Borivali West - Mumbai,Gym,Mumbai,"Planet Health, Opposite Karnataka Bank, LIC Colony, Borivali West, Mumbai 400103, MH",+91-8108176666,",customerservice@planethealth.in,",
Physiques By Vinay - Hughes Road - Mumbai,Gym,Mumbai,"29/30, Krishna Kunj Co-operative Housing Society, Opposite Gogo Snacks, KM Munshi Marg, Hughes Road, Girgaum Chowpatty, Mumbai 400007, MH",,",support@vinay.fit,",
Physique Fitness - Goregaon West - Mumbai,Gym,Mumbai,"Royal Palms, Aarey Powai Road, Aarey Colony, Goregaon, Mumbai 400065, MH",+91-22-65051005,",fitnessmafia321@gmail.com,",
Physique 57 - Worli - Mumbai,Gym,Mumbai,"1/136, The Mansion, 1st Floor, Four Seasons Hotel, Dr. E Moses Marg, Above San-Qi, Worli, Mumbai 400018, MH",+91-22-62668757,",info@physique57india.com,recruiting@physique57india.com,",
Physio Active Pro Fitness - Tardeo - Mumbai,Gym,Mumbai,"Film Center Building, 6th Floor, Near AC Market, Tardeo, Mumbai 400034, MH",+91-22-40028804,,
Physemo Fitness Studio - Andheri West - Mumbai,Gym,Mumbai,"601, Kotia Nirman, 6th Floor, A-Wing, Above Mercedez Benz Showroom, Link Road, Industrial Area, Andheri West, Mumbai 400053, MH",+91-9867718577,",Info@thehealinstitute.in,",
Phedora The Studio - Goregaon West - Mumbai,Gym,Mumbai,"178/7, 1st Floor, Near Jawahar Nagar Fatak, Jawahar Nagar, Goregaon West, Mumbai 400062, MH",+91-9820854101,,
PGX Fitness - Mulund West - Mumbai,Gym,Mumbai,"508, Avior Corporate Park, Nirmal Galaxy, Near Johnson And Johnson, LBS Marg, Mulund West, Mumbai 400080, MH",+91-7506111989,,
Perfect Gym - Bhandup - Mumbai,Gym,Mumbai,"Jayashree Plaza, 1st Floor, Near Pride Hotel, LBS Marg, Bhandup West, Mumbai 400078, MH",+91-9594964482,"me@nehaagarwal.in,,pratiktodankar77@gmail.com,sanjay.g.pawar@gmail.com,",
Perfect Fitness Center - Borivali West - Mumbai,Gym,Mumbai,"Krishna Kutir Apartments, Factory Lane, Opposite MK College, Borivali West, Mumbai 400092, MH",+91-8108105678,",fitnessgroovebnb@gmail.com,",
Perfect 10 Dance And Fitness Studio - Andheri West - Mumbai,Gym,Mumbai,"5/406, Laxmi Mall, Laxmi Industry Estate, Opposite Fun Republic, New Link Road, Andheri West, Mumbai 400053, MH",+91-7303234313,,
Penkar's Health Club - Goregaon West - Mumbai,Gym,Mumbai,"19-20, Bharatshree Building, Mhada Colony, Behind Filmistan Studio, Road No 1, SV Road, Unnat Nagar, Goregaon West, Mumbai 400104, MH",+91-9820556188,",penkar_gym@rediffmail.com,",
Pawan Yoga Center - Kandivali West - Mumbai,Gym,Mumbai,"Pawan Dham, Opposite BCCI Ground, Extension Road, Saibaba Nagar, Kandivali West, Mumbai 400067, MH",+91-9323485572,,
Parulekars Gym - Goregaon East - Mumbai,Gym,Mumbai,"107, Laxmi Commercial Centre, Road No 1, Jayprakash Nagar, Goregaon East, Mumbai 400063, MH",+91-22-26864224,",pgfc99@yahoo.co.in,",
Parindis Fitness Hub - Ghatkopar East - Mumbai,Gym,Mumbai,"1-A/201, Jayant Arcade, 2nd Floor, Above Waman Hari Pethe Jewellers, MG Road, Ghatkopar East, Mumbai 400077, MH",+91-9819801543,,
Pam's Health & Wellness Studio - Tardeo - Mumbai,Gym,Mumbai,"Arunodaya Society, Dr. Patankar Clinic, Subhash Road, Vile Parle East, Mumbai 400057, MH",+91-9820282311,,
Padwalkar Gymnasium - Borivali West - Mumbai,Gym,Mumbai,"D-4/192, Ratna Deep Society, Gorai Road No 2, Mangal Moorthy Lane, Borivali West, Mumbai 400091, MH",+91-9930551265,,
Oris Dance And Fitness - Prabhadevi - Mumbai,Gym,Mumbai,"129, Oris Dance And Fitness, 1st Floor, Unique Industrial Estate, Twin Tower Lane, Diagonally Opposite Siddhivinayak Temple, Prabhadevi, Mumbai 400025, MH",+91-9619816747,,
Onyx gymnasium - Bhandup - Mumbai,Gym,Mumbai,"1/2, Thakkar Estate, Above Sai Samruddhi Hospital, Kanjur Village Road, Nehru Nagar, Kanjurmarg East, Mumbai 400042, MH",+91-7045230707,",brian.f.lobonsui@gmail.com,",
Om Yoga - Dadar - Mumbai,Gym,Mumbai,"1, Sita Smruti, Shivaji Park, Road No 4, Dadar, Mumbai 400028, MH",+91-9820082267,,
Om Yog Sadna - Santacruz East - Mumbai,Gym,Mumbai,"Vakola Bridge, Vakola, Santacruz East, Mumbai 400055, MH",+91-22-26110506,,
Ojas Yoga - Goregaon East - Mumbai,Gym,Mumbai,"Vasant Valley Club, Near Dindoshi Depot, General AK Vaidya Marg, Goregaon East, Mumbai 400063, MH",+91-9152258957,"arun.sweaton@gmail.com,,",
Nuage Hot Yoga - Lokhandwala - Mumbai,Gym,Mumbai,"801, Heritage Plaza, 8th Floor, Beside DN Nagar Metro Station, JP Road, Andheri West, Mumbai 400053, MH",+91-22-66978139,",u003enuagehotyoga@gmail.com,nuagehotyoga@gmail.com,",
Nomad Fitness - Mulund West - Mumbai,Gym,Mumbai,"Gala No 27, Nav Nandanvan Industrial Estate, Opposite Parmeshwari Hall, Off PK Road, Asha Nagar, Mulund West, Mumbai 400080, MH",+91-9820932266,,
Nityam Yoga Center - Juhu - Mumbai,Gym,Mumbai,"58, Antariksh, Vithal Nagar Society, Opposite Utpal Sanghavi School, Road No 12, Juhu, Mumbai 400049, MH",+91-22-26200841,,
Nitrro Bespoke Fitness - Breach Candy - Mumbai,Gym,Mumbai,"B-2, Skybay Hubtown, Opposite ALL Showroom, Bhulabhai Desai Road, Breach Candy, Mumbai 400026, MH",+91-22-23549494,",ninfo@nitrro.in,info@nitrro.in,",
Nitin Yoga & Meditation - Andheri West - Mumbai,Gym,Mumbai,"C-704, Montana, 2nd Cross Lane, Garden No 5, Celebrity Sports Club, Rajput Dairy, Lokhandwala Complex, Andheri West, Mumbai 400053, MH",+91-9819106275,,
Nilesh Parab's Fitness 1st - Ghatkopar West - Mumbai,Gym,Mumbai,"102, Excel Arcade, Pipeline, Near Telephone Exhange, LBS Road, Ghatkopar West, Mumbai 400077, MH",+91-22-65022220,",nilesh13_us@yahoo.com,",
Next Level Fitness Studio - Byculla - Mumbai,Gym,Mumbai,"Byculla Service Industries, Near Byculla Service Industries, Dadoji Konddev Marg, Byculla, Mumbai 400027, MH",+91-9867470099,",jobs@stfitnessindia.com,",
New Muscle Fitness Gym - Mahalaxmi - Mumbai,Gym,Mumbai,"Rasul Jiva Compound, Behind Umar Mansion, Sane Guruji Marg, Mahalaxmi, Mumbai 400011, MH",+91-9699422106,,
New Muscle Action Gym - Tardeo - Mumbai,Gym,Mumbai,"Opposite NSS International School, Nakashi Road, Tardeo, Mumbai 400007, MH",,",hello@cultfit.com,",
New Age Yoga Studios - Vile Parle East - Mumbai,Gym,Mumbai,"Hedgewar Studio, Opposite Janata Sahakari Bank, Hanuman Road, Vile Parle East, Mumbai 400057, MH",+91-9820743860,"Emailnewageyogamumbai@gmail.com,nitinpatki8@gmail.com,,",
New Age Yoga Studios - Juhu - Mumbai,Gym,Mumbai,"Akesia Wellness, The Learning Experience, Above Le Mangi, AB Nair Road, Juhu, Mumbai 400049, MH",+91-9320179320,",hello@cultfit.com,",
Neenu Khanna - Powai - Mumbai,Gym,Mumbai,"Naharam Amrit Shakti, Near Lake House, Chandivali, Powai, Mumbai 400076, MH",,"coachjatindersingh@gmail.com,,iiwpallavi@gmail.com,neenudheeraj@gmail.com,",
Neelam Fitness Center and Yoga Classes - Kandivali East - Mumbai,Gym,Mumbai,"Raghuleela Mega Mall, Near Poisar Depot, Jai Bhim Sanjay Nagar, Kandivali West, Mumbai 400067, MH",+91-9833477963,,
NDA Fitness - Borivali West - Mumbai,Gym,Mumbai,"Dahisar Bhavdevi Sports Club, Opposite Union Bank Nivas, Off Laxman Mhatre Road, Shivaji Nagar, Mandpeshwar, Borivali West, Mumbai 400103, MH",+91-8108591450,",srwaghmare2010@gmail.com,fitnessgroovebnb@gmail.com,",
Natural Art Yoga Classes - Ghatkopar West - Mumbai,Gym,Mumbai,"7, Kashi Darshan, 2nd Floor, Cama Lane, Kashi Darshan, Ghatkopar West, Mumbai 400086, MH",,",ndg.1625@gmail.com,",
Naksh Fitness Studio - Andheri East - Mumbai,Gym,Mumbai,"B-3, Sai Pooja Apartment, Basement, Near Podar Jumbo Kids, JB Nagar, Andheri East, Mumbai 400059, MH",,",hello@cultfit.com,",
My Happy Place - Tardeo - Mumbai,Gym,Mumbai,"Ratan Building, Wadia Street, Near Domino's, Tardeo Circle, Tardeo, Mumbai 400034, MH",+91-22-49436558,",myhappyplacepreschool@gmail.com,info@myhappyplace.co.in,",
My Happy Place - Matunga East - Mumbai,Gym,Mumbai,"86/322, Shanti Niketa, Opposite Kapole Niwas, Dr. Baba Saheb Ambedkar Road, Matunga East, Mumbai 400019, MH",+91-8080082211,",info@matungagym.com,info@myhappyplace.co.in,",
My Fitness - Vile Parle East - Mumbai,Gym,Mumbai,"Datta Niwas Co-oprerative Society, Near Ashish Nursing Home, Dixit Road, Vile Parle East, Mumbai 400057, MH",+91-22-26179650,",x3ecare@myfitness.co.in,care@myfitness.co.in,info@myfitness.com,",
Muscletone Gym - Chembur East - Mumbai,Gym,Mumbai,"BMC Recreation Ground, Near Mahul Garden, Ambapada, Mahul, Chembur East, Mumbai 400074, MH",+91-9322655684,",hello@cultfit.com,",
Muscle Up Gym - Byculla - Mumbai,Gym,Mumbai,"34, New Mazgaon Co-operative Housing Society, 2nd Floor, Near Yalamlam Hardware, Nesbit Road, Byculla, Mumbai 400010, MH",+91-22-23706377,,
Muscle Talk - Chembur East - Mumbai,Gym,Mumbai,"210, Vikas Commercial Centre, Next To Basant Cinema, CG Road, Chembur East, Mumbai 400088, MH",+91-9769900369,",hello@cultfit.com,",
Muscle Studio - Vikhroli - Mumbai,Gym,Mumbai,"7/6, Opposite Ambedkar Hospital, Tagore Nagar, Vikhroli, Mumbai 400083, MH",+91-9769711521,,
Muscle Street Fitness Centre - Andheri East - Mumbai,Gym,Mumbai,"Gala No 6-A, Fateh Estate, 1st Floor, Behind Peninsula Hotel, 90 Feet Road, Saki Naka, Andheri East, Mumbai 400072, MH",+91-7738634147,",hello@cultfit.com,Hello@curefit.com,",
Muscle Power - Mulund West - Mumbai,Gym,Mumbai,"Near China Treat, Chandu Geegaram Nagpal Marg, Mulund Colony, Mulund West, Mumbai 400082, MH",+91-7738384989,,
Muscle N Mind - Mumbai Central - Mumbai,Gym,Mumbai,"Ozone Biz Center, 7th Floor, Next To Maharashtra College, Mumbai Central, Mumbai 400008, MH",+91-9892255226,,
Muscle n Mind - Colaba - Mumbai,Gym,Mumbai,"4/56-57, Kamal Mansion, Next To Radio Club, Apollo Bunder, Colaba, Mumbai 400005, MH",+91-22-22888999,",musclenmindfitness@gmail.com,",
Mumbai Parkour - Lokhandwala - Mumbai,Gym,Mumbai,"Evershine Park, Veera Desai Industrial Estate, Near Shalimar Warehousing Corporation, Lokhandwala, Mumbai 400102, MH",+91-9819170899,,
Mumbai Fitness Club - Lower Parel - Mumbai,Gym,Mumbai,"Abhilasha Society, Near Kingston Tower, Kala Chowki, GD Ambedkar Marg, Lower Parel, Mumbai 400033, MH",+91-7833023736,",ssl.parel22713@gmail.com,yuvraj.wagh@goldsgym.in,",
Multifit - Andheri West - Mumbai,Gym,Mumbai,"Sharyans Audeus, 2nd Floor, Above Hard Rock Cafe, Fun Republic Road, Andheri West, Mumbai 400053, MH",+91-7045019641,,
Movement Sanctuary - Bandra West - Mumbai,Gym,Mumbai,"Dheeraj Arcade, 1st Floor, A Wing, Pali Mala Road, Bandra West, Mumbai 400050, MH",+91-9820195737,",hello@cultfit.com,",
Motion Fitness India - Goregaon West - Mumbai,Gym,Mumbai,"502-A, Sumit Samarth Arcade, Near Mahindra Garden, Piramal Nagar, Goregaon West, Mumbai 400047, MH",+91-9819406259,,
Moksha Yoga & Dhyan Classes - Tardeo - Mumbai,Gym,Mumbai,"Janta Nagar Housing Society, Near Hill Spring International School, Tardeo, Mumbai 400034, MH",+91-8898390361,,
MMA Fitness by Ashtad - Jogeshwari West - Mumbai,Gym,Mumbai,"12/5, Wadia Block, 2nd Floor, Malcolmbaug, Next To Faooq High School, SV Road, Jogeshwari West, Mumbai 400102, MH",+91-9833397719,",fitnessmafia321@gmail.com,",
Mind and Body Wellness Centre - Goregaon West - Mumbai,Gym,Mumbai,"283/2248, The Suvidha Co-oprative Credit Society, Post Office Road, Kala Galli, Motilal Nagar I, Goregaon West, Mumbai 400104, MH",+91-22-28788316,,
Midcity Studios - Worli - Mumbai,Gym,Mumbai,"B-520, Aurus Chambers, Worli, Mumbai 400013, MH",+91-9821031839,"arun@bagariaco.com,,rahul.bombay@gmail.com,",
Micky's Dance and Fitness Academy - Andheri East - Mumbai,Gym,Mumbai,"Dawood Baug, Wireless Road, JB Nagar, Andheri East, Mumbai 400059, MH",+91-22-67024892,"WeCare@GoldsGym.in,,",
Mickey Mehta 360 Wellness Temple - Vile Parle West - Mumbai,Gym,Mumbai,"A-6/171, Snehdhara Society, Near New Creation International Courier, Dadabhai Cross Road No 3, Vile Parle, Mumbai 400056, MH",+91-7506616611,",drmickeymehta@gmail.com,u003edrmickeymehta@gmail.com,",
Mickey Mehta 360 Wellness Temple - Lokhandwala - Mumbai,Gym,Mumbai,"503, Aston Building, Sundervan Complex, Shastri Nagar, Lokhandwala Circle, Andheri West, Mumbai 400053, MH",+91-7506616622,",drmickeymehta@gmail.com,u003edrmickeymehta@gmail.com,",
Mickey Mehta 360 Wellness Temple - Malad West - Mumbai,Gym,Mumbai,"A-104, Ahimsa Keshav Society, Above Bank Of India Building, Link Road, Malad West, Mumbai 400064, MH",+91-7506616633,",drmickeymehta@gmail.com,",
Mickey Mehta 360 Wellness Temple - Tardeo - Mumbai,Gym,Mumbai,"41, Vaidya Mansion, 1st Floor, Sobo Central Mall, Haji Ali, Tardeo, Mumbai 400034, MH",+91-22-23536026,",drmickeymehta@gmail.com,",
Mickey Mehta 360 Wellness Temple - Dadar - Mumbai,Gym,Mumbai,"804-A, Ghamat Lodge, 2nd Floor, Empire Mahal, Next To Total Sports Showroom, Dr. Babasaheb Ambedkar Road, Dadar TT Circle, Dadar, Mumbai 400014, MH",+91-22-65542388,",drmickeymehta@gmail.com,u003edrmickeymehta@gmail.com,",
Mickey Mehta 360 Wellness Temple - Chembur East - Mumbai,Gym,Mumbai,"Crystal 3, Below Euro Kids, Sindhi Society Road, Hemu Kalani Marg, Chembur East, Mumbai 400071, MH",+91-7506797333,",drmickeymehta@gmail.com,u003edrmickeymehta@gmail.com,",
Mickey Mehta 360 Wellness Temple - Charni Road - Mumbai,Gym,Mumbai,"38, Additya Birla Centre, 2nd Floor, Near Babulnath Temple, Dadi Seth Lane, Charni Road, Mumbai 400007, MH",+91-22-23678630,",drmickeymehta@gmail.com,u003edrmickeymehta@gmail.com,",
Mickey Mehta 360 Wellness Temple - Bandra West - Mumbai,Gym,Mumbai,"160, Baitushh Sharaf, Near Sigdi Restaurant, 29th Water Field Road, Bandra West, Mumbai 400050, MH",+91-9152031996,",drmickeymehta@gmail.com,",
Mickey Mehta 360 Wellness Temple - Borivali West - Mumbai,Gym,Mumbai,"G-55/56, TPS-2, Satra Park, Near Reliance Digital, Vasantrao Chougule Road, Kastur Park, Borivali West, Mumbai 400092, MH",+91-22-28987600,",drmickeymehta@gmail.com,u003edrmickeymehta@gmail.com,",
Mickey Mehta 360 Wellness Temple - Vile Parle East - Mumbai,Gym,Mumbai,"A-6/171, Snehdhara Society, Near New Creation International Courier, Dadabhai Cross Road No 3, Vile Parle, Mumbai 400056, MH",+91-7506616611,",drmickeymehta@gmail.com,",
Mickey Mehta 360 Wellness Temple - Borivali West - Mumbai,Gym,Mumbai,"G-55/56, TPS-2, Satra Park, Near Reliance Digital, Vasantrao Chougule Road, Kastur Park, Borivali West, Mumbai 400092, MH",+91-22-28987600,",drmickeymehta@gmail.com,u003edrmickeymehta@gmail.com,",
Mhatre's Fitness Mantra - Mulund East - Mumbai,Gym,Mumbai,"1, Prem Vishnu Apartment, 1st Floor, Near Azadnagar, Mulund East, Mumbai 400081, MH",+91-9029214073,,
Mhatre's Fitness 93 - Borivali West - Mumbai,Gym,Mumbai,"C-6, Opposite Aditya Architecture College, Mhatrewadi, Haridas Nagar, Borivali West, Mumbai 400092, MH",+91-22-28648969,",fitnessgroovebnb@gmail.com,",
MFT - Santacruz West - Mumbai,Gym,Mumbai,"13/396, Prem Villa, North Avenue Road, Dhampotohar Gurudwara, Santacruz West, Mumbai 400054, MH",+91-7710039000,",dessusfitness@gmail.com,hello@cultfit.com,",
Mesmerizing Yoga - Andheri East - Mumbai,Gym,Mumbai,"C-13, Harmony Apartments, Near Tata Power House, Military Road, Marol, Andheri East, Mumbai 400072, MH",+91-9820587357,",hello@cultfit.com,",
Meraki Performing Arts Studio - Lokhandwala - Mumbai,Gym,Mumbai,"Recreation Club, 1st Floor, Near Lokhandwala Circle, Shastri Nagar, Andheri West, Mumbai 400053, MH",+91-9892628821,",dancamaze@gmail.com,",
MeltFit - Kandivali East - Mumbai,Gym,Mumbai,"V Mall, Thakur Complex, Basement, Near Healthcell Services, Asha Nagar Road, Kandivali East, Mumbai 400101, MH",+91-7039912121,,
Melt - Churchgate - Mumbai,Gym,Mumbai,"Eros Cinema Building, 1st Floor, West Wing, Near Eros Cinema, Churchgate, Mumbai 400020, MH",+91-22-33126180,",meltfit@gmail.com,",
Meena's Yoga Classes - Malad West - Mumbai,Gym,Mumbai,"Aarogya Dhan Sampada, Opposite Navy Colony, Liberty Garden, Malad West, Mumbai 400064, MH",+91-22-33126194,,
Max Power House - Andheri East - Mumbai,Gym,Mumbai,"Olleria West, Opposite Masjid On Old Bazar Road, Marol Village, Andheri East, Mumbai 400059, MH",+91-22-29250381,",maxpowerhouse@rediff.com,info@powermaxfitness.net,",
Max Muscle Gym - Kandivali West - Mumbai,Gym,Mumbai,"90 Feet Road, Gandhi Nagar, Kandivali West, Mumbai 400067, MH",+91-9930589318,,
Max Gymnasium - Goregaon West - Mumbai,Gym,Mumbai,"15/117, Opposite Azad Ground, MHB Colony, MG Road, Unnat Nagar, Goregaon West, Mumbai 400062, MH",+91-8652690502,,
Matruchhaya Gymnasium - Ghatkopar West - Mumbai,Gym,Mumbai,"Near Sarvoday School, Agra Road, Ghatkopar West, Mumbai 400086, MH",+91-22-33126178,,
Matoshri Prime Physique - Mulund East - Mumbai,Gym,Mumbai,"Ambika Plaza, C Wing, Next To Shivsena Office, 90 Feet Road, Mulund East, Mumbai 400081, MH",+91-22-25633670,,
Matoshri Gym - Andheri East - Mumbai,Gym,Mumbai,"Pump House, Near Ganesh Mandir, Andheri East, Mumbai 400058, MH",,",hello@cultfit.com,",
Mandeep Hot Yoga - Lokhandwala - Mumbai,Gym,Mumbai,"215, Crystal Point Mall, 2nd Floor, Near Andheri Link Road, Andheri West, Mumbai 400053, MH",+91-9768084767,",info@mandeephotyoga.com,Mandeepyogini@gmail.com,",
Makeover Fitness Club - Malad West - Mumbai,Gym,Mumbai,"Om Dutta Krupa Building, 1st Floor, SRA Nirman Sanstha, Near Dutta Mandir, Somwari Bazar, Malad West, Mumbai 400064, MH",+91-9867848549,,
Make Me Fit: Maxx Fitness Management Pvt Ltd - Ghatkopar West - Mumbai,Gym,Mumbai,"Patanwala Estate, Opposite Shreyas Cinema, LBS Marg, Ghatkopar West, Mumbai 400084, MH",+91-22-33126189,",fitness.maxx@yahoo.co.in,",
Mads Entertainment - Malad West - Mumbai,Gym,Mumbai,"02, Thakur House, Near Khwaish Hotel, Kachpada, Malad West, Mumbai 400062, MH",+91-9152220881,,
M B S Yoga Classes - Andheri East - Mumbai,Gym,Mumbai,"201, Godavari Building, Near Mirdore Hotel, BSNL Colony, JB Nagar, Andheri East, Mumbai 400059, MH",+91-9869119522,",hello@cultfit.com,",
Lynx Gym - Goregaon West - Mumbai,Gym,Mumbai,"A-1/13, Shivam Co-operative Housing Society, Road No 1, Mitha Nagar, Goregaon West, Mumbai 400104, MH",+91-22-28710676,",lynxgymnasium@gmail.com,",
Lotus Yoga and Wellness Centre - Kandivali West - Mumbai,Gym,Mumbai,"401/237, Sukant, Near Airtel Gallery, Sector 3, Charkop, Kandivali West, Mumbai 400067, MH",+91-22-33126187,,
Lil' Munchkins: A kids gym - Bandra West - Mumbai,Gym,Mumbai,"1, Union Park, Behind Dr. Ambedkar Statue, Pali Hill Road, Bandra West, Mumbai 400052, MH",+91-22-32215866,",lilmunchkinsgym@gmail.com,",
Lifetime Fitness Studio - Prabhadevi - Mumbai,Gym,Mumbai,"Mak Devika, 1st Floor, Near Prabhadevi Temple, New Prabhadevi Marg, Century Bazaar, Prabhadevi, Mumbai 400025, MH",+91-22-60606686,,
Life Standards - Andheri West - Mumbai,Gym,Mumbai,"1303, Aston Tower, Sundervan Complex, 13th Floor, Above Mercedes Benz Showroom, Lokhandwala Complex Road, Andheri West, Mumbai 400053, MH",+91-8850226452,",mumbai@classicfitnessgroup.com,darshanhealthclub@gmail.com,info@lifestandards.in,lokhandwala.mumbai@goldsgymindia.com,support@whynotfitness.in,",
Life Fitness Studio LLP - Kandivali East - Mumbai,Gym,Mumbai,"A/1-F Sierra Towers, Sierra Dome, Near Lokhandwala Circle, Lokhandwala Township, Kandivali East, Mumbai 400101, MH",+91-9168325779,",xxxx@getalifefitness.com,",
Level up Fitness - Andheri West - Mumbai,Gym,Mumbai,"201-214, Samartha Vaibhav, Above Barista, Off New Link Road, Oshiwara, Andheri West, Mumbai 400053, MH",+91-8097397662,",hello@cultfit.com,",
Level 6 Gym - Chembur West - Mumbai,Gym,Mumbai,"25, Opposite Sahakar Cinema, Chembur West, Mumbai 400089, MH",+91-22-65526700,"me@nehaagarwal.in,,",
Level 4 Fitness Studio - Andheri East - Mumbai,Gym,Mumbai,"Nahar's Medical Centre, 4th Floor, Opposite D Mart, Chandivali Farm Road, Andheri East, Mumbai 400072, MH",+91-9819260918,",hello@cultfit.com,",
Let's Nacho - Juhu - Mumbai,Gym,Mumbai,"Pad 28, The Learning, 1st Floor, Juhu Supreme, Shopping Centre, Above Gangaur Sweets, 9th Gulmohar Road, JVPD Scheme, Juhu, Mumbai 400049, MH",,",enquiries@theclubmumbai.com,",
LCD Lifestyle Fitness - Borivali West - Mumbai,Gym,Mumbai,+91-9322199209,"B-6, Brindavan Apartment, Near Aura, Junction Off Link Road, Yogi Nagar, Borivali West, Mumbai 400091, MH",,
Lavender The Fitness World - Bhandup - Mumbai,Gym,Mumbai,+91-9967333333,"3 & 4, Tulsi Compound, Above Vodafone Gallery, LBS Road, Bhandup West, Mumbai 400078, MH",",info@fitness-world.in,",
Ladies Fitness Center - Dadar - Mumbai,Gym,Mumbai,+91-9833188772,"Shantidoot Hotel, 2nd Floor, Next To Dominos Pizza, Hindmata, Dr. Baba Saheb Ambedkar Road, Mumbai 400012, MH",",zenobiadadrewalla@gmail.com,",
Kufit - Kandivali East - Mumbai,Gym,Mumbai,+91-7666909753,"59/1128, Near Bus Depot, Samata Nagar Road, Kandivali East, Mumbai 400101, MH",,
Kube9 Fitness - Ghatkopar East - Mumbai,Gym,Mumbai,+91-9819431044,"B-18, Satyam Shopping Centre, B Wing, Tara Neo Surg Hospital, MG Road, Ghatkopar East, Mumbai 400077, MH",",mumbaicentral@plusfitness.co.inFranchisee,alfanl@plusfitness.co.in,",
Krishna Gymnasium - Andheri East - Mumbai,Gym,Mumbai,+91-9820662932,"16, Opposite Mayura Jewellers, Pipe Line Bandi Bazaar, Gupta Niwas Khairani Road, Sakinaka, Andheri East, Mumbai 400072, MH",",hello@cultfit.com,",
Kris Gethin Gym - Chembur East - Mumbai,Gym,Mumbai,+91-7506206555,"Origin 108, 9th Floor Onward, Bhakti Bhavan Lane, Kumbarwada, Before Acres Club, ST Road, Chembur East, Mumbai 400071, MH",",chembur@gethingyms.com,Krisgethingyms.chembur@gmail.com,",
Kosmos Fitness And Gym - Chembur East - Mumbai,Gym,Mumbai,+91-9892801115,"Sushilakh Sadan, 1st Floor, Opposite Inlakh Hospital, Dr. CG Road, Chembur Camp, Chembur East, Mumbai 400074, MH",,
Kobad Variava - Mumbai Central - Mumbai,Gym,Mumbai,+91-22-26799552,"Grant Road, Mumbai Central, Mumbai 400007, MH",,
Kiran's Dance Academy & Fitness Studio - Bhandup - Mumbai,Gym,Mumbai,+91-9167971315,"Mayuresh Shrishti Club House, Near Asian Paints, LBS Road, Bhandup West, Mumbai 400078, MH",,
Kinspire Sports Clinic - Andheri West - Mumbai,Gym,Mumbai,+91-8655557768,"112/113, Link Plaza, Above Shreejee Restaurant, Link Road Extension, Oshiwara, Andheri West, Mumbai 400102, MH",,
Kinnari Cultural Centre - Breach Candy - Mumbai,Gym,Mumbai,+91-9821043501,"Next To Tata Garden, Bhulabhai Desai Road, Cumballa Hill, Breach Candy, Mumbai 400026, MH",",info@kinnaricentre.com,",
King's Gym - Ghatkopar East - Mumbai,Gym,Mumbai,+91-22-25081198,"Balkanji Bari Building, 2nd Floor, Near Rajawadi Garden And Somaya College, Ghatkopar East, Mumbai 400077, MH","ghatkopar@ymcabombay.com,mayuranagle79@gmail.com,,",
Kinetic Living : Fitness and Wellness 'BOOT'ique - Khar West - Mumbai,Gym,Mumbai,+91-9594504666,"Fatima Villa, 1st Floor, Opposite Khar Masjid, Khar Traffic Police Chowki, SV Road, Khar West, Mumbai 400052, MH",",namaste@kineticliving.in,",
Kerkars Fitness - Malad West - Mumbai,Gym,Mumbai,+91-22-28662317,"Anand Building, Near Milap Petrol Pump, Goraswadi Road, Kailash Nagar, Kandivali West, Mumbai 400067, MH",",kerkarsfitnesscentre@yahoo.in,",
Kayotsarg - Andheri West - Mumbai,Gym,Mumbai,+91-22-65655444,"196, Opposite HR Music, SVP Nagar Road, SVP Nagar, Andheri West, Mumbai 400053, MH",",support@whynotfitness.in,hello@cultfit.com,info@wavesgym.com,",
Kartiks Fitness Center - Mulund West - Mumbai,Gym,Mumbai,+91-22-33126204,"115, Pawai Chowk, Next To Pancharatna Mandir, Mulund West, Mumbai 400080, MH",,
Karmarkar's Health Spa - Goregaon East - Mumbai,Gym,Mumbai,+91-22-28408736,"Yashodham Shopping Centre, Ground Floor, General Arun Kumar Vaidya Marg, Goregaon East, Mumbai 400063, MH",",brk46@hotmail.com,Support@ShoppingBazar.in,",
Kapil Gym - Ghatkopar West - Mumbai,Gym,Mumbai,+91-9820877803,"2, Opposite JK Medical, Mhahewar Mandir Choke, Near 340 Bus Stop, Aslfa Villege, Ghatkopar West, Mumbai 400084, MH",",asstmngr01jtmc.dmu@mcgm.gov.in,",
Kamal Yoga Tutor - Mumbai Central - Mumbai,Gym,Mumbai,+91-22-23097312,"14/7, Navjeevan Society, Mumbai Central, Mumbai 400008, MH",,
Kalidas Gym - Mulund West - Mumbai,Gym,Mumbai,+91-9892566478,"Priyadarshini Sports Complex, Mulund West, PK Road, Mumbai 400080, MH",",ac.t@mcgm.gov.in,",
Kaivalyadhama Health Centre - Mumbai Central - Mumbai,Gym,Mumbai,+91-22-22818417,"43, Near Taraporvala Aqarium, Netaji Subhash Chandra Bose Road, Mumbai Central, Mumbai 400002, MH",",academicskdham@gmail.com,info@kdham.com,kdham.mumbai@kdham.com,",
K3 Oxygen Gym - Chembur East - Mumbai,Gym,Mumbai,+91-8655512333,"The Bureau Apartment, 4th Floor, Near Chembur High School, Ramakrishna Chemburkar Marg, Chembur Colony, Indira Nagar, Chembur East, Mumbai 400071, MH",,
K Fitness - Andheri East - Mumbai,Gym,Mumbai,+91-22-28218984,"Sarvajanik Ganesh Utsav Mandal, Near Pmc Bank, Mahakali Caves Road, Andheri East, Mumbai 400065, MH",",hello@cultfit.com,",
Just Dance Studio - Bandra East - Mumbai,Gym,Mumbai,+91-7045358226,"49, Sai Krupa Co-operative Housing Society, Opposite Mig Club, Gandhi Nagar, Bandra East, Mumbai 400051, MH",",swapnasaudagar@gmail.com,ff.makermaxity@fitnessfirst.net.in,",
Jumpstart Fitness - Andheri West - Mumbai,Gym,Mumbai,"A-19-B, Veera Desai Industrial Estate, 2nd Floor, Near Yashraj Film Studio, Veera Desai Road, Andheri West, Mumbai 400053, MH",,",hello@cultfit.com,",
Juls Fitness Studio - Kemps Corner - Mumbai,Gym,Mumbai,+91-22-23856999,"14/G-3, Swarup, Ground Floor, Opposite Shalimar Hotel, Cumballa Hill Road, Kemps Corner, Mumbai 400006, MH",",info@wavesgym.com,",
Jehangir Palkhivala - Grant Road - Mumbai,Gym,Mumbai,+91-22-23517112,"Studio Balanvekrishnakunja Housing Society, Behind Vilson College, KM Munshi Marg, Grant Road, Mumbai 400007, MH",,
Jagruti Thaker - Vile Parle West - Mumbai,Gym,Mumbai,+91-22-33126187,"5-A, Nivant Society, Bajaj Road, Vile Parle West, Mumbai 400056, MH","Pancard4033@gmail.com,,",
Jagjyot Medical Yoga and Homeopathy Center - Malad East - Mumbai,Gym,Mumbai,"5, Indraprashta 3, Opposite Ashoka Hospital, Jitendra Road, Malad East, Mumbai 400097, MH",,",support@youngbutterfly.in,",
Jagjyot Medical Yoga - Malad East - Mumbai,Gym,Mumbai,"Jagjyot Medical Yoga, Opposite Ashoka Hospital, Makranipada Road, Malad East, Mumbai 400097, MH",,",support@youngbutterfly.in,",
J walk Gym - Colaba - Mumbai,Gym,Mumbai,+91-9022140129,"1, Sadhu TL Vaswani Marg, Cuffe Parade, Colaba, Mumbai 400005, MH",",central@ymcabombay.com,",
Iyengar Yogashraya - Lower Parel - Mumbai,Gym,Mumbai,+91-22-24948416,"126, Elmac House, Senapati Bapat Marg, Kamla Mahal, Lower Parel, Mumbai 400013, MH",,
IX Dance and Fitness - Chembur East - Mumbai,Gym,Mumbai,+91-9322237406,"87, Mamta Building, 1st Floor, Greenfield's Ghatla Village, Nagesh Patilwadi, Chembur East, Mumbai 400071, MH",",hello@cultfit.com,",
Ish Yoga - Borivali West - Mumbai,Gym,Mumbai,+91-9833144627,"202, New Shangirila Shopping, 2nd Floor, Opposite Woodland Shop, LT Road, Borivali West, Mumbai 400092, MH",",corporate.west@ishafoundation.org,hello@cultfit.com,mumbai@ishayoga.org,fitnessgroovebnb@gmail.com,",
Iron Hardcore Gym - Wadala - Mumbai,Gym,Mumbai,+91-8879265651,"Sangham Apartments, Near Dr. Ambedkar College, Tilak Road, Wadala, Mumbai 400031, MH",,
Iron Family Fitness centre - Wadala - Mumbai,Gym,Mumbai,+91-9699663345,"Gate No 5, Ashirwad Building, Ground Floor, Near Old Dosti, MTV Road, Nityanand Nagar, Wadala, Mumbai 400037, MH",,
Ira Entertainment - Goregaon West - Mumbai,Gym,Mumbai,+91-7666659598,"Snehdeep Co-operative Housing Society, Opposite Shabri Hotel, Mahatma Gandhi Road, Tilak Nagar, Goregaon West, Mumbai 400047, MH",",support@youngbutterfly.in,",
Intense Fitness Centre - Bandra West - Mumbai,Gym,Mumbai,+91-9049873643,"Harshad Apartment, BKC Office, Near Shalimar Restaurant, Kala Nagar, Bandra West, Mumbai 400050, MH","bandra.mumbai@goldsgym.in,,",
Integym - Colaba - Mumbai,Gym,Mumbai,+91-22-22024323,"1-A, Kulsum Terrace, 1st Floor, 7 Walton Road, Colaba, Mumbai 400039, MH",,
Infinite Studio - Charni Road - Mumbai,Gym,Mumbai,+91-22-66555300,"29-A, 1st Floor, Opposite Starbucks Coffee Shop, Dr. Atmaram Rangnekar Marg, Girgaum Chowpatty, Mumbai 400007, MH",",infinitestudios24x7@gmail.com,info@jkdindia.com,",
Indus Fitness Edge - Powai - Mumbai,Gym,Mumbai,+91-22-28578613,"1, Clipwala Compound, Tunga Village, Opposite Nucleus House, Saki Vihar Road, Powai, Mumbai 400072, MH",",info@indusgym.com,youremail@yourdomain.com,info@indusfe.com,",
Inch Pinch Fitness Hub - Vile Parle East - Mumbai,Gym,Mumbai,+91-9820009642,"Shubhankar Soceity, 2nd Floor, Subhash Road, Vile Parle East, Mumbai 400057, MH",,
Impetus - Powai - Mumbai,Gym,Mumbai,+91-8291508047,"119-120, Lake Primrose, Upper Ground Floor, C Wing, Shopping Complex, Powai, Mumbai 400076, MH",,
Image Modern Health Planet - Jogeshwari East - Mumbai,Gym,Mumbai,+91-22-28343348,"Rane Millenium, Near Sadhbhakti Mandir, Saraswati Bang Colony, Natwar Nagar, Jogeshwari East, Mumbai 400060, MH",",NARINDER.MAHTTA@GMAIL.COM,MANINDRA2000@GMAIL.COM,",
i5 Fitness - Andheri East - Mumbai,Gym,Mumbai,+91-9769155315,"T-5, Pinnacle Business Park, 3rd Floor, Mahakali Caves Road, Shanti Nagar, Andheri East, Mumbai 400093, MH",,
Hybrid Fitness - Lokhandwala - Mumbai,Gym,Mumbai,+91-9967535562,"34, Rangbhoomi, Near Telephone Exchange, Mahada, SVP Nagar, Lokhandwala, Mumbai 400053, MH",",lokhandwala.mumbai@goldsgymindia.com,x3eloughborough@hybrid-fit.co.uk,loughborough@hybrid-fit.co.uk,",
House Of Dance - Andheri West - Mumbai,Gym,Mumbai,+91-9920555551,"141, Near Mukkti Foundation, Mudran Press Colony, Model Town Road, Andheri West, Mumbai 400053, MH","andheri@ymcabombay.com,,hello@cultfit.com,",
Hotel Sofitel - Bandra East - Mumbai,Gym,Mumbai,,,"h6451@sofitel.com,,",
Homevilla Yoga - Tardeo - Mumbai,Gym,Mumbai,+91-8691809514,"Sheth Radhakumar Memorial Hall, 1st Floor, Tejpal Road, Babulnath, Papanas Wadi, Tardeo, Mumbai 400007, MH","hello@b7ft.fit,,",
Hercules Gym - Parel - Parel - Mumbai,Gym,Mumbai,+91-9930995900,"142/49, KMS Shirodkar Smarak Mandir, Opposite Global Hospital, Dr. Borjes Road, Parel, Mumbai 400012, MH",,
Hema Zumba - Goregaon West - Mumbai,Gym,Mumbai,+91-9619619806,"B-104, The Great Eastern Link, Kanishk Building, Near Moviestar Theatre, Ram Mandir Road, Goregaon West, Mumbai 400104, MH",,
Heena Yoga Studio - Borivali West - Mumbai,Gym,Mumbai,+91-9820862228,"1 & 2, Suyog Apartment, C Wing, Near Vaziranaka Ganesh Mandir, Borivali West, Mumbai 400092, MH","RUPANANDPARA@YAHOO.CO,,drsupriya04.bhosle@rediffmail.com,",
Healthy Active Lifestyle Center - Malad West - Mumbai,Gym,Mumbai,+91-9820742431,"419, Ijmima Complex, 4th Floor, Behind Infinity Mall, Off Link Road, Malad West, Mumbai 400064, MH",,
Healthy 365 - Malad West - Mumbai,Gym,Mumbai,+91-9769497006,"1, Liberty Garden Cross Road No 3, Navy Colony, Liberty Garden, Malad West, Mumbai 400064, MH",",hello@cultfit.com,raj_r_bordia@yahoo.co.in,rajrbordia@gmail.com,",
Healthspace Pilates Studio - Charni Road - Mumbai,Gym,Mumbai,+91-9820352421,"1906, Panchratna Building, Opera House, Girgaum, Near Shanti Jewellers, Chowpatty, Charni Road, Mumbai 400004, MH",",thepilatesstudioenq@gmail.com,",
Health of Green - Lokhandwala - Mumbai,Gym,Mumbai,"43/44, Link Garden, Tower No 2, Opposite Indra Darshan, Lokhandwala, Andheri West, Mumbai 400053, MH",,",enquiries@theclubmumbai.com,",
Health Mantras - Vile Parle West - Mumbai,Gym,Mumbai,+91-22-69964445,"506/21, D Square, Pond Gaothan, Dadabhai Road, Navpada, Kamala Nagar, Vile Parle West, Mumbai 400056, MH",",cnbandra@jbcn.in,",
Health Mantras - Andheri West - Mumbai,Gym,Mumbai,+91-9773338998,"Poruchesty Building, Ground Floor, Opposite Lallubhai Park, Gulmohar Road, Andheri West, Mumbai 400058, MH",,
Health Fitness Center - Borivali West - Mumbai,Gym,Mumbai,+91-9820424578,"Ankur Building, MM Medical, Borivali West, Mumbai 400091, MH",",fitnessgroovebnb@gmail.com,",
Health And Yoga (Women Only) - Colaba - Mumbai,Gym,Mumbai,+91-9152233427,"BPT Club House, BPT Colony, Near Colaba Bus Depot, Colaba, Mumbai 400005, MH",,
Hasolkar Fitness - Lower Parel - Mumbai,Gym,Mumbai,+91-9869186038,"B-12, Khimji Nagji Building, Senapati Bapat Marg, Lower Parel, Mumbai 400013, MH",",u003ehasolkar.umesh@gmail.com,hasolkar.umesh@gmail.com,umesh@gmail.com,",
Hashtag Fitness - Versova - Mumbai,Gym,Mumbai,+91-22-33126198,"1, JP Road, Seven Bungalow, Aaram Nagar 2, Versova, Mumbai 400061, MH",,
Harmony Yoga - Ghatkopar East - Mumbai,Gym,Mumbai,+91-9821885807,"1, MG Road, Sindhuwadi, Maheshwar Nagar, Ghatkopar East, Mumbai 400077, MH",",contact@harmonyyoga.in,anuritamisra@gmail.com,",
Hardcore image gym - Goregaon East - Mumbai,Gym,Mumbai,+91-22-33126180,"41/2, Hanuman Takdi, Soma Chawal, Virvani Industries Estate, Goregaon East, Mumbai 400063, MH",",contact@ufcgym.in,",
Happy Peace Yoga - Tardeo - Mumbai,Gym,Mumbai,+91-9820150262,"39, Matru Ashish, Nepean Sea Road, Tardeo, Mumbai 400036, MH",",happypeaceyoga@gmail.com,",
Happy Hour Studio - Borivali West - Mumbai,Gym,Mumbai,+91-9004743718,"704/765, Fly Edge, Opposite McDonalds, SV Road, Borivali West, Mumbai 400092, MH",",info@wavesgym.com,support@youngbutterfly.in,",
Haldankars The Fitness Club - Powai - Mumbai,Gym,Mumbai,"Apna Dukan, Opposite IIT Main Gate, Adi Shankracharya Marg, Powai, Mumbai 400076, MH",,"Nanduhaldankar003@gmail.com,,",
GYMONE - Andheri East - Mumbai,Gym,Mumbai,+91-22-28219666,"BMC Ground, Gagangiri Maharaj Kridangan, Near Mestri Complex, JB Nagar, Andheri East, Mumbai 400099, MH",",support@gymcompany.co.za,hello@cultfit.com,8169898258CONTACT@GYMXAPPAREL.COM,",
Gym Box - Lokhandwala - Mumbai,Gym,Mumbai,+91-7045119762,"2, 1st Floor, Opposite Jeevan Nagar, New Link Road, Andheri West, Mumbai 400053, MH",",hello@cultfit.com,lokhandwala.mumbai@goldsgymindia.com,member.services@puregym.com,x3emember.services@puregym.com,",
Gurukul Yoga Kendra - Vile Parle East - Mumbai,Gym,Mumbai,+91-22-26120520,"Manas Palace Building, 1st Floor, Near Tilak Mandir, Prarthana Samaj Road, Vile Parle East, Mumbai 400057, MH",,
Gurudev Natraj Studio - Ghatkopar East - Mumbai,Gym,Mumbai,+91-9664706339,"B-504, Khodal Chamer, Near Patel Chaunk, RB Mehta Marg, Ghatkopar East, Mumbai 400077, MH",",gurudevnatrajstudio@gmail.com,",
Group X Studio - Ghatkopar East - Mumbai,Gym,Mumbai,+91-22-65282201,"202, Platium Mall, Vallabh Society, Near Patel General Stores, Vallabh Baug Lane, Station Road, Ghatkopar East, Mumbai 400077, MH",,
Gravity Gymnasium - Borivali West - Mumbai,Gym,Mumbai,+91-7666295088,"Vivek Enclave, Opposite Shivaji Nagar, LM Road, Borivali West, Mumbai 400092, MH",,
Grand Hyatt Mumbai - Santacruz East - Mumbai,Gym,Mumbai,+91-22-66761234,"Bandra Kurla Complex Vicinity, Off Western Express Highway, Santacruz East, Mumbai 400055, MH",,
Grace Fitness Centre - Malad West - Mumbai,Gym,Mumbai,+91-22-65291558,"Geeta Bhavan Building, 1st Floor, Next To Umedbhai Patel English School, Sunder Nagar, Malad West, Mumbai 400063, MH",,
Grace Fitness Centre - Kandivali East - Mumbai,Gym,Mumbai,+91-8108308911,"3-4-5, Centrium Shopping Mall, 1st Floor, Akurli Road, Lokhandwala, Kandivali East, Mumbai 400101, MH",",gracefitness2@gmail.com,",
Gomais Ultimate Slimwell Health Centre - Andheri East - Mumbai,Gym,Mumbai,+91-22-28506520,"Ashirwad Dham, Pereiraawadi, Near SAI Baba Mandir, Andheri East, Mumbai 400072, MH",",sanjaygomai@gmail.com,",
Gold's Gym Kandivali West - Kandivali West - Mumbai,Gym,Mumbai,+91-8976845927,"B-2, V-Souk Mall, 2nd Floor, 90 Feet Road, Above D Mart, Mahavir Nagar, Kandivali West, Mumbai 400067, MH","me@nehaagarwal.in,priyanka.gadhavi@goldsgym.in,,kandivali.mumbai@goldsgymindia.com,",
Go Figure Fitness India - Santacruz East - Mumbai,Gym,Mumbai,+91-9619417141,"B-37/148/3, Sunder Nagar Lane, Near Vighneshwar Temple, Kolivery Village, Vidya Nagari, Kalina, Santacruz East, Mumbai 400098, MH",",gofigurefitnessindia@gmail.com,",
Giri Gym and Fitness Center(Only Gents ) - Andheri East - Mumbai,Gym,Mumbai,+91-22-33126178,"Gundawali Hill, Azad Road, Andheri East, Mumbai 400069, MH",",hello@cultfit.com,",
Get Fit With Tabi - Mulund West - Mumbai,Gym,Mumbai,+91-9167170717,"F-63, R-Galleria, Runwal Greens, Mulund Goregaon Link Road, Mulund West, Mumbai 400078, MH",,
Genetics Fitness Club - Borivali West - Mumbai,Gym,Mumbai,+91-7045559782,"4, Laxmi Villa, Near Kamal Medical, Chikuwadi, Shimpoli, Borivali West, Mumbai 400092, MH",,
Gauhars Gym & Fitness Centre - Ghatkopar East - Mumbai,Gym,Mumbai,+91-9773708183,"Tiranga Chawl No 105, Opposite Chawl No 32, Kamraj Nagar, Ghatkopar East, Mumbai 400077, MH",,
Gati Fitness Garage - Charni Road - Mumbai,Gym,Mumbai,+91-22-23859597,"194/I-A, Gaiwadi, Opposite Vodaphone Gallery, Charni Road, Girgaon, Mumbai 400004, MH",,
G Square Fitness Studio - Goregaon West - Mumbai,Gym,Mumbai,"6, Shiv Sadan, Opposite Shabri Hotel, Vidyaniketan Marg, MG Road, Goregaon West, Mumbai 400104, MH",,",seemamange07@yahoo.co,seemamange07@yahoo.co.in,",
G K Dance And Fitness Academy - Malad East - Mumbai,Gym,Mumbai,+91-9819475084,"Nivetia Compound, Behind BMC Chowk, Nivetia Road, Malad East, Mumbai 400097, MH",,
Futuristic Fitness - Kandivali East - Mumbai,Gym,Mumbai,+91-7977950054,"101, Thakur Complex, B-2 Wing, Cristal Lawn Co-operative Housing Society Limited, Near Central Bank Of India, Kandivali East, Mumbai 400101, MH",",Info@Keysfitness.in,",
Future School of Performing Arts - Santacruz East - Mumbai,Gym,Mumbai,+91-7045922804,"160, 2nd Floor, Above Audi Showroom, MMRDA Area, CST Road, Santacruz East, Mumbai 400098, MH",",info@fspa.co.in,",
Fusion Yoga - Bandra West - Mumbai,Gym,Mumbai,"401, Blue Bird C, Opposite Rizvi College, Sherly Rajan Road, Bandra West, Mumbai 400050, MH",+91-9930338545,",info@fusionyoga.in,",
Fusion Fitness Studio - Andheri West - Mumbai,Gym,Mumbai,"301, Vastu Precint, 3rd Floor, Opposite Mercedes Showroom, SV Road, Lokhandwala Circle, Andheri West, Mumbai 400053, MH",,"x3einfo@fusion-lifestyle.com,,info@fusion-lifestyle.com,",
Functional Fitness Group - Powai - Mumbai,Gym,Mumbai,"Nisarg Garden, Near Powai Lake, Powai, Mumbai 400076, MH",,",holisticacupuncturecenter@gmail.com,",
Functional Beasts - Khar West - Mumbai,Gym,Mumbai,"702, Simran Plaza, Adjacent To Hotel Regal Enclave, 4th Road, Khar, Mumbai 400052, MH",,",khargym@hotmail.com,accounts@khargymkhana.com,",
FST Gyms And Crossfit - Kandivali West - Mumbai,Gym,Mumbai,"Yuvak Mandal Ground, Mahavir Nagar, Kandivali West, Mumbai 400067, MH",+91-9769242542,",fstnutritionindia@gmail.com,",
Freedom Holistic Wellness - Bandra West - Mumbai,Gym,Mumbai,"69, Maskan, 3rd Floor, Near Silver Sands Apartment, Carter Road, Bandra West, Mumbai 400050, MH",+91-22-33126188,",bandra.mumbai@goldsgymindia.com,info@healthnwellnessaesthetic.com,fitnessmafia321@gmail.com,",
Four Seasons Spa - Worli - Mumbai,Gym,Mumbai,"1/136, Dr. E Moses Road, Worli, Mumbai 400018, MH",+91-22-24818000,",nikita.ramchandani@fourseasons.com,",
Forever Fitness - Andheri West - Mumbai,Gym,Mumbai,"705, Reliable Business Center, 7th Floor, Next To Heera Panna Mall, Anand Nagar, Oshiwara, Andheri West, Mumbai 400053, MH",+91-9833947645,,
Force Fitness Centre - Goregaon East - Mumbai,Gym,Mumbai,"S-003, Suyash Shopping Centre, Nagari Nivara Parishad, Near Apna Bazar, Film City, Goregaon East, Mumbai 400065, MH",+91-9892476840,,
Footprint Academy Of Holistic Fitness - Kandivali West - Mumbai,Gym,Mumbai,"Footprint Academy Of Holistic Fitness, Behind Mahavir Nagar Bus Stop, Main Link Road, Borivali West, Mumbai 400092, MH",+91-9833816581,,
Flush Institute of Health And Fitness - Hughes Road - Mumbai,Gym,Mumbai,"Laxmi Co-operative Housing Society, 2nd Floor, Behind Westside, Vatcha Gandhi Road, Gamdevi, Hughes Road, Grant Road, Mumbai 400007, MH",,"WeCare@GoldsGym.in,,flush.ihf@gmail.com,info@wavesgym.com,",
Flexible Fitness - Bandra West - Mumbai,Gym,Mumbai,"Patwardan Park, Mount Mary Church, Carter Road, Bandra West, Mumbai 400050, MH",+91-7738156150,",hello@cultfit.com,flexiblefitness.in@gmail.com,kishlay31@gmail.com,fitnessmafia321@gmail.com,",
FlexFit - Lokhandwala - Mumbai,Gym,Mumbai,"102, Morya Landmark 1, Next To Brewbot, Off New Link Road, Lokhandwala, Andheri West, Mumbai 400053, MH",+91-9820527253,",FLEXFITARENA@GMAIL.COM,",
Flex The Hardcore Gym - Vikhroli - Mumbai,Gym,Mumbai,"129, Group No 7, Opposite New Post Office, Ramakant Deshmukh Marg, Tagore Nagar, Vikhroli East, Mumbai 400083, MH",+91-9820518734,,
Fizzique The Gym - Powai - Mumbai,Gym,Mumbai,"Near Ruchi Hotel, Tunga Village, Saki Vihar Road, Powai, Mumbai 400072, MH",+91-9920905268,"mustafa.fizzique.ma@gmail.com,,",
Fizzique Health Club - Goregaon East - Mumbai,Gym,Mumbai,"Aarey Milk Colony, Mali Nagar, Goregaon, Mumbai 400065, MH",+91-9867401448,",info@tifc.co.in,contact@ufcgym.in,",
Fitspirit Fitness Studio - Mulund West - Mumbai,Gym,Mumbai,"Unit No 1, Saijyot Buliding, Next To Vision Care Optics, SN Road, Tambe Nagar, Mulund West, Mumbai 400080, MH",+91-9821115699,,
fitspire - Mulund East - Mumbai,Gym,Mumbai,"Dindayal Nagar Society, F Wing, Opposite Sambhaji Park, Mulund East, Mumbai 400081, MH",+91-9892113806,",Support@fitspire.fit,",
FitSoul Fitness Studio - Mulund West - Mumbai,Gym,Mumbai,"401, Vasudev Chamber, Opposite D Mart, Goregaon-Mulund Link Road, Salpa Devi Pada, Mulund West, Mumbai 400080, MH",+91-9152963601,,
FitNFabU - Malad West - Mumbai,Gym,Mumbai,"5, Bhoomi Park, Phase 1, Near Billabong International School, Marve Road, Jankalyan Nagar, Malad West, Mumbai 400095, MH",+91-9890737844,",hello@cultfit.com,",
Fitness Zone - Andheri West - Mumbai,Gym,Mumbai,"Society No 58, D-4/5, Dharti Co-operative Housing Society, Near Just Video Broadcast, SVP Nagar, MHADA, Andheri West, Mumbai 400053, MH",+91-9987099724,",rebirthfitnessschool@gmail.com,info@wavesgym.com,bodydesigngfc@gmail.com,hello@cultfit.com,",
Fitness Warrior - Goregaon West - Mumbai,Gym,Mumbai,"194/1547, Opposite Sejal Park And Veena Apartment, Motilal Nagar No 1, Goregaon West, Mumbai 400062, MH",+91-22-28774655,,
Fitness Warehouse - Kandivali West - Mumbai,Gym,Mumbai,"Pragati Ground, Fitness Warehouse Gym, Near Hyundai Showroom, Link Road, Mahavir Nagar, Kandivali West, Mumbai 400067, MH",+91-7045973721,,
Fitness Thirst - Vikhroli - Mumbai,Gym,Mumbai,"Unit No 9-10, Raj Legacy, Shivkripa Industrial Estate, LBS Road, Vikhroli West, Mumbai 400083, MH",+91-9172464676,,
Fitness Step - Kandivali West - Mumbai,Gym,Mumbai,"146/8, Regency Charkop Real Friend Co-operative Housing Society, Near TJSB Bank, RDP 7, Sector 3, Charkop, Kandivali West, Mumbai 400067, MH",+91-7506222930,",fitnessstepkandivali@gmail.com,",
Fitness Step - Borivali East - Mumbai,Gym,Mumbai,"10, Jagdamba Niwas, Opposite Kanakia Aroha, Dattapada Road, Borivali East, Mumbai 400066, MH",+91-9833234294,",borivali@totalsf.in,fitnessstepborivali@gmail.com,",
Fitness Station - Mahim - Mumbai,Gym,Mumbai,"63-B, Fuzalbhoy House, Near St. Michale Church, Mori R Mumbai Oad, Mahim, Mumbai 400016, MH",+91-9664696960,,
Fitness Shastra - Malad West - Mumbai,Gym,Mumbai,"Opposite Carmel Of St. Joseph School, Adarsh Dugdhalay Road, Adarsh Nagar, Malad West, Mumbai 400064, MH",+91-22-49702908,,
Fitness Point - Andheri East - Mumbai,Gym,Mumbai,"1-2-3, Sai Siddhi Building, Andheri East, Mumbai 400069, MH",+91-22-65882952,"WeCare@GoldsGym.in,,hello@cultfit.com,",
Fitness Pluss Gym - Chembur East - Mumbai,Gym,Mumbai,"F-22, Mala Niwas, Opposite Gulmarg Society, Charai Gaon, Chembur Naka, Chembur East, Mumbai 400071, MH",+91-9664546487,",hello@cultfit.com,",
Fitness Pitch Studio - Mulund East - Mumbai,Gym,Mumbai,"18/9-D, Body Line Fitness Centre, Phase 2, Near Kirit Somaiya Office, Gujar Road, Neelam Nagar, Mulund East, Mumbai 400081, MH",+91-9833522045,,
Fitness Pitch Studio - Ghatkopar East - Mumbai,Gym,Mumbai,"49/56, Plot No 149/156, MTNL Basement, Near Garodia School, Garodia Nagar, Ghatkopar East, Mumbai 400075, MH",+91-22-25061862,,
Fitness Pitch Studio - Ghatkopar East - Mumbai,Gym,Mumbai,"49/56, Plot No 149/156, MTNL Basement, Near Garodia School, Garodia Nagar, Ghatkopar East, Mumbai 400075, MH",+91-22-25061862,,
Fitness Maniacs - Vile Parle West - Mumbai,Gym,Mumbai,"301, Manju Castle, Near ST Xaviers Road, Church Road, Vile Parle West, Mumbai 400056, MH",,",flyingteamfitnessclub@gmail.com,",
Fitness Mania Studio (Ladies Studio) - Mulund West - Mumbai,Gym,Mumbai,"529, Avior, Nirmal Galaxy, 5th Floor, Opposite Johnson & Johnson, Mulund West, Mumbai 400080, MH",+91-22-25677060,,
Fitness Magic - Borivali West - Mumbai,Gym,Mumbai,"9/10, Rokadiya Apartment, Near Sudhir Falke Bridge, Rokadiya Road, Borivali West, Mumbai 400092, MH",+91-9967399238,",fitnessmagicone@gmail.com,",
Fitness Lounge - Powai - Mumbai,Gym,Mumbai,"Navy Compound, Opposite Suja Niketan, Chaitanya Nagar, IIT, Powai, Mumbai 400076, MH",+91-22-25799333,,
Fitness Kingdom - Santacruz East - Mumbai,Gym,Mumbai,"301, Manek Plaza, 3rd Floor, Kolekalyan Village, Opposite McDonalds, CST Road, Kalina, Santacruz East, Mumbai 400098, MH",+91-7045503339,"WeCare@GoldsGym.in,,",
Fitness Hub Gym - Worli - Mumbai,Gym,Mumbai,"Worli Sports Club, Behind DY International School, Adarsh Nagar, Worli, Mumbai 400030, MH",+91-22-24320405,",c2sraj@gmail.com,",
Fitness Fusion Gym - Lokhandwala - Mumbai,Gym,Mumbai,"301, Vastu Precent, 3rd Floor, Opposite Mercedes Showroom, Lokhandwala, Andheri, Mumbai 400053, MH",,"x3einfo@fusion-lifestyle.com,,info@fusion-lifestyle.com,x22info@fusion-lifestyle.com,",
Fitness First Platinum - Lower Parel - Mumbai,Gym,Mumbai,"462, Palladium Mall, 8th Floor, Senapati Bapat Marg, Lower Parel, Mumbai 400013, MH",+91-22-62320700,",hello@cure.fit,u003ehello@cure.fit,ff.makermaxity@fitnessfirst.net.in,Kalraestate46@gmail.com,",
Fitness First - Bandra East - Mumbai,Gym,Mumbai,"G-1, North Avenue, Maker Maxity, Bandra Kurla Complex, Bandra East, Mumbai 400051, MH",+91-22-40390300,",hello@cultfit.com,ff.makermaxity@fitnessfirst.net.in,",
Fitness Fiesta - Kandivali East - Mumbai,Gym,Mumbai,"10/14, Thakur Complex, Svit Land, Diagnally, Opposite To V Mall, Asha Nagar Road, Asha Nagar, Kandivali East, Mumbai 400101, MH",+91-8108786946,",shafiqkhan79@gmail.com,",
Fitness Fanatic - Borivali West - Mumbai,Gym,Mumbai,"Kastur Park, Civic Park Federation Ground, Near Sunil Apartment, Shimpoli Road, Borivali West, Mumbai 400092, MH",+91-22-28335777,,
Fitness Factory - Lower Parel - Mumbai,Gym,Mumbai,"Hind Yuvak Sangh, Manaji Rajuji Building, Jamsandekar Marg, Lower Parel, Mumbai 400013, MH",+91-7488948646,",support@gymcompany.co.za,Sportsethics001@gmail.com,",
Fitness Eternia - Grant Road - Mumbai,Gym,Mumbai,"Seva Sadan Society, 1st Floor, Opposite Gamdevi Police Station, Pandita Ramabai Road, Grant Road, Mumbai 400007, MH",+91-22-67305827,",aresh_fitnesseternia@rediffmail.com,",
Fitness Era - Mulund East - Mumbai,Gym,Mumbai,"A-101, Prem Vishnu Co-operative Housing Society, Near Neeta Apartments, Chaphekar Bandhu Marg, Mulund East, Mumbai 400081, MH",+91-9324040877,",rnaik_777@yahoo.in,",
Fitness Edge - Ghatkopar West - Mumbai,Gym,Mumbai,"Ranis Landmark, 3rd Floor, Near Mahalakshmi Medical, Jivdaya Lane, Ghatkopar West, Mumbai 400086, MH",+91-8097469888,,
Fitness Drive - Khar West - Mumbai,Gym,Mumbai,"702, Simran Plaza, Khar 4th Road, Ram Krishna Nagar, Khar West, Mumbai 400052, MH",,"elevatelife@rediffmail.com,,",
Fitness Casa - Santacruz West - Mumbai,Gym,Mumbai,"25, GOI Staff Colony, Juhu Road, Santacruz West, Mumbai 400054, MH",,",dessusfitness@gmail.com,mayuri.dr@gmail.com,seemamange07@yahoo.co.in,",
Fitness 3 - Bandra West - Mumbai,Gym,Mumbai,"203, Ashoka Building, 3rd Floor, Above Shalimar Linking, Linking Road, Bandra West, Mumbai 400050, MH",+91-8097838484,"bandra.mumbai@goldsgym.in,,",
Fitness 16 Gym - Malad East - Mumbai,Gym,Mumbai,"Reserve Bank Of India, Staff Quarters, Near Raheja Garden, Road No 3, Raheja TWP, Malad East, Mumbai 400097, MH",,"info@somibo.in,,",
Fitness & Muscles Gym - Mulund East - Mumbai,Gym,Mumbai,"Nav Bhagyashree Co-operative Housing Society, 1st Floor, Opposite CD Deshmukh Garden, Mulund East, Mumbai 400081, MH",+91-22-65264395,,
Fitness & Fun - Borivali West - Mumbai,Gym,Mumbai,"111/D-5, Gulmohar Co-operative Housing Society, Gorai 1, Borivali West, Mumbai 400092, MH",+91-8767771753,,
Fit N Trim - Andheri East - Mumbai,Gym,Mumbai,"371, 1st Floor, Opposite Utham Dhaba, Marol Maroshi Road, Marol, Andheri East, Mumbai 400059, MH",+91-9819044224,",fitntrim@yahoo.com,",
Fit N Fine Gym - Andheri East - Mumbai,Gym,Mumbai,"101, Atlanta Tower Premises Co-Operative Society, Near Cigarette Factory, Sahar Cargo Road, Chakala, Andheri East, Mumbai 400099, MH",+91-22-65956500,",hello@cultfit.com,",
Fit N Fight Gym - Santacruz East - Mumbai,Gym,Mumbai,"Vakola, Opposite MTNL Building Bridge, Jawaharlal Nehru Road, Santacruz East, Mumbai 400055, MH",+91-9152272805,,
Fit I Am - Worli - Mumbai,Gym,Mumbai,"Decathlon, Atria Mall, 1st Floor, Opposite Poonam Chambers, Dr. Annie Beasant Road, Worli, Mumbai 400018, MH",+91-9158597641,",midtownfitnessindia@gmail.com,customercare@gymsforall.in,yuvraj.wagh@goldsgym.in,",
Fit Factory - Andheri West - Mumbai,Gym,Mumbai,"4-5-6, Office Building, Aram Nagar Part 2, Next To Ganesh Temple, Versova Road, Andheri West, Mumbai 400061, MH",+91-7039901234,"WeCare@GoldsGym.in,,info@wavesgym.com,",
Fit 360 Kids Health & Fitness Pvt. Ltd. - Andheri West - Mumbai,Gym,Mumbai,"702, Aston Building, Sundervan Complex, Lokhandwala Road, Andheri West, Mumbai 400053, MH",+91-22-66719393,,
Firefly Aerial Fitness - Andheri West - Mumbai,Gym,Mumbai,"Obsidian Studio, Om Heera Panna Mall, 2nd Floor, Near Oshiwara Police Station, Lokhandwala, Andheri West, Mumbai 400053, MH",+91-9833323512,",info@wavesgym.com,",
Fire Charms - Byculla - Mumbai,Gym,Mumbai,"L, Diamond Jubilee School, Opposite Mazgaon Court, Stmary Road, Mazgaon, Byculla, Mumbai 400010, MH",+91-22-33126194,",iramsayyid@gmail.com,",
Fine Fitness - Kandivali West - Mumbai,Gym,Mumbai,"Doshi Mansion, 1st Floor, Near Saraswat Bank, MG Cross Road No 3, Kandivali West, Mumbai 400067, MH",+91-7738122123,,
Figure It Out - Andheri West - Mumbai,Gym,Mumbai,"191, JP Road, Aram Nagar Part 2, Versova, Andheri West, Mumbai 400061, MH",+91-8104696877,",thepilatesstudioenq@gmail.com,enquiries@theclubmumbai.com,",
Figure Factory Gym - Andheri East - Mumbai,Gym,Mumbai,"Spring Palm Building, Opposite Wazwaan Hotel, Marol Military Road, Andheri East, Mumbai 400059, MH",+91-22-29258582,",hello@cultfit.com,",
FFF Fitness - Kandivali East - Mumbai,Gym,Mumbai,"E-5, Crystal Lawn, Thakur Complex, Saraf Chaudhary Nagar, Kandivali East, Mumbai 400101, MH",+91-9869854151,,
Fans of Yoga - Prabhadevi - Mumbai,Gym,Mumbai,"Ravindra Natya Mandir, PL Deshpande Auditorium, Siddhivinayak Temple, Prabhadevi, Mumbai 400025, MH",,",hello@cultfit.com,",
Famous Yoga Energy Centre - Bandra West - Mumbai,Gym,Mumbai,"BPS Municipal School, Near Ram Mandir, Bandra Bazar, Bandra West, Mumbai 400050, MH",+91-22-33126183,",info@namasteyogaclasses.com,",
FAB The Gym - Borivali East - Mumbai,Gym,Mumbai,"87, 3rd Floor, Near Sri Krishna Mandir, Appasaheb Sidhaye Marg, Shrikrishna Nagar, Borivali East, Mumbai 400066, MH",+91-22-28977282,,
F45 Training Juhu - Juhu - Mumbai,Gym,Mumbai,"37, Hotel Horizon, Juhu Tara Road, Juhu, Mumbai 400049, MH",+91-7710844545,"bandraonebkc@f45training.in,,",
F3 Fitness Studio - Bandra West - Mumbai,Gym,Mumbai,"230, Ashoka Building, 4th Floor, Above Shalimar Restaurant, Linking Road, Bandra West, Mumbai 400050, MH",+91-8097838484,",admissions@global-opportunities.net,",
F-89 - Chembur West - Mumbai,Gym,Mumbai,"Chedda Nagar Gymkhana, Near Psalms School Of Music, Sector 3, Chedda Nagar, Chembur West, Mumbai 400089, MH",+91-9867810468,",arun@bagariaco.com,dmc.z5@mcgm.gov.in,rahul.bombay@gmail.com,nandan_phansekar@yahoo.co.in,",
Exprimir - Kandivali East - Mumbai,Gym,Mumbai,"Riviera Towers, Near Shri Saibaba Temple, Lokhandwala Road, Kandivali East, Mumbai 400101, MH",+91-22-33126202,,
Evolution Fitness and Combat Sports Academy - Bandra West - Mumbai,Gym,Mumbai,"Sahana Enclave, 2nd & 3rd Floor, Next To Hotel Executive Enclave, Dr. Ambedkar Road, Pali Hill, Bandra West, Mumbai 400050, MH",+91-9699966358,",xxxxxxxx@gmail.com,",
Essar Fitness - Andheri East - Mumbai,Gym,Mumbai,"Andheri Gymkhana, Opposite Vishal Hall, MV Road, Andheri East, Mumbai 400036, MH",+91-22-26837703,",8169898258CONTACT@GYMXAPPAREL.COM,essarfitness4u@gmail.com,",
Endurance The Activity Hub - Mulund West - Mumbai,Gym,Mumbai,"Mewawala Building, 1st Floor, Opposite Dena Bank, MG Road, Mulund West, Mumbai 400080, MH",+91-9152658512,,
Endurance Fitness Dadar - Dadar - Mumbai,Gym,Mumbai,"Dadar Gymkhana Club, 1st Floor, Near Yogi Sabhagruh, Lokmanya Tilak Colony, Lane No 3, Dadar, Mumbai 400014, MH",+91-9152272629,",stfitnessindia@gmail.com,",
Endurance Fitness - Lokhandwala - Lokhandwala - Mumbai,Gym,Mumbai,"Karmveer Sports Complex, Near Kokilaben Hospital, RTO Corner, 4 Bungalows Road, Andheri West, Mumbai 400053, MH",+91-22-26302240,",hello@cultfit.com,",
Elite Pro Fitness and Combat Sports - Bandra West - Mumbai,Gym,Mumbai,"St. Joseph Primary School, 1st Floor, Near Anand Mahal Building, Manuel Gonsalves Road, Bandra West, Mumbai 400050, MH",+91-9867188441,,
Elite Fitness Gamdevi - Grant Road - Mumbai,Gym,Mumbai,"57, Ocean Prince Building, Pandita Ramabai Marg, Gamdevi, Mumbai 400007, MH",+91-22-23868731,,
Elite Fitness - Worli - Mumbai,Gym,Mumbai,"107, Navneelam Co-operative Housing Society, 1st Floor, B Wing, Dr. RG Thadani Marg, Siddharth Nagar, Worli, Mumbai 400018, MH",+91-22-24960999,"elite.fitness.info@gmail.com,,",
El Gymnasio - Malad West - Mumbai,Gym,Mumbai,"305/306, Emergo BPO, Evershine Mall, 3rd Floor, Opposite Tech Mahindra, Link Road, Chincholi, Malad West, Mumbai 400064, MH",+91-7045375885,,
Edge Fitness - Chembur West - Mumbai,Gym,Mumbai,"Destination Building, 2nd Floor, Next To Shopper Stop, GM Road, Chembur West, Mumbai 400089, MH",+91-22-25252523,,
Eco Fitness - Goregaon West - Mumbai,Gym,Mumbai,"Sadguru House, 1st Floor, Opposite Goregaon Telephone Exchange, SV Road, Goregaon West, Mumbai 400104, MH",+91-8104318175,,
Eazy Gym: EMS Fitness Studio - Bandra West - Mumbai,Gym,Mumbai,"601, Roha Orion Building, 6th Floor, Opposite To Mini Punjab's Restaurant, 16th Road, Bandra West, Mumbai 400050, MH",+91-8828136060,,
Eazy Gym: EMS Fitness Studio - Andheri West - Mumbai,Gym,Mumbai,"411, Samarth Aishwarya Apartment, 4th Floor, Near Marks & Spencer, Link Road, Lokhandwala Complex, Andheri West, Mumbai 400053, MH",+91-9136606016,,
EaseOn Wellness Spa Salon and Yoga - Powai - Mumbai,Gym,Mumbai,"A-101/A-102/A-103 & C-2/M-2, Cypress Building, 1st Floor, Near Vodafone Gallery, Old Market, Hiranandani Gardens, Central Avenue Road, Powai, Mumbai 400076, MH",+91-7718851040,",easeonwellness@gmail.com,",
E-Gym The Family Club - Jogeshwari West - Mumbai,Gym,Mumbai,"3-4-5-6-7, Khan Estate, Khan Tower, Off SV Road, Aqsa Masjid Road, Jogeshwari West, Mumbai 400102, MH",+91-9029004666,,
E-Gym (Only For Ladies) - Jogeshwari West - Mumbai,Gym,Mumbai,"105-106-107-108, Grace Plaza Shopping Centre, A-Wing, 1st Floor, Opposite Allah Masjid, SV Road, Jogeshwari West, Mumbai 400102, MH",+91-22-64501555,,
E-Gym - Lokhandwala - Lokhandwala - Mumbai,Gym,Mumbai,"001/002, Prena Co-operative Housing Society Limited, Opposite State Bank Of India, Swami Samarth Nagar, Lokhandwala Complex, Andheri West, Mumbai 400102, MH",+91-9137136354,",hello@cultfit.com,lokhandwala.mumbai@goldsgymindia.com,",
Dynamic Gym - Chembur West - Mumbai,Gym,Mumbai,"12-A-B, Mahalaxmi Palace, 1st Floor, Near Sahakar Plaza, Tilak Nagar, Chembur East, Mumbai 400089, MH",+91-7506773603,,
Downtown Studio - Goregaon West - Mumbai,Gym,Mumbai,"3 & 4, Aum Heights, Near Vibgyor School, Auto Stand, Off Goregaon Link Road, Shastri Nagar, Goregaon West, Mumbai 400104, MH",+91-22-33126194,",fitnessmafia321@gmail.com,",
Don Bosco Fitness Center - Matunga West - Mumbai,Gym,Mumbai,"1/91, DON Bosco School, Opposite Khalsa College, Vijay Sewri Wadala Road, Bhaveshwar, Matunga East, Mumbai 400019, MH",+91-9321064523,",office@donboscomatunga-com.mydnscp.com,",
Dolls Delight Dancing Group - Goregaon East - Mumbai,Gym,Mumbai,"Karmarkar Health Spa, Next To Oberoi Mall, Film City Road, Goregaon East, Mumbai 400063, MH",+91-9820823230,,
Dnyana Sadhana Trust - Chembur East - Mumbai,Gym,Mumbai,"Spastic Society, 3rd Floor, Near Diamond Garden, Chembur East, Mumbai 400071, MH",+91-22-61630142,"WeCare@GoldsGym.in,,",
DK Dance and Fitness Studio - Mulund West - Mumbai,Gym,Mumbai,"15, Silver Birch, Near Vasant Garden, Swapna Nagari, Mulund West, Mumbai 400082, MH",+91-9152285311,",admin@dancewithdinesh.com,aroma.spice@rediffmail.com,",
Diamond Muscles Gym - Goregaon East - Mumbai,Gym,Mumbai,"General Arun Kumar, Vaidya Marg, Film City Road, Goregaon East, Mumbai 400063, MH",+91-22-28414515,",hello@cultfit.com,",
Dhriti Sachdev - Borivali West - Mumbai,Gym,Mumbai,"Borivali West, Mumbai 400092, MH",,"d@gmail.com,,",
Dency Gymnasium - Andheri East - Mumbai,Gym,Mumbai,"Near Garden Hotel, Church Road, Marol, Andheri East, Mumbai 400059, MH",+91-7715973200,",hello@cultfit.com,",
Deep Ganga Wellness - Goregaon East - Mumbai,Gym,Mumbai,"Onkar Building, 1st Floor, A Wing, Opposite Oberoi Mall, Film City Road, Goregaon East, Mumbai 400063, MH",+91-22-28432828,,
Deep Dance Academy - Dadar - Mumbai,Gym,Mumbai,"17/18, Pearl Center, Below Vidyalankar Classes, Senapati Bapat Marg, Tulsi Pipe Road, Dadar West, Mumbai 400028, MH",+91-22-24225124,",support@youngbutterfly.in,",
Danzpiration - Khar West - Mumbai,Gym,Mumbai,"Studio 108, Parmeshwar Bhavan, Next To Bblunt, 14th Road, Khar West, Mumbai 400052, MH",+91-22-33126204,",khargym@hotmail.com,me@nehaagarwal.in,info@rhinosgymkhar.com,accounts@khargymkhana.com,",
Danceright - Versova - Mumbai,Gym,Mumbai,,,"WeCare@GoldsGym.in,,hello@cultfit.com,info@wavesgym.com,",
Dance People Studio - Bandra West - Mumbai,Gym,Mumbai,"8/9, Link Corner Mall, 1st Floor, KFC Lane, Next To Starbucks, Off Link Road, Bandra West, Mumbai 400052, MH",+91-9619250007,"bandra.mumbai@goldsgym.in,,",
Dance Destination - Vile Parle West - Mumbai,Gym,Mumbai,"102, Man House, Opposite Pawan Hans Airport, SV Road, Vile Parle West, Mumbai 400056, MH",+91-9819310307,,
Dancamaze - Andheri West - Mumbai,Gym,Mumbai,"508, Studio Dancamaze, A-Wing, Opposite Highland Park, Samartha Aishwarya, Andheri West, Mumbai 400102, MH",+91-9967320468,",hello@cultfit.com,enquiries@theclubmumbai.com,dahisar1@sk27gym.com,dancamaze@gmail.com,",
D Fitlab - Borivali West - Mumbai,Gym,Mumbai,"P-3, D'fitlab Gym Club, Next To ST Lawrence High School, Aquaria Grande, Devidas Lane, Borivali West, Mumbai 400092, MH",+91-22-65364600,"WeCare@GoldsGym.in,,fitnessgroovebnb@gmail.com,",
Cytherea Fitness - Borivali West - Mumbai,Gym,Mumbai,"L-2, Thomas Compound, Near ICICI Bank, Holy Cross Road, IC Colony, Borivali West, Mumbai 400103, MH",+91-7506285115,",youremail@yourdomain.com,cytherea.fitness@gmail.com,",
CurveStrength Fitness Studio - Goregaon East - Mumbai,Gym,Mumbai,"344, Orchard Road Mall, Royal Palms, Aarey Colony, Goregaon East, Mumbai 400065, MH",+91-8879736663,",contact@ufcgym.in,",
CrossFit Real Life - Bandra West - Mumbai,Gym,Mumbai,"Bandra Physical Culture Association Gym, Opposite Bandra Talao, Dr. V Raghunath Marg, St. Martin's Road, Bandra West, Mumbai 400050, MH",+91-9892551102,",hello@cultfit.com,",
CrossFit Blackfire - Andheri West - Mumbai,Gym,Mumbai,"Karamveer Sports Club, Basement, Behind Siddharth Banquet Hall, MHADA, 4 Bungalows, Andheri West, Mumbai 400053, MH",+91-9820181864,",crossfitblackfire@gmail.com,",
Crossfit Arjuna - Kandivali West - Mumbai,Gym,Mumbai,"Footprint Academy Of Holistic Fitness, Opposite Kalpavruksh Garden Building, Link Road, Mahavir Nagar, Kandivali West, Mumbai 400067, MH",+91-9867983777,,
CrossFit 7 Seas - Kandivali East - Mumbai,Gym,Mumbai,"Vishnu Shivam Mall, Thakur Village Road, Kandivali East, Mumbai 400101, MH",+91-8689835777,,
Creator Gym - Ghatkopar West - Mumbai,Gym,Mumbai,"Gala No 1, Near To JK Medical, Asalfa Bus Stop, Asalpha Link Road, Subhash Nagar, Ghatkopar West, Mumbai 400084, MH",+91-7738445525,",jollygymkhana@gmail.com,asstmngr01jtmc.dmu@mcgm.gov.in,",
Courtyard By Marriott - Andheri East - Mumbai,Gym,Mumbai,,,",mukesh@conferencevenue.in,x22JWMumbaiSaharAYS@marriott.com,x3eJWMumbaiSaharAYS@marriott.com,JWMumbaiSaharAYS@marriott.com,",
Cosmic Fusion - Santacruz West - Mumbai,Gym,Mumbai,"403, Saffire Building, 4th Floor, Above Bebe Showroom, Linking Road, Santacruz West, Mumbai 400054, MH",+91-9819303377,"me@nehaagarwal.in,,customercare@gymsforall.in,",
Core-Fitness - Tardeo - Mumbai,Gym,Mumbai,"65, Near Kumkum Building, BPCL Transit Flat, Pedder Road, Tardeo, Mumbai 400026, MH",+91-9920131637,,
Concept 360 - Ghatkopar East - Mumbai,Gym,Mumbai,"509-A/510/ 510-A, Kailas Plaza, Vallabh Baug Lane, Above ICICI Bank, Ghatkopar East, Mumbai 400077, MH",+91-9323505505,"ghatkopar@ymcabombay.com,mayuranagle79@gmail.com,,",
Colosseum Gym - Matunga East - Mumbai,Gym,Mumbai,"Inside Don Bosco High School, Opposite Khalsa College, Nathalal Parekh Marg, Kings Circle, Matunga East, Mumbai 400019, MH",+91-22-33126195,",info@matungagym.com,",
Cloud 9 Fitness Club - Sion - Mumbai,Gym,Mumbai,"214, Shankar Kunj, Gala No 3 & 4, Opposite Sion Hospital, Dr. Ambedkar Road, Sion, Mumbai 400022, MH",+91-22-24075171,,
Cloud 9 Fitness Club - Mahim - Mumbai,Gym,Mumbai,"Shivam Apartment, Lady Jamshedji Road, Mahim West, Mumbai 400016, MH",+91-22-24318502,,
Cloud 9 Fitness Club - Dadar - Mumbai,Gym,Mumbai,"Latif Building, Opposite Shinde Wadi, Dr.Ambedkar Road, Dadar East, Mumbai 400014, MH",+91-22-24137945,"me@nehaagarwal.in,,",
Chlorophyll Wellness - Juhu - Mumbai,Gym,Mumbai,"The Space, Opposite Myx Restaurant, AB Nair Road, Juhu, Mumbai 400049, MH",+91-9833703864,",mushtaq.sheikh@ftindia.com,amrita.y@gmail.com,mushtaq.sheikh@atomtech.in,",
Chitra's Wellness - Khar West - Mumbai,Gym,Mumbai,"Studio 108, Near Bblunt Salon, 14th Road, Khar West, Mumbai 400052, MH",+91-9867307028,",khargym@hotmail.com,accounts@khargymkhana.com,",
Chirayu The Fitness Hub - Mulund West - Mumbai,Gym,Mumbai,"Ladhani House, Valji Ladha Road, Opposite Hira Mongi Hospital, Mulund West, Mumbai 400080, MH",+91-9702383412,",chirayu.bhavatu@gmail.com,",
Chetna Shah Yoga Classes - Vile Parle West - Mumbai,Gym,Mumbai,"16, Bhavna Kunj, Gate 4 & 5, Opposite Jamna Bai School, NS Road 06, Vile Parle West, Mumbai 400056, MH",+91-9892866622,,
Change - Powai - Mumbai,Gym,Mumbai,"202, Nahar Business Center, LOK Milan Colony, Chandivali, Powai, Mumbai 400072, MH",+91-7045603626,",support@gymcompany.co.za,",
Chakra Project - Lokhandwala - Mumbai,Gym,Mumbai,"Bhakti Wellness Center, Spring Fields 2, Opposite HDFC Bank, Lokhandwala, Andheri West, Mumbai 400053, MH",+91-9920849832,",lokhandwala.mumbai@goldsgymindia.com,",
Carewell Fitness The Gym - Powai - Mumbai,Gym,Mumbai,"CTS-43, Raheja Vihar, 1st Floor, Next To Chandivali Studio, Chandivali Farm Road, Chandivali, Powai, Mumbai 400072, MH",+91-22-28477733,"sweatboxfitnesspowai@gmail.com,,",
Carewell Fitness The Gym - Mulund East - Mumbai,Gym,Mumbai,"Matruchayya Basement, GV Scheme, Near Post Office, Road No 1, Mulund East, Mumbai 400081, MH",+91-22-21630542,,
Captains Gym - Kandivali East - Mumbai,Gym,Mumbai,"Arihant Apartments, Behind Esis Hospital, Dada Save Road, Ashok Nagar, Kandivali East, Mumbai 400101, MH",+91-22-65211160,",customercare@gymsforall.in,",
Calburn Yoga - Dadar - Mumbai,Gym,Mumbai,"Near Shivaji Maharaj Statue, Veer Sawarkar Marg, Shivaji Park, Dadar West, Mumbai 400028, MH",+91-22-33126185,",avnishsharma.sharma9@gmail.com,",
C'est La Vie - Bandra West - Mumbai,Gym,Mumbai,"54, Newton House, Opposite Mount Carmel Church, Chapel Road, Mumbai 400050, MH",+91-8655007172,"gm@cestlavie.com.in,,",
Burn Gym - Chembur East - Mumbai,Gym,Mumbai,"Club Emerald, Swastik Park, Next Mangal Anand Hospital, Chembur East, Mumbai 400071, MH",+91-9819893489,",INFO@CLUBEMERALD.IN,",
Bubbles Yoga Class - Khar West - Mumbai,Gym,Mumbai,"681, Kiran Bungalow, 16th Road, Khar West, Mumbai 400052, MH",+91-9821544234,,
BrainFit Studio - Ghatkopar West - Mumbai,Gym,Mumbai,"Office 6, Building 6-A, Damodar Park, Near R-City Mall, LBS Marg, Ghatkopar West, Mumbai 400086, MH",+91-9920549827,",info@givex.in,",
BPCA - Bandra West - Mumbai,Gym,Mumbai,"BPCA Gym, Raghunath Road, Bandra West, Mumbai 400036, MH",+91-22-61222222,"bandra.mumbai@goldsgym.in,,",
Bowlekar's health fitness - Jogeshwari East - Mumbai,Gym,Mumbai,"G-4, Tivoli Terrace, Road No 5, Natwar Nagar, Jogeshwari East, Mumbai 400060, MH",+91-9869656070,",hello@cultfit.com,",
Bowelekar Health Center - Vikhroli - Mumbai,Gym,Mumbai,"169, Near Shivaji Chowk Rickshaw Stand, Kannamwar Nagar 1, Vikhroli East, Mumbai 400083, MH",+91-9869831161,,
Boombox: Dance and Fitness Garage - Andheri West - Mumbai,Gym,Mumbai,"603, Morya Blue Moon, Near Monginis Cake Factory, Off New Link Road, Andheri West, Mumbai 400053, MH",+91-7678018555,",danceboombox@gmail.com,aakanksha90@gmail.com,",
Bombay Jam - Malad East - Mumbai,Gym,Mumbai,"03, Shah Arcade, Near Balaji Hospital, Rani Sati Marg, Malad East, Mumbai 400097, MH",+91-22-33126203,",vmrsnco@gmail.com,cmo.mwdh@mcgm.gov.in,goregaon.mumbai@goldsgymindia.com,rsodani@hotmail.com,mrtmwd@gmail.com,",
Bombay Institute For Performing Arts - Andheri East - Mumbai,Gym,Mumbai,"101, Silvar Astra, Next To Mahesh Tutorials, JB Nagar Circle, Andheri East, Mumbai 400059, MH",+91-8169274871,,
Bolly Dancing - Malabar Hill - Mumbai,Gym,Mumbai,"80, Om Dariya Mahal, Opposite Walsinghum House School, Napean Sea Road, Breach Candy, Malabar Hill, Mumbai 400006, MH",+91-9821319102,,
BodyTransformers Gym - Bandra West - Mumbai,Gym,Mumbai,"Shoeb Manzil, 2nd Floor, Above State Bank Of India, New Kantwadi Road, Bandra West, Mumbai 400050, MH",+91-9619822396,",hello@cultfit.com,",
BodyProCoach - Goregaon West - Mumbai,Gym,Mumbai,"Tenament No 244/1952, Crossfit TFF, Vibgyor School, Off Link Road, Motilal Nagar 1, Goregoan West, Mumbai 400104, MH",+91-9920012533,",coaching@bodyprocoach.com,info@bodyprocoach.com,",
Bodyline Gym - Borivali East - Mumbai,Gym,Mumbai,"6, Kanal Industrial Estate, Road No 6, Daulat Nagar, Borivali East, Mumbai 400066, MH",+91-22-33126196,",hello@cultfit.com,bodylinesports@gmail.com,",
Bodyholics Combine Training Gym - Lokhandwala - Mumbai,Gym,Mumbai,"106, Maurya Classic Building, Opposite Infinity 1, Diagonal To Lashkaria Group Society, Andheri West, Mumbai 400053, MH",+91-9967926664,",bodyholicscts@gmail.com,admin@starsunfolded.com,",
Bodycraft Fitness and Wellness - Malad West - Mumbai,Gym,Mumbai,"S-3, Sej Plaza, 2nd Floor, Near Nutan School, Marve Road, Malad West, Mumbai 400064, MH",+91-8451881552,,
Bodycraft Fitness and Wellness - Goregaon East - Mumbai,Gym,Mumbai,"102/103, Accord Classic, 1st Floor, Near Anupam Stationery, Station Road, Goregaon East, Mumbai 400063, MH",+91-9820095896,,
Body Temple Gym - Bhandup - Mumbai,Gym,Mumbai,"Opposite Bhandup Gurudwara, LBS Marg, Sadanwadi, Bhandup West, Mumbai 400078, MH",+91-22-25953939,"shetty.ashok_64@yahoo.com,,",
Body Sculptz Studio - Kandivali West - Mumbai,Gym,Mumbai,"501, Charkop Kesar PLaza Co-operative Housing Society, Opposite Bhagwati Hotel, Charkop Market, Charkop Gaon, Kandivali West, Mumbai 400067, MH",+91-9892036568,,
Body Sculptor: The Trainer Matters - Khar West - Mumbai,Gym,Mumbai,"201, Fortune Classic, 2nd Floor, Above Madhubhan Toyota, Corner Of C Dhanukar Marg, 15th Road, Khar West, Mumbai 400052, MH",+91-8655440003,,
Body Sculptor: The Trainer Matters - Juhu - Mumbai,Gym,Mumbai,"101 & 201, Aashiyana Apartment, 1st Floor, Chand Society, NS Road 13, JVPD Scheme, Juhu, Mumbai 400049, MH",+91-8655006760,,
Body Sculpt - Kandivali East - Mumbai,Gym,Mumbai,"178, Thakur Complex, V Mall, Near Sai Dham, Kandivali East, Mumbai 400101, MH",+91-9870084415,,
Body Rhythm - Juhu - Mumbai,Gym,Mumbai,"462, Near Holiday In, Ramee Guestline Hotel, AB Nair Road, Juhu, Mumbai 400049, MH",,"bodyrhythm@indiatimes.com,,",
Body Mechanics - Andheri East - Mumbai,Gym,Mumbai,"2, Satellite Housing Society, Opposite Mistry Complex, JB Nagar, Andheri East, Mumbai 400099, MH",+91-8655585333,,
Body Line Fitness Centre - Mulund East - Mumbai,Gym,Mumbai,"D-18/9, Near Kirit Somaiya Office, Phase 2, Prataprao Gujar Road, Gandhi Nagar, Mulund East, Mumbai 400081, MH",+91-8655393789,,
Body Garage Fitness Studio - Kandivali East - Mumbai,Gym,Mumbai,"Ahilyabai Holkar Maidan, Near Childrens Academy School, Atmaram Sawant Marg, Ashok Nagar, Kandivali East, Thane 400101, MH",+91-22-65902288,,
Body Buff Fitness - Santacruz West - Mumbai,Gym,Mumbai,"396/1, Flat No 2, Mohan Sagar Building, Near Rajesh Khanna Garden, North Avenue, Potohar Nagar, Santacruz West, Mumbai 400054, MH",+91-9702644851,,
Body Basics (Only For Ladies) - Borivali West - Mumbai,Gym,Mumbai,"Sangita Building, Opposite Sony Mony, SV Road, Borivali West, Mumbai 400092, MH",+91-9820941235,",feedback@bodybasics.in,",
Body Artist - Goregaon West - Mumbai,Gym,Mumbai,,,",bodyartistftc@gmail.com,",
Blue Hat Fusion - Andheri East - Mumbai,Gym,Mumbai,,,",hello@cultfit.com,bluehatfusion@gmail.com,",
Bliss The Yoga Studio - Mulund West - Mumbai,Gym,Mumbai,,,",support@youngbutterfly.in,",
Bikash Zumba - Andheri East - Mumbai,Gym,Mumbai,,,",hello@cultfit.com,",
Beyond Studio - Bandra West - Mumbai,Gym,Mumbai,,,",fitnessmafia321@gmail.com,",
Beyond Fitness - Walkeshwar - Mumbai,Gym,Mumbai,,,",sales.walkeshwar@beyondfitness.co.in,",
Beat n Bounce - Lokhandwala - Mumbai,Gym,Mumbai,,,",u003ebeatnbounce@gmail.com,beatnbounce@gmail.com,",
Beast Fitness - Borivali West - Mumbai,Gym,Mumbai,,,"WeCare@GoldsGym.in,,hello@cultfit.com,",
Bay View Yoga Classes - Charni Road - Mumbai,Gym,Mumbai,,,",nmumbai@kdham.com,",
Basics N Beyond - Kandivali East - Mumbai,Gym,Mumbai,,,",kandivali.mumbai@goldsgymindia.com,",
Bar Squad - Andheri West - Mumbai,Gym,Mumbai,,,",enquiries@theclubmumbai.com,",
Bankin - Kandivali West - Mumbai,Gym,Mumbai,,,",asstmngr01jtmc.dmu@mcgm.gov.in,",
Bal Mitra Mandal Gym - Borivali East - Mumbai,Gym,Mumbai,,,",rdevndra@vsnl.com,ojasjangada@gmail.com,",
Bal Mitra Gym - Santacruz East - Mumbai,Gym,Mumbai,,,",me@nehaagarwal.in,apsanzgiri@vsnl.com,contact@ca-aps.com,ac.heast@mcgm.gov.in,",
BAD - Bandra West - Mumbai,Gym,Mumbai,,,"bandra.mumbai@goldsgym.in,,andheri@ymcabombay.com,hello@cultfit.com,fitnessmafia321@gmail.com,",
Ayush Gym - Andheri East - Mumbai,Gym,Mumbai,,,",hello@cultfit.com,",
Ayam Yoga And Nutrition - Andheri West - Mumbai,Gym,Mumbai,,,",hello@cultfit.com,",
Awfis - Powai - Mumbai,Gym,Mumbai,,,",press@awfis.com,info@awfis.com,amit.ramani@awfis.com,x3eamit.ramani@awfis.com,",
Awfis - Bandra East - Mumbai,Gym,Mumbai,,,",press@awfis.com,info@awfis.com,amit.ramani@awfis.com,x3eamit.ramani@awfis.com,",
Awfis - Andheri West - Mumbai,Gym,Mumbai,,,",press@awfis.com,info@awfis.com,amit.ramani@awfis.com,x3eamit.ramani@awfis.com,",
Aum Shanti Yoga - Andheri West - Mumbai,Gym,Mumbai,,,",hello@cultfit.com,",
Athleticoo Fitness Academy - Borivali West - Mumbai,Gym,Mumbai,,,",mumbai@classicfitnessgroup.com,fitnessgroovebnb@gmail.com,",
Arnis Yoga - Malad East - Mumbai,Gym,Mumbai,,,",hello@cultfit.com,",
Arham Yoga Clinic - Ghatkopar West - Mumbai,Gym,Mumbai,,,",utsavinstitute@gmail.com,",
Aradhana Yoga Studio - Churchgate - Mumbai,Gym,Mumbai,,,",hello@cultfit.com,",
AP Fitness Arena - Malad West - Mumbai,Gym,Mumbai,,,",hello@cultfit.com,",
Any Time Fitness Point - Vile Parle West - Mumbai,Gym,Mumbai,,,",memberexperience@anytimefitness.in,",
Any Time Fitness Point - Khar West - Mumbai,Gym,Mumbai,,,",John.Smith@anytimefitness.com,x3eJohn.Smith@anytimefitness.com,",
Anurag Dhariwal Gyms - Versova - Mumbai,Gym,Mumbai,,,",anuragdhariwalgyms@gmail.com,",
Anubhav Yoga Divine Centre - Lokhandwala - Mumbai,Gym,Mumbai,,,",hello@cultfit.com,",
Anshuka Yoga - Bandra West - Mumbai,Gym,Mumbai,,,",u003einfo@anshukayoga.com,info@anshukayoga.com,anshuka.parwani@gmail.com,",
Ankur Gym - Goregaon West - Mumbai,Gym,Mumbai,,,"cestat08@gmail.com,,",
Ananya Yoga and Fitness - Borivali West - Mumbai,Gym,Mumbai,,,",hello@cultfit.com,fitnessgroovebnb@gmail.com,support@youngbutterfly.in,",
Anandi Yogakutir - Prabhadevi - Mumbai,Gym,Mumbai,,,",hello@cultfit.com,",
Ambar Aerobics - Kandivali West - Mumbai,Gym,Mumbai,,,",ambaraerobics@gmail.com,",
Ambar Aerobics - Borivali West - Mumbai,Gym,Mumbai,,,",ambaraerobics@gmail.com,",
Ambar Aerobics - Borivali West - Mumbai,Gym,Mumbai,,,",ambaraerobics@gmail.com,",
Alpha 7 Seas - Lokhandwala - Mumbai,Gym,Mumbai,,,",lokhandwala.mumbai@goldsgymindia.com,youremail@yourdomain.com,",
All Rounder - Prabhadevi - Mumbai,Gym,Mumbai,,,",borivali@totalsf.in,support@youngbutterfly.in,",
Alchemy - Marine Lines - Mumbai,Gym,Mumbai,,,"WeCare@GoldsGym.in,,",
AKRO - Fitness Personalised - Khar West - Mumbai,Gym,Mumbai,,,",ketan.am@gmail.com,",
Aim Yoga - Churchgate - Mumbai,Gym,Mumbai,,,"physicaledu@sndt.ac.in,,info@birthnbeyond.in,",
AFC Gym - Sion - Mumbai,Gym,Mumbai,,,",info@oliveonline.in,ajax-loader@2x.gif,",
Advance Fitness Studio - Goregaon West - Mumbai,Gym,Mumbai,,,",vdurgest@gmail.com,",
Adis Fitness Unisex - Malad East - Mumbai,Gym,Mumbai,,,",info.malad@universal.edu.in,",
Adiansh Gym - Ghatkopar West - Mumbai,Gym,Mumbai,,,",adianshgym@gmail.com,",
ADC N Fitness Studio - Chembur East - Mumbai,Gym,Mumbai,,,"WeCare@GoldsGym.in,,",
Adagio Lifestyle - Bandra West - Mumbai,Gym,Mumbai,,,",hello@cultfit.com,",
Activ8 Studio - Juhu - Mumbai,Gym,Mumbai,,,"WeCare@GoldsGym.in,,",
AB yoga wellness and Fitness center - Dadar - Mumbai,Gym,Mumbai,,,"anilyogacharya@gmail.com,,",
A Fitness and Dance Studio - Kandivali East - Mumbai,Gym,Mumbai,,,",hello@cultfit.com,fitnessgroovebnb@gmail.com,",
6262 Fitness - Prabhadevi - Mumbai,Gym,Mumbai,,,",info@6262fitness.com,",
5 Fitness Club - Cuffe Parade - Mumbai,Gym,Mumbai,,,",youremail@yourdomain.com,",
3 Fitness Gym - Lower Parel - Mumbai,Gym,Mumbai,,,",yuvraj.wagh@goldsgym.in,",
20-15 Fitness - Tardeo - Mumbai,Gym,Mumbai,,,",connect@20-15fitness.com,",
United Strength - Juhu - Mumbai,Gym,Mumbai,"25, Rawal Niwas, N.S. Road No. 2, JVPD Scheme, Juhu, Mumbai 400056, MH",+91-8291297083,",mayol@labcorp.com,",
Killer Gym - Mahakali Caves - Mumbai,Gym,Mumbai,,,",hello@cultfit.com,",
Shree Samartha Vyayam Mandir - Dadar - Mumbai,Gym,Mumbai,,,"udaydeshpandessvm@gmail.com,,",
Indus Gym - Saki Vihar - Mumbai,Gym,Mumbai,,,",service@indusgym.com,info@indusgym.com,info@indusfe.com,",
9th GEAR Fitness Club - Mulund - Mumbai,Gym,Mumbai,"109, 1st Floor, above Bata Show Room, opp Mulund Station, SVP Road, Mulund W, Mumbai 400080, MH",+91-22-25656065,",fitness@9thgear.in,",
Fitness First - Bandra Kurla Complex - Mumbai,Gym,Mumbai,,,",hello@cultfit.com,ff.makermaxity@fitnessfirst.net.in,",
Mickey Mehta 360 Wellness Temple - Vashi - Mumbai,Gym,Mumbai,"Four Points By Sheraton, Opposite Railway Station, Sector 30A, Vashi, Navi Mumbai 400703, MH",,",drmickeymehta@gmail.com,u003edrmickeymehta@gmail.com,",
Gold's Gym - Vashi - Mumbai,Gym,Mumbai,,,"WeCare@GoldsGym.in,,vashi.mumbai@goldsgymindia.com,",
Dr Bhavana Shah's Fitness Highway - Borivali - Mumbai,Gym,Mumbai,,,",csnavin@gmail.com,Csnavin@gmail.com,fitnesshighway11@gmail.com,",
Jerai Fitness - Dahisar - Mumbai,Gym,Mumbai,,,",sales@jeraifitness.com,",
Fitness Highway - Borivali - Mumbai,Gym,Mumbai,,,",fitnessgroovebnb@gmail.com,sales@jeraifitness.com,",
G Force Fitness Gym - Mumbai,Gym,Mumbai,,,",mumbaidigitalart@gmail.com,gforcefitnessindia@gmail.com,zarirnariman@gmail.com,",
Aromathai Spa - Lower Parel - Mumbai,Gym,Mumbai,,,",Palladium@aromathai.net,palladium@aromathai.net,",
Talwalkars Gym - Borivali - Mumbai,Gym,Mumbai,,,",lite.project@centrum.co.in,",
Talwalkars Gym - Santacruz - Mumbai,Gym,Mumbai,,,",pdandawate72@gmail.com,",
Anatta Humanversity Pvt. Ltd - Juhu - Mumbai,Gym,Mumbai,"701/702, Diwani Mahal, Opposite ONGC Colony, Juhu Scheme, Gulmohar Road 1, Juhu, Mumbai 400049, MH",,",vandana@anatta.in,",
Moksh Wellness Place - Cumballa Hill - Mumbai,Gym,Mumbai,"75, Bhulabhai Desai Road, Opposite former US Consulate, Breach Candy, Cumballa Hill, Mumbai 400026, MH",+91-22-23676990,",contact@digitaltitan.in,",
Golds Gym - Lokhandwala - Mumbai,Gym,Mumbai,"Om Heera Panna Shopping Mall, Oshiwara, Andheri West, Mumbai 400053, MH",+91-22-40105813,"WeCare@GoldsGym.in,,lokhandwala.mumbai@goldsgymindia.com,",
The Chembur Gymkhana - Chembur - Mumbai,Gym,Mumbai,"Near Ambedkar Garden, 16th Road, Chembur, Mumbai, MH",,",chemgym@yahoo.co.in,info@chemburgymkhana.in,",
Golds Gym - Lower Parel - Mumbai,Gym,Mumbai,"A-2, 3rd Floor, Tower One, One India Bulls Centre, Lower Parel, Mumbai 400013, MH",,"WeCare@GoldsGym.in,,yuvraj.wagh@goldsgym.in,",
Golds Gym - Kandivali - Mumbai,Gym,Mumbai,"4th Floor, Raghuleela Mall, Behind Poisar Bus Depot, Jai Bhim Sanjay Nagar, Kandivali West, Mumbai 400067, MH",+91-9223593167,"WeCare@GoldsGym.in,,me@nehaagarwal.in,",
Golds Gym - Santacruz - Mumbai,Gym,Mumbai,"4th Floor, Chheda Arcade, SV Road, Khira Nagar, Santacruz West, Mumbai 400054, MH",+91-22-65843455,",bandra.mumbai@goldsgym.in,WeCare@GoldsGym.in,hello@cultfit.com,bandra.mumbai@goldsgymindia.com,",
Golds Gym - Chembur - Mumbai,Gym,Mumbai,"10, 1st Floor, Akshay Apartments, Chembur, Mumbai , MH",+91-22-25260138,"WeCare@GoldsGym.in,,vashi.mumbai@goldsgymindia.com,",
Golds Gym - Bandra - Mumbai,Gym,Mumbai,"4th Floor, Pali Naka, Above HDFC Bank, Bandra West, Mumbai 400015, MH",+91-22-61504000,"WeCare@GoldsGym.in,,bandra.mumbai@goldsgymindia.com,",
Power House Gym - Santacruz - Mumbai,Gym,Mumbai,"Swati Building, 2nd Floor, North Avenue Road, Santacruz West, Mumbai 400054, MH",+91-22-26057910,"contact@thebrandsaloon.com,,",
Talwalkars - Wadala - Mumbai,Gym,Mumbai,"Bhartiya Krida Mandir, Near Sahkar Nagar, Naigaum Cross Road, Wadala West, Mumbai 400031, MH",+91-22-24121167,"CARE@TALWALKARS.NET,,wadala@talwalkars.net,",
Golds Gym - Goregaon - Mumbai,Gym,Mumbai,,,",goregaon.mumbai@goldsgymindia.com,",
Golds Gym - Mulund - Mumbai,Gym,Mumbai,"158, 1st Floor, Asma House, Near Nirmal Mall, Lal Bahadur Shastri Road, Moti Nagar, Mulund Colony, Mulund West, Mumbai 400080, MH",+91-22-25915717,"WeCare@GoldsGym.in,,",
Mandpeshwar Civic Federation Gymkhana - Borivali - Mumbai,Gym,Mumbai,"MCF Swimming Pool, Near Gokul Resturant, Gymkhana Road, Prem Nagar, Borivali West, Mumbai 400092, MH",+91-22-28923624,",mcf@vsnl.net,contact@mcfcomplex.in,",
Talwalkars - Mahim - Mumbai,Gym,Mumbai,"Gohil House, Next to City Light, L J Road, Mahim, Mumbai 400016, MH",+91-22-24457548,,
Talwalkars Nuform - Bandra - Mumbai,Gym,Mumbai,"22, Jewel Arcade, Oppssite Standard Chartered Bank, Waterfield Road, Bandra West, Mumbai 400050, MH",+91-22-26413214,,
Golds Gym - Andheri - Mumbai,Gym,Mumbai,"The Qube, Near International Airport, Ambassador, Andheri East, Mumbai 400059, MH",+91-22-65282583,",WeCare@GoldsGym.in,lokhandwala.mumbai@goldsgymindia.com,hello@cultfit.com,webmaster@goldsgym.in,",
Talwalkars - Vasai - Mumbai,Gym,Mumbai,"Sushila Bhavan Co-operetive Society, Near Parvati Cinema, Vasai, Thane 401202, MH",+91-250-2339128,"vasai@talwalkars.net,,",
48 Fitness - Andheri - Mumbai,Gym,Mumbai,"3rd Floor, Bhudargarh Colony, Crystal Point, Above Star Bazaar, KL Walawalkar Marg, Andheri West, Mumbai MH",+91-22-26364848,",media@48fitness.in,feedback@48fitness.in,",
Renaissance Federation Club- Andheri - Mumbai,Gym,Mumbai,"Balasaheb Sawant Road, Andheri East, Mumbai 400053, MH",+91-22-26710806,,
Slim N Slender Fitness Centre - Naupada - Mumbai,Gym,Mumbai,"Adeshwar Darshan Co-operative Housing Society Limited, Ram Maruti Road, Naupada, Thane 400602, MH","+91-9820410814, +91-8898082244, +91-8898082245, +91-9820062287","info@slimntrim.co.in,,",
Zinc Gymnasium - Grant Road - Mumbai,Gym,Mumbai,"Krishna Palace Hotel, 4th Floor, Nana Chowk, Grant Road, Mumbai 400007, MH",+91-22-65120526,",ac.d@mcgm.gov.in,crs@fernhotels.com,",
ZF Fitness Unlimited - Vile Parle - Mumbai,Gym,Mumbai,"Pratik Avenue, 5th Floor, Opposite Shiv Sagar Restaurant, Nehru Road, Vile Parle East, Mumbai 400057, MH",+91-22-26101334,,
Your Fitness Club - Kopar Khairane - Mumbai,Gym,Mumbai,"B-219, Casa Bela Building, 1st Floor, Above Union Bank, Sector 19, Kopar Khairane, Navi Mumbai 400709, MH",+91-22-27555000,,
YMCA - Colaba - Mumbai,Gym,Mumbai,"12, YMCA Central Branch, Nathalal Parekh Marg, Colaba, Mumbai 400001, MH",,",central@ymcabombay.com,poolnavimumbai@ymcabombay.com,navimumbai@ymcabombay.com,",
Yash Gymkhana - Dombivli - Mumbai,Gym,Mumbai,"Next To Aims Hospital, MIDC, Milap Nagar, Dombivali East, Thane 421201, MH",+91-251-2448305,,
X On Fitness - Panvel - Mumbai,Gym,Mumbai,"28, Shree Sai Sadan, Khanda Colony, Sector 10, New Panvel East, Navi Mumbai 410206, MH",+91-7558899306,",panvel@totalsf.in,",
World Gym - Girgaon - Mumbai,Gym,Mumbai,"Earth Castle, 2nd Floor, Vitthalbhai Patel Road, Ambewadi, Girgaon, Mumbai 400004, MH",+91-9819431272,",sonaligym53@gmail.com,",
World Fitness - Mulund - Mumbai,Gym,Mumbai,"Manisha Heights Tower, Kamgar Colony, Balrajeshwar Road, Mulund West, Mumbai 400080, MH",+91-8097400500,,
Work Out World Fitness Center - Santacruz - Mumbai,Gym,Mumbai,"101, Jerome Apartment, Ahead Creative Industries, Sunder Nagar, Santacruz East, Mumbai 400098, MH",+91-22-26655920,,
Wodehouse Gymkhana - Nariman Point - Mumbai,Gym,Mumbai,"182, Maharshi Karve Road, Nariman Point, Mumbai 400021, MH","+91-22-22024156, +91-22-22021647",,
Wellness Club - Andheri - Mumbai,Gym,Mumbai,"VITS Hotel, International Airport Zone, Andheri Kurla Road, Andheri East, Mumbai 400059, MH",+91-22-61517555,",hello@cultfit.com,info@wavesgym.com,enquiries@theclubmumbai.com,",
Wellness Associates - Juhu - Mumbai,Gym,Mumbai,"Amber Society, 10th Road, Next To HSBC Bank, JVPD, Juhu, Mumbai 400049, MH","+91-9820161008, +91-9223578481","info@wellnessassociates.in,,sudhirpatkar@wellnessassociates.in,",
Watson Fitness - Bandra - Mumbai,Gym,Mumbai,"891, Notan Classic, 1st Floor, Next To Tavaa Restaurant, Off Turner Road, Bandra West, Mumbai 400050, MH",+91-22-42066000,"bandraonebkc@f45training.in,,zeewatson@gmail.com,info@watsonfitness.com,",
Vihangs Palm Club - Thane - Mumbai,Gym,Mumbai,"Vihang Recreation Club, Opposite Raymond Company, Pokhran Road 1, J K Gram, Thane West 400606, MH",+91-8108172275,",clubmanager@vihangspalmclub.com,mumbaifast@palmclubindia.com,",
Vigour Gym - Kurla - Mumbai,Gym,Mumbai,"169, 1st Floor, Besides Kalpana, LBS Marg, Kurla West, Mumbai 400070, MH","+91-9867628694, +91-8976241116",,
Vickys Gymco - Kandivali - Mumbai,Gym,Mumbai,"Near Santoshi Mata Mandir, Off Dahanukarwadi, Shivaji Road, Kandivali West, Mumbai 400067, MH",+91-22-65920958,,
Unique Health Heaven - Kharghar - Mumbai,Gym,Mumbai,"E-92 & 93, Near Vidya Classes, Sector 12, Kharghar, Navi Mumbai 410210, MH",+91-9969109033,",swapnadeepayurveda@gmail.com,neepa@yahoo.co,",
The Red Gym - Khar - Mumbai,Gym,Mumbai,"Red Palm Residency, Near Khar Station, Guru Gobind Singh Road, Khar West, Mumbai 400052, MH",+91-22-61735800,,
The Body Zone - Patlipada - Mumbai,Gym,Mumbai,"102/103, Dhanlaxmi Shopping Centre, Rutu Estate, Ghodbunder Road, Patlipada, Thane 400601, MH","+91-9323914005, +91-9323914006",,
Temperance - Bandra - Mumbai,Gym,Mumbai,"ST Xaverian Court, Near Rizvi College Of Hotel Managemnt, Sheryl Rajan Road, Bandra West, Mumbai 400050, MH",+91-9833833270,",info@temperance.co.in,",
Talwalkars - Juhu - Mumbai,Gym,Mumbai,"Soni House, Gulmohar Road 1, Opposite Reliance Web World, Juhu, Mumbai 400049, MH",+91-22-26204643,",pdandawate72@gmail.com,",
Talwalkars - Bhayander - Mumbai,Gym,Mumbai,"Janaki Heritage, 1st Floor, C-Wing, Near Flyover Bridge, 150 Feet Road, Bhayander West, Thane 401101, MH",+91-22-28175903,,
Talwalkars Nuform - Andheri - Mumbai,Gym,Mumbai,"Adarsh Co-operative Housing Society, Near RTO, 4 Bungalows, Andheri West, Mumbai 400053, MH",+91-22-26313505,,
Sykz Total Fitness - Bandra - Mumbai,Gym,Mumbai,"Gasper Enclave, 1 & 2nd Floor, A Wing, Above Rupee Bank, Pali Naka, Bandra West, Mumbai 400050, MH",+91-22-26401031,,
Swabhimani Gym - Grant Road - Mumbai,Gym,Mumbai,"Opposite Apsara Theatre, Gilder Tank Ground, Lamington Road, Grant Road East, Mumbai 400007, MH","+91-22-23086600, +91-22-23096600",",swabhimanimumbai@yahoo.co.in,",
Supremoj Fitness Centre - Mira Road - Mumbai,Gym,Mumbai,"Shalom Residency, 1st Floor, Next To Laxmi Park, Kanakia Road, Mira Road, Thane 401107, MH","+91-9967347809, +91-9867588814",,
Style Gym - Kalbadevi - Mumbai,Gym,Mumbai,"511/527, Kishore Building, 3rd Floor, Opposite Edward Cinema, Kalbadevi Road, Kalbadevi, Mumbai 400002, MH",+91-22-65733779,",ammubond0072005@yahoo.com,",
Step In - Vashi - Mumbai,Gym,Mumbai,"B-2/8/12, Prabodhankar Thackeray Marg, Sector 15, Vashi, Navi Mumbai 400703, MH",+91-9594584995,"Vashi@totalsf.in,club90studio@gmail.com,,vashi.mumbai@goldsgymindia.com,",
Stamina Gym - Vasai - Mumbai,Gym,Mumbai,"Lawrence Trade Centre, Near K T Multivision, Vasai Road West, Thane 401202, MH","+91-7498460666, +91-250-2344606",,
Stamina Gym - Andheri - Mumbai,Gym,Mumbai,"2, Fernandes House, Opposite Monginis Cake Shop, SB Road, JB Nagar, Andheri East, Mumbai 400059, MH","+91-9324245702, +91-8108573131, +91-22-65140214",",hello@cultfit.com,staminagym@gmail.com,",
Spartans Gym - Mira Road - Mumbai,Gym,Mumbai,"B-7/8, 5/6/7, Near Swaminarayan Mandir, Sector 10, Shanti Nagar, Mira Road, Thane 401107, MH",+91-9819596931,,
Snap Fitness - Malad - Mumbai,Gym,Mumbai,"201/202, Accord Nidhi, 2nd Floor, Above Bikaji Food, Link Road, Malad West, Mumbai 400064, MH",,",hello@cultfit.com,",
Slim N Trim - Vashi - Mumbai,Gym,Mumbai,"7/8, 464, Ramchandra Building, Opposite Nil Siddhi Tower, Sector 11, Vashi, Navi Mumbai 400703, MH",,"info@slimntrim.co.in,,",
Shree Shakti Gymnasium - Ambernath South - Mumbai,Gym,Mumbai,"8, Swami Samarth Apartment, Near Station Road, Kansai Road, Ambernath, Thane 421501, MH",+91-9975885714,",bhagwatintc@gmail.com,",
Shivaji Park Gymkhana - Dadar - Mumbai,Gym,Mumbai,"Keluskar Road, Dadar West, Mumbai 400028, MH",+91-22-24451216,",shivajiparkgymkhana1909@gmail.com,shivajiparkgymkhana@rediffmail.com,info@cricketgraph.com,",
Scn Sports Club - Kandivali - Mumbai,Gym,Mumbai,"A-7, Thakur Complex, Saraf Choudhary Nagar, Off Western Express Highway, Kandivali East, Mumbai 400101, MH","+91-9819291050, +91-22-28546777",",info@khelomore.com,u003efitnessgroovebnb@gmail.com,scnsportsclub@gmail.com,fitnessgroovebnb@gmail.com,",
Santacruz Gymkhana - Santacruz - Mumbai,Gym,Mumbai,"Opposite VN Desai Hospital, 11th Road, Santacruz East, Mumbai 400055, MH","+91-22-26124661, +91-22-26121731",",santacruz.gymkhana@rediffmail.com,",
Sane Guruji Arogya Mandir - Santacruz - Mumbai,Gym,Mumbai,"5, TPS 6, Opposite Syndicate Bank, SV Road, Santacruz West, Mumbai 400054, MH",+91-22-61635795,,
Sanctum Fitness - Bhayandar - Mumbai,Gym,Mumbai,"Shree Ganpat Towers, 1st Floor, Next To New Golden Nest Police Chowki, Bhayander East, Thane 401106, MH",+91-22-28282099,,
Sadgurus Mission Fitness - Chedda Nagar - Mumbai,Gym,Mumbai,"ACC Nagar, Chedda Nagar, Mankhurd Link Road, Govandi, Mumbai 400043, MH",+91-22-23727649,",missionfitness3@gmail.com,",
Rubiinus Fitness And Spa - Kandivali - Mumbai,Gym,Mumbai,"Spectra Wellness Hub, M G Road, Kandivali West, Mumbai 400067, MH","+91-9167053123, +91-22-65504440",",Support@ShoppingBazar.in,",
Revive Gymnasium - Powai - Mumbai,Gym,Mumbai,"101, Crystal Centre, Raheja Vihar, Off Chandivali Farm Road, Powai, Mumbai 400076, MH","+91-9833403018, +91-22-28471848",,
Reebok Fitness Centre - Kemps Corner - Mumbai,Gym,Mumbai,"Pridarshani Park, Malabar Citizen Forum, Napeansea Road, Kemps Corner, Mumbai 400036, MH",+91-22-23679376,,
Ratans Health Club - Ulhasnagar - Mumbai,Gym,Mumbai,"Monica Marriage Hall, 1st Floor, Aman Talkies Road, Ulhasnagar 2, Thane 421002, MH","+91-9890172611, +91-9320172611, +91-251-2710636",,
Rassaz Health Club - Mira Road - Mumbai,Gym,Mumbai,"Rasaz Shopping Mall, 2nd Floor, Evershine Nagar, Station Road, Mira Road, Thane 401107, MH",+91-22-61616633,",ansarishadabahmad@gmail.com,",
Raheja Fitness Studio - Malad - Mumbai,Gym,Mumbai,"55/D, Brijwasi Apartment, 1st Floor, Opposite Diamond Market, Daftary Road, Malad East, Mumbai 400097, MH",+91-22-28806107,,
Qi - Churchgate -Mumbai,Gym,Mumbai,"Eros Building, 1st Floor, West Wing, Marine Lines, Mumbai 400020, MH",+91-22-66390011,,
Pulse Fitness Solution - Shree Nagar - Mumbai,Gym,Mumbai,"Vishram Giri Housing Society, Wagle Industrial Estate, Shree Nagar, Thane 400604, MH",+91-22-25820178,,
Pro Active Fitness Solution - Mumbai,Gym,Mumbai,"Suraj Palace, Behind Shriram Jewellers, Navghar Road, Bhayander East, Thane 401105, MH",+91-9664877753,",info@proactive.co.in,",
Power House Gym - Andheri - Mumbai,Gym,Mumbai,"4, Solitaire Bussiness Centre, Ramaiya Jeeven Society, Opposite Holy Spirit Hospital, Mahakali Caves Road, Andheri East, Mumbai 400093, MH",+91-22-71043088,",sherepunjab@powerhousegymindia.com,versova@powerhousegymindia.com,ipo@bigshareonline.com,",
Power House Gym - Vashi - Mumbai,Gym,Mumbai,"Golden Punjab Hotel, Sector 17, Vashi, Navi Mumbai 400703, MH",+91-22-32194936,,
Power House Fitness Solution - Mira Road - Mumbai,Gym,Mumbai,"Jehangir Complex, R Broadway Avenue, Shanti Park, Mira Road, Thane 401107, MH",+91-22-65143458,,
Power House Fitness Centre - Kandivali - Mumbai,Gym,Mumbai,"Rna Regency Park, M G Road, Maharashtra Nagar, Kandivali West, Mumbai 400067, MH",+91-22-61638227,,
Power Gym - Dahisar - Mumbai,Gym,Mumbai,"12, Alaknanda Building, Alaknanda Ground, Shiva Vallabh Road, Rawal Pada, Dahisar, Mumbai 400068, MH",+91-9869820082,,
Polygon Gym And Fitness Studio - Thane - Mumbai,Gym,Mumbai,"131, Swastik Plaza, Next To Voltas Company, Pokhran Road 2, Thane 400601, MH",+91-22-61631389,,
Police Gymkhana - Marine Drive - Mumbai,Gym,Mumbai,"473, Near Taraporewala Aquarium, Netaji Subhash Road, Marine Drive, Mumbai 400020, MH",+91-22-22881718,",mumbaipolicegymkhana@rediffmail.com,support@cricketgraph.com,",
Poinsur Gymkhana - Kandivali - Mumbai,Gym,Mumbai,"Netaji Subhash Chandra Bose Kridangan, 90 Feet DP Road, Poisar Gymkhana Marg, Kandivali West, Mumbai 400067, MH",+91-22-28087498,",info@poinsurgymkhana.com,info@khelomore.com,poinsurgymkhana@gmail.com,",
Planet Health - Borivali - Mumbai,Gym,Mumbai,"Opposite Karnataka Bank, LIC Colony, Borivali West, Mumbai 400103, MH",+91-22-28954460,",fitnessgroovebnb@gmail.com,",
Physique Complete Fitness Studio - Panvel - Mumbai,Gym,Mumbai,"1, 2, 3 & 4, Kailash Tower, 60/61/62, Sector 35, Kamothe, Panvel, Navi Mumbai 410209, MH",+91-22-27431027,",rajeshgatkal@rediffmail.com,contactus@physcgym.com,",
Physioflex Gym - Andheri - Mumbai,Gym,Mumbai,"108, Aram Nagar 2, J P Road, Versova, Andheri West, 400061, MH",,",dr_chintu@rediffmail.com,",
Perfect Fitness Technology - Vashi - Mumbai,Gym,Mumbai,"Sector 28, Vashi, Navi Mumbai 400703, MH",+91-9820135072,",ramdasiyer@vsnl.com,",
Perfect Fitness Gym - Jogeshwari - Mumbai,Gym,Mumbai,"Opposite Bus Deport, The Hindu Friends Society Marg, Natwar Nagar, Jogeshwari East, Mumbai 400053, MH",+91-9820155289,"anjalijinsiwale@gmail.com,,perfectfitness@gmail.com,info@perfectfitness.org.in,",
Pathare Gymco - Parel - Mumbai,Gym,Mumbai,"280-A, Jawalkar Mansion, Dr Babsaheb Ambedkar Road, Parel, Mumbai 400012, MH",,"business@gymco.org,,gymcopathare70@gmail.com,",
Pathare Fitness - Dahisar - Mumbai,Gym,Mumbai,"4, Navanand Apartment, Maratha Colony, Dahisar East, Mumbai 400068, MH",+91-22-22994284,",snpathare@yahoo.com,",
Parulekars Gym And Fitness Centre - Kandivali - Mumbai,Gym,Mumbai,"Gokul Concord, 7th Row House, Thakur Village, Kandivali East, Mumbai 400101, MH",+91-22-28863520,,
P J Hindu Gymkhana - Marine Lines - Mumbai,Gym,Mumbai,"Opposite Marine Lines Railway Station, Netaji Subhash Road, Marine Lines, Mumbai 400020, MH",+91-22-22812188,",pjhindugymkhana@rediffmail.com,",
Ozone Club - Goregaon - Mumbai,Gym,Mumbai,"Nirlon Olympic Municipal Swimming Pool, Siddharth Nagar, Shrirang Sabde Road, Goregaon West, Mumbai 400104, MH",+91-22-28797584,",avacourt@ozoneclubs.com,info@khelomore.com,franchise@ozoneclubs.com,",
Nitro Sports And Fitness Centre - Kopri - Mumbai,Gym,Mumbai,"Swatantra Veer Savarkar Taran Talao, Behind Kanaiya Nagar, Kopri, Thane East 400603, MH",+91-22-65122000,,
Nerul Gymkhana - Nerul - Mumbai,Gym,Mumbai,"5 & 5-A, Sector 28, Nerul, Navi Mumbai 400706, MH",+91-22-27701913,",admin@nerulgymkhana.com,u003eadmin@nerulgymkhana.com,",
Navi Mumbai Merchants Gymkhana - Vashi - Mumbai,Gym,Mumbai,"49/50, N G M Complex, Sector 14, Vashi, Navi Mumbai 400703, MH",+91-22-65163003,",info@khelomore.com,",
My Fitness Centre - Dadar - Mumbai,Gym,Mumbai,"Sharda Ashram Vidya Mandir, 1st Floor, Dr Bhavani Shankar Road, Dadar West, Mumbai 400028, MH",+91-22-49186160,,
My Fitness - Vile Parle - Mumbai,Gym,Mumbai,"Datta Niwas, Dixit Road, Vile Parle East, Mumbai 400057, MH",+91-22-66720893,",care@myfitness.co.in,customercare@gymsforall.in,info@myfitness.com,x3ecare@myfitness.co.in,",
Muscle Factory - Ghatkopar - Mumbai,Gym,Mumbai,"Behind Hotel Deepa, Gangawadi, LBS Marg, Ghatkopar West, Mumbai 400086, MH",+91-8108225786,,
Muscle And Might - Borivali - Mumbai,Gym,Mumbai,"New Link Road, Dharma Nagar, Borivali West, Mumbai 400092, MH",+91-22-61610681,",fitnessgroovebnb@gmail.com,",
Mickey Mehtas 360 Degree Gym - Chembur - Mumbai,Gym,Mumbai,"Crystal 3, Below Euro Kids, Sindhi Society Road, Hemu Kalani Marg, Chembur, Mumbai 400071, MH",+91-22-65212037,",drmickeymehta@gmail.com,u003edrmickeymehta@gmail.com,",
Mhatre's Power House Gym - Dahisar - Mumbai,Gym,Mumbai,"Bhakti Complex CHS, Link Rd, Kandarpada, Dahisar West, Mumbai, 400068, MH",+91-22-28940194,,
Mesomorph The Gym - Vasai - Mumbai,Gym,Mumbai,"Vishwakarma Niwas, 1st Floor, Opposite Dattatre Shoping Center, Station Road, Vasai Road West, Thane 401202, MH",+91-22-67309610,",mesomorph.hemani85@gmail.com,",
Matushree Fitness Centre - Prabhadevi - Mumbai,Gym,Mumbai,"11/8, Near Prabhadevi Road, Kamgar Nagar 1, Prabhadevi, Mumbai 400025, MH",+91-9892105778,,
Mantra Gym - Mulund - Mumbai,Gym,Mumbai,"B-5/6/7, ABC Premises, Minerva Estate, P K Road, Mulund West, Mumbai 400080, MH",+91-22-25938038,",mantra_healthclub@yahoo.co.in,",
Malabar Hill Club - Malabar Hill - Mumbai,Gym,Mumbai,"10, I L Palazzo, Hanging Garden, Ridge Road, B G Kher Marg, Malabar Hill, Mumbai 400006, MH",+91-22-23633350,",malabarhillclub@gmail.com,x22malabarhillclub@gmail.com,x3emalabarhillclub@gmail.com,",
Lean Bodies - Bhandup - Mumbai,Gym,Mumbai,"Kaka Petrol Pump, LBS Marg, Bhandup West, Mumbai 400078, MH",+91-22-69563835,,
KVSC - Kandivali - Mumbai,Gym,Mumbai,"Poisar Gymkhana Road, Mahavir Nagar, Dhanukarwadi, Kandivali West, Mumbai 400067, MH",+91-22-28082305,,
Kittys Gym - Kandivali - Mumbai,Gym,Mumbai,"351, Sector 3, Kandivali West, Mumbai 400067, MH",+91-22-28689752,,
Khalsa Gym - Antop Hill - Mumbai,Gym,Mumbai,"201, B/4, Opposite Sunder Villa Ban, Mala Garden, Pratiksha Nagar, Antop Hill, Mumbai 400037, MH",+91-9833797937,,
Key Fitness - Ghatkopar - Mumbai,Gym,Mumbai,"Balkanji Bari Building, 2nd Floor, Rajawadi Garden And Somaya College, Vidhyavihar, Ghatkopar East, Mumbai 400077, MH",+91-22-61619998,"ghatkopar@ymcabombay.com,,",
Kerkars The Fitness Solution - Borivali - Mumbai,Gym,Mumbai,"Saibaba Garden, Saibaba Mandir Road, Sai Baba Nagar, Borivali West, Mumbai 400092, MH",+91-22-28662319,",info@kfsfitness.com,",
Kdmc Gymkhana - Dombivli - Mumbai,Gym,Mumbai,"Pednekar College, Gharda Circle, MIDC, Dombivali, Thane 421203, MH",+91-251-2450544,",info@khelomore.com,info@dombivligymkhana.com,",
Kaushik Gym And Fitness Centre - Nerul - Mumbai,Gym,Mumbai,"29, K S Apartments, Near Samadhan Hotel, Sarsole, Sector 6, Nerul, Navi Mumbai 400706, MH",+91-22-65288517,",gayatri_deshmukh1980@rediffmail.com,",
Jurassic Park Resort And Club - Malad - Mumbai,Gym,Mumbai,"Marve Queen Building, Marve Road, Malad West, Mumbai 400064, MH",+91-22-28821074,,
Jgs Fitness Centre - Santacruz - Mumbai,Gym,Mumbai,"Gopal Bhawan, 4th Floor, Near Vijaya Bank, Poddar School, Tagore Road, Santacruz West, Mumbai 400054, MH",+91-22-26496277,",info@jgsfitnesscentre.com,info@ifai.in,",
Jalnawalas Power House - Sanpada - Mumbai,Gym,Mumbai,"1,2 & 3, Guru Samruddhi Heights, Moraj Residency, Palm Beach Road, Sector 14, Sanpada, Navi Mumbai 400705, MH","+91-22-27811988, +91-9930989052",",info@jalnawala.com,",
Jadhavs Fitness World - Nalasopara - Mumbai,Gym,Mumbai,"Siddhivinayak Apartments, Virar Road, Dutta Nagar, Nalasopara East, Thane 401209, MH",+91-9220576677,",info@fitness-world.in,",
J P Club - Mira Road - Mumbai,Gym,Mumbai,"Poonam Tower, Jahangir Circle, Behind Jammu Kashmir Bank, MTNL Road, Mira Road, Thane 401107, MH",+91-22-32051961,",um3421@gmail.com,",
Inspire The Fitness Studio - Borivali - Mumbai,Gym,Mumbai,"3, Miraz Building, Opposite VIR Savarkar Udyan, Borivali West, Mumbai 400092, MH","+91-22-65120040, +91-9967382575",",fitnessgroovebnb@gmail.com,sales@jeraifitness.com,",
Indian Gymkhana - Matunga - Mumbai,Gym,Mumbai,"Opposite Sies College, KA Subramaniam Road, Matunga, Mumbai 400019, MH",+91-22-24022080,",info@matungagym.com,info@matungagymkhana.in,indgymkhana@yahoo.co.in,",
Inch Pinch Health Club - Vile Parle - Mumbai,Gym,Mumbai,"Subhankar Society, 2nd Floor, Tejpal Scheme, Opposite Arpitas Ballroom, Subhash Road, Vile Parle East, Mumbai 400057, MH",+91-22-32254343,,
Inch By Inch - Matunga - Mumbai,Gym,Mumbai,"Opposite RA Poddar College, LN Road, Matunga, Mumbai 400019, MH",+91-22-24159136,,
I Gym - Worli - Mumbai,Gym,Mumbai,"10 & 11, Shubhada Building, Opposite Worli Police Campus, Sir Pochkhanawala Road, Worli, Mumbai 400018, MH",+91-9320088191,",support@gymcompany.co.za,yuvraj.wagh@goldsgym.in,customercare@gymsforall.in,midtownfitnessindia@gmail.com,",
Hercules Health Centre - Bhayandar - Mumbai,Gym,Mumbai,"3, Sahakar Apartment, Opposite Maharana Pratap, Narayan Nagar Road, Bhayander West, Thane 401101, MH",+91-22-67689259,",sawantmaratha@gmail.com,",
Hard Rock Gym - Mira Road - Mumbai,Gym,Mumbai,"Mira Plaza Building, Opposite D Mart, Sanghvi Nagar, Mira Road, Thane 401107, MH",+91-22-67732990,,
Grant Medical College Gymkhana - Marine Drive - Mumbai,Gym,Mumbai,"472, Opposite Mumbai Police Gymkhana, Netaji Subhash Road, Marine Drive, Mumbai 400020, MH",+91-22-22815578,",noreply@sabkobol.com,",
Grace Fitness Centre - Goregaon - Mumbai,Gym,Mumbai,"Basement, Gaurav Building, Behind Apna Sahakari Bank, Gokuldham, Goregaon East, Mumbai 400063, MH",+91-22-65153070,,
Goregaon Sports Club - Malad - Mumbai,Gym,Mumbai,"Near Toyota Showroom, Link Road, Malad West, Mumbai 400064, MH",+91-22-40387000,",mail@gsc.in,u003email@gsc.in,",
Golds Gym - Pedder Road - Mumbai,Gym,Mumbai,"46, Avantika, Behind HSBC Bank, DR Deshmukh Marg, Peddar Road, Mumbai 400036, MH",+91-22-67306782,"WeCare@GoldsGym.in,,peddarroad.mumbai@goldsgymindia.com,yuvraj.wagh@goldsgym.in,",
Golds Gym - Kandivali - Mumbai,Gym,Mumbai,"Thakur Shyamnarayan High School, Opposite Evershine Dream Garden, Thakur Village, Kandivali East, Mumbai 400101, MH",+91-22-28850954,"WeCare@GoldsGym.in,,",
Gold Gymnasium - Malad - Mumbai,Gym,Mumbai,"276, Pushpa Villa, Near Municipal School, Chincholi Bunder Road, Malad West, Mumbai 400064, MH",+91-22-28818494,"WeCare@GoldsGym.in,,hello@cultfit.com,",
Get Fit Health Zone - Vikhroli - Mumbai,Gym,Mumbai,"17/18, Vijaya House, Station Road, Vikhroli West, Mumbai 400079, MH",+91-22-25784675,,
Future Fitness Health Club - Marine Lines - Mumbai,Gym,Mumbai,"67/69, Darya Nagar House, Next To ICICI Bank, Maharshi Karwe Road, Marine Lines, Mumbai 400020, MH",+91-22-64166789,,
Focus The Fitness - Belapur - Mumbai,Gym,Mumbai,"92, Near Sai Baba Temple, Sector No 8/A, Belapur, Navi Mumbai 400614, MH",+91-22-27560440,"hello@digimidas.com,,",
Fitness World - Ulhasnagar - Mumbai,Gym,Mumbai,"5, Sai Kripa Co-operative Housing Society, Lal Chakki, Station Road, Ulhas Nagar, Thane 421004, MH",+91-251-2535999,"manish.singh@fitness-world.in,,",
Fitness Point - Panvel - Mumbai,Gym,Mumbai,"53, Satya SAI Plaza, Next To Cineraj Cinema, Sector 11, Panvel, Navi Mumbai 410206, MH",+91-22-27461718,"patil.prabhakar07@gmail.com,,",
Fitness Planet - Jogeshwari - Mumbai,Gym,Mumbai,"Patel Bunglow, Behind Hafizi House, Behrambaug Junction, SV Road, Jogeshwari West, Mumbai 400102, MH",+91-9820677420,,
Fitness Paradise Gym - Vashi - Mumbai,Gym,Mumbai,"101, SAI Fitness, Opposite SAI Prasad Hotel, Sector 12, Vashi, Navi Mumbai 400703, MH",+91-9820495649,"fitnessparadise@rediffmail.com,,",
Fitness Hub - Andheri - Mumbai,Gym,Mumbai,"Dubey Building Compound, Opposite The Veera Shaiva Co Operative Bank, Old Nagardas Road, Andheri East, Mumbai, MH",,",hello@cultfit.com,",
Fitness House - Nagapada - Mumbai,Gym,Mumbai,"Fitness House Gym, American Express Bakery, Clay Road, Nagapada, Mumbai 400008, MH",+91-9987663717,",mumbaicentral@plusfitness.co.inFranchisee,alfanl@plusfitness.co.in,",
Fitness Hour - Borivali - Mumbai,Gym,Mumbai,"1/2/3, Vivek Enclave, L M Road, Borivali West, Mumbai 400092, MH",+91-22-65788962,,
Fitness Gym - Jogeshwari - Mumbai,Gym,Mumbai,"Jogeshwari East, Mumbai 400060, MH",,",support@gymcompany.co.za,shashikrishna1986@yahoo.in,",
Fit And Fine - Bandra - Mumbai,Gym,Mumbai,"24, National Library Road, Bandra West, Mumbai 400050, MH",+91-9819636703,",hello@cultfit.com,channa.vinod@gmail.com,",
Fit And Fine - Andheri - Mumbai,Gym,Mumbai,"101, Atlanta Tower, 1st Floor, Near Cigarette Factory, Sahar Road, Andheri East, Mumbai 400099, MH",+91-22-65956500,",hello@cultfit.com,",
Fab Fitness - Mazgaon - Mumbai,Gym,Mumbai,"& 1st Floor, Maria Heights, Next To Mazgaon Garden, Belvadar Hill Road, Mazgaon, Mumbai 400010, MH",+91-22-67732079,,
Exertech Fitness Centre - Prabhadevi - Mumbai,Gym,Mumbai,"Modera House, DGP House Complex, Behind New Passport, 88 C Old Prabhadevi Road, Prabhadevi, Mumbai 400025, MH",+91-22-24312880,,
Evolve Fitness Centre - Borivali - Mumbai,Gym,Mumbai,"Meera Apparments, TPS 111 Scheme, Borivali West, Mumbai 400091, MH",+91-22-28333680,",x3ecolindale@evolve-gym.co.uk,colindale@evolve-gym.co.uk,fitnessgroovebnb@gmail.com,",
Evershine Club - Kandivali - Mumbai,Gym,Mumbai,"Evershine Millennium Paradise, Dream Park, Thakur Village, Kandivali East, Mumbai 400101, MH",+91-22-61619923,,
Empire Gym And Fitness Centre - Goregaon - Mumbai,Gym,Mumbai,"1, Shreyas Colony, Vijay Vihar, Aarey Road, Goregaon East, Mumbai 400063, MH",+91-22-29272214,"x3emember.services@puregym.com,,x22member.services@puregym.com,member.services@puregym.com,",
Elixir Fitness - Andheri - Mumbai,Gym,Mumbai,"Oakland Park, Lokhandwala Complex, Yamuna Nagar, Andheri West, Mumbai 400053, MH",+91-22-61631539,,
Edge Fitness - Nerul - Mumbai,Gym,Mumbai,"2-6/24, Shreeji Plaza, Seawoods, Sector 25, Nerul, Navi Mumbai 400706, MH",+91-22-65836333,",edgefit3@gmail.com,contact@edgefitness.in,saif131188@gmail.com,",
E Gym - Andheri - Mumbai,Gym,Mumbai,"3/4, Opposite Marine View Apartments, Seven Bungalows Garden, J P Road, Andheri West, Mumbai 400061, MH",+91-22-26325701,",hello@cultfit.com,egym.info.india@gmail.com,",
Dr. DY.Patil Sports Academy - Nerul - Mumbai,Gym,Mumbai,"4-B, Vidyanagar Campus, Sector 7, Nerul, Navi Mumbai 400706, MH",+91-22-65156999,",abey@dypsa.in,vijay@dypsa.in,",
Dhakos Gym - Versova - Mumbai,Gym,Mumbai,"Dhako House, Versova Koliwada, Goma Lane, Versova, Mumbai 400061, MH",+91-22-26314054,,
Dahisar Sports Foundation - Dahisar - Mumbai,Gym,Mumbai,"DPG Plot, Jarimari Garden, Opposite Vidya Mandir High School, CS Road, Dahisar, Mumbai 400068, MH",+91-22-28964467,"dahisarsportsfoundation2003@gmail.com,,",
Cuts N Curves Gym - Mira Road - Mumbai,Gym,Mumbai,"Above Model Cooperative Bank, Siddharth Nagar, Mira Road, Thane 401107, MH",+91-9224405326,,
Crossfit Om Gym - Juhu - Mumbai,Gym,Mumbai,"Sea Princess Hotel, Kishore Kumar Ganguly Lane, Juhu Tara Road, Juhu, Mumbai 400049, MH",+91-9820028098,",crossfitom@gmail.com,",
Cloud 9 Fitness - Sion - Mumbai,Gym,Mumbai,"213, Gala No 3 & 4, Shankar Kunj Apartments, Opposite Sion Hospital, Dr Ambedkar Road, Sion, Mumbai 400022, MH",+91-22-24075171,,
Chhatrapati Shivaji Maharaj Club - Vile Parle - Mumbai,Gym,Mumbai,"Near Bhuta School, Shahji Raje Road, Vile Parle East, Mumbai 400057, MH",+91-22-26827461,"info@ptks.co,,info@khelomore.com,info@ptks.co.in,",
Carewell Fitness The Gym - Chandivali - Mumbai,Gym,Mumbai,"CTS-43, 1st Floor, Next to Chandivali Studio, Chandivali Farm Road, Chandivali, Mumbai 400061, MH",+91-22-28477733,"carewell_fitness@yahoo.co.in,,",
Bombay Gymkhana - Fort - Mumbai,Gym,Mumbai,"Opposite Fashion ST, Mahatma Gandhi Road, Fort, Mumbai 400001, MH",+91-22-22070311,",admin@bombaygymkhana.com,info@khelomore.com,bombaygym@bombaygymkhana.com,",
Bodysmith Fitness N Wellness - Mumbai,Gym,Mumbai,"106-111, 1st Floor, Devraj Mall, Hari Shankar Joshi Road, Krishna Colony, Dahisar East, Mumbai 400068, MH",+91-9619805550,,
Bodykraft Fitness Centre - Jogeshwari - Mumbai,Gym,Mumbai,"G-1, Lily Apartment, Next To Dewan Centre, SV Road, Jogeshwari West, Mumbai 400102, MH",+91-22-26791221,",n@indiatimes.com,",
Body Rock Health Club - Airoli - Mumbai,Gym,Mumbai,"1, Vaishnavidham Building, Diwan Nagar, Sector 9, Airoli, Navi Mumbai 400708, MH",+91-9867953131,,
Body Garage - Malad - Mumbai,Gym,Mumbai,"Opposite Childrens Academy, BL Murarka Marg, Malad East, Mumbai 400097, MH",+91-22-32959667,,
Body Design - Andheri - Mumbai,Gym,Mumbai,"Silver Anklet, Next To ST Anthony School, Versova Yari Road, Andheri West, Mumbai 400061, MH",+91-22-28614700,",bodydesignindia@gmail.com,bodydesigngfc@gmail.com,",
Body Definition - Mira Road - Mumbai,Gym,Mumbai,"5/6/7/8/9/10, 16, Kartikay Building, Mira Road, Thane , MH",,"vkdiagnostix@redijjmail.com,,smarthomeproperty1@gmail.com,dychews01.roads@mcgm.gov.in,",
Body Art Fitness Centre - Bandra - Mumbai,Gym,Mumbai,"53/2488, Opposite Mig Club, Gandhi Nagar, Bandra East, Mumbai , MH",,",kamathreshma7@gmail.com,",
Big Boss The Gym - Andheri - Mumbai,Gym,Mumbai,"3, Imperium Building, Opposite Police Camp, Marol-Maroshi Road, Andheri East, Mumbai 400059, MH",+91-9892363736,",hello@cultfit.com,",
Beyond Fitness - Borivali - Mumbai,Gym,Mumbai,"Meera Aparment, Opposite Veer Savarkar Udyan, TPS 3 Road, Gautam Nagar, Borivali West, Mumbai 400092, MH",+91-22-28997182,,
Beau Vorm - Virar - Mumbai,Gym,Mumbai,"2nd Floor, Swastik Paradise, Opposite Viva College, Virar West, Thane 401303, MH",+91-9225140014,,
Talwalkars - Chembur - Mumbai,Gym,Mumbai,"3rd & 4th Floor, Near Natraj Theatre Building, Chembur East, Mumbai 400071, MH",+91-22-61525252,,
Aura Complete Fitness Club - Dahisar - Mumbai,Gym,Mumbai,"Royal Plaza Shopping Centre, Harishankar, Joshi Road, Dahisar, Mumbai 400068, MH",,",aurafitnessclub@gmail.com,",
Asmita Club - Mumbai,Gym,Mumbai,"Asmita House, Beside Asmita Super Market, Opposite Asmita Regency, Station Road, Naya Nagar, Mira Road, Thane 401107, MH",+91-22-28113562,,
Armstrong Fitness Club - Dombivli - Mumbai,Gym,Mumbai,"Laxmi Anand Society, Opposite Modern Cafe Hotel, Phadke Road, Dombivali East, Thane 421201, MH",+91-9833865467,",afcgym1@gmail.com,",
Aptitude Total Fitness - Virar - Mumbai,Gym,Mumbai,"Park View, Opposite Pleasant Park, Phase 11, Tirupati Nagar, Virar West, Thane, 401303, MH",+91-9028114825,,
Ameya Classic Club - Virar - Mumbai,Gym,Mumbai,"Virat Nagar, Virar West, Thane 401103, MH",+91-250-2513500,",pravinrzore87@gmail.com,",
Affix Fitness Club - Vikhroli - Mumbai,Gym,Mumbai,"A/202, Kailash Complex, Parkside, Vikhroli West, Mumbai 400079, MH",+91-22-25175842,",affixx.fitness@yahoo.com,",
Abbas Gym - Bandra - Mumbai,Gym,Mumbai,"2, Alfa House, Near ST Andrew Church, Chimbai Road, Bandra West, Mumbai 400050, MH",+91-22-61619900,",skabbas786@yahoo.com,",
Aarogyaam Fitness Centre - Borivali - Mumbai,Gym,Mumbai,"1/6, Pawar Co-opeartive Housing Society, Padma Nagar, Chikuwadi, Borivali West, Mumbai 400091, MH",+91-9930407756,,
16 Hour Fitness Lounge - Malad - Mumbai,Gym,Mumbai,"1/4, Ganga Vihar, Raheja Township, Malad East, Mumbai 400097, MH",+91-22-28763330,",16hrsfitnesslounge@gmail.com,",
Fitness First - Andheri - Mumbai,Gym,Mumbai,"S-1 & S-2, Mega Mall, 2nd Floor, Malad Link Road, Oshiwara, Andheri West, Mumbai 400053, MH",+91-22-42505900,",hello@cultfit.com,x3emembership.services@fitnessfirst.co.uk,membership.services@fitnessfirst.co.uk,",
Art of Living - Mumbai,Gym,Mumbai,,,",support@us.artofliving,",
Captain Fitness - Kandivali - Mumbai,Gym,Mumbai,"Arihant Apartment, Behind Esis Hospital & Bus Depot, Beside Sahakar Gram, Ashok Nagar, Dada Save Road, Kandivali East, Mumbai 400101, MH",+91-22-65211160,,
Your Fitness Club - Mumbai Central - Mumbai,Gym,Mumbai,"Orchid City Centre Mall, 3rd Floor, Bellasis Road, Mumbai Central, Mumbai 400008, MH",+91-9167779674,",support@yourfitnessclub.in,",
Mickey Mehta 360 Degree Gym - Dadar - Mumbai,Gym,Mumbai,"804/A, Ghamat Lodge, Dr Ambedkar Road, Dadar East, Mumbai 400014, MH",+91-22-65542388,"me@nehaagarwal.in,,drmickeymehta@gmail.com,u003edrmickeymehta@gmail.com,",
Snap Fitness - Goregaon - Mumbai,Gym,Mumbai,"Nirlon Knowledge Park, 1st Floor, Block B-6, Off Western Express Highway, Goregaon East, Mumbai 400063, MH",+91-8108422288,,
Yoga Institute - Santacruz - Mumbai,Gym,Mumbai,"Shri Yogendra Marg, Prabhat Colony Road, Sen Nagar, Santacruz East, Mumbai 400055, MH",+91-22-26110506,",tyivikhroli@gmail.com,dhhruv.s@gmail.com,info@theyogainstitute.org,",
Xtreme Sports - Powai - Mumbai,Gym,Mumbai,"121/122, Galleria Shopping Mall, 1st Floor, Hiranandani Gardens, Powai, Mumbai 400076, MH",+91-22-25717061,,
Wow Art Gallery - Bandra - Mumbai,Gym,Mumbai,"269/B, Near Amarsons, Jubilee Court, Linking Road, Bandra West, Mumbai 400050, MH",+91-22-26512007,",info@bombayartsociety.org,get.ur.wish@gmail.com,bombayartsociety@gmail.com,rohan141290@gmail.com,",
Wellness Centre - Andheri - Mumbai,Gym,Mumbai,"Andheri Kurla Road, J B Nagar, Andheri East, Mumbai 400059, MH",+91-22-28317980,",hello@cultfit.com,",
We Can Work It Out - Versova - Mumbai,Gym,Mumbai,"129/1, 7 Bungalows, Fisheries University Road, Aram Nagar, Versova, Mumbai 400061, MH","+91-22-9821255084, +91-22-26342370, +91-22-26366447",",hello@cultfit.com,",
Vipassana Meditation Centre - Belapur - Mumbai,Gym,Mumbai,"91/A, Parsik Hill Road, Sector 26, CBD Belapur, Navi Mumbai 400614, MH",+91-22-27522277,",info@nagajjuna.dhamma.org,",
United Judo Academy - Andheri - Mumbai,Gym,Mumbai,"502/A, Royal Sand, New Link Road, Andheri West, Mumbai 400053, MH","+91-22-26350617, +91-9820134199",",info@unitedjudoacademy.com,",
Tushar Health Care - Dahisar - Mumbai,Gym,Mumbai,"220, Diamond Industrial Estate, Western Express Highway, Dahisar West, Mumbai 400068, MH",+91-22-28960639,",tusharhealthcare9@gmail.com,",
Total Intensity - Bhandup - Mumbai,Gym,Mumbai,"4/3, Gautam Dham, Opposite Gama House, Gamdevi Road, Bhandup West, Mumbai 400078, MH","+91-22-25961078,",",hello@cultfit.com,",
Talwalkars - Bandra - Mumbai,Gym,Mumbai,"1/112, Mangal Simran Building, Behind Tavaa Restaurant, 28th Road, Bandra West, Mumbai 400050, MH",+91-22-26431901,",ig@talwalkars.net,",
Stay Fit - Borivali - Mumbai,Gym,Mumbai,"102/103, Bhushan Enclave, 1st Floor, MK Road, Borivali West, Mumbai 400092, MH",+91-22-28986070,",fitnessgroovebnb@gmail.com,ravindra_p.chavan@yahoo.co.in,",
Skyhealth Fitness - Dahisar - Mumbai,Gym,Mumbai,"126, Sagar Prabhat Industrial Estate, Near Toll Naka, Western Express Highway, Dahisar East, Mumbai 400068, MH",+91-22-28968099,",dahisar1@sk27gym.com,sales@skyhealthindia.com,",
Satya Poly Clinic - Santacruz - Mumbai,Gym,Mumbai,"2-22, Mayuri Building, Tagore Road, Santacruz West, Mumbai 400054, MH",+91-22-26465538,,
Sai Lee Fun & Fitness - Borivali - Mumbai,Gym,Mumbai,"Prathamesh Horizon, New MHB Colony, New Link Road, Borivali West, Mumbai 400091, MH",+91-22-28678735,,
Ramma Bans Weight Watch Club - Colaba - Mumbai,Gym,Mumbai,"Opposite World Trade Centre, Cuffe Parade, Colaba, Mumbai 400005, MH","+91-9892726161, +91-22-22184358, +91-22-22150249, +91-22-22173372",,
Raj Nutrition - Mumbai,Gym,Mumbai,,,",mukeshgahlot.management@gmail.com,",
Proline Fitness - Borivali - Mumbai,Gym,Mumbai,"A-5/3, Building Number, Near Fly Over, Swami Vivekanand Road, Shimpoli Road, Vivekanand Nagar, Borivali, Mumbai, MH",,",fitnessgroovebnb@gmail.com,manish.balani@cravatex.com,",
Prime Physique - Broivali - Mumbai,Gym,Mumbai,"87, Near Shri Krishna Mandir, Western Express Highway, Borivali East, Mumbai 400066, MH","+91-22-28977282, +91-22-65736775",,
Point Blank - Vikhroli - Mumbai,Gym,Mumbai,"201, Kailash Commercial Complex, 2nd Floor, LBS Marg, Vikhroli West, Mumbai 400083, MH",+91-22-66040600,",dyche02bpes.dp@mcgm.gov.in,rnt.helpdesk@linkintime.co.in,",
Proline Fitness - Dhobi Talao - Mumbai,Gym,Mumbai,"Jehangir Mansion, Anandilal Podar Marg, Dhobi Talao, Mumbai 400020, MH",+91-22-22085824,"WeCare@GoldsGym.in,,",
Peoples Gym - Malad - Mumbai,Gym,Mumbai,"Keshav Mansion, Evershine Nagar, Malad West, Mumbai , MH",,"jessica@peoplesgym.com,,admin@wiseowlzz.com,",
Open Secret & Lifestyle Marketing - Grant Road - Mumbai,Gym,Mumbai,"C-206, Haji Ali Cross Road, Malviya Road, Grant Road, Mumbai 400007, MH",+91-22-24955163,,
Mulund Gymkhana - Mulund - Mumbai,Gym,Mumbai,"Opposite Shahani Colony, Navghar Road, Deendayal Nagar, Mulund East, Mumbai 400081, MH",+91-22-21639046,",info@khelomore.com,mulundgymkaha@gmail.com,mail@mulundgymkhana.org.in,",
Mitali International - Bandra - Mumbai,Gym,Mumbai,"1/193, Mandar, Turner Road, Bandra West, Mumbai 400050, MH",+91-22-66919988,",drminal21@gmail.com,",
Medicare Tpa Services I - Khar - Mumbai,Gym,Mumbai,"4, Jagdeep Cottage, 4th Road, Khar West, Mumbai 400052",+91-22-26048819,"accounts@medicaretpa.co.in,,mumbai.corp@medicaretpa.co.in,customersupport@healthindiatpa.com,x22customersupport@healthindiatpa.com,medicaremumbai@medicaretpa.co.in,x3ecustomersupport@healthindiatpa.com,",
Kottakkal Arya Vaidya Sala Agency - Nerul - Mumbai,Gym,Mumbai,"Jai Bhavani Marg, GVM Marg, Sector 10, Nerul East, Navi Mumbai 400706, MH",+91-9967087070,",mail@aryavaidyasala.in,avssqr@aryavaidyasala.com,x3eavssqr@aryavaidyasala.com,",
Knights Gym - Sewree - Mumbai,Gym,Mumbai,"Sundar Lildharwadi, Opposite To Swah Mill, T J Road, Sewree, Mumbai 400015, MH",+91-22-32052183,",knightengco@vsnl.net,vineshkshah@gmail.com,",
Birla Kerala Vaidyashala - Prabhadevi - Mumbai,Gym,Mumbai,"19/19-A, Kohinoor Centre, Opposite Siddhivinayak Temple, Veer Savarkar Marg, Prabhadevi, Mumbai 400028, MH",+91-9619920307,",birlaayurveda@yashbirlagroup.com,",
Karma State Of The Art Gym - Bandra - Mumbai,Gym,Mumbai,"Near Chetana College, Bandra East, Mumbai , MH",,",admissions@global-opportunities.net,Bansient2017@gmail.com,ipp.compliance@vwinfrastrukture.com,info@karmabysatwik.com,",
Kaizzad Capadias Kii Academy For Fitness Pro - Santacruz - Mumbai,Gym,Mumbai,"7th Floor, Golibar Road, Dunhill Corner, Santacruz East, Mumbai 400055, MH",+91-22-56940793,,
James Law Fitness Center - Kopar Khairane - Mumbai,Gym,Mumbai,"1st Floor, Mahavir Sharddha, Sector 14, Kopar Khairane, Navi Mumbai 400709, MH",+91-22-27547969,",vijjanvikram@gmail.com,",
Islam Gymkhana - Churchgate - Mumbai,Gym,Mumbai,"Asiatic, Behind Gaylord Restaurant, Churchgate, Mumbai 400020, MH",+91-22-22853696,",info@garwareclub.co.in,islamgymkhana1891@gmail.com,",
Innovative Cure - Bandra - Mumbai,Gym,Mumbai,"4, jaldev Appartment, Opposite Mcdonalds, Linking Road, Bandra West, Mumbai 400050, MH",+91-22-27881277,",hello@cultfit.com,H6451@sofitel.com,bhabha.bandra@yahoo.com,",
Infinite Mind - Bandra - Mumbai,Gym,Mumbai,"4, Om Shanti, Kalanagar, Bandra East, Mumbai , MH",,",hello@cultfit.com,",
Holistic Healing Centre Charitable Trust - Goregaon - Mumbai,Gym,Mumbai,"B/2, Saichandtara Building, Off Western Express Highway, CIBA Road, Goregaon East, Mumbai 400063, MH",+91-22-28412971,",bhagwatintc@gmail.com,drdeepali_g@yahoo.co.in,simehta@rediffmail.com,",
Herbalife - Vile Parle - Mumbai,Gym,Mumbai,"D-41, Central Apartments, Dayal Das Road, Vile Parle East, Mumbai 400057, MH",+91-9821027066,",x3econtact@herbalforlife.in,contact@herbalforlife.in,",
Dr. Heena Mehta - Ghatkopar - Mumbai,Gym,Mumbai,"Hingwala Lane, Tilak Road, Pant Nagar, Ghatkopar East, Mumbai 400077, MH",+91-9867920111,,
Health Education Library - Fort - Mumbai,Gym,Mumbai,,,",helplibrary@gmail.com,",
Gym Club - Mumbai,Gym,Mumbai,,,",support@gymcompany.co.za,vashi.mumbai@goldsgymindia.com,info@nitrro.in,enquiries@theclubmumbai.com,",
Gold Gymkhana - Khopat - Mumbai,Gym,Mumbai,"Cesalia House, Opposite Gadkari Rangayatan, Dr Moose Road, Khopat, Thane 400601, MH",,",admin@bombaygymkhana.com,info@chemburgymkhana.in,goldgymkalyan@gmail.com,WeCare@GoldsGym.in,chemgym@yahoo.co.in,info@khelomore.com,mayuri.dr@gmail.com,",
Ghatkopar Jolly Gymkhana - Vidya Vihar - Mumbai,Gym,Mumbai,"Kirol Road, Vidya Vihar West, Mumbai 400086, MH",,",jollygymkhana@gmail.com,",
Galaxy 2000 - Mumbai,Gym,Mumbai,"Eastern Express Highway, Runwal Nagar, Thane East 400603, MH",+91-22-25475500,"email@dgsm.co.in,,varshasdalvi@rediffmail.com,deveshshahin@yahoo.co.in,",
Full Body Massage - Mumbai,Gym,Mumbai,,,",viva.81stylespa@gmail.com,",
Metro Flex Gym - Ghansoli - Mumbai,Gym,Mumbai,"Jijamata Nagar, Sector 9, Ghansoli, Navi Mumbai 400701, MH",,",vashi.mumbai@goldsgymindia.com,",
Fitness World Gym - Ghatkopar - Mumbai,Gym,Mumbai,"A/1, Patanwala Estate, Lal Bahadur Shastri Road, Ghatkopar West, Mumbai 400086, MH",+91-22-25003694,",worldgym699@gmail.com,",
Fitness Trends - Jogeshwari - Mumbai,Gym,Mumbai,"43/48, Mahada Commercial Complex, 1st Floor, Next Oshiwara Police Station, New Link Road, Oshiwara, Jogeshwari West, Mumbai 400102, MH","+91-22-26395091, +91-22-26350068",",memberexperience@anytimefitness.in,contact@gymxapparel.com,",
Fit For Life - Kandivali - Mumbai,Gym,Mumbai,"17, Shree Ganesh Rangan Co-operative Housing Society, Thakur Shyamnarayan Marg, Thakur Village, Kandivali East, Mumbai 400101, MH",+91-9769092673,",customercare@gymsforall.in,",
Figure In Health Care - Dahisar - Mumbai,Gym,Mumbai,"Ashokvan, Near Maruti Mall, Shiv Vallabh Road, Maruti Nagar, Dahisar East, Mumbai 400068, MH",+91-22-65291414,",figurein@gmail.com,",
Dombivali Gymkhana - Dombivali - Mumbai,Gym,Mumbai,"Patharli Road, Dombivali East, Thane 421203, MH",,",info@khelomore.com,nfo@dadarclub.com,dadar_club@yahoo.com,info@dombivligymkhana.com,",
Darshan Health Club - Andheri - Mumbai,Gym,Mumbai,"Kanchanganga Building, Next to Gurudwara, JP Road, Manish Nagar, Andheri West, Mumbai 400053, MH",+91-9769558095,",darshanhealthclub@gmail.com,",
Dadar Club - Dadar - Mumbai,Gym,Mumbai,"Lokmanya Tilak Colony, Lane 2, Dadar East, Mumbai 400014, MH","+91-22-24143627, +91-22-24150590",",shivajiparkgymkhana@rediffmail.com,frontdesk@dadarclub.com,accounts@dadarclub.com,nfo@dadarclub.com,admin@dadarclub.com,dadar_club@yahoo.com,",
Catholic Gymkhana - Charni Road - Mumbai,Gym,Mumbai,"47/A, Netaji Subhash Road, Charni Road, Mumbai 400004, MH",+91-22-22813260,",catholicgym@gmail.com,office@thecatholicgymkhana.com,",
Bombay Presidency Radio Club L - Colaba - Mumbai,Gym,Mumbai,"157, Arthur Bunder Road, Colaba, Mumbai 400005, MH","+91-22-22845025, +91-22-22845071, +91-22-22845075, +91-22-22845121",",admin@radioclub.co.in,radioclub05@gmail.com,radclubmumbai@gmail.com,",
Body Grace - Malad - Mumbai,Gym,Mumbai,"D/9, Asmita Jyoti, Charkop Naka, Malad West, Mumbai 400064, MH",+91-9819201332,,
Body Balance Health Care - Malad - Mumbai,Gym,Mumbai,"C-1, Janvikas Building, Sunderlane, Orlem, Malad West, Mumbai 400064, MH","+91-9892488351, +91-9892488351",,
Bharat Vyam Shala - Mazgaon - Mumbai,Gym,Mumbai,"Bharat Vyayam Shala Building, Tank SQ Mascrenhas Road, Mazgaon, Mumbai 400010, MH",,",DR.AFRIN@GMAIL.COM,",
Bharat Sports - Ghatkopar - Mumbai,Gym,Mumbai,,,",Aryavartafitness@gmail.com,",
B G Talwalkar Physic Centre - Ghatkopar - Mumbai,Gym,Mumbai,"171, Vinay Bhavan, 90 Feet Road, Ghatkopar East, Mumbai 400077, MH",+91-22-25061817,"ghatkopar@ymcabombay.com,,",
Ayushakti Ayurved Health Centre - Malad - Mumbai,Gym,Mumbai,"563, SV Road, Bharat Nagar, Malad West, Mumbai , MH",,",info@ayushakti.com,",
Ayurvedic Village - Sanpada - Mumbai,Gym,Mumbai,"17/21, Shah Complex 3, Palm Beach Road, Sector 13, Sanpada, Navi Mumbai 400705, MH","+91-22-27814444, +91-22-27815544, +91-9320292525",",id-satmyaherbs@gmail.com,drpatilre@gmail.com,",
All Body Massage - Mumbai,Gym,Mumbai,,,",viva.81stylespa@gmail.com,",
Af 10 - Chembur - Mumbai,Gym,Mumbai,"6, 7th Floor, Shiv Ashish Commercial Complex, 19th Road, Chembur, Mumbai 400074, MH",+91-22-25280488,",fit@af10.com,",
Aerobic Plus - Andheri - Mumbai,Gym,Mumbai,"Yari Road, Andheri West, Mumbai 400053, MH",+91-9820048142,",hello@cultfit.com,",
Adarsh Jain Health Centre - Worli - Mumbai,Gym,Mumbai,"Adarsh Nagar, Worli, Mumbai 400025, MH","+91-9820893303, +91-22-24374899, +91-22-24369361",",jhcdadar@gmail.com,",
5 Elements - Andheri - Mumbai,Gym,Mumbai,"9, Ajanta House, Marol Cooperative Industrial Estate, Near Marol Bhavan, MV Road, Marol, Andheri East, Mumbai 400059, MH",+91-22-42507999,",memberexperience@anytimefitness.in,hello@cultfit.com,webmaster@goldsgym.in,",
Vanessa Hair Disturbia - Andheri - Mumbai,Gym,Mumbai,"3, R Arcade, 1st Floor, Lokhandwala, Andheri West, Mumbai 400053, MH",+91-9819746655,"WeCare@GoldsGym.in,,hello@cultfit.com,",
TUC Salon - Mumbai,Gym,Mumbai,,,",cgoffice-mh@nic.in,enquiries@theclubmumbai.com,",
Waves Gym - Andheri - Mumbai,Gym,Mumbai,"Morya Estate, 5th Floor, Oppssite Infiniti Mall, New Link Road, Andheri West, Mumbai 400053, MH","+91-22-66787970, +91-9920084402",",sunitta@wavesgym.com,info@wavesgym.com,memberexperience@anytimefitness.in,",
Sports Fuel - Marine Line - Mumbai,Gym,Mumbai,"1-2/6 Ramna Mansion, Cinema Road, Dhobi Talao, Marine Line, Mumbai 400020, MH",+91-22-22091552,"cestat08@gmail.com,,",
Spectrum - Bandra - Mumbai,Gym,Mumbai,"31, Veena Beena Shopping Complex, Opposite Bandra Station West, Bandra West, Mumbai 400050, MH","+91-22-66991635, +91-9324661169, +91-9324287665, +91-9322338550",",custclub@vsnl.com,",
Leela Health Club - Vile Parle - Mumbai,Gym,Mumbai,"101/D, Happy Home Society, Nehru Road, Vile Parle East, Mumbai 400057, MH",+91-22-26161202,",reservations@theleela.com,mimi.joglekar@gmail.com,",
Marium Zaveri - Bandra - Mumbai,Gym,Mumbai,"103, Zaba Apartment, 3rd Floor, Opposite Globus Showroom, Hill Road, Bandra West, Mumbai 400050, MH",+91-22-6408044,,
Faridas Avanti Beauty Clinic - Bandra - Mumbai,Gym,Mumbai,"60, Hill Road, Bandra West, Mumbai 400050, MH",+91-22-26406293,,
Franck Provost Beauty Spa - Juhu - Mumbai,Gym,Mumbai,,,",info@geofflung.com,",
Cuts and Colors - Kandivali - Mumbai,Gym,Mumbai,,,",asstmngr01jtmc.dmu@mcgm.gov.in,",
Leena Mogre Fitness - Bandra - Mumbai,Gym,Mumbai,"Crystal Paradise, 4th Floor, 33rd Road, Bandra West, Mumbai 400050, MH",+91-22-26481795,,
Golds Gym - Powai - Mumbai,Gym,Mumbai,"04, Supreme Business Park, Supreme City, Behind Lake Castle and Avalon, Powai, Mumbai, MH",,"WeCare@GoldsGym.in,,wecare@goldsgym.in,mumbai@goldsgymindia.com,",
Power House Gym - Juhu - Mumbai,Gym,Mumbai,"101 & 102, Concorde Co-operative Housing Society, JVPD Scheme, NS Road, Juhu, Mumbai 400049, MH",+91-22-71043060,",info@powerhousegym.co.in,bandra@powerhousegymindia.com,juhu@powerhousegymindia.com,",
Tressxcel Beauty Salon - Kandivali - Mumbai,Gym,Mumbai,"Suite 1 & 2, Thakur Cinema Complex, 2nd Floor, Thakur Village, Kandivali East, Mumbai 400101, MH",+91-22-28866171,,
Dr. Nigam's Slimming Centre - Andheri - Mumbai,Gym,Mumbai,"Bungalow 86, Mhada, Near Janki Devi Public School Bus Stop, Andheri West, Mumbai 400053, MH",,"WeCare@GoldsGym.in,,",
Body Zone - Nerul - Mumbai,Gym,Mumbai,"21, 102/106, Nerul Commercial Complex, Near Dmart, Sector 21, Nerul, Navi Mumbai 400706, MH",+91-22-61618802,",nandumain78@gmail.com,",
Zaf Fitness Club - Andheri - Mumbai,Gym,Mumbai,"Abhishek Building, G Block, Diagonally, Opposite HDFC Bank, Juhu Versova Link Road, Andheri West, Mumbai 400053, MH",+91-22-26327446,,
Raheja Classique Health Club - Andheri - Mumbai,Gym,Mumbai,"Behind Infiniti Mall, Link Road, Andheri West, Mumbai 400053, MH",+91-22-66955550,",hello@cultfit.com,",
Willingdon Catholic Gymkhana - Santacruz - Mumbai,Gym,Mumbai,"Church Avenue, Near Khar Subway, Santacruz West, Mumbai 400054, MH",+91-22-26497531,",office@wcg.net.in,info@khelomore.com,office@wcgym.in,reservations@catholiclub.com,",
The Yoga Institute - Santacruz - Mumbai,Gym,Mumbai,"Shri Yogendra Marg, Prabhat Colony, Santacruz East, Mumbai 400055, MH",+91-22-26110506,",tyivikhroli@gmail.com,dhhruv.s@gmail.com,info@theyogainstitute.org,",
Body Opus - Khar - Mumbai,Gym,Mumbai,"500, 11/12, 1st Floor, Santh Kutir, Block A, Opposite Raheja Construction House, V Patel Road, Khar West, Mumbai 400052, MH",+91-22-26041119,",hello@cultfit.com,",
Khar Gymkhana Club - Khar - Mumbai,Gym,Mumbai,"13th Road, Khar West, Mumbai 400052, MH",+91-22-42107689,",khargym@hotmail.com,accounts@khargymkhana.com,A@thekingsclub.co.in,",
Kerala Ayurvedic Health Spa - Powai - Mumbai,Gym,Mumbai,"Hiranandani Gardens, Powai, Mumbai 400076, MH",+91-22-25708889,,
Andheri Sports Complex - Andheri - Mumbai,Gym,Mumbai,"JP Road, Azad Nagar, Andheri West, Mumbai MH",,"andherirecreationclub@gmail.com,,contact@bklp.co.in,asc1@gmail.com,mehul.vora@mmawithmehulvora.com,kudoindia@gmail.com,",
Bandra Gymkhana - Bandra - Mumbai,Gym,Mumbai,"ST Andrews Road, Pali Hill, Bandra West, Mumbai 400050, MH",+91-22-26428512,,
The Club - Andheri - Mumbai,Gym,Mumbai,"197, DN Nagar, Andheri West, Mumbai 400053, MH",+91-22-66939999,"u003eenquiries@theclubmumbai.com,,enquiries@theclubmumbai.com,info@callunahotel.com,",
VLCC - Khar - Mumbai,Gym,Mumbai,"329, Dhawan Building, Vithalbhai Patel Road, Khar West, Mumbai 400052, MH",+91-22-26055861,,
Yoga Teacher - Mumbai,Gym,Mumbai,,,"kshipra@ifsinstitute.com,,hello@cultfit.com,",
Ultimate Fitness Health Club - Malabar Hill - Mumbai,Gym,Mumbai,"1, Rekha Building, Ridge Road, Malabar Hill, Mumbai 400006, MH",+91-22-23696450,",malabarhillclub@gmail.com,x22malabarhillclub@gmail.com,x3emalabarhillclub@gmail.com,",
Talwalkars Gym - Andheri - Mumbai,Gym,Mumbai,"196, Tegh House, Opposite Kohinoor Continental, Andheri Kurla Road, JB Nagar, Andheri East, Mumbai 400059, MH",+91-22-28325842,,
Sweat Out Gymnasium - Andheri - Mumbai,Gym,Mumbai,"Bungalow No 3, Stellar Tower, Lokhandwala Complex, Unit A, 2nd Cross Lane, Andheri West, Mumbai 400053, MH",+91-22-26361400,",hello@cultfit.com,gym@sweat.com,",
Health Care Centre - Andheri - Mumbai,Gym,Mumbai,"Santoshi Mata Nyas Trust, Lohana Colony, VP Road, Andheri West, Mumbai 400058, MH",+91-9323712637,",hello@cultfit.com,rebirthfitnessschool@gmail.com,",
Fitness Gurus - Matunga - Mumbai,Gym,Mumbai,"7/5, Opposite Telephone Exchange, OCS Colony, Matunga, Mumbai 400019, MH",+91-8286358335,",info@outdoorenergy.com.au,",
Anb Gym Coach - Mumbai,Gym,Mumbai,"7/10, Room No 4, Batawala Building, Horniman Circle, Hutatma Chowk, Mumbai 400023, MH",+91-22-27469054,",customercare@upfitness.com,",
Aero Fit - Bhandup - Mumbai,Gym,Mumbai,"Maharashtra Nagar, Bhandup West, Mumbai , MH",,",aerofitclub@gmail.com,aerofit.info@gmail.com,",
Power House Gym - Mulund - Mumbai,Gym,Mumbai,"Bhagyashree Apartment, 2nd Floor, Opposite Safaliya Jain Temple, Dr Ambedker Road, Mulund West, Mumbai 400080, MH",,",mulund@powerhousegymindia.com,",
Country Club - Kurla - Mumbai,Gym,Mumbai,"Lal Bahadur Shastri Road, Kurla West, Mumbai , MH",+91-22-67211457,"contact@countryclubmail.com,,",
Berkowits - Andheri - Mumbai,Gym,Mumbai,,,"berkowits@hotmail.com,,info@berkowits.in,inquiry@berkowits.in,",
