Name,Sector,City,Address,Phone,Email,Lat-Long
SAN ACADEMY [SA],School,Mumbai,"Sundaram CHS, Sector 24, Juinagar, Navi Mumbai, Maharashtra 400705",099870 60238,",admissions@sanacademy.edu.in,2003@gmail.com,sankam.admissions@sanacademy.edu.in,principalapsc@yahoo.co.in,sankam@sanacademy.edu.in,","19.0498237,73.0152672"
Velammal Vidyalaya Weeklong Boarding School [VVWBS],School,Mumbai,"Knowledge Centre, behind Mumbai Port Trust Hospital, Nadkarni Park, Wadala East, BPT Colony, Wadala, Mumbai, Maharashtra 400037",,",velammalvidyalayawlb@gmail.com,VelammalVidyalayawlb@gmail.com,info.melayanambakkam@velammalnexus.com,info@vvmangadu.in,","19.0124928,72.8577863"
AL - HIRA MODEL SCHOOL [AHMS],School,Mumbai,"3VQR+7C3, Sanjay Nagar, Kurla West, Malad East, Mumbai, Maharashtra 400072",090226 66663,",alhiraschool@anjhimayath.com,info@alhiramodelschool.com,admin@alhiramodelschool.com,alhiramodelschool@gmail.com,","19.0881317,72.8884827"
The Leaders' Academy [TLA],School,Mumbai,"2436+9JW, Sector - 13, Khanda Colony, Panvel, Navi Mumbai, Maharashtra 410206",,",aet.principaltla@gmail.com,info@theleadersacademy.edu.in,","19.0034918,73.1090033"
Dreamland School  [DS],School,Mumbai,"Vallabhadas Road Number 24, Rd Number 24, near D.S.High School, Sion West, Sion, Mumbai, Maharashtra 400022",,",contact@dreamlandschoolmakhla.org,dreamlandmakhla@gmail.com,icuttarpara@gmail.com,","19.0417991,72.8589654"
BHARATIYA VIDYA BHAVAN INSTITUTE [BVBI],School,Mumbai,"29, KM Munshi Rd, Gamdevi, Mumbai, Maharashtra 400007",,",bvbstaffdept@yahoo.com,spccm@bvbdelhi.org,pvsankarankutty@bhavans.info,jna@bvbdelhi.org,info@bvbbhubaneswar.org,bhavan.pune.kendra@gmail.com,roc.delhi@mca.gov.in,","18.9574005,72.8081346"
St. Thomas' Girls' School [STGS],School,Mumbai,"Pandurang Wadi Main Rd, near Railway Station, Churi Wadi, Goregaon, Mumbai, Maharashtra 400063",,",stsschool@gmail.com,stthomasconventschoolm2@gmail.com,st_thomasschoolldh@rediffmail.com,x3estsschool@gmail.com,x3est_thomasschoolldh@rediffmail.com,","19.1684057,72.8471152"
St. James' School [SJS],School,Mumbai,"3, Kandivali, Nilkanth Nagar, Ganesh Nagar, Kandivali West, Mumbai, Maharashtra 400095",,",sjskolkata1864@gmail.com,studentservices@stjamesexeter.co.uk,pastoralsupport@stjamesexeter.co.uk,icse@sjhs.in,x3estudentservices@stjamesexeter.co.uk,jacobeansalumni@gmail.com,","19.2037809,72.8221914"
The Aryans School [TAS],School,Mumbai,"75, Jagannath Shankar Seth Rd, Charni Road East, Bhatwadi, Girgaon, Mumbai, Maharashtra 400004",,"info@thearyansschool.org,,aryansinternationalschool2013@gmail.com,","18.9560548,72.8147774"
The Modern Academy [TMA],School,Mumbai,"360, 3rd Floor, Powai Plaza, Hiranandani Gardens, Sainath Nagar, Powai, Mumbai, Maharashtra 400076",,",paragm.more@gmail.com,tmakolkata@gmail.com,advmspmah99@gmail.com,parag.more@intelectpm.com,info@themodernacademy.in,","19.1233931,72.9105371"
Asian International School [AIS],School,Mumbai,"301, Dhukka Chambers, Poddar Road, Malad East, Mumbai, Maharashtra 400097",,",Franchise@AIS-edu.us,contact@aismumbai.org,hr@oberoi-is.org,hr@aisedu.org,principal@aisedu.org,info@aisedu.org,admissions@aisedu.org,headmistress@aisedu.org,reception@aisedu.org,","19.1860843,72.8471499"
Mahavir Institute of Education and Research [MIOEAR],School,Mumbai,"J.K.Jadhav Knowledge Center, Nadkarni Park, Wadala (East), near MbPT Hospital, Mumbai, Maharashtra 400037",022 2411 0879,",info@mahavirschool.com,info@miet.edu,","19.0123604,72.8577868"
Loreto Convent [LC],School,Mumbai,"2WR2+R5J, RCF Twp Rd, Wadavli, Prabuddha Nagar, Chembur, Mumbai, Maharashtra 400074",022 2553 6680,"loretodelhi@gmail.com,,lovemyarts123@gmail.com,","19.0420914,72.8978241"
MSB Educational Institute [MEI],School,Mumbai,"Taheri Manzil, Nesbit Road, St Mary Rd, Mazgaon, Mumbai, Maharashtra 400010",022 2374 6007,",info@msbmumbai.inPhone,logo@2x.png,msbmumb@in.com,info@msbmumbai.in,","18.970093,72.832997"
Lycee School [LS],School,Mumbai,"Urmi Estate Compound, 95, Ganpatrao Kadam Marg, Lower Parel West, Mumbai, Maharashtra 400013",022 4960 8802,",president@lfim.in,treasurer@lfim.in,info.lyceekolkata@gmail.com,cv@lilaschool.com,eyp@bdsint.com,admin@lfim.in,","18.99705,72.8259534"
The Oral School For Deaf Children [TOSFDC],School,Mumbai,"82, Lieutenant Dilip Gupte Marg, near Goa Portuguesa Restaurant, Mahim West, Mahim, Mumbai, Maharashtra 400016",022 2445 4238,,"19.0348484,72.8377859"
Heaven World English Medium School,School,Mumbai,Near Prasad Niwas Bungalow Badlapur,9972233681.0,"contact@ststephensschool.co.in,,talktous@uniformjunction.com,ptvemsprimary@gmail.com,","19.1621832,73.241309"
Narayana E-Techno School,School,Mumbai,Opposite Bank Of Baroda Varap,9972235163.0,",nsiliguri@narayanagroup.com,x22nsiliguri@narayanagroup.com,info@narayanagroup.com,x3ensiliguri@narayanagroup.com,mumbrv.etechno@narayanagroup.com,mumulhas1209a@narayanagroup.com,borivali@narayanagroup.com,","19.2062739,72.8325627"
Gurukul International School (CBSE),School,Mumbai,Near Mohan Highland Badlapur East,7405741077.0,",contact.gpi.school@gmail.com,contact.gei.school@gmail.com,gurukul.international@rediffmail.com,","19.0297629,72.7257462"
Blossom Convent School,School,Mumbai,Near Shrikrishan Residency Badlapur,9972568489.0,",info@blossominternationalschool.in,lfcspkl.counsellor@gmail.com,preprimaryschoolsindia@gmail.com,x3elfcspkl.counsellor@gmail.com,","19.0843512,72.7051751"
Gurukul - The Day School,School,Mumbai,Near Nevali Junction Kalyan East Dombivli East,9972260499.0,",gdsdombivli@gmail.com,info@aryagurukul.in,contactgds@gurukulschool.in,","19.1320062,72.775957"
IGS ( I GLOBAL SCHOOL ),School,Mumbai,Madhuvan Madhuvan Township Vasai East,9972901897.0,",info@iglobalschool.in,u003eigs.vasai@gmail.com,info@igs.edu.in,admin@iglobalschool.in,igs.vasai@gmail.com,info@ags.org.in,","19.3926397,72.8476161"
Meridian School,School,Mumbai, Titwala,9845467821.0,",admin@themeridianschool.in,adminkalyan@meridian.school,adminkalyan@meridian.schoolPhone,principal@themeridianschool.in,info@in.com,Usadmintitwala@meridian.school,","19.2177528,72.685799"
Ramsheth Thakur Public School,School,Mumbai,Sector 19 Kharghar,8867849130.0,",info@rtpsk.tk,rtpsfrontoffice@gmail.com,sau.srtcbseulwa@gmail.com,lrtpskamothe@gmail.com,tps@thakureducation.org,aloni.raj4@gmail.com,","19.0004578,67.583596"
Bunts Sangha's Shashikiran Shetty Educational Institution ( Arathi Shetty International School),School,Mumbai,Adjacent to BMC Ground I C Colony Borivali West,7048814992.0,",sadhwani.seema@gmail.com,","19.1549538,72.7819512"
Greater Valley International School,School,Mumbai,Nr Maha Ganpati Temple Titwala,9845459614.0,"greaterinternational2022@gmail.com,,info@greatervalleyschool.com,","19.283922,73.2164298"
S M G Vidyalay & Junior College,School,Mumbai,Near Lalit Kata Sonarpada Dombivli Industrial Area dombivli East,7947080373.0,",smgthane@gmail.com,","19.1875447,73.0322465"
Sanman Career Academy,School,Mumbai,Near Swagat Hotel Thane,9972812291.0,",cnmschool@gmail.com,","18.1048596,72.3371245"
Deccan Super Kids,School,Mumbai,Opposite Dental College Ambernath,9972411599.0,,"19.2028405,73.1834006"
M G M Academys High School and Junior College,School,Mumbai,Off Agashi Road Bolinj Behind Sahyog Hospital Virar West,9845259320.0,,"19.2569717,72.7458347"
Mahatma Gandhi Public School & Junior College,School,Mumbai,Near Pushp Vinayak Complex New Panvel,9845257246.0,,"19.0768522,72.816277"
Eva World School,School,Mumbai,Opposite Pallava Phase 2 Dombivli East,9972208894.0,",info@evaworldschool.in,","19.2204404,72.9519741"
KPC Public School & Junior College,School,Mumbai,Behind Vastu Vihar KH 1 Kharghar,9972301240.0,,"19.0424869,73.0801786"
Jaipuriar School,School,Mumbai,Near Moraj Residency Sanpada,9845159420.0,",office.navimumbai@jaipuriarschool.org,admissions.navimumbai@jaipuriarschool.org,jaipuriarsschool@gmail.com,","19.0564346,73.0029863"
Sacred Heart School,School,Mumbai,Varap Gaon Kalyan West,7947207238.0,"sacredheartvashi1982@gmail.com,,shhsworli@yahoo.in,info@sacredheartschool.in,","19.0865431,72.7405472"
Sree Narayan Guru Central School,School,Mumbai,Opposite 380 Bus Stop Chembur West,7405872700.0,",sngcebed@gmail.com,preprimaryschoolsindia@gmail.com,sngcentralschool@gmail.com,","19.0611289,72.9061883"
S N G International School,School,Mumbai, Ulwe,9972331891.0,",sngcentralschool@gmail.com,sngisulwe@gmail.com,","18.9826861,73.0280081"
The TreeHouse,School,Mumbai,Near Mujlibhai Mehta School Bolinj Virar West,9845204807.0,",navimumbai@treehousehighschool.com,sales@treehouselifeskills.com,preprimaryschoolsindia@gmail.com,admission.treehouseonline@gmail.com,virarinfo@treehousehighschool.com,","19.1720978,72.7792362"
Twinkle Star English High School,School,Mumbai,Near Maharashtra Bakery Palghar City,9845268057.0,",twinkle_starehs@rediffmail.com,info.twinklestar02@gmail.com,","19.2425195,72.6982955"
St Wilfred'S School,School,Mumbai,Opp Hatkesh Mira Road East,9972845893.0,",frontoffice.stwilfredschool@gmail.com,frontofficestwjc@gmail.com,stwilfredschool@gmail.Com,stwilfred.acs@gmail.com,","19.1131234,72.862261"
Aadarsh Sanskar Pre School,School,Mumbai,"2/C, Madhavadas Pasta Marg, Gautam Nagar, Dadar, Mumbai, Maharashtra 400014",099209 47198,",arpana.spl.school@gmail.com,adarshcbse22@gmail.com,","19.0149638,72.8343269"
Radhai Inksap School,School,Mumbai, Kamothe,9972913003.0,",admissions@inksap.in,principal@radhaiinksap.com,marizinha.chitnis@eest.in,","19.0227096,73.0888513"
Divine Santo Nino International School,School,Mumbai,Near Sai Baba Mandir Behind D K Motors Nalasopara East,7947336535.0,,"19.4059057,72.8480304"
Little Champs Preschool,School,Mumbai,Near Vitthal Temple Mankhurd,,",u003elittlechampsdadar@gmail.com,littlechampsdadar@gmail.com,pssamdaniandassociates@gmail.com,","19.1040759,72.7969634"
Royal International School,School,Mumbai,Near Gandhi Nagar Dombivli East,9845249470.0,",royal.international349@gmail.com,","19.1147692,72.8208377"
St Xaviers International School,School,Mumbai,Aadharwadi RoadNear DB Chowk Adharwadi kalyan West,9845466113.0,"ecte@ryangroup.org,,contact@stxaviersfort-org.mydnscp.com,principal@stxaviersfort.org,stxehsthane@gmail.com,","19.1396905,72.6400121"
Baby World Preschool Smt L B Joshi English High School Junior College,School,Mumbai,Near Sshospital Kalher,9035045716.0,",lbjoshifoundation@gmail.com,u003elbjoshifoundation@gmail.com,","19.2501337,73.0151393"
The Polymath School,School,Mumbai, Bhiwandi City,9845474069.0,",contactus@polymath.edu.in,","19.2792348,73.0322934"
Chetna English High School,School,Mumbai,Near Chakki Naka Kalyan East,9972224550.0,"ugale.chetna@gmail.com,,ngore80@gmail.com,chetnasecondaryschool@gmail.com,","19.2198624,73.1253903"
Sadhu Vaswani International School,School,Mumbai,Off Palm Beach Marg Behind Bhumiraj Complex Sanpada,9036650598.0,",admin@svisnavimumbai.edu.in,preprimaryschoolsindia@gmail.com,svisg_in@yahoo.com,x3esudhakar@sadhuvaswani.org,svisg@rediffmail.com,sudhakar@sadhuvaswani.org,","19.0592469,72.8678017"
Blossom English High School,School,Mumbai, Kolshet thane West,9845265081.0,"blossomshighschool@yahoo.co.in,,blossomshighschool77@gmail.com,wetheblossmites@gmail.com,","19.2309212,72.9830202"
R.C Maruti High School,School,Mumbai,Near Kelicha Pada Nagar Bhoidhapada Vasai East,9972416372.0,",rcmarutihighschoolvasai@gmail.com,","19.1228998,72.8652405"
S E International School,School,Mumbai,Behind Gokul Hotel Borivali West,9036676480.0,",info@seischool.com,","19.236598,72.8541039"
Adarsh Vidyalaya High School & Jack N Jill Pre School,School,Mumbai,Opposite Xperia Mall Pallava City Behind Sai Baba Mandir Nilje,9845249364.0,,"19.0939223,72.7918334"
Holy Angels English High School,School,Mumbai,Opposite Indralok Phase 1 Bhayandar East,9845242898.0,",info@holyangels.ac.in,hahs@rediffmail.com,holyangels_english_hs@yahoo.com,contact@holyangelshighschool.com,","19.2379723,72.8096377"
Wisdom High School,School,Mumbai, Dombivli East,9972922808.0,",nwisoffice@gmail.com,","19.208452,72.7942554"
Gurukul Wave International Preschool & Gurukul Excellence International School,School,Mumbai,Near Vijay Sales Virar West,9845448056.0,,"19.4571502,72.7989466"
Kent Valley International School,School,Mumbai,Khardi Gaon Diva,8904234283.0,",kentvalley124@gmail.com,enquiry@kentvalleyinternational.com,","19.2866008,73.1996962"
First Step Global,School,Mumbai,Near GCC Club Vinay Nagar Mira Road East,9972436670.0,,"19.1145085,72.6885794"
Richmond International PRE School,School,Mumbai,Opposite Shubhlabh Society Near Kelkar College Mulund East,9845263065.0,",info@richmondedu.com,rgs.richmond@gmail.com,admissions@richmonddglobalschool.edu.in,info@entranceindia.com,","19.1641441,72.9544293"
The Bms Brio,School,Mumbai,Borivali,7947329943.0,",XXXX@XXXXXX.XXX,enquiry@bmsbrio.com,hr.bmsbrio@gmail.com,vkkma.shiva@gmail.com,","19.2271756,72.8353245"
MAAERS Dr.Vishwanath Karad Vishwajyoti International School,School,Mumbai,Near Green Valley Studio Mira Road East,7487006194.0,",admissions.ulwe@mitvgschools.edu.in,info.ulwe@mitvgschools.edu.in,admissions@mitvis.co.in,info@mitvis.co.in,","18.2580662,72.1852826"
Gems School Of Excellence,School,Mumbai,"Cluster_thane_87 Gems School Of Exchange, opp. Sana Masjid, Poonam Sagar Complex, Mira Road East, Mira Bhayandar, Maharashtra 401107",082862 33555,",principal.girs@gmail.com,gemsbbsr@yahoo.co.in,","19.2709576,72.8510904"
Anandi Gopal,School,Mumbai,"RH-4, Nayan Society, Plot-16, Sector 10, Vashi, Navi Mumbai, Maharashtra 400703",099205 34880,",preprimaryschoolsindia@gmail.com,anandigopalnursery@gmail.com,","19.0831607,72.9895836"
Indra English High School & Junior College,School,Mumbai,"30 Feet Rd, Mandala, Mankhurd, Mumbai, Maharashtra 400043",099202 66673,,"19.0548717,72.9283642"
Leeway School,School,Mumbai,Near D Mart and Near Palegaon Cricket Ground Ambernath East,8904081846.0,",sanskrutischool21@gmail.com,","19.1916456,73.1682759"
Momai Global School,School,Mumbai,Opposite to Opp to McDonalds Mira Road East,9036688302.0,",info@momaischool.co.in,","19.2869376,72.8636861"
Podar Jumbo Kids,School,Mumbai,Opposite Natural Ice Cream Parlour and Sarvesh Hall Dombivli East,,"pjkwadala@jumbokids.com,transport.kishorbhat@podar.org,,","19.0950647,72.791304"
Rejoice International School,School,Mumbai,Near Radheshyam Chowk Opposite Toyota Showroom Malad West,9845465967.0,"info@rejoiceinternationalschool.com,,preprimaryschoolsindia@gmail.com,","19.1812238,72.8363918"
Panchgani International High School and Junior College,School,Mumbai,"Khinghar Road, Khinger, Road, opposite Lakha villa, Panchgani, Maharashtra 412805",099239 17973,",pinewoodsints@gmail.com,","17.9179884,73.8034809"
Delhi World Public School,School,Mumbai,Opposite to Punam Tower Nerul,9972211283.0,",info@dwpsnerul.com,principal.dwpspv@gmail.com,","19.037602,73.0109351"
God's Angels English School,School,Mumbai,Opp Cafe Alif Or Behind Hafizi House Jogeshwari West,8123869241.0,,"19.1439571,72.8404631"
Hello Kids Pre School and Day Care Centre,School,Mumbai,Opposite Jankalyan Police Chowky Malad West,9845168988.0,",flamingo@hellokids.co.in,hellokids.princenpari@gmail.com,info@hellokids.co.in,wings@hellokids.co.in,","19.6973806,61.0776043"
Sau.Shakuntala Ramsheth Thakur School,School,Mumbai, Ulwe,8867846031.0,"sau.srtcbseulwa@gmail.com,,","18.9676566,73.0315661"
Futurz High School,School,Mumbai,"201, Mira Bhayandar Rd, Hatkesh Udhog Nagar, Mira Road East, Mumbai, Mira Bhayandar, Maharashtra 401107",,",queenmarymumbai@gmail.com,brightfuture.edu2016@gmail.com,","19.2797955,72.8671011"
Saviors Global School,School,Mumbai,Near CNG Pump Kharghar,9972902989.0,",admin@greenfingersglobalschool.com,admission.saviorsglobal@gmail.com,info@ags.org.in,","19.0523804,73.0749917"
St Marys Buds Blossom School,School,Mumbai,Near Pawar Public School Chandivali andheri East,9845443048.0,",info@stmarys-school.in,info@stmarysssc.org,preprimaryschoolsindia@gmail.com,stmbbsschool@gmail.com,principal@stmarysssc.org,","19.1102351,72.900342"
Jan Gan Man School & Vande Mataram Degree College,School,Mumbai,Near Old Dombivali Dombivli West,9845427813.0,,"19.2183036,73.0738205"
D.g International School,School,Mumbai,Behind D Mart Kasarvadavali,9036656370.0,"dgets_school@yahoo.in,dgets_college@yahoo.co.in,contact@dgkis.org,,","19.2609619,72.9579217"
Deeksha Playschool & Child Care Centre,School,Mumbai,Adjacent to Union Bank Malad East,9845264547.0,,"19.1780387,72.870846"
Kennt Mein Bachpan School,School,Mumbai,Near Khadwali Railway Station Titwala,9845442837.0,",schoolgarten@gmail.com,info@kentmeinbachpan.com,cbsebhavanishankar@gmail.com,","19.163552,72.8419931"
Eden Academy (English Medium Islamic School),School,Mumbai,Next MSEDCL Building Sector 11 Nerul,8904242914.0,",asif....@gmail.com,info@edenacademy.co.in,info@egslough.staracademies.org,","19.0351103,73.0003953"
Vidya Niketan School and Junior College,School,Mumbai, Mumbai Central,9972900190.0,",vnjcpanchgani@gmail.com,vidyanikethan03@gmail.com,biramanesa@gmail.com,vidya.niketan.school@gmail.com,bhartibiramane@yahoo.in,","19.0941058,72.9009096"
Bombay Cambridge School,School,Mumbai,Narpoli Near Shankar Dyeing Mill Opposite Torrent Power Bhiwandi City,8904179677.0,",info@bcseast.org,admissions@bcseast.org,hrdbcg@gmail.com,communications@bciswest.org,westbcs@gmail.com,","19.116449,72.8306134"
Children Academy Group Of Schools,School,Mumbai,Opposite Megha Hospital Bachani Nagar Malad East,,",recruitments@children-academy.org,contactashok@children-academy.org,","19.1854021,72.8516692"
NES International School Mumbai,School,Mumbai,"Agrawal Rd, Opposite Sardar Pratap Singh Garden, Swapna Nagari, Mulund West, Mumbai, Maharashtra 400082",022 6641 5555,"contact@nesism.in,xxxx@nesinternational.org,nessvb@vsnl.net,,","19.1799395,72.929229"
Oberoi International School,School,Mumbai,"1, Mohan Gokhale Rd, Western Express Hwy",,",education@oberoi-is.org,hr@oberoi-is.org,puja.srivastava@oberoi-is.org,admissions@oberoi-is.org,tarun.paliwal@oberoi-is.org,","19.1735526,72.8633564"
C.P Goenka International School,School,Mumbai,"Next to HVPS Banquets, Shantivan Rd, near Sammy Sosa",,",admissions.borivali@cpgoenka.org,goenkainternationalschool@gmail.com,","19.1810258,72.7632074"
Billabong High International School,School,Mumbai,"Post Office, 5, Apna Bazar Rd, near Azad Nagar",,",info.santacruz@billabonghighschool.com,info.malad@billabonghighschool.com,partner@billabonghighschool.com,kusum.kanwar@billabonghigh.com,","19.1121942,72.7997137"
Nes National Public School,School,Mumbai,"80, Bal Rajeshwar Marg, Mulund (W, Mulund, Mulund West, Mumbai, Maharashtra 400080",022 6195 6500,",contact@nesnps.org,nesnationalpublicschool@yahoo.in,nesnationalpublicschool@yahoo.com,contact@nesism.in,","19.1849943,72.9372951"
Mainadevi Bajaj International School,School,Mumbai,"Sunder Nagar Chs Block-51, Sunder Nagar Chs, MBIS, RSET Campus, Swami Vivekananda Rd, Rani Sati Nagar, Sunder Nagar, Malad West, Mumbai, Maharashtra 400064",022 4520 7799,",preprimaryschoolsindia@gmail.com,info@mbis.org.in,","19.1768017,72.8352212"
S E International School,School,Mumbai,"S E, International School, Rokadia Cross Lane, near Gokul Hotel, Pai Nagar, Borivali West, Mumbai, Maharashtra 400092",022 2892 7921,",info@seischool.com,","19.2365977,72.846379"
RIMS International School and Junior College,School,Mumbai,"Windsor Grande Residences, RIMS, Shlok House, Next to Samartha Aangan, Near Walawalkar Garden Oshiwara, Off New Link Rd, Godrej Nature's Basket Lane, Close to Marks & Spencer, Lokhandwala Complex, Andheri West, Mumbai, Maharashtra 400053",099306 74637,",jane@rims.ac.in,admissions@rims.ac.in,admissions@rimsinternational.education,x3einfo@rimsint.in,info@rimsint.in,enquiries@rims.ac.in,","19.1514804,72.8194846"
ORCHIDS The International School - CBSE School in Mulund,School,Mumbai,"Sagar Prasad Society, Mahakali Nagar, Mulund East, Mumbai, Maharashtra 400081",088888 88999,",info.thane@orchids.edu.in,admin.oisp@orchids.edu.in,varsha.kunise@orchids.edu.in,","19.1709928,72.9557662"
Smt. Sulochanadevi Singhania School,School,Mumbai,"Jekegram, Pokharan Rd Number 1, Thane West, Thane, Maharashtra 400606",022 4036 8410,",ibinfo@singhaniaschools.org,info@singhaniaschool.org,","19.2074611,72.9562703"
Nahar International School,School,Mumbai,"Nahar`s Amrit Shakti Road, DP Rd Number 2",,",info@nahar-is.org,","19.0376173,72.7760144"
Jamnabai Narsee International School,School,Mumbai,"Narsee Monjee Bhavan 7, N S Road No. 7, JVPD Scheme, Vile Parle West, Mumbai, Maharashtra 400049",022 6915 7576,",contactus@jnis.ac.in,admissions@jnis.ac.in,enquiries@johncatt.com,contactus@jns.ac.in,","19.1055124,72.8219456"
Top Schools in mumbai/maharastra Kids House,School,Mumbai,"Kora kendra rd ,near Soma Tower,Borivali west,Chikowadi, Eurokids chikowadi gulmohar society,bunglow 22, Mumbai, Maharashtra 400092",092244 51837,",admissions@podar.org,","19.2204649,72.8326325"
Singapore International School,School,Mumbai,"On National Highway No-8, Post, near Dahisar Toll Plaza, next to Aaradhya Highpark, Mahajan Wadi, Dahisar East, Mumbai, Maharashtra 401104",022 6945 5200,",mailadmin@sisindia.net,admin.sis@sisindia.edu.in,admin@sisindia.net,admissions@sisindia.net,smith@sisindia.net,","19.2620462,72.867209"
Next School,School,Mumbai,"Near, Park Road, Off, Devidayal Rd, Gavane Pada, Mulund West, Mumbai, Maharashtra 400080",022 2561 0026,",admissions@nextschool.org,pxxxxxxu@nextschool.org,contact@nextschool.org,","19.1774385,72.936899"
ORCHIDS The International School in Kurla,School,Mumbai,"Railway Station, SG Barve Marg, near Kurla West, Kurla West, Kurla, Mumbai, Maharashtra 400070",077770 48846,",principal.kurla@orchids.edu.in,info@orchids.edu.in,admission2.oisk@orchids.edu.in,","19.0677854,72.8688224"
"Bombay Scottish School, Powai",School,Mumbai,"House, Chandivali Farm Rd, Raheja Vihar, Chandivali, Powai, Mumbai, Maharashtra 400072",022 2857 3205,",mahim@bombayscottish.in,powai@bombayscottish.in,","19.1181938,72.8829132"
Bombay Cambridge International School,School,Mumbai,"Guru Rabindranath Tagore Marg, off Sahar Road",,",info@bcseast.org,communications@bciswest.org,apply2bcg@gmail.com,","19.116449,72.8306134"
American School of Bombay,School,Mumbai,"SF2, G Block, Bandra-Kurla Complex Road, Bandra East",,",superintendent@asbindia.org,enquiries@johncatt.com,admissions@asbindia.org,","19.0938871,72.8521229"
"VIBGYOR High, Goregaon | CISCE & CAIE School",School,Mumbai,"Motilal Nagar - 1, Srirang Sabde Marg, Off Link Road, Goregaon West, Mumbai, Maharashtra 400104",022 6248 7000,,"19.1594671,72.8252777"
American School of Bombay (ASB),School,Mumbai,"2/Tower, Commercial, 4, Kirol Rd",,",superintendent@asbindia.org,ea@asbindia.org,admissions@asbindia.org,xxxx@asbindia.org,enquiries@johncatt.com,","19.0745775,72.8679136"
Lilavatibai Podar high school,School,Mumbai,"192, CST Road",,",admissionicse.santacruz@podar.org,principal.sscmumbai@podar.org,","19.0752512,72.8165451"
Kohinoor International School,School,Mumbai,"3VGP+7JG, Kohinoor City, Kirol Road, Off LBS Road, Kurla West, Mumbai, Maharashtra 400070",022 6788 7770,",contact@kohinoor.edu,info@kohinoorschool.ac,info@kohinoorgroup.co.in,info@kohinoorschool.ac.in,mail@mail.com,","19.075697,72.8762687"
Mumbai Public School,School,Mumbai,"3V9H+2CG, Brahmanwadi",,",primrosepreschool2003@gmail.com,cbserajawadi@gmail.com,kmbkhadavali@gmail.com,apsmumbai@awesindia.edu.in,helpdesk.vh10107@vibgyorhigh.com,cbsechikuwadi@gmail.com,tps@thakureducation.org,","19.1047399,72.7958979"
Michael Primary School,School,Mumbai,"3VJM+63H, New Hall Road",,",cesmhs1979@gmail.com,smshs2008@gmail.com,","19.0559814,72.8200885"
Michael High School,School,Mumbai,"Plot No. 249/8, Lal Bahadur Shastri Marg, Opposite State Bank of India, Kurla West, Kurla, Mumbai, Maharashtra 400070",091366 93263,",cesmhs1979@gmail.com,","19.0833714,72.8732092"
Mumbai Utkal English High School,School,Mumbai,"3VMQ+CJJ, Naupada lane, l.b.s., Lal Bahadur Shastri Marg, Kurla West, behind Naaz Hotel Family Restaurant, Mumbai, Maharashtra 400070",022 2504 0538,",bombayutkalsamiti@gmail.com,","19.0835846,72.8787117"
Dhirubhai Ambani International School,School,Mumbai,"g block, 46, Trident Road, G Block BKC, Bandra Kurla Complex, Bandra East, Mumbai, Maharashtra 400098",022 4061 7000,",info@da-is.org,admissions@da-is.org,info@dais.edu.in,info@dais.edu,admissions@dais.edu.in,","19.06668,72.8601833"
School,School,Mumbai,"Al- Shams Apartment, New Hall Road",,",contact@cityinternationalschool.edu.in,info@da-is.org,info@holynamehighschool.org,info@avmschools-ac-in.mydnscp.com,avmbws@intellischools.org,principal.mumbai@cityinternationalschool.edu,ib.counsellor@podarinternationalschool.com,rsbavm@intellischools.org,info@ags.org.in,admissions@da-is.org,mail@bis.edu.in,schoolgarten@gmail.com,principal@holynamehighschool.org,","19.0801998,72.6861326"
Daffodils English Medium High School,School,Mumbai,"New Mill Rd, Halav Pool, Ambedkar Nagar, Kurla West, Kurla, Mumbai, Maharashtra 400070",080827 85781,",daffodils_school@yahoo.com,info@daffodilshigh.com,desinfo@daffodils.education,","19.0740057,72.8688459"
"Holy Cross High School, Kurla",School,Mumbai,"Main Building, Fr. Peter Pereira Road, opposite Kohinoor City Mall, Kamani, Kurla West, Kurla, Mumbai, Maharashtra 400070",022 2504 2794,",holycrosshskurla@yahoo.in,","19.0837605,72.8771577"
narayana school,School,Mumbai,"Mumbai, Maharashtra",,",nsiliguri@narayanagroup.com,x22nsiliguri@narayanagroup.com,info@narayanagroup.com,u003emumulhas1209a@narayanagroup.com,x3ensiliguri@narayanagroup.com,mumulhas1209a@narayanagroup.com,borivali@narayanagroup.com,mumbrv.etechno@narayanagroup.com,","19.1789292,72.8325627"
D A V Preprimary School,School,Mumbai,"Plot 267/268, Sect 10, Panvel, Panvel, Mumbai, Maharashtra 410206",022 2749 0492,",dav_kharghar@yahoo.com,davmulund@gmail.com,info@davairoli.ac.in,davnerul@gmail.com,info@davnewpanvel.com,davpsairoli@gmail.com,davthane@yahoo.co.in,","19.0759446,72.8675826"
Karachi high school,School,Mumbai,"3VMJ+X29, Bail Bajar, Saki Naka, Mumbai, Maharashtra 400072",,",eyp@bdsint.com,hr@carmel.edu.hk,info@kgs.edu.pk,khskids@gmail.com,sihbhatia@gmail.com,","19.0849078,72.8697942"
Ramesh Sippy Academy of Cinema and Entertainment (RSACE),School,Mumbai,"Ramesh Sippy Academy of Cinema and Entertainment (RSACE, next to GICED Building, Vidya Nagari, Kalina, Santacruz E, Mumbai, Maharashtra 400098",099202 23144,",info@rsace.edu.in,","19.0763124,72.8550897"
"KIDZ KINGDOM - PLAYSCHOOL IN CHEMBUR, MUMBAI",School,Mumbai,"L 14/1 Tilak Vrindavan housing society, opp R.S Mani store,, Tilak nagar, Chembur, Mumbai, Maharashtra 400089",095944 79850,,"19.0650749,72.8797153"
Little Buds Nursery,School,Mumbai,"B-12, Tilak Nagar Railway Station Rd, Tilak Nagar, Kurla, Mumbai, Maharashtra 400089",092242 75880,,"19.066877,72.881378"
Podar Jumbo Kids Preschool,School,Mumbai,"60/D Akbar Mansion, Bank of Hyderabad lane, Santacruz East",,"career@podar.org,thane@podarprep.com,education@podar.org,,","19.07732,72.7974827"
"KLAY Kalina, East Mumbai - Centre for Child Development and Care",School,Mumbai,"First Floor, Manek Plaza, CST Road, opp. Central Plaza, Kolivery Village, MMRDA Area, Kalina, East, Mumbai, Maharashtra 400098",076767 08888,",admissions@klayschools.com,u003eadmissions@klayschools.com,","19.0725853,72.856871"
"EuroKids Preschool in Ghatkopar East, Mumbai",School,Mumbai,"Shop No.1 and 2, Gagangiri CHS Ltd Next to Orbit Tower, near SUDHA PARK, Garodia Nagar, Ghatkopar East, Mumbai, Maharashtra 400077",085911 62036,"eurokids@gmail.com,githa400@gmail.com,eurokidsghatkopareast@gmail.com,,","19.0723621,72.8979603"
"edukidz International, Tilak Nagar",School,Mumbai,"Noble Medicals Tilak Nagar, Building number 13-14, Opp, Tilak Nagar, Mumbai, Maharashtra 400089",072087 17344,",edukidz2015@gmail.com,","19.0700093,72.8866712"
EuroKids Pre-School Mumbai-Vile Parle-EAST,School,Mumbai,"101, Yash Laxmi, Main Road, Subhash Rd, Vishnu Prasad Society, Navpada, Vile Parle East, Vile Parle, Mumbai, Maharashtra 400057",097693 63116,",feedback@eurokidsindia.com,","19.1056039,72.8393788"
Kohinoor Business School Mumbai / Kohinoor Management School,School,Mumbai,"Kohinoor Education Complex KOHINOOR CITY, Kirol Rd, off Lal Bahadur Shastri Marg, Vidyavihar West, Mumbai, Maharashtra 400070",098201 55405,"contact@kbs.ac.in,contact@kohinoor.edu,info@collegefunda.com,,","19.0752572,72.8763063"
Ramsheth Thakur Public School,School,Mumbai,Maharashtra,,",info@rtpsk.tk,rtpsfrontoffice@gmail.com,sau.srtcbseulwa@gmail.com,lrtpskamothe@gmail.com,tps@thakureducation.org,aloni.raj4@gmail.com,","19.0004578,67.583596"
Oxford Public school,School,Mumbai,"Plot No. 9, Ganesh Darshan Society, Sector 5 Charkop, Kandivali West, Mumbai, Maharashtra 400067",022 2860 3100,",svboxford@yahoo.in,oxford_inq@rediffmail.com,oxfordinq2023@gmail.com,ops.e@hotmail.com,oxfordinq@rediffmail.com,","19.2176713,72.8150288"
Trinity international school,School,Mumbai,"192, CST Road",,",pes.trinityis@gmail.com,","19.0552815,72.8490053"
IES Primary Marathi Medium School,School,Mumbai,"RSC Road No 2, Sector 2, Kandivali West, Mumbai, Charkop, Maharashtra 400067",022 2868 0360,,"19.0748112,72.2181132"
Saifee High School,School,Mumbai,"M I D C, Sector 16a, Uran M I D C",,",info@saifihighschool.in,","19.0147818,72.8137524"
Orion School,School,Mumbai,"No 1, Project Rd",,",info@orionschool.in,vpms.orionpp@gmail.com,vpms.orion@yahoo.co.in,vpmshirak@yahoo.in,orion@ies.edu,vpms.orion@gmail.com,","19.0740267,72.8107075"
Xavier School,School,Mumbai,Maharashtra,,"ecte@ryangroup.org,,contact@stxaviersfort-org.mydnscp.com,stxavierschool.nerul@gmail.com,principal@stxaviersfort.org,sxbaoffice@gmail.com,stxehsthane@gmail.com,","19.1021517,72.7397803"
Swami Vivekanand Lp Primary School,School,Mumbai,"8, Santacruz – Chembur Link Rd, Kolivery Village, Kunchi Kurve Nagar, Sahakar Nagar, Santacruz East, Mumbai, Maharashtra 400098",,",info.gorai@svischool.com,x3evesasc.admin@ves.ac.in,swaminursery@ves.ac.in,sveps@ves.ac.in,vesasc.admin@ves.ac.in,","19.0739352,72.8592485"
Ascend,School,Mumbai,3V99+96H,,"admin@ascendinternational.org,,last_initial@ascendinternational.org,","19.068285,72.8492173"
Telugu Medium Schools,School,Mumbai,"40, CST Road, Kurla West, Chembur, Mumbai, Maharashtra 400070",,"57533@cbseshiksha.in,,bvbv_130106@yahoo.com,helpdesk@andhraeducationsocietymumbai.org,","19.0749217,72.8619092"
Genius Kids Pre Primary And Kenza Academic School,School,Mumbai,"No 200, AH Wadia Marg, Ambedkar Nagar, Kurla West, Kurla, Mumbai, Maharashtra 400070",,",geniusshaaheen@gmail.com,","19.0729425,72.8684989"
Atomic energy central school,School,Mumbai,"192, CST Road",,",aecs2-mum@aees.gov.in,aecs3.mum-dae@gov.in,u003eaecs3.mum-dae@gov.in,aecs4mum@gmail.com,","19.0551683,72.8646256"
Asalpha Municipal School,School,Mumbai,"3VWW+PJM, Subhash Nagar, Mohili, Asalpha, Mumbai, Maharashtra 400084",,"info@entranceindia.com,,bhagwatintc@gmail.com,","19.0968485,72.8862604"
"APCA - Academy of Pastry & Culinary Arts , Mumbai - School For Baking & Culinary Arts",School,Mumbai,,084484 49002,,"19.1076363,72.8692593"
"Delhi Public School, Navi Mumbai",School,Mumbai,"2249+698, Palm Beach Rd, near NRI Complex",,",principaldpsnerul@gmail.com,info@dwpsnerul.com,dpsnm@yahoo.com,","18.984319,72.9875872"
VIBGYOR High School Kharghar | CBSE & ICSE School,School,Mumbai,"Plot No. 35, Sector 15, Kharghar, Navi Mumbai, Maharashtra 410210",070456 90966,,"19.0430143,73.0707452"
ORCHIDS The International School - CBSE School in Seawoods,School,Mumbai,"Plot no. 5, Post Office Nerul Node III, Seawoods West, Sector 40, Seawoods, Navi Mumbai, Maharashtra 400706",088888 88999,",marketing.seawoodsschools@orchids.edu.in,admin.oisp@orchids.edu.in,info@orchids.edu.in,","19.0215959,73.0034828"
Apeejay School - Nerul,School,Mumbai,"22PC+86H, Jain Mandir Rd, NL-2 Type, Sector 15, Nerul, Navi Mumbai, Maharashtra 400706",022 2770 3635,",skool.khg.by@apj.edu,skool.nrl.by@apj.edu,","19.0353757,73.0107642"
Podar International School,School,Mumbai,"Plot Number 30, Palm Beach Rd, near HP Petrol Pump",,",info@podarworld.org,education@podar.org,x3eprincipal.cbsebengaluru@podar.org,ib.counsellor@podarinternationalschool.com,principal.ib@podar.org,admissions@podar.org,principal.cbsebengaluru@podar.org,admissions.worli@podar.org,","19.1402955,72.7471301"
Don Bosco Nerul,School,Mumbai,"Don Bosco School, opposite D mart, Seawoods West, Sector 42A, Seawoods, Navi Mumbai, Maharashtra 400706",022 2771 2031,",donbosconerul@gmail.com,","19.0176358,73.0049493"
Vishwajyot High School & Preschool in Kharghar | Navi Mumbai,School,Mumbai,"Plot No -77, Vishwajyot High School, Sector 20, Kharghar, Navi Mumbai, Maharashtra 410210",070390 06567,",admissions@vishwajyot.com,info@vishwajyot.com,","19.0526912,73.0624587"
Ryan International School - Nerul,School,Mumbai,"Plot No. 1/A, A, near Uran Road, Naka, Nerul East, Sector 19, Nerul, Navi Mumbai, Maharashtra 400706",022 2771 9687,",ris.nerul@ryangroup.org,","19.0300807,73.0176998"
DAV Public School Nerul,School,Mumbai,"DAV PUBLIC SCHOOL, DAV PUBLIC SCHOOL NERUL, Plot No 34, Nerul, Sector-48, Seawoods, Late Sri Anil R Kanngaonkar Marg, Suryodaya Society, Om Ganesh Society, Karave Nagar, Seawoods, Navi Mumbai, Maharashtra 400706",022 2771 4017,",u003edavnerul@gmail.com,davnerul@gmail.com,","19.0128936,73.0047501"
Indo Scots Global School - School in Navi Mumbai,School,Mumbai,"Plot No. 15, near Mansarovar Railway Station, Old VSNL Colony, Sector - 17, Kamothe, Panvel, Navi Mumbai, Maharashtra 410206",086248 60454,",info@indoscotsglobalschool.com,","19.0150034,73.0768003"
Delhi World Public School,School,Mumbai,"Plot no. 7A & 7B, Sector 12, Near, Palm Beach Rd, Nerul West, Navi Mumbai, Maharashtra 400706",090822 90746,",info@dwpsnerul.com,principal.dwpspv@gmail.com,","19.0376017,73.0032102"
Avalon Heights International School,School,Mumbai,"APMC Market 2, Phase 2, Sector 19B, Vashi, Navi Mumbai, Maharashtra 400703",022 2783 9988,"last@avalonheights.org,info@avalonheights.org,xxxx@avalonheights.org,,","19.0865925,73.0004962"
D Y Patil International School,School,Mumbai,22VF+QXV,,",info@dypisworli.in,recruitment@dypisworli.in,Info.bschool@dpu.edu.in,contact@dyisnerul.in,info@dypisnerul.in,","19.0158652,72.8182399"
Apeejay School - Kharghar,School,Mumbai,"Apeejay School, Node, Sector 21, Kharghar, Navi Mumbai, Maharashtra 410210",022 2774 5501,",u003eskool.khg.by@apj.edu,skool.khg.by@apj.edu,skool.nrl.by@apj.edu,","19.0486998,73.0577075"
Amity International School,School,Mumbai,"Plot 81, opposite Mahavir Icon, Building, Sector 15, CBD Belapur, Navi Mumbai, Maharashtra 400614",072080 84802,",info@alsbelapur.amity.edu,admissions@aisbelapur.amity,info@aisbelapur.amity.edu,admissions@aisbelapur.amity.edu,principal@aiss.amity.edu,","19.0093021,73.0264981"
Terna ORCHIDS The International School - CBSE School in Koparkhairane,School,Mumbai,"Plot No. 23, Sector 1, Kopar Khairane, Navi Mumbai, Maharashtra 400709",088888 88999,",communications.oiskkh@orchids.edu.in,principal.koparkhairaine@orchids.edu.in,info@orchids.edu.in,admin.oiskkh@orchids.edu.in,","19.1102502,72.9952552"
St. Augustines High School,School,Mumbai,"Nerul East, Sector 11, Nerul, Navi Mumbai, Maharashtra 400706",,",sasvasai.principal@gmail.com,staugustine.nerul@xaviers.org,","19.0378751,73.0103055"
Ryan International School,School,Mumbai,"Plot No. 34, St Nirankari Marg",,"hr.mumbai@ryangroup.org,,ris.goregaon@ryangroup.org,info@ryangroup.org,ris.kandivli@ryangroup.org,marketing@ryangroup.org,rcs.borivli@ryangroup.org,ryan.alumni@ryangroup.org,rismaladcbse@ryangroup.org,rismalad.icse@ryangroup.org,","19.1245267,72.7842464"
ORCHIDS The International School - CBSE School in Vashi,School,Mumbai,"Plot No. 6A, Kopari, MAFCO Rd, beside Swami Vivekanand School, Sector 26, Vashi, Navi Mumbai, Maharashtra 400703",088888 88999,",sanket.chothe@orchids.edu.in,admin.oisp@orchids.edu.in,info@orchids.edu.in,principal.oisvsh@orchids.edu.in,","19.0879242,73.0040536"
Jaipuriar School,School,Mumbai,"12 , Sector : 18, PLOT NO.- 88, Jaipuriar School, Off, Palm Beach Service Road, Sector 18, Sanpada, Navi Mumbai, Maharashtra 400705",090297 05430,",office.navimumbai@jaipuriarschool.org,admissions.navimumbai@jaipuriarschool.org,jaipuriarsschool@gmail.com,","19.0564343,72.9952614"
Cocoon Preschool,School,Mumbai,"Row House No 15 & 16, West",,",henna@cocoonpreschool.co.in,Connecthimanshi@gmail.com,cocoon.vashi@gmail.com,u003ecocoon.vashi@gmail.com,","19.0599656,72.9721111"
National Urdu High School Taloja,School,Mumbai,"338P+R82, near Madni masjid, Taloje Panchanand, Sector 40, Taloja, Navi Mumbai, Maharashtra 410210",,",XXXX@XXXXXX.XXX,pesnuhs1977@gmail.com,nuhsk2010@gmail.com,","19.0670069,73.0754739"
EuroKids Pre-School Navi Mumbai - Taloja 2,School,Mumbai,"Kalpavruksha Valley, Shop 1, 2, 3, 4 Plot 93",,"eurokids.taloja@gmail.com,,u003eeurokids.taloja@gmail.com,","19.0763359,73.0932709"
Edu tech school,School,Mumbai,Edu Tech School Building Plot No.37,,",hr@oberoi-is.org,enquiry@ecolemondiale.org,info.ghatkopar@universal.edu.in,admissions@oberoi-is.org,x3eenquiry@ecolemondiale.org,","19.1290955,72.7891431"
New City Montessori,School,Mumbai,"D-009, Mayuresh Row House, Plot No: 137-146,, Sector 21, Nerul East, Navi Mumbai, Maharashtra 400706",,",x3ealiganj1@cmseducation.org,aliganj1@cmseducation.org,cmsaliganj1@yahoo.com,","19.0302297,73.0109252"
"EuroKids Pre-School Sector-20, Best Kindergarten in Roadpali",School,Mumbai,"Shop No 5,6 & 7, Siddhivinayak Heights,, Plot No 47, Sector 20,, Roadpali, Panvel, Navi Mumbai, Maharashtra 410218",097691 04070,,"19.0354198,73.0828429"
Pro Sancity Play School,School,Mumbai,"22GC+PFG, Ring Rd 4, Nerul East, Sector 21, Nerul, Navi Mumbai, Maharashtra 400706",,"dombivli2811@bachpanglobal.com,radharanipal05@gmail.com,,","19.0268057,73.0108887"
"Infinity Kids Preschool & Daycare - Kharghar, Sector 34",School,Mumbai,"Plot no 26, Siddhivinayak Darshan Chs, shop no 1,2, Sector 34-B, Kharghar, Navi Mumbai, Maharashtra 410210",091523 45100,,"19.0697987,73.0701201"
My Chhota School Taloja 2,School,Mumbai,"Plot no 22, 23",,",info@mychhotaschool.com,","19.075877,73.0893046"
"EuroKids Preschool in Seawoods1, Navi Mumbai",School,Mumbai,"Shop 1 - 8 Garden View CHS Plot 47, Sector 44A, Seawoods, Navi Mumbai, Maharashtra 400707",084338 34849,",eurokids.seawoods@gmail.com,feedback@eurokidsindia.com,","19.0130102,73.001148"
Skills and Ability School,School,Mumbai,"Plot No. 9, Nerul East, Sector 11, Nerul, Navi Mumbai, Maharashtra 400706",022 2770 4355,"animalangels@animalangels.org.in,ccs.principal@gmail.com,aecs3.mum-dae@gov.in,,","19.0383051,73.0107997"
Hello Kids - Tweety Preschool,School,Mumbai,"Abive archies gallery, Akarshan Apartment, FA-2, 1st Floor, near MTNL office, Nerul East, Sector 15, Navi Mumbai, Maharashtra 400706",090290 91555,",info@hellokids.co.in,hellokids.tweety@gmail.com,","19.0344675,73.0096165"
NMMC School 112 karave,School,Mumbai,"2296+W2M, Seawoods West, Karave Village, Sector 36, Seawoods, Navi Mumbai, Maharashtra 400706",,",info@thefirmarchitecture.com,","19.0198427,72.999737"
"EuroKids Pre-School Navi Mumbai-Ulwe Sector 17, Biggest preschool in entire ulwe",School,Mumbai,"Shop 1, 2, 3, 4 & 5, Shreeji Corner, school, opp. Ramsheth Thakur International Sports Complex, Sector 17, Ulwe, Navi Mumbai, Maharashtra 410206",084336 30907,",hello@blox.xyz,","18.9625855,73.009886"
Radcliffe Group of Schools - Ulwe | CBSE School in Ulwe,School,Mumbai,"Plot No 2, छत्रपती शिवाजी महाराज मार्ग, opp. to Siddhivinayak Utopia, Near Bamandongri Railway Station, Sector 20, Ulwe, Navi Mumbai, Maharashtra 410206",093217 38073,",radcliffeulwe.principal@gmail.com,","18.9777729,73.0168822"
"Quack Quack Pre-school, Daycare & Activity Center",School,Mumbai,"CHS LTD, Row House, 8, Park Ave Rd, Sector 17, Nerul, Navi Mumbai, Maharashtra 400706",072080 58725,,"19.0333062,73.0114782"
"Mindseed Preschool & Daycare - Kamothe, Sector 7",School,Mumbai,"CHS, Plot No 28, Sheetal Dhara, Shop No 39/40, Sector 7, Kamothe, Navi Mumbai, Maharashtra 410209",077380 66441,,"19.0246761,73.0828954"
"Mindseed Preschool & Daycare - Kamothe, Sector 35",School,Mumbai,"Plot 27, Shop No. 1 & 2, Neptune Paradise, near GEMS, Sector 35, Kamothe, Navi Mumbai, Maharashtra 410209",077380 66441,,"19.0226945,73.0770111"
Mindseed Preschool & Daycare - Kalamboli,School,Mumbai,"Shop No. 1 - 6, Dimpy Origen. Sector -16, near Siddhivinayak Hospital, Roadpali, Kalamboli, Navi Mumbai, Maharashtra 410218",077380 66441,,"19.0387421,73.0877151"
Navi Mumbai Vidyalaya Vashi School,School,Mumbai,335F+VPG,,",nmvashi.kg@ies.edu,","19.0736904,73.0030369"
ORCHIDS The International School - CBSE School in Thane,School,Mumbai,"Cosmos Arcade, Azad Nagar, Opposite Brahmand Phase 4, Beside TMC Water Tank, Kolshet, Thane (West), Mumbai, Maharashtra 400607",088888 88999,",info.thane@orchids.edu.in,info@orchids.edu.in,adil.shaikh@orchids.edu.in,principal.oist@orchids.edu.in,kalpana.majithia@orchids.edu.in,","19.2419316,72.9727909"
"Little Flower High School, Thane",School,Mumbai,"6X86+XHR, Pokharan Rd Number 2, Near Blue Star Co., Unnathi Gardens, Thane West, Thane, Maharashtra 400610",022 2173 1032,",info@lfhschool.com,xxxx@lfhshyd.org,","19.2174849,72.951099"
D.A.V. Public School,School,Mumbai,"Plot No 11 Sector 10 Road Airoli Navi Mumbai, Mumbai, Maharashtra 400708",022 2760 0657,",dav_kharghar@yahoo.com,davmulund@gmail.com,davthane@yahoo.co,info@davairoli.ac.in,davnerul@gmail.com,info@davnewpanvel.com,davpsairoli@gmail.com,davthane@yahoo.co.in,","19.147741,72.9770901"
Vasant Vihar High School & Jr. College,School,Mumbai,"Vasant Vihar High School & Jr College, Vasant Vihar, Thane West, Thane, Maharashtra 400610",022 4027 8300,"vasanviharschool@gaet.edu.in,,","19.2232894,72.9557894"
Saraswati Education Society’s High School & Junior College,School,Mumbai,"5XV9+P2Q, Panchpakadi, Dharamveer Nagar, Thane West, Thane, Mumbai, Maharashtra 400602",022 2533 3593,,"19.1943449,72.9573109"
SVPM's Sanskar Public School (SPS),School,Mumbai,"Pokharan Rd Number 1, Opposite Shivai Bus Stop, Near Shivai Nagar Circle, Upwan, Shivai Nagar, Thane West, Thane, Maharashtra 400606",098927 87534,",sanskarpublic123@gmail.com,principal@sanskarpublicschool.org,","19.216373,72.9454925"
C.P. Goenka International School,School,Mumbai,"Maharashtra State Highway 42, Junction, off Ghodbunder Road, near Ashapura Mandir",,",admissions.borivali@cpgoenka.org,goenkainternationalschool@gmail.com,","19.1810258,72.7632074"
St. John The Baptist High School and Jr. College,School,Mumbai,"5XWG+465, near Talao Pali, Charai, Thane West, Thane, Maharashtra 400601",022 2534 1146,",info@sjbhs.org,sjbhs@gmail.com,sjbhsadmission@gmail.com,","19.1952608,72.9653173"
Vidyaniketan English School,School,Mumbai,"1, Shastri Nagar, Vartak Nagar, Thane West, Thane, Maharashtra 400606",022 2588 9493,"maill@yashvidyaniketan.org,XXXX@XXXXXX.XXX,vidya.niketan.school@gmail.com,,","19.2113283,72.9457654"
Lok Puram Public School,School,Mumbai,"Smt. Gladys Alvares Road Off. 2nd Pokhran Road, Majiwade, Thane West, Thane, Maharashtra 400606",022 2171 6262,",lpps_thane@hotmail.com,","19.2260117,72.9583894"
Saraswati Vidyalaya High School and Junior College of Science,School,Mumbai,"Shop No 1, Shop No 1, Behind Central Jail, Rabodi - 1, near Saraswati School, Rabodi, Thane, Maharashtra 400601",090826 46119,",info@svptsaraswati.com,saraswatividyalaya@gmail.com,","19.2022966,72.9748132"
Smt. Sunitidevi Singhania school,School,Mumbai,"6X78+XX9, Pokharan Rd Number 2, Swastik Garden, Thane West, Thane, Maharashtra 400606",022 6863 7500,",admin@sunitidevisinghaniaschool.org,ibinfo@singhaniaschools.org,","19.2149163,72.9571932"
Chhatrapati Shivaji School,School,Mumbai,"12, Dharmaveer Anand Dhige Marg",,",admission@csmu.ac.in,csmvsmumbai@gmail.com,x3eadmission@csmu.ac.in,admission.counselor@csmu.ac.in,hmpsoffice@yahoo.com,aecs3.mum-dae@gov.in,info@csmu.ac.in,chhatrapati.ushanagar@rediffmail.com,admin@mssa.co.in,","19.1280799,72.8372964"
St . Xaviers English High School and junior college,School,Mumbai,"Rai Master Compound, Ghodbunder Road, Chitalsar, Manpada, Thane West, Maharashtra 400607",022 2589 4422,",contact@stxaviersfort-org.mydnscp.com,u003estxehsthane@gmail.com,stxavierschool.nerul@gmail.com,principal@stxaviersfort.org,stxehsthane@gmail.com,","19.2402685,72.9665241"
"Lodha World School, Thane",School,Mumbai,"Lodha Paradise Compound, Near Majiwade Flyover, Eastern Express Hwy, Thane, Maharashtra 400606",093728 61994,",contact_thane@lodhaworldschool.com,contact@lodhaworldschool.com,contact_lsg@lodhaworldschool.com,","19.2140701,72.9746"
Rainbow International School - Thane,School,Mumbai,"Cosmos Arcade Azad Nagar, opposite Brahmand Phase 4, beside TMC Water Tank, Kolshet, Thane West, Maharashtra 400607",022 6910 5000,",vimlesh@rainbowpreschools.com,u003evimlesh@rainbowpreschools.com,x3epro@risu.sc.ug,pro@risu.sc.ug,admin@rainbowinternationalschool.in,","19.2425851,72.9729678"
Sankalp English School,School,Mumbai,"6X44+85W, Patil Wadi, Sawarkar Nagar, Yashodhan Nagar, Thane West, Thane, Maharashtra 400606",096199 08508,",lakshmi.krishnakumar@sankalpnet.org,contact@sankalpenglishschool.org,sankalpenglishschool123@gmail.com,sankalpsoarshigh@gmail.com,","19.2058648,72.9451688"
A.K. Joshi High School,School,Mumbai,"Mahatma Phule Road, Off Gokhale Road, Ward No 1, Naupada, Thane, Maharashtra 400602",022 2542 1447,",akjoshi@vpmthane.org,","19.1879821,72.9605039"
Shiv Samarth Vidyalay,School,Mumbai,"4, Ram Maruti Rd, Naupada, Thane West, Thane, Maharashtra 400602",,"ssmshivsamarth@gmail.com,,","19.1938723,72.9626111"
WEMA English School,School,Mumbai,"2, Kisan Nagar Rd, Kisan Nagar, Thane West, Thane, Maharashtra 400604",,",nes.kg@ies.edu,nes.primary@ies.edu,","19.1908787,72.9398936"
Sarvodaya English High School,School,Mumbai,"Manpada, Azad Nagar, Church Road, Thane West, Thane, Maharashtra 400607",022 2589 6690,",skvsector1@gmail.com,nshsjrcollege@nationalsarvodaya.com,","19.2370768,72.970051"
Dnyanpeeth Vidyalaya,School,Mumbai,"Manorama Nagar, Azad Nagar, Thane, Maharashtra 400607",,"kvthane@gmail.com,,rtpsfrontoffice@gmail.com,","19.2359459,72.971494"
Om Public School - Best School in Dombivli | CBSE School,School,Mumbai,"Cafe Nagar, Kalyan - Shilphata Rd, behind MUKTA RESIDENCY, Daighar Gaon, Dombivli, Thane, Maharashtra 421204",093215 04141,,"19.1431102,73.0488506"
Thane Municipal School 23,School,Mumbai,"03, Rd Number 16, Wagle Estate, Kisan Nagar, Thane West, Thane, Maharashtra 400604",,"mc@thanecity.gov.in,,stxehsthane@gmail.com,","19.189406,72.9385375"
Fun n Learn Preschool & Nursery | Best Preschool in Vartak Nagar Thane,School,Mumbai,"1st Floor, Glorio Building, Puranik's Grand Central, next to Smt. Thirani School, opp. Sarla's Parlour, Vartak Nagar, Thane West, Thane, Maharashtra 400606",099204 60887,,"19.2131255,72.9501089"
TWINKLE STAR PRE-SCHOOL & DAY CARE - DAY CARE IN THANE,School,Mumbai,"6XQJ+P7J, BEHIND AZAD NAGER BUS STOP BRAHMAND NAKE, Kolshet Rd, Thane, Maharashtra 400607",090229 87121,,"19.2393323,72.9703344"
"The Reading Tree, Thane",School,Mumbai,"Hiranandani Estate, Thane West, Thane, Maharashtra 400607",022 4280 7639,",thereadingtree@gmail.com,","19.2538477,72.9720522"
M.H Vidyalaya,School,Mumbai,"5XRG+599, Shivaji Path, Station Rd",,",school@gmail.com,info@ies.edu,vidyadeepvidyalaya@gmail.com,kvsmracad@gmail.com,idyalay@gmail.com,nkvsmracad@gmail.com,","19.1871329,72.7324469"
Bhagavati Vidyalaya,School,Mumbai,"5XQ9+MCJ, Chhatrapati Sambhaji Rd, Naupada, Thane West, Thane, Maharashtra 400602",022 2540 4400,,"19.1892216,72.95821"
Euroschool,School,Mumbai,"400607, Ghodbunder Rd",,",airoli@euroschoolindia.com,","19.1648516,72.8467298"
Bims Paradise English High School,School,Mumbai,"Ward No.3, Mithbandar Rd, Manoramanagar, Kapurbawdi, Thane West, Thane, Maharashtra",,"contact@nesism.in,,info@entranceindia.com,","19.2181352,72.9681631"
S.B.J. English high School,School,Mumbai,"6XJH+PRP, Manorama Nagar, Thane West, Thane, Maharashtra 400607",022 2589 4807,",info@svptsaraswati.com,","19.2318417,72.9692661"
Child-in-You,School,Mumbai,"B/6 Aggarwal Estate, Next to Kidpop Activity Centre, Chitalsar, Manpada, Thane West, Thane, Maharashtra 400610",022 2589 3373,"admissions@dsbindia.com,,info@pratham.org,admissions@activityinfantschool.com,","19.2339538,72.9618213"
Oxford English School,School,Mumbai,"LBS MARG, Kurla West, Saki Naka, Mumbai, Maharashtra 400072",,"info@aims-india.org,khan.4250@gmail.com,svboxford@yahoo.in,,oxfordicse@yahoo.co.in,info@oxfordinternationalschool.in,u003eops.e@hotmail.com,icseprincipal@theoxford.edu,sankalp.sc@gmail.com,ops.e@hotmail.com,oxford.e.inq@gmail.com,","19.088932,72.8789426"
Gramin Shikshan Sanstha English Highschool And Junior College,School,Mumbai,"6X7M+272, Eastern Express Hwy, Majiwada Village, Tirumala Society, Sainath Nagar, Majiwada, Thane, Maharashtra 400601",097625 77124,,"19.2125247,72.9728492"
Seven Square Academy,School,Mumbai,"Vihang Valley Cooperative Housing Society Wing-C4, VIHANG VALLEY CO-OPERATIVE HOUSING SOCIETY, Ghodbunder Rd, opposite Vihang Valley",,"info@ng.ssa.education,hrd@sevensquareacademy.org,,administrativeofficer@sevensquareacademy.org,u003dhrd@sevensquareacademy.org,jsmith@sevensquareacademy.org,","19.295513,72.8621771"
"Ryan International School, Thane",School,Mumbai,"COLLEGE, Ghodbunder Rd, Anand Nagar, Thane West, Thane, Maharashtra 400615",086573 55247,"hr.mumbai@ryangroup.org,ris.kharghar@ryangroup.org,,RIS.NLSP@RYANGROUP.ORG,info@ryangroup.org,marketing@ryangroup.org,ryan.alumni@ryangroup.org,","19.2638009,72.9584408"
Sheth T.J . High School,School,Mumbai,"5XWH+HP2, Balwantrai Mehta Marg, Kharkar Alley, Thane West, Thane, Maharashtra 400601",022 2543 1119,",saketcollege2009@gmail.com,nktexam1920@gmail.com,XXXX@XXXXXX.XXX,gjcrtn@gmail.com,","19.1963781,72.968957"
Vidya Prasarak's Vidyalaya Balkum & Jr College,School,Mumbai,"near, Balkum Road, Balkum Pada, Majiwada, Thane, Maharashtra 400608",022 2540 5962,,"19.2221359,72.9790204"
Thane Mahanagar Palika School,School,Mumbai,"t.m.c school no. 15/36, Laxmi Chirag Nagar, Chirak Nagar, Thane West, Thane, Maharashtra 400606",,"mc@thanecity.gov.in,,","19.2097376,72.9597599"
EuroSchool Balkum - CBSE School Admission Office,School,Mumbai,"Dosti West County, Balkum Pada Bhiwandi - Wadpa Road, Old, Mumbai - Agra National Hwy, Thane West, Mumbai, Maharashtra 400608",080 6986 7709,,"19.2266568,72.9848728"
Cambridge Montessori,School,Mumbai,Kolshet Rd,,"cmps.kharghar21@gmail.com,,cmpskharghar34@gmail.com,cambridgemontessorinepal@gmail.com,cmpskaggadasapura@gmail.com,cmps.kharghar@gmail.com,info@cambridgemontessoriglobal.org,u003ecmpskaggadasapura@gmail.com,cmpschembur@gmail.com,","19.1413807,72.8577201"
Rainbow Preschool International - Hariniwas,School,Mumbai,"M.V.Apartment, Bhakti Mandir Road, Thane West, opposite Thanawala Garage, Thane, Maharashtra 400601",091365 78589,",hariniwas_branch@rainbowpreschools.com,u003eadmin@rainbowpreschools.com,x3epro@risu.sc.ug,pro@risu.sc.ug,admin@rainbowpreschools.com,","19.191713,72.9562232"
"Podar Jumbo Kids Plus, Thane W",School,Mumbai,"First Floor, Row House 19/143, Opp. Kanchanganga Tower, Vartak Nagar, Thane West, Thane, Maharashtra 400606",099675 95597,",admissions@podar.org,admissions@jumbokids.com,","19.2137269,72.9532865"
Dharamvir Aanand Dhighe Jidd Shala,School,Mumbai,"B-2, B-2, Tulsidham Rd, Siddhachal Phase IV, Siddhachal Housing Society, Pawar Nagar, Thane West, Thane, Maharashtra 400610",022 2171 3599,,"19.2224464,72.9546139"
Rainbow Preschool International - Aggarwal Arcade,School,Mumbai,"Aggarwal Arcade, Near, Khewra Cir Marg, near ACME Ozone, Manpada, Thane West, Thane, Maharashtra 400610",,"aggarwal_branch@rainbowpreschools.com,,adorn.preschool@gmail.com,x3epro@risu.sc.ug,pro@risu.sc.ug,admin@rainbowpreschools.com,","19.2326546,72.9607768"
KATTI BATTI Playgroup & Nursery,School,Mumbai,"22/2, Gharkul CHS Ltd, ESIC Road, Wagle Estate, Sant Dnyaneshwar Nagar, Thane, Maharashtra 400604",099303 17263,,"19.2005233,72.9498604"
Rhymes n Colours International Preschool,School,Mumbai,"Ground floor, Akanksha Gardens, Khewra Cir Marg, near Acme Ozone, Manpada, Thane West, Thane, Maharashtra 400610",093213 48812,"info@rhymesncolours.com,,","19.2328365,72.9621956"
Sarvodaya Hindi School,School,Mumbai,"6XPJ+QVC, Manorama Nagar, Azad Nagar, Thane, Maharashtra 400607",,"sarvodayavidyalaya1973@gmail.com,info@kgss.org.in,XXXX@XXXXXX.XXX,,","19.236933,72.9718378"
Cinema Street Film School | Best Film School in Mumbai | Acting School/Film School in Thane,School,Mumbai,"Kalpataru Industrial Estate, behind R Mall, next to SBJ English High School, Manpada, Thane West, Thane, Maharashtra 400607",072348 88855,,"19.2320144,72.9694348"
Vidya Niketan,School,Mumbai,No reviews,,",vidyaniketan@gmail.com,biramanesa@gmail.com,contact@smvn.suvidya.education,vidya.niketan.school@gmail.com,bhartibiramane@yahoo.in,","19.1631923,72.8396556"
Aarna English School,School,Mumbai,"3, Snehbhand Society, Aai Mata Rd, near Mandir, Sawarkar Nagar, Lokmanya Nagar, Thane West, Thane, Maharashtra 400606",,",info@arqamenglishschool.com,aarnafoundation01@gmail.com,arqamenglishschool@gmail.com,","19.2085405,72.9453928"
Bharatratna Indira Gandhi School,School,Mumbai,"6X43+4P6, Patil Wadi, Sawarkar Nagar, Patil Nagar, Thane West, Thane, Maharashtra 400606",,",XXXX@XXXXXX.XXX,ksgbs.bigcoe@gmail.com,","19.2052834,72.9439592"
Creative High School,School,Mumbai,"6X28+89V, Opp.Chandravadan Society,Near Eastern Express Highway, Ramabai Ambedkar Nagar, Ganeshwadi, Thane West, Thane, Maharashtra 400601",099877 26666,",admission@brightstart.edu.in,info@brightstart.edu.in,","19.2008745,72.9556096"
Laldahabur,School,Mumbai,"6X67+648, Dharmveer Anand Dighe Saheb",,"info@lbsti.org,,drseemapant@yahoomail.com,lbsschool2@gmail.com,lbsti100@gmail.com,lbsschool@hotmail.com,","19.252991,72.849525"
"B S Bane English School, Majiwade, Thane",School,Mumbai,"Swa Datta Mohite Marg, Mhada, Vasant Vihar, Thane West, Thane, Maharashtra 400607",022 2644 8674,"info@entranceindia.com,DRPUJA3322@GMAIL.COM,bsbane2016@gmail.com,,","19.2242705,72.9579939"
Little Millennium - Preschool & Daycare Brahmand,School,Mumbai,"Shop no. 15 & 16 ,Raj Arcade building Nr Bramhand phaseV, Near Saraswat bank Azad Nagar, Brahmand, Thane West, Maharashtra 400607",089280 60540,,"19.2448943,72.972417"
Millennium Star Kids - Brahmand,School,Mumbai,"Kabra Society, nr. Anamitra, Brahmand, Thane West, Thane, Maharashtra 400607",086899 99287,",wowkidslittlechamps@gmail.com,millenniumstarkids@gmail.com,","19.2459438,72.9712417"
"K D L Marathe Primary School, Vartak Nagar, Thane",School,Mumbai,"144, Vartak Nagar, Thane West, Thane, Maharashtra 400606",,"info@entranceindia.com,,hello@blox.xyz,mayuri.dr@gmail.com,","19.2136508,72.951523"
thane mahanagar palika school no 44,School,Mumbai,"6X76+C2F, Pokharan Rd Number 1, Shastri Nagar, Vartak Nagar, Thane West, Thane, Maharashtra 400606",,"mc@thanecity.gov.in,,info@entranceindia.com,","19.2135682,72.9497497"
Makoons Pre School - Naupada Thane,School,Mumbai,"Ratna deep CHS, Ghantali Cross Road, Near Municipal School no 19, Opp. Shushrusha Nursing Home, Vishnu Nagar, Naupada, Thane West, 400602",099309 28562,",thane@makoons.com,Thane.mumbai@makoons.com,","19.1906032,72.9602393"
ABC little Pre-school,School,Mumbai,"6X34+X59, Vasant Vihar Cooperative Housing Society, Ground Floor, Madrecha Rd, near Thakur College, Mahatma Phule Nagar, Thane West, Thane, Maharashtra 400606",,",customer.service@makaan.com,","19.2049177,72.9451822"
TMC School No. 13,School,Mumbai,"6X3C+J8F, Khopat Rd, Hans Nagar, Thane West, Thane, Maharashtra 400601",,",XXXX@XXXXXX.XXX,mumbai.11thadmission@gmail.com,tmhresident@tmc.gov.in,","19.2040672,72.9605084"
BRIO INTERNATIONAL SCHOOL,School,Mumbai,"462, Pasaydan Marg, off Gorai Road, New MHB Colony, Ashtavinayak Nagar, Borivali West, Mumbai, Maharashtra 400091",093217 52656,"u003eprincipal@poddarbrioschool.com,,director@poddarbrioschool.com,enquiry@bmsbrio.com,admissions@poddarbrioschool.com,reception@poddarbrioschool.com,ceo@poddarbrioschool.com,poddarbrioschool.com_admissions@poddarbrioschool.com,admin@poddarbrioschool.com,principal@poddarbrioschool.com,","19.2271753,72.8275996"
Little Flower Kindergartenii,School,Mumbai,Pokharan Rd Number 1,,",lfcspkl.counsellor@gmail.com,thelittleflowerscollege@gmail.com,littlefloweredu@gmail.com,contact@lfsloni.org,x3elfcspkl.counsellor@gmail.com,info@lfhschool.com,","19.0804028,72.7423118"
marathi school,School,Mumbai,"6XXH+74X, Hiranandani Estate Rd",,",XXXX@XXXXXX.XXX,jesprimary1932@gmail.com,","19.072488,72.7218955"
"TMC School No: 54, Hindi Marathi Medium",School,Mumbai,"6XXG+H7V, Water Tank, Patlipada, Thane,, Patlipada, Thane West, Thane, Maharashtra 400607",,"info@entranceindia.com,,","19.2489945,72.9653803"
Disney Preschool,School,Mumbai,"Shop no. 16/153 , Pragati Chs,In the lane of Bharat Petrol pump, Mahavir Nagar, Kandivali West, Mumbai, Maharashtra 400067",091673 29991,",intlschool@smshettyinstitute.org,","19.2109478,72.8289698"
Kidzee Preschool & Day Care Centre Dhokali Thane,School,Mumbai,"Shop No-1, Hansraj compound Manorama Nagar Road, Dhokali Pada, opposite Shree Swami Krupa, Phase-2, Thane West, Maharashtra 400607",079777 70424,,"19.2286415,72.9699837"
"Zilla Parishad School, Dongripada",School,Mumbai,"7X2C+G5M, Agvan, Dongripada, 400607",,"info@entranceindia.com,,","19.2513283,72.9601163"
Thane Muncipal Corpartion School Tmc School,School,Mumbai,,,",dmc.cpa@mcgm.gov.in,dmc.aac@mcgm.gov.in,cbsetungavillage@gmail.com,dmc.dm@mcgm.gov.in,","19.2248509,72.9267686"
Blossoms Pre School,School,Mumbai,"EVEREST WORLD TULIP, 145, Kolshet Rd",,",admissions@kohinoorblossoms.ac.in,admin@kohinoorblossoms.ac.in,bkidzprincipal@gmail.com,preprimaryschoolsindia@gmail.com,surekha@gmail.com,","19.1110946,72.7382976"
Shubham Raj jr callege,School,Mumbai,"Ghodbunder Rd, near Hiranandani Estate, Patlipada, Thane West, Thane, Maharashtra 400607",085912 88300,",psgatkal@shubhamrajecollege.com,srjccollege@gmail.com,","19.2486872,72.9692627"
Anand Vishwa Gurukul,School,Mumbai,"5XR6+3C8, Anand Vishwa Gurukul Sr College, near Mittal Park, Thane, Maharashtra 400604",022 2582 5848,",avgcollegeoflaw@gmail.com,anandvishwagurukul2010@gmail.com,avgsrcollege@gmail.com,kxxxxxxt@anandvishwagurukul.com,","19.1901501,72.9507653"
Dongripada shivsena shakha thane west,School,Mumbai,6XVJ+G9G,,",riteshjadhav.rj@gmail.com,asmimahajan28@gmail.com,","19.2475447,72.9727109"
My School ITALY | Manpada,School,Mumbai,"Odedra Villa, near Neelkanth Greens, Manpada, Thane West, Thane, Maharashtra 400610",093260 89810,,"19.2416268,72.9595555"
"EuroKids Preschool in Ghodbunder, Thane",School,Mumbai,"Shop 16 -17, Vinca 1, Cosmos Park, MH SH 42, opp. Suraj Water Park, Kavesar, Thane West, Thane, Maharashtra 400601",080802 67723,",eurokids.lodhasplendora@gmail.com,ekthane@yahoo.co.in,","19.2592467,72.9619008"
Kidzee,School,Mumbai,"7X6H+C4Q, Neopolis, Park Ave",,",N.kashyap03@gmail.com,franchise@kidzee.com,","19.6973806,61.0776043"
Tiny Toes,School,Mumbai,A11,,",tinytoes.kalyan@gmail.com,","19.0606474,72.6449825"
M S Bagul,School,Mumbai,"D6 Building, Rutu Estate Internal Roads",,"nhpsairoli@newhorizonsms.com,,ssaeiwestgrmumbai@gmail.com,fsabmps@gmail.com,md@tdsgroup.in,timscdr@thakureducation.org,","19.0977203,72.7335661"
Bharat English High School,School,Mumbai,6X75+86R,,",bharatschool@gmail.com,bharatkausa.school@yahoo.com,bharatenglishschooldv@gmail.com,readersschooldahisar@gmail.com,","19.1914893,72.9188615"
RJ Thakur School and Degree college,School,Mumbai,"near, Kamgar Hospital Rd, Veer Savarkar Nagar, Chaitraban Society, Patil Nagar, Thane West, Thane, Maharashtra 400606",022 2580 4523,,"19.2053298,72.9445337"
Rainbow Preschool International - Anand Nagar,School,Mumbai,"Kris commercial Plaza, Opp Saraswati Vidyalaya, Behind Mucchala College, Anand Nagar, Kavesar,, Thane West, Maharashtra 400615",098337 81550,",an_branch@rainbowpreschools.com,kasarwadavli_branch@rainbowpreschools.com,x3epro@risu.sc.ug,pro@risu.sc.ug,","19.264872,72.960448"
Bright Beginnings International Preschool Hiranandani Estate,School,Mumbai,"206, Hiranandani Arcadia, Hiranandani Estate, Thane West, Thane, Maharashtra 400607",,",bbeginnings2020@gmail.com,bbeginningsthane@gmail.com,info@brightbeginnings.in,","19.2545412,72.971814"
Paper Planes Preschool & Daycare,School,Mumbai,"DOSTI IMPERIA, S2/15, Manpada, Thane West, Maharashtra 400607",099300 87130,",hello@paper-planes.in,","19.2329297,72.9657491"
Sri Ma Bal Niketan High School,School,Mumbai,"Eastern Express Hwy, Kopri, Thane East, Thane, Maharashtra 400603",,"nagda_sneha@yahoo.co.in,,smbnthane@srima.edu.in,","19.1770588,72.9583502"
Nanik English High School,School,Mumbai,"Parshiwad Bhaji Market, NANIK ENGLISH HIGH SCHOOL, Inside Daulat Nagar Lal Mahal ground floor Thane Kopri East NO 104.(TMC SCHOOL, Parshi Wadi Rd, near Shiv Mandir, Kopri, Thane East, Thane, Maharashtra 400603",022 2532 2725,",nanikschool@yahoo.com,","19.1794676,72.9624512"
People's Education Society English Medium High School. Ace Sports Academy,School,Mumbai,"Ward No, Peoples Education Society English Medium, 3, Mithbunder Rd, Kopri, West, Daulat Nagar, Thane East, Thane, Maharashtra 400603",022 2532 6955,,"19.1808924,72.9697254"
sindhi school,School,Mumbai,5XJF+W2H,,",svhsjc@rediffmail.com,sindhihighschool1982@gmail.com,head@sindhi.mu.ac.in,sindhiinternationalcbe@gmail.com,","19.0562152,72.729501"
Shishu Vikas Mandir,School,Mumbai,"5XPH+CCC, Anand Bharti Rd",,"info@entranceindia.com,XXXX@XXXXXX.XXX,shishuvikasmandirenglishm@yahoo.in,,","19.1545104,72.7832253"
Blueberries Playschool & Nursery - Best Play School in Thane East. *For new location please call*,School,Mumbai,"4/ Priyanjali CHS, Pant Ram Marathe Path, Near Mangala High School, Kopri, Thane East, Thane, Maharashtra 400603",,",sjs_2209@hotmail.com,","19.1845789,72.9664146"
Motiram Krishnaji Nakhwa School,School,Mumbai,"Ward No.3, District Thane, Kopri, Maharashtra 400603",,",fsabmps@gmail.com,agaeMaharashtra1@cag.gov.in,","19.1818766,72.9669363"
"P.E.S.T SCHOOL and Jr. College, Thane (E)",School,Mumbai,"Peoples Education Society English Medium, Daulat Nagar, Thane East, Thane, Maharashtra 400603",,",pesocietythane@gmail.com,bharatschool@gmail.com,","19.1808002,72.9690133"
Sadguru complex Thane East,School,Mumbai,"Tower D, Station Rd, Kopri, Thane East, Thane, Maharashtra 400603",,",kbprincipal2010@gmail.com,info@kccemsr.edu.in,help@sadgurufoundation.com,sbvartakcollege@gmail.com,","19.1837626,72.9604047"
Jeevan Jyoti English High School and Jr.College,School,Mumbai,"1st floor, Datta Sai tower, Jeevan Jyoti Building, Chikladevi marg, off Hari Om Nagar Road, above SVC bank, Thanekarwadi, Thane East, Maharashtra 400603",096198 18844,,"19.1794508,72.9616209"
Rajendra Pal Mangala Hindi High School,School,Mumbai,"Ward No.3, Kopri, Thane, Maharashtra 400603",,"agrawalvishal833@gmail.com,,c.hindi@gmail.com,","19.1840694,72.9668491"
Hutatama Maruti Kumar Vidyalay,School,Mumbai,"Ward No.3, Thane",,",kunal.kotian@gmail.com,borattivijay29@gmail.com,","19.0821775,72.7163761"
"Prosperidad play school , Nursery, Kindergarten ( Thane East, Kopari)",School,Mumbai,"G.P.Pai Road, Above Bank of Baroda, Near Thane Rly station, Kopri Colony, Thane, Maharashtra 400603",,",bharatschool@gmail.com,","19.1849276,72.9640837"
Nalanda Public School,School,Mumbai,"Off, Eastern Express Hwy, Hari Om Nagar, Damoji Patil Wadi, Mulund East, Mumbai, Thane, Maharashtra 400081",022 2532 1883,",nalandapublicschool@gmail.com,SFNPSCHOOL@gmail.com,NALANDAPUBLICSCHOOL@gmail.com,","19.1742395,72.9611925"
Vidyasagar Education Society High School,School,Mumbai,"5XJC+PVW, Parshi Wadi Rd, Parshiwadi, Bhaji Market, Near Shiv mandir, Kopri, Thane East, Thane, Maharashtra 400603",,",apcce_college@yahoo.com,info@entranceindia.com,director@vidyasagar.co.in,vidyas941@gmail.com,","19.1818584,72.9619099"
Kamalini Karnabadhir High school,School,Mumbai,"Matoshree Jijamata Marg, Rajlaxman Society, Daulat Nagar, Thane East, Thane, Maharashtra 400603",022 2532 0530,",customer.service@makaan.com,","19.1819613,72.9684125"
Lotus kindergarten,School,Mumbai,"Room no. 188, Building no.6",,",contact.a@oesis.edu.in,admin@lotusmontessoripreschool.com,info@lotusconvent.co.in,school_lotus@yahoo.com,info@lotusvalleygurgaon.com,","19.1515824,72.8359692"
Mo. Kru. Nakhwa High School,School,Mumbai,"5XJG+QR4, Lokmany Tilak Road, Near B. Jija Mata Mato shree Road, Rajlaxman Society, Daulat Nagar, Thane East, Thane, Maharashtra 400603",022 2532 6923,,"19.1818817,72.9667765"
