Name,Sector,City,Address,Phone,Email,Lat-Long
Viva Bakes and Restaurant,Retail,Kerala,Opposite Panchayath Office Chungathara,8401884780.0,",rrvl.scrutinizer@kfintech.com,evoting.rrvl@kfintech.com,","11.3368321,76.2766697"
Farsa Restaurant,Retail,Kerala,Near Sree Sumo Auditorium Manjeri Kla,,",ekbaputy@gmail.com,farsarestaurant@gmail.com,","11.1236636,76.1147933"
Spunge Cakes and Cafe,Retail,Kerala,Near IDBI Bank Tirur,,",linsonlisa01@gmail.com,","10.9207183,75.9280516"
Nutmeg Biriyani Darbar,Retail,Kerala,NEAR My G Building Kondotti Malappuram,,",mmquickerala@gmail.com,","11.1487733,75.9602616"
Albaik Restaurant,Retail,Kerala,Near HP Petrol Pump Manjeri Kla,8485922748.0,",ismayilchemban@gmail.com,info@albaik.com,xx@albaik.com,x3einfo@albaik.com,","11.120954,76.116664"
Inbare Indian Bakes & Restaurant,Retail,Kerala, Wandoor,8971298671.0,,"11.192989,76.246645"
Bonfire,Retail,Kerala,Near Kendra Vidhyalayam Civil Station,,"dg.frs@kerala.gov.in,,bonfireads@gmail.com,","11.0429994,76.0766208"
City Park Restaurant,Retail,Kerala,Near Kadheeja Auditorium Tirur,7947174432.0,",la@gmail.com,","10.91589729624,75.92398072014"
Hotel Royal Food,Retail,Kerala,,,",royalrivierakumarakom@gmail.com,","11.0701711,75.9182023"
Hotel Fast N Fast,Retail,Kerala,Jumma Masjid Edavanna,,",reservations@lemontreehotels.com,hr@grandhotelkerala.com,reservations.kochi@radisson.com,","11.2125495,76.1391324"
KFC,Retail,Kerala,Near Byepass Junction perintalmanna,,",janedoe@kfc.org,hilite@dil-rjcort.com,kfc.hilite@dil-rjcort.com,x3ecustomercare@kfcpakistan.com,customercare@kfcpakistan.com,","10.9771732,76.2185249"
Brown Beans Cafe,Retail,Kerala,Near AMHonda Showroom Manjeri Bazar,,",BROWNBEANS.IN@GMAIL.COM,","11.119368,76.111673"
Delicia Hotel,Retail,Kerala,Near Municipal Bus Stand Downhill,,",info@deliciacaterers.com,catering@deliciahotel.com,","11.0445239,76.075963"
Olene Canto Bakes & Restaurant,Retail,Kerala,Opposite New Bus Stand Manjeri,,",info@olenecanto.com,","11.1201655,76.1225205"
Malabar White House Restaurant,Retail,Kerala,Near Police Station Ponnani,,",farookfm@gmail.com,i@gmail.com,","10.7573201,75.9289406"
Hotel Kailash,Retail,Kerala, Elappara Road,,",Emailcoadmin@vtransgroup.com,hi.dn@lemontreehotels.com,bkvsubrahmanyam@gmail.com,","9.6877501,76.9059062"
Periyar Tiger Cafe Restaurant,Retail,Kerala,Near Periyar Tiger Reserve Entrance Gate Kumily,7411652050.0,",info@keralatourism.org,","9.5996781,77.1713831"
Babus Kitchen,Retail,Kerala,,,",qrskollam@gmail.com,Info@babu-kitchen.com,","9.6905065,76.9094002"
Hotel Crown Plaza,Retail,Kerala, Vagamon,,",mail@tamarind.co.in,reservations.crowneplazakochi@ihg.com,dinesh.rai@ihg.com,","9.687073,76.905322"
Vaikom Kanji Kada,Retail,Kerala, Vagamon,,",rupesh@keralatourism.org,scdditiedappally@gmail.com,srovaikom.regn@kerala.gov.in,","9.6772664,76.9113991"
Sabu'S Hotel,Retail,Kerala, Vagamon,,",info@mediassist.in,x3eqrstvm@qrs.in,qrstvm@qrs.in,ekm@qrs.in,tvmkaramana@qrs.in,","9.7010919,76.9536874"
Hotel Veettil Oonu,Retail,Kerala, Upputhara,,",hr@grandhotelkerala.com,","9.718591,76.952305"
Alsafa Hotel,Retail,Kerala,,,",info@alsafasiyaha.com,Www.jayasiva.abi@gmail.com,roc.chennai@mca.gov.in,mkramesh.rccl@gmail.com,","9.6884929,76.9061093"
Palette People Artists Residency,Retail,Kerala,Ulupponni Kottamala,,",palettepeopleresidency@gmail.com,","9.7281804,76.8980926"
Mallikayil Hotel,Retail,Kerala, Vagamon,,",hotelmaharajapalace@gmail.com,reservationskoz.keys@lemontreehotels.com,","9.6883813,76.9062941"
Palette Multi-Cuisine Restaurant,Retail,Kerala,Opposite Moon MalaPalette Hill View Resort,,",mail@greenrouteshospitality.com,","9.706789,76.936523"
Hotel Vagaland,Retail,Kerala, Pullikkanam,,",hr@grandhotelkerala.com,info@keralatourism.org,","9.6878443,76.9057396"
Vagamon Hill Valley,Retail,Kerala,Opposite Arapucad Tunnel Idukki,,"sales@pagodaresorts.com,,ananya.vagamon@gmail.com,info@dtpcidukki.com,","9.678697,76.92245"
Apna Punjabi Dhaba,Retail,Kerala,,,",a@gmail.com,","8.3984579,76.9818319"
Sanjeevini Restaurant,Retail,Kerala,Samudra Beach Near Country Spa Country Spa Rd hhhb,,",n.velayutham72@gmail.com,","8.399206,76.973506"
The Pantry,Retail,Kerala,Opposite Apsara Threatre Kovalam Beach,,",customercare@tastynibbles.in,lijinaliji44@gmail.com,retail@amul.coop,","8.3988802,76.9818171"
Coconut Grove,Retail,Kerala, Kovalam Ho,,",a1greens.india@gmail.com,","8.3861484644,76.9783915579"
The Curry Pot Restaurant,Retail,Kerala, Kovalam Beach,,",rt@keralatourism.org,","8.4021041,76.9737338"
The Chef's Studio,Retail,Kerala, Vazhamuttom,,"mail@chefs-studio.com,roc.chennai@mca.gov.in,kristin@chef.studio,,","8.4105197,76.9768161"
Emaar Kitchen,Retail,Kerala,,,",x3ecustomercare@emaar.ae,customercare@emaar.ae,","8.3990119,76.9820342"
Molly's Retreat Restaurant,Retail,Kerala, Kovalam Beach,,",INFO@MOLLYSRETREATKOVALAM.COM,","8.402257,76.974027"
Roof Top,Retail,Kerala, Kovalam HO,,",snroofs@rediffmail.com,bsssolarkerala@gmail.com,","8.3851935241,76.9796605781"
Sanjeevni Restaurant,Retail,Kerala,Behind Ktdc Hotel Koval Beach Kovalam HO,,",roc.chennai@mca.gov.in,","8.3990355,76.9737186"
Catamaran (Turtle On The Beach Hotel),Retail,Kerala, Kovalam Beach,,"fo.kovalam@gokulamhotels.com,,info@turtleonthebeach.com,","8.3903957,76.9762042"
Sea View Restaurant,Retail,Kerala,Near Bus Stop,,"theseaview01@gmail.com,,","8.3902489,76.975066"
Leo Restaurant,Retail,Kerala,Near Pappukutty Beach Resort Kovalam HO,,",info@leosindia.com,","8.3863983,76.9780143"
Ali Baba & 41 Dishes,Retail,Kerala,Opposite to Veekay Tower Kuruppam Road,8123380725.0,,"10.518934694444,76.211155388889"
Thomason's Casa Restaurant,Retail,Kerala, Ikkanda Warrior Road Thrissur HO,7383545727.0,",mail@everydaybakes.in,","10.521169638889,76.224288916667"
Alzaki Restaurant,Retail,Kerala,Near Ansar Hospital Perumpilavu,8401585619.0,,"10.701734,76.090217"
Indian Palace Restaurant,Retail,Kerala,Near Old Police Station Pudukad,8485956917.0,",info@thattu.com,hr@grandhotelkerala.com,","10.437262527778,76.253707861111"
Blue Star Biryani Hut,Retail,Kerala,Near Jubilee Mission Hospital Thrissur East,9054440662.0,",mmquickerala@gmail.com,","10.519985,76.2257018"
Keif Restaurant,Retail,Kerala,Near Salafi Masjid Vadakkekad,8485953405.0,"khanbinish2006@rediffmail.com,,mamatayadav06@gmail.com,","10.6491101,76.0101791"
Moosas Biriyani House,Retail,Kerala,Near By Mosque,8460484798.0,",support@clicktoindia.com,","10.5164823,76.2126947"
Kallada Restaurant,Retail,Kerala, Mannuthy,,",info@kalladahotels.com,la@gmail.com,info@kalladatravels.com,","10.5294325,76.2595367"
Charcoal Delights,Retail,Kerala,Near Mathews Auditorium Kunnamkulam,,",roc.chennai@mca.gov.in,janed@charcoaldelights.com,a1greens.india@gmail.com,","10.662898,76.099108"
Grill Inn Restaurant,Retail,Kerala,Near Koorkenchery Thrissur East,,"info@grillinn.in,,grillinn@grillinn.in,","10.503498,76.211596"
Hao Ming Chinese Restaurant,Retail,Kerala,Near St Thomas College Thrissur Ho,,",vlal6767@gmail.com,mail_outlinehaomingrestaurant@gmail.com,","10.524901944444,76.220152"
Tonico Cafe,Retail,Kerala,Near Mutingoor Signal Muringoor Vadakkummuri,,"customercare@tonicocafe.com,,info@tonicocafe.com,","10.278876,76.3443522"
Monks Inn,Retail,Kerala,Near Kalyan Hero Opposite Brand Factory kottappuram,,",automonkstrading@gmail.com,","10.5237558,76.2092857"
Soul Kitchen Co,Retail,Kerala,Christ College Junction irinjalakuda north,,",hr@grandhotelkerala.com,bandra.store@thesouledstore.com,info@mastersindia.co,","10.3543723,76.2182775"
Hotel Akshaya,Retail,Kerala, Guruvayur,,"fo.akshaya@kerala.gov.in,,akshayahotelthrissur@gmail.com,info@hotelakshayathrissur.com,","10.60416096,76.04425397"
Varnam Sea Food Restaurant,Retail,Kerala,Opposite to Dcc Office Palayam,7022321086.0,",varnamcaterers@gmail.com,","8.5029834,76.953754"
Velvet Dawn Cafe & Restaurant,Retail,Kerala,Opposite Aham Boutique Sasthamangalam,7947162511.0,,"8.511783694444,76.969393638889"
Mothers Veg Plaza,Retail,Kerala, Palayam,8487031810.0,",mothersvegplaza@gmail.com,","8.5003097,76.9531832"
Krishna Hotel Kattachalkuzhi,Retail,Kerala,Opposite Coconut Research Centre Balaramapuram,8401289123.0,,"8.4046391,77.024826"
The Yellow Chilli,Retail,Kerala,Near Narmada Shopping Complex Kowdiar,8460529934.0,,"8.5137123,76.9524661"
Caffe Italiano,Retail,Kerala,Near Helipad Varkala,9725473748.0,",info@lollino.in,help@lollino.in,","8.7382888,76.700056"
Hotel Annapoorna,Retail,Kerala,Opposite PRS Hospital Killipalam,7487958235.0,",hotelannapoornathellakom@gmail.com,","8.4816323,76.958802"
Marhaba Restaurant,Retail,Kerala,Opposite Nss Karayogam Sasthamangalam,,",reservation@skymusandam.com,marhaba@qatar.net.qa,marhabaokl@outlook.com,","8.513695694444,76.978988888889"
Zeit Resturant,Retail,Kerala,Opposite Reliance Trends Varkala,9054767593.0,",yamskerala@gmail.com,","8.737643055556,76.701843055556"
Al Haja Vazhiyorakkada,Retail,Kerala,Near Poovanpara Bridge Alamcode,,",tasteofalhaja@gmail.com,","8.7128958,76.8118867"
Lafolei Clicks,Retail,Kerala,Near Alamcode Juma Masjid Alamcode,9054775312.0,,"8.7238894,76.8124237"
Sree Vinayaka Hotel,Retail,Kerala,Opposite Indian Oil Office Enjakkal,7383618039.0,",la@gmail.com,","8.4786631,76.9354513"
THE AFC (AMERICAN FRIED CHICKEN),Retail,Kerala,Inchakkal Junction Vallakkadavu,9035679070.0,",queries@afc.world,","8.478651916667,76.93544"
Opr Family Restaurant,Retail,Kerala,Near Shivas Sports Hub Pallichal,8735029398.0,,"8.4386571,77.0181053"
Irani Fast Food and Caterers,Retail,Kerala, Manikandeswaram,9724820368.0,,"8.54292958,76.98206421"
The AFC(American Fried Chicken),Retail,Kerala,Mar Ivanios College Nalanchira,7947463286.0,",queries@afc.world,","8.5488101,76.940597"
Zam Zam Restaurant,Retail,Kerala,Opposite to MLA Hostel Palayam,,",customercare@zamzamrestaurants.com,","8.5035931,76.9497251"
Sree Krishna M G Hotel,Retail,Kerala,Near Sujata Inn Munnar Ho,,",roc.chennai@mca.gov.in,mail.norka@kerala.gov.in,","10.081457,77.061617"
Saravana Bhavan,Retail,Kerala,Munnar Market Munnar Colony,,",feedback@saravanabhavan.com,parur@jumbokids.com,hsb@saravanabhavan.com,hsbcanada@saravanabhavan.com,","10.0872906,77.0597034"
Bala Restaurant,Retail,Kerala, Moolakadai,,",Sridhar.Kothandaraman@ril.com,bala@sraco.in,sraiyar@yahoo.com,sasi@baabood.com,roc.chennai@mca.gov.in,","10.0739071,77.0622461"
Annapoorna Restaurant,Retail,Kerala,Fghfg,,",hotelannapoornathellakom@gmail.com,","10.091065,77.05965"
Hotel Srinivas Veg Restaurant,Retail,Kerala, Munnar Colony,,",roc.chennai@mca.gov.in,reservations@hotel-srinivas.co.in,sales@hotel-srinivas.co.in,","10.0886774,77.059398"
Hotel Gurubhavan ,Retail,Kerala,Near KTDC Tea County Ikka Nagar,,"hello@munnarbookings.com,,","10.0877749,77.0649531"
The Wind Munnar Restaurant,Retail,Kerala, Munnar HO,,",manager@thewindmunnar.com,","10.017192,77.162085"
Annapurna Veg Restaurant,Retail,Kerala,Near Old British Church Near Mankulammunnar Trail Moolakadai Moolakadai,,",hotelannapoornathellakom@gmail.com,","10.0798176,77.0620155"
Mummy's Kitchen,Retail,Kerala, munnar ho,,",sahay.mukti945@gmail.com,","10.07851835,77.06294654"
Purohit Restaurant,Retail,Kerala,Near Ikka Nagar Tea County Road,,"email@dgsm.co.in,,deveshshahin@yahoo.co.in,","10.0876323,77.0650199"
Chennai Star Biryani,Retail,Kerala,Near Palathottam Colony Road ikka nagar,,"feedback@amburstarbriyani.com,,","10.08763,77.067072"
Maharani Hotel,Retail,Kerala,Opposite to Elanjikkal Building Munnar Ho,,",hotelmaharanipalabooking@gmail.com,hotelmaharani.clt@gmail.com,holidays@welcomheritagehotels.in,","10.0868124,77.0605637"
Poomaram Ram's Kitchen,Retail,Kerala,Opposite Lulu Mal Anayara,,"poomaramrestaurant@gmail.com,,","8.515775,76.898772"
Bungalow 47,Retail,Kerala,Opp Chithari Juma Masjid Kanhangad,8734917852.0,",iteg@keltron.org,keltron.enquiry@gmail.com,i@gmail.com,","12.3556033,75.0697685"
Oryx Village,Retail,Kerala,Near Kanhangad South Jn Kanhangad South,8488918253.0,",info@oryxvillage.com,sales@oryxvillage.com,","12.2967941,75.1021772"
Udupi Sree Krishna Veg Restaurant,Retail,Kerala,Opposite O Ranjees Theatre,,",vikrammt_2000@yahoo.com,satannu63@yahoo.co.in,","12.4279893,75.0232938"
Royal Casino,Retail,Kerala, Periyattadukkam,,",casinohotelsltdtcr@yahoo.co.in,casinotcr@yahoo.co.in,casinotcr@gmail.com,shoklgdpspkd.pol@kerala.gov.in,","12.4301498,75.0729942"
New Oyster Restaurant,Retail,Kerala,Near Bus Stop,,",shellbayweddings@gmail.com,","12.4696977,75.0468946"
Hotel Kanmani,Retail,Kerala, Periyattadukkam,,",hckerala@nic.in,hr@grandhotelkerala.com,contact@cghearth.com,a1greens.india@gmail.com,reservationskoc.keys@lemontreehotels.com,","12.4291626,75.0724608"
Ferrero Cafe,Retail,Kerala,,,"corporateIndia.Sales@ferrero.com,,customercare@rct.in,","12.4240227,75.0225425"
Md Rockzz,Retail,Kerala,,,",shru.rockz@gmail.com,cmd@supplycomail.com,gayathrihotels@gmail.com,","12.4347131,75.069608"
Janakiya Hotel,Retail,Kerala,,,",info@kudumbashree.org,","12.4283598,75.0755624"
Hotel Century,Retail,Kerala,Cantral Medical Clg Poinachi,,",sasca@sasca.in,contact@centurygrandwayanad.com,book@spreehotels.com,reservekeralahotels@gmail.com,","12.4640817,75.0583128"
Indian Coffee House Uduma,Retail,Kerala, Udma,,"info@indiancoffeehouse.com,,","12.4406671,75.0248092"
Mariya Family Restaurant,Retail,Kerala,Pullupara,,",mmquickerala@gmail.com,","9.529316,77.228193"
Toddy Parlour,Retail,Kerala, Periyar Lake,,",info@keralatoddyshop.com,","9.529316,77.228193"
Kripa Multi Cuisine Restaurant,Retail,Kerala,Lake Road Next to Ambadi Jn Thekkady,,",roc.chennai@mca.gov.in,","9.5917599,77.1742404"
Spice Haven,Retail,Kerala, Thekkady,,",info@keralaspicesonline.com,","9.460967889,77.25543876"
Anna's Homely Food,Retail,Kerala,Near Coffee Inn Periyar Lake,,",lijinaliji44@gmail.com,","9.460967889,77.25543876"
Kunjar Reastaurant,Retail,Kerala,Near Entrance Gate Periyar Lake,,",hr@grandhotelkerala.com,","9.460967889,77.25543876"
Thekkady Cafe,Retail,Kerala, Thekkady,,",info@keralatourism.org,","9.6053479,77.1668037"
Hotel Arya Bhavan,Retail,Kerala, Amalambika Road Thekkady,,",aryabhavandelhi@gmail.com,m.ksuppuroyal@yahoo.com,","9.6063463,77.1672288"
Vasant Vihar Veg,Retail,Kerala, Kumily,,",harilalsukumar@gmail.com,","9.6067057,77.164549"
Gokul Pure Veg Restaurant,Retail,Kerala,Near Highrange Drug Main Street Kumily,,",gokuldvgroad@gmail.com,info@gokulsweets.com,","9.60777,77.1683854"
Ambadi Restaurant,Retail,Kerala, Thekkady,,",travel@blessingsonthenet.com,info@keralatourism.org,","9.60296,77.171454"
Laxmi Pure Veg,Retail,Kerala, Kumily,,",roc.chennai@mca.gov.in,a1greens.india@gmail.com,","9.606102,77.1674404"
Hotel Royal Treat,Retail,Kerala,Near Victoria College Road Tharekkad,7947173415.0,",hotelroyaltreatpalghat@gmail.com,mmquickerala@gmail.com,info@hotelroyaltreat.com,joseph.j.kattukaran@gmail.com,","10.782253,76.653368"
London Bakes N Grills,Retail,Kerala,Near Ksrtc Stand Noorani,,",londonbng@gmail.com,","10.767505972222,76.648162972222"
Red Chillies,Retail,Kerala,Opposite Sudharma Clinical Laboratory Palakkad Fort,8460398003.0,,"10.767277972222,76.655383"
Arabian grill & fry ( Idam restaurant),Retail,Kerala,Near Chennai Mobile Stadium Bypass Road,8401046599.0,,"10.769795416667,76.661666861111"
Kadal Restaurant,Retail,Kerala,Near Trinity Hospital Palakkad Ho,9725533997.0,",mail@mykeralatravel.com,","10.7768891,76.6701423"
Aryas Sree Haran Aryas,Retail,Kerala,Near Block Office Palakkad Fort,8460481214.0,",info@kudumbashree.org,","10.766151999722,76.658564999722"
Hotel Nalanda,Retail,Kerala, Sultanpet,,"reservation@keralatravels.com,,sgnrnalanda@gmail.com,","10.7766312,76.6577043"
D 9 Navaratna,Retail,Kerala, Stadium Bypass Road,,"chandratractorsgzp@gmail.com,,monarchd9restaurantplkd@gmail.com,csashique@gmail.com,adlcst1.ctd@kerala.gov.in,nmail@cgrhallmarkers.com,","10.7672403,76.6603094"
Pizza Hut,Retail,Kerala,Opposite Noor Jehan Grill Above KFC Stadium Bypass Road,,",HutCares@yum.com,","10.769358,76.6616179"
Flavours Restaurant,Retail,Kerala,Near Trinity Eye Hospital Stadium Bypass Road,,",info@gosnax.in,thekeralastore@gmail.com,","10.7672334,76.6602658"
Mulberry Chappathi Company,Retail,Kerala, Sekharipuram,,",gssc72ipr@gmail.com,lijinaliji44@gmail.com,","10.785602590511,76.656364548731"
Malabar Restaurant,Retail,Kerala,Near Saravana Bhavan Erimayur,,"email@malabarbeachresort.com,,info@malabarresidency.in,sunil@malabarbeachresort.com,","10.6698955,76.5749065"
Hotel Sreelakshmi,Retail,Kerala,Opposite Bus Stand Near SBI Bnk Ottapalam,,"sleschennai@gmail.com,,sreelakshmi.hotels@gmail.com,","10.773197166667,76.376594527778"
NMRS Uptown Fine Dine Restaurant,Retail,Kerala,Near Bharathmatha Hss Chandranagar Chandranagar,,",uptownpkd@gmail.com,","10.772745699722,76.674930299722"
Domino's Pizza,Retail,Kerala,,,"x3eguestcareDominos@jubilantfood.com,,guestcareDominos@jubilantfood.com,guestcaredominos@jublfood.com,","10.7837138,76.6527938"
Hotel Green Star,Retail,Kerala, Pirayiri,,",spsb@sarovarhotels.com,kochi.grand@hyatt.com,","10.7744939951,76.6114335135"
Shawarma Street,Retail,Kerala,Pattambi Pattambi,,"mail2rprakasam@gmail.com,,mrinal89@yahoo.com,","10.8064915,76.1980551"
Curryleaf Restaurant,Retail,Kerala,Kovalam Near Leela Hotel Kovalam Beach,,"mail@vfpck.org,,info@keralaspicestore.com,","8.3984543,76.973573"
Sea Rock Restaurant,Retail,Kerala, Kovalam Ho,,",searockclub@live.co.uk,","8.3878197,76.9764996"
Village Kichen,Retail,Kerala, Kovalam HO,,",kvkitchen20@gmail.com,villagecookings@gmail.com,","8.3955348,76.9846244"
The Terrace (The Leela Kovalam A Raviz Hotel),Retail,Kerala,Opposite Infinity Pool Kovalam Beach,,",hari.mohan@theleela.com,sales.kovalam@theleela.com,","8.3937157,76.971777"
The Sky Bar (The Leela Kovalam A Raviz Hotel),Retail,Kerala,Below The Main Pooldeck Area Kovalam Beach,,",reservations.kovalam@theleela.com,sales.kovalam@theleela.com,hari.mohan@theleela.com,","8.393606,76.971826"
Kairali Restraurant,Retail,Kerala,Near Indhira Park Varkala,7947234345.0,,"8.7353845014,76.7172608813"
Lekshmi Edibles Gourmet Restaurant,Retail,Kerala,Near Sngc School Ezhukone,8128139562.0,",danielbabu@aol.com,","8.982355,76.724130833333"
Grandeur Multi Cuisine Restaurant Bakes & Supermarket,Retail,Kerala,Near Lekshmi Restaurant Bar Parippally,8128398483.0,,"8.812555305556,76.758422833333"
Lekshmi Edibles,Retail,Kerala,Muslim Street Kottarakara,7487866477.0,",devachith1002@gmail.com,lekshmiedibles@gmail.com,","8.98111191114,76.7764179424"
Spicy Food Court,Retail,Kerala, Ayur,8128437557.0,",fsoharipad@gmail.com,","8.8955736,76.8617718"
Arakallu Restaurant,Retail,Kerala,Near D Life Interiors Kollam Bazar,8460456533.0,,"8.902925,76.563386"
Arabian Chickens,Retail,Kerala,Near Kollam Circle Andamukkam,,",info@topchicken.in,care@topchicken.in,","8.8835174218,76.5912250802"
Hajees Biryani House,Retail,Kerala, thirumullavaram,,",info@paradisefoodcourt.in,","8.900676,76.56403"
Spicy Garage,Retail,Kerala,Nearby Lekshmi Bar Hotel Parippally,,",abdul.kadeer1994@gmail.com,cochinreclaim@gmail.com,sara75@gmail.com,","8.8141764,76.7572991"
Mughal Dharbar,Retail,Kerala, Nilamel,,"info@mughaldarbar.in,,","8.8120805,76.8830655"
All Spice Restaurant,Retail,Kerala,Near Post Office Chinnakada,,"info@supremefoodco.com,,info@marketworthspices.com,la@gmail.com,","8.8864705,76.5903983"
Calimiro Restaurant,Retail,Kerala,Nearkmml Panmana,,",badarshahkutty@gmail.com,","9.0147409,76.5365155"
Soorya,Retail,Kerala, Kottiyam,,",emailsales@suryakerala.com,sooryaresidency@gmail.com,sooryatraders786@gmail.com,info@suryaenterprisesgoa.com,","8.8704293,76.6715138"
Ramees Restaurant,Retail,Kerala,Nr Lic Building Chinnakada,,",info.rameesrestaurant@gmail.com,rameesrestaurant@hotmail.com,","8.8880973,76.5912502"
Lakshmi resturent,Retail,Kerala,Opposite Madathara Busstop Parippally,,",info@lakshmiresorts.com,info@lakshmistores.com,","8.8123124,76.7601344"
Fayalwan Hotel,Retail,Kerala,Near to Veliyakada Market Chinnakada,,"grstores@listinkerala.com,,fayalwankollam@listinkerala.com,","8.884956,76.585101"
Ciscilla Heritage,Retail,Kerala,Nelliyampathi Seethargundu,,",stargatetravels@hotmail.com,ramesh@nidhioverseas.com,reservation@cisciliaheritage.com,sw_mumbai@edwiseinternational.com,info@wicci.in,joseytours@kerala.com,","10.5072705,76.7063239"
Spring Valley Restaurant,Retail,Kerala, Pulayanpara,,"info@springandvalleyviewthekkady.com,,support@livecon.com,la@gmail.com,","10.5349175,76.6932231"
AYYAPPANs HOMELY MEALS,Retail,Kerala,,,",info@beandes.com,","10.5992268,76.7242596"
Hotel Taste And Taste,Retail,Kerala, Kollengode,,",hr@grandhotelkerala.com,","10.6125112,76.6833685"
Sree Ganesh Bhavan,Retail,Kerala, Kollengode West,,"sudhahingmire@gmail.com,,Cash@PoS-UPDATED-19-11-16.pdf,heavenhomefour@gmail.com,min.fin@kerala.gov.in,Email-lk-cdl@nic.in,ganesh.hingmire@gmail.com,","10.6118414,76.7064254"
Light House Shawarma,Retail,Kerala, Kollengode,,",info@hilitemall.com,","10.6167463,76.6966569"
Hotel Vysag Restaurant,Retail,Kerala, Kollengode,,",reservations.klhvz@lemontreehotels.com,reservationsvz.keys@lemontreehotels.com,","10.6132566,76.6914859"
Hotel Kalavara,Retail,Kerala,Kollengode Kollengode,,",kalavarafoodproducts@gmail.com,efilings@artismc.com,","10.6120209,76.7064313"
Rayan Hotel,Retail,Kerala, Kollengode,,",hckerala@nic.in,","10.6125177,76.7024326"
Dining Delight Restaurant,Retail,Kerala,,,",customercare@tastynibbles.in,info@diningdelights.net.in,","10.6090715,76.7333765"
Hotel Haneefa,Retail,Kerala, Kollengode,,",director.ins@kerala.gov.in,","10.6128869,76.7015976"
Tharavadu Hotel And Restaurant,Retail,Kerala, Kumarakom North,,",info@tharavadurestaurants.com,","9.6300692,76.4298441"
Kushini Restaurant,Retail,Kerala,Opposite Indair Rubber Factory,,",hr@grandhotelkerala.com,","9.5911785,76.4288308"
Kumarakom Toddy Parlour,Retail,Kerala, Chakrampady,,",info@keralatourism.org,","9.6181668,76.4320712"
Menani Restaurant,Retail,Kerala,Near Trivandrum Bypass Kumarakom North,,",scertkerala@gmail.com,info@tharavadurestaurants.com,","9.6302003,76.4302073"
The Kumarakom Kitchen,Retail,Kerala, Cheepunkal,,",hellonanma@gmail.com,chef.kumarakom@tajhotels.com,","9.6359099,76.4303623"
Brindhavan Pure Vegetarian Restaurant,Retail,Kerala,Near Kumarakom Town Dubai HotelOpposite St Johns Attamangalam Church Kumarakom HO,,",brindhavan.b2@gmail.com,info@brindhavan.in,","9.5923184,76.4411555"
Dubai Restaurant,Retail,Kerala,Opposite Attamangalam Church,,",vikas.milhoutra@tajhotels.com,","9.6175449,76.430095"
Ponmanthuruthu Toddy Shop,Retail,Kerala, Kumarakom North,,"oystergul@rediffmail.com,,","9.5810812,76.4286641"
Greenland Family Restaurant,Retail,Kerala, Cheepunkal,,"hirokomonsrud4086@yahoo.com,roc.chennai@mca.gov.in,,","9.6356624,76.4303609"
Kumarakom Bbq,Retail,Kerala, Kavanattinkara,,",chef.kumarakom@tajhotels.com,","9.6304021,76.4301637"
Lime Tree (The Zuri Kumarakom ),Retail,Kerala,Karottukayal Kumarakom South,,",reservations.kumarakom@thezurihotels.com,","9.5923683,76.4246701"
Cocco Thottam,Retail,Kerala, Athikkalam,,",tenguraja@gmail.com,a1greens.india@gmail.com,info@iofpcl.com,lijinaliji44@gmail.com,","9.60144,76.4324306"
Nishant'S Restaurant,Retail,Kerala,,,",head.bdpm@csio.res.in,harry.garg@csio.res.in,us1971@rediffmail.com,anamika_rm2000@yahoo.co.in,email@jpaca.com,director@csio.res.in,nishant@eatnino.com,va.jpaca@gmail.com,","9.551193,76.4347541"
Hashe's Hotel,Retail,Kerala,Chakrampadi Kumarakom chakrampady,,",marketing@lemontreehotels.com,kochi.grand@hyatt.com,reservations@itchotels.in,reservationfk@thepaul.in,","9.6145439,76.4328429"
Winter Heaven Cottage,Retail,Kerala, Pattaline,,",info@amarylliskerala.com,mail@thefalconcrest.com,roc.chennai@mca.gov.in,","10.0880875,77.0669309"
Hotel Sn,Retail,Kerala, Aluva Munnar Road,,",0104112@supplycomail.com,info@keralatourism.org,","10.0877481,77.0641631"
Hotel Mugal Palace,Retail,Kerala, Moolakadai,,",cb1964@canarabank.com,bolgattypalace@ktdc.com,junaid.m1983@gmail.com,fom@lakepalace.in,junaidmukadam@hotelmogulpalace.com,","10.0782404,77.0628221"
Arabian Grills,Retail,Kerala, Nullatanni,,",bizklinfo@gmail.com,arabiangrill2019@gmail.com,","10.085742,77.059911"
Green Leaf Restaurant,Retail,Kerala,Near Csi Church Munnar Ho,,",n@greenleafextractions.in,","10.0799569,77.0617606"
Winter Yard,Retail,Kerala, Munnar HO,,",roc.chennai@mca.gov.in,lijinaliji44@gmail.com,","10.0746257,77.0617694"
Shree Mahaveer Restaurant,Retail,Kerala, Munnar Colony,,",roc.chennai@mca.gov.in,sandeep.080184@gmail.com,","10.0872729,77.0628664"
Surya Soma Restaurant,Retail,Kerala, Nullatanni,,",roc.chennai@mca.gov.in,info@suryaresidencyknr.com,","10.0855524,77.060149"
Mirchis Restaurant,Retail,Kerala, munnar ho,,",MANDM@SQUAREMEALFOODS.COM,","10.07562836,77.06319498"
Bellmount Restaurant,Retail,Kerala,Opposite Govt High School Moolakadai,,",bellmountresorts@gmail.com,info@thattu.com,","10.0802566,77.0616068"
Blackberry Hills Munnar Resorts Hornbill Restaurant,Retail,Kerala, Pothamedu,,"info@blackberryresorts.com,,reservations@blackberryresorts.com,","10.0537706,77.0671134"
Rochas Restaurant,Retail,Kerala, Ikka Nagar,,",hr@grandhotelkerala.com,","10.0876284,77.0646169"
S N Restaurant,Retail,Kerala,Opposite To KDHP Store Munnar HO,,",snroofs@rediffmail.com,","10.0747858,77.0633572"
Brothers Kitchen,Retail,Kerala, Aluva Munnar Road,,",cochinreclaim@gmail.com,sara75@gmail.com,adc1.ctd@kerala.gov.in,brotherskitchenhf@gmail.com,roc.chennai@mca.gov.in,","10.0762705,77.0632464"
Hornbill,Retail,Kerala, Pothamedu,,"ashy.eldhose@gmail.com,,eldhose.kv@gmail.com,","10.0537706,77.0671134"
Mathai's Restocafe,Retail,Kerala,Near Kacheri Honda Sulthan Bathery,7411579419.0,",pandhalixe@cafs.in,crafters6141@gmail.com,","11.664833055556,76.262351972222"
Ruchipura Restaurant,Retail,Kerala,Opposite 7Days Hypermarket Sulthan Bathery,8401226908.0,,"11.658577916667,76.246696472222"
Royal Restaurant,Retail,Kerala,Near Govt HSS School Ambalavayal Ambalavayal,9054492518.0,",royalrivierakumarakom@gmail.com,","11.6158335,76.2110903"
Jubilee Restaurant,Retail,Kerala,Near Post Office Sulthan Bathery,,",info@jubileerestaurant.in,629629info@jubileerestaurant.inwww.jubileerestaurant.in,info@keralatourism.org,","11.662127777778,76.254505555556"
Naduvath Kitchen,Retail,Kerala, Meppadi,,",feedback@kitchentreasures.in,spswandoor@gmail.com,lijinaliji44@gmail.com,","11.5555912,76.1307582"
Holiday Hill Family Restaurant,Retail,Kerala,Opposite To Kartikulam,,",info@holidayhillhotel.in,holidayhillhotel@gmail.com,","11.8483328,76.0649459"
India Gate,Retail,Kerala, Vythiri,,",vaikomcto.ctd@kerala.gov.in,adlcst1.ctd@kerala.gov.in,customerservice@bigbasket.com,","11.5585579,76.0404556"
Rayan Arabic Restaurant,Retail,Kerala,Opposite Maharani Silks Kalpetta,,",mail@rajagirihospital.com,","11.6196159,76.0849749"
Kuruva Family Restaurant,Retail,Kerala, Panamaram,,"info@lushgreenstays.com,,mail@kuruvaisles.com,","11.7515986,76.0680438"
Nice Restaurant,Retail,Kerala, mananthavady,,",rtckeralastores@gmail.com,hr@grandhotelkerala.com,info@thattu.com,","11.82013,75.98678"
Hotel Udupi,Retail,Kerala,Near Kanyaka Sarees Sulthan Bathery,,",sales@cismanipal.in,reservations@samanvayudupi.com,","11.664860888889,76.264023694444"
Cafe Manara,Retail,Kerala,Ikka Nagar Ikka Nagar,,",cool_boy@email.com,","10.0877737,77.064848"
Royal Retreat,Retail,Kerala, Munnar Ho,,",mail@ayursoma.org,royalretreatmunnar@gmail.com,info@wellnessloka.com,karma.munnar@karmagroup.com,","10.07279,77.06172"
King Food Corner,Retail,Kerala,Near Spinn Mill Kareelakulangara,8971543312.0,"order@freshmenu.com,,","9.1998211,76.4844504"
Onion Food Mall,Retail,Kerala,Near Ksrtc Bus Stand Cherthala,8490920536.0,",shivimpexinfo@gmail.com,","9.6860654,76.3429787"
Cochin Majlis,Retail,Kerala,St Josephs Girls Higher Secondary School Alappuzha Collectorate,,",cochinmajliskadavanthara@gmail.com,cochinmajlisalappy@gmail.com,","9.4993732,76.3305798"
Uduppi Saravana Bhavan,Retail,Kerala,District Court Road Thathampally,7411762498.0,",hsbuae@saravanabhavan.com,","9.5051309555,76.340773556"
Asoka Bakers,Retail,Kerala,Near District Court Bridge Mullakkal,8488910966.0,,"9.5004966,76.3424958"
Cake Hut And Resturant,Retail,Kerala,Esaf Bank Ambalapuzha,7411834638.0,,"9.383452,76.361136"
Heavenly Hills Restaurant,Retail,Kerala,Shanthivanam Junction Cherukol,8485976029.0,,"9.2673791405,76.5357592499"
Biriyani Palace,Retail,Kerala,Near Water Works Punnapra,,",nisarbavu@gmail.com,","9.4476288,76.3418575"
Marari Edens Restaurant,Retail,Kerala,Near Karnosti Ayrvedha and Well Resort Mararikulam,,",marariedens@gmail.com,","9.4584907,76.3347838"
Kalavara Cloud Kitchen,Retail,Kerala,Near Palace Ward chungam,,",kalavarafoodproducts@gmail.com,burandesm@gmail.com,lijinaliji44@gmail.com,penabu@gmail.com,","9.4920313861,76.3466757675"
Lake Paradise Restaurant,Retail,Kerala, Avalukkunnu,,",ajay.mall@mallcom.in,","9.5019203,76.3660067"
Hotel Aryas,Retail,Kerala, Thekkekara,,",m.ksuppuroyal@yahoo.com,rani.srinivasan@gmail.com,","9.2068,76.571547"
Aryaas Vegetarian Hotel And Restaurant,Retail,Kerala, Chengannur,,",info@hotelaryaas.co,","9.3195917,76.6117567"
Harikrishnans Vegetarian Restaurant,Retail,Kerala,Oppposite KSRTC Bus Stand Mavelikara,,",hklegal@khcca.org,yamskerala@gmail.com,care@aabsweets.com,","9.2475326,76.5401892"
Lucamo Resto Cafe,Retail,Kerala,Opposite Aster Medcity South Chittoor,9725453463.0,,"10.035024,76.27812699989"
Seagull Restaurant,Retail,Kerala,Near Cost Guard Kochi Fort,,",hotelseagullindia@gmail.com,","9.9691128,76.24997"
David Hall,Retail,Kerala,Opposite Parade Ground Kochi Fort,,",info@keralatourism.org,","9.9652292,76.2395344"
Old Harbour Hotel,Retail,Kerala,Opposite Nehru Park Fort Police Station Kochi,,",raintree@fortcochin.com,info@keralatourism.org,help@i-escape.com,","9.9672767,76.2422243"
Palaaram Restaurants,Retail,Kerala, Kochi,,",palaaram@gmail.com,","9.952662,76.245015"
Loafers Corner,Retail,Kerala,Opposite Park Avenue Hotel Fort Road,,",loaferscornerkochi@gmail.com,info@keralatourism.org,","9.9658571,76.2420556"
Balan Chettande Kada,Retail,Kerala, Mattancherry,,"tinpinstories@gmail.com,,mrinal89@yahoo.com,","9.9627082,76.2533258"
Mocha Art Cafe,Retail,Kerala,Opposite Jew Synagogue Mattancherry,,",mochaartcafe@gmail.com,","9.9573239,76.2595545"
Rasoi,Retail,Kerala,Near St Francis Church Kochi,,",secdept@rasoigroup.in,","9.9661534,76.2415572"
Bristows Bistro,Retail,Kerala,Next to INS Dronacharya Kochi Fort,,",reservation@ashextourism.com,reservations@oldlighthousehotel.com,","9.96292,76.237862"
Ginger House Restaurant,Retail,Kerala, Mattancherry,,",VCJAMES_2005@YAHOO.COM,tradekerala@gmail.com,info@keralatourism.org,","9.956835,76.260769"
Hotel Cochin,Retail,Kerala,Opposite Tata Sports Ground Munnar H O,,"mail@themercy.in,reservations@thetrioshotel.com,reservations@lemontreehotels.com,,hr@grandhotelkerala.com,info@marineinnhotel.com,reservations.kochi@radisson.com,info@thetrioshotel.com,","10.0804088,77.0620483"
The Spice Village,Retail,Kerala,Near Green Valley Cottage Kovalam Beach,,"keralaspicesvillage@gmail.com,,contact@cghearth.com,spicevillage@cghearth.com,","8.386785,76.977498"
Bethel Vegetarian Restaurant,Retail,Kerala,Near to Light House Beach Kovalam Beach,,"care@aabsweets.com,,","8.387299,76.9772889"
Punnamada Family Restaurant,Retail,Kerala,Near St Marys Catholic Church Valakom,,",mail@punnamada.com,","8.9490512,76.8461955"
Malabar Fried Chicken,Retail,Kerala, Ezhukone,,"pyar1972@gmail.com,,","8.9839382,76.7310285"
Green Park Family Restaurant,Retail,Kerala, Amrithapuri,,"care@aabsweets.com,,greenparkresidency@rediffmail.com,","9.0913893,76.4915411"
Mother's Kitchen,Retail,Kerala, Karunagappally,,",info@kudumbashree.org,motherskitchen@ammagroups.org,","9.06305867025,76.534719988694"
Lake View Restaurant,Retail,Kerala, Thirumullavaram,,",beachandlake@gmail.com,x3ebeachandlake@hotmail.com,reservation@casalakeview.com,beachandlake@hotmail.com,","8.8956437,76.5712842"
Bharat Cafe,Retail,Kerala, Karunagappally,,",info@keralatourism.org,mrinal89@yahoo.com,","9.077717,76.531626"
Turkish Food,Retail,Kerala,Near Locality uliyakovil,,",mdshfr786@gmail.com,info@hilitemall.com,","8.9003428,76.6138375"
Spicy Villa Family Restaurant,Retail,Kerala, Amrithapuri,,",hr@grandhotelkerala.com,","9.0936601,76.4937355"
Rahmaniya Kethels Chicken,Retail,Kerala, Mayyanad,,",Emailkethelschicken2018@gmail.com,kethelschicken2018@gmail.com,","8.833959849,76.64671362"
Cool Land,Retail,Kerala, Kannur Ho,8490008820.0,",help@only.in,","11.8727388,75.3646871"
IGLOO Restaurant & Ice Cream Parlour,Retail,Kerala,Near New Bus Stand Thavakkara,9054644245.0,,"11.8665923,75.3718811"
BARKA RESTAURANT,Retail,Kerala, Thavakkara,9054935608.0,",admin@restaurantpassion.com,","11.868973083333,75.369452777778"
Hotel Green Park,Retail,Kerala, Cherupuzha,,",greenparkresidency@rediffmail.com,","12.2720947,75.361051"
WESTIND BURGERS,Retail,Kerala,Opposite Blue Nile Hotel Kannur Ho,9725134816.0,,"11.8701945,75.3597488"
Afc American Fried Chicken Restaurant,Retail,Kerala,Near Kothayimukku Junction Payyanur,9725627931.0,",afcnainmarmoola786@gmail.com,","12.133097,75.216176"
Hotel Muthazham,Retail,Kerala,Near Malabar Soda Factory Payyanur,,",hr@grandhotelkerala.com,reservationfk@thepaul.in,","12.103714,75.210528899722"
Ramans cafe,Retail,Kerala,Near Kalyan Silks Kannothumchal,,",david@godandbeauty.com,","11.874017583333,75.388753583333"
Broad Bean Hotel,Retail,Kerala, Thavakkara,,",crs@broadbeanhotels.in,info@keralatourism.org,broadbeankannur@gmail.com,reservations@broadbeanmunnar.com,kkbuilderskerala@gmail.com,","11.866618,75.372364"
Casa Rasa Taliparamba,Retail,Kerala,Near Jfc Fruits Centre Velapuram,,",lijinaliji44@gmail.com,","12.0417839,75.3633682"
Naaz Arabia,Retail,Kerala,,,",tprinsight@gmail.com,sikander.zari@gmail.com,mayankjainindia@gmail.com,seaboyfisheries@gmail.com,infrasystemsindia@yahoo.com,","11.8131247,75.5545513"
The Bamboo Restaurant,Retail,Kerala,Near Bheema Jewellery Civil Station Kannur,,",bamboofreshrestaurant@gmail.com,","11.8748773,75.3798416"
Bamboo Fresh,Retail,Kerala, Sreekandapuram,,",customercare@freshkerala.co.in,bamboofreshrestaurant@gmail.com,","12.044819,75.505768"
Cafe Ghazal,Retail,Kerala,Opposite Hotel Savoy Payyambalam,,",ghazalkannur@gmail.com,privilegecard@manorama.com,","11.868707638889,75.3587265"
P V S Tourist Home,Retail,Kerala, Kannur Ho,,",acmgokulam@gmail.com,hotelpvs@gmail.com,santouristhomekavanad@gmail.com,tripzoloindia@gmail.com,information@peevees.com,","11.8717705,75.3624817"
Hotel Woodlands And Sweets,Retail,Kerala,Near Zenora Home Essentials Thodupuzha,8123862773.0,",n.velayutham72@gmail.com,mail@cochinbakery.com,thewoodlandshotel@gmail.com,","9.917467,76.68748"
New Hi-range Hotels,Retail,Kerala,Near Private Bus Stand Thodupuzha,7487848402.0,",info@elephantpassage.com,hr@grandhotelkerala.com,hirangeresidency@gmail.com,","9.8940757,76.707251799722"
Hotel New A-One,Retail,Kerala,Near Katappana ATM Thankamony,7947259916.0,",hr@grandhotelkerala.com,","9.840239,77.0358622"
Chickfest Restaurants,Retail,Kerala,Near Block Panchayat Office Kattappana,8734070519.0,,"9.7610621,77.1197444"
Betsy Hotel,Retail,Kerala, Peermade,,",J.Smith@thebetsyhotel.com,","9.5719953,76.9946359"
Edassery Farmyard Restaurant,Retail,Kerala,Chattupara Adimali,,",don@indiansummerhouse.co,mumbai.tmr@nic.in,lijinaliji44@gmail.com,","10.0196731,76.9342187"
Salkara Hotel,Retail,Kerala, Anachal,,",abhilash@salkara.com,hotelsalkarackd@gmail.com,","10.0232393,77.0386762"
The Fuel,Retail,Kerala, Kattappana,,",mktg_blr@mrpl.co.in,mktg.mlr@mrpl.co.in,rstulsi@indianoil.in,rokeralamorth@gmail.com,pkrajendra@indianoil.in,","9.7610615,77.1120912"
Parakkat Spice Merchant Restaurant - Munnar,Retail,Kerala,,,",booking@spicetreemunnar.com,","10.0403377,77.0368399"
Jannah Bakery And Food Court,Retail,Kerala, Adimali,,",keltravelss@gmail.com,chef.kumarakom@tajhotels.com,","10.0157142,76.9530669"
Hotel Maharani,Retail,Kerala, Thodupuzha,,",hotelmaharanipalabooking@gmail.com,hotelmaharani.clt@gmail.com,holidays@welcomheritagehotels.in,","9.845564,76.960158"
Pappens Restaurant,Retail,Kerala, Idukki,,",pappensidk@gmail.com,","9.858544,76.962061"
Cee Bee Food Palace,Retail,Kerala, Muttom Ek,,",roc.chennai@mca.gov.in,jatinms2002@yahoo.com,info@drbee.in,","9.8389282,76.7457307"
Nmr Biriyani House,Retail,Kerala, Sultanpet,,",mail@mykeralatravel.com,bizklinfo@gmail.com,manojrrg@gmail.com,","10.7711578,76.6552685"
Hotel Sangamam,Retail,Kerala,Near Sanil Workshop Kalapatti,,"reservation@keralatravels.com,,","10.6969854,76.5894778"
Hotel Malabari,Retail,Kerala,Near Mangalam Bridge Vadakkancherry Mbr,,",reservationskoz.keys@lemontreehotels.com,info@keralatourism.org,karthikaparkhotel@gmail.com,rooms@manuelsonsmalabarpalace.com,","10.602303499722,76.491493599722"
Star Night,Retail,Kerala, Vallapuzha,,",hr@grandhotelkerala.com,","10.8385958,76.2499774"
Top In Town Family Restaurant,Retail,Kerala,Near U Circle Vidyut Nagar Sultanpet,,",info@palakkadtopintown.com,","10.7707665,76.6572949"
Sandalwood Restaurant And Caterers,Retail,Kerala, Lakkidi,,"vijaypatel7520@yahoo.com,roc.chennai@mca.gov.in,,","10.7736501,76.4317234"
Adhi Bhavan,Retail,Kerala,Near Lg Showroom Sultanpet,,",baroda@zenithfibres.com,sasivenat@gmail.com,info@aadhibhavan.com,sasi@baabood.com,cs.shah@zenithfibres.com,bjrtrust@gmail.co,roc.chennai@mca.gov.in,","10.7675377,76.6604901"
Clock Tower Restaurant,Retail,Kerala, Karapparambu,8401686359.0,",info@keralatourism.org,","11.2870784,75.781336"
The Light House,Retail,Kerala,Opposit Metro Hospital Thondayad Byepass,9054476709.0,",reservation@theneelakantakovalam.com,info@beachflora.in,","11.245596,75.83709"
White House Restaurant,Retail,Kerala,Near Odugakkad Makham Puthuppady,,"whitehouseodungakadu@yahoo.com,,","11.4808328,75.977004"
Garlic Routes,Retail,Kerala,4th Gate Y M C A Calicut Fort Gate,,",mail@garlicroutes.com,","11.243083087823,75.780627128479"
Kanjipanthal,Retail,Kerala, Calicut Beach,9054355702.0,",shaijal.s@gmail.com,acs.csprof@gmail.com,","11.253842333333,75.77430725"
Star Bakes And Restaurant,Retail,Kerala,PC Junction Mukkam Mukkam,8487862073.0,,"11.320833333333,75.995555555556"
Hotel Gopika,Retail,Kerala,Near Sbk Hospital Chelavoor,8485904057.0,",gopikaregencygvr@gmail.com,info@keralatourism.org,","11.298155555556,75.849977777778"
Grains Resturant,Retail,Kerala,Near Palora Shiva Temple Thalakolathoor,,",wholegrainsmail@gmail.com,","11.3466155,75.7551375"
Cita Pani,Retail,Kerala,Bombay Hotel Cherooty Road,,",citapani123@gmail.com,","11.2514849,75.7732073"
Cafe Pizza Corner,Retail,Kerala,Near IIMK Campus Kunnamangalam,8460551427.0,,"11.304154,75.875687"
Todays Restaurant,Retail,Kerala, Thamarassery,,",contact@udayarestaurant.com,hr@grandhotelkerala.com,","11.4244313,75.9383222"
Nasar And Nissar Foods And Catering,Retail,Kerala,Near Moitheen Palli Palayam,9054560576.0,",lijinaliji44@gmail.com,","11.221717833333,75.792808527778"
Hotel River View,Retail,Kerala,Near By Federal Baank Koorachundu,9054486026.0,",gmhotelriverview@yahoo.co.in,contact@keralatourism.org,info@keralatourism.org,","11.5379535,75.8402643"
A T Foods,Retail,Kerala,juinction Chelavoor,,",x3ejyoti.chawla@atfoods.com,elitefoods@eliteindia.com,foodsafetykerala@gmail.com,fsoharipad@gmail.com,foofoodsindia@gmail.com,jyoti.chawla@atfoods.com,","11.287000472222,75.837543388889"
Hotel City,Retail,Kerala,Near Bypass Junction Meenchanda,,",innercircle@tajhotels.com,hr@grandhotelkerala.com,","11.2141941,75.8018727"
Leaf Restaurant,Retail,Kerala,Opposite Ansari Silks Koduvalli,,",sunilkmamba@gmail.com,","11.3590223,75.9113786"
Le ARABIA Restaurant,Retail,Kerala,Opposite Bismi Hypermarket Nadakkavu,,",info@learabia.in,","11.2734382,75.7754041"
Upper Crust Bakery,Retail,Kerala, Jawaharnagar,,",JSmith@ucbakery.com,John@ucbakery.com,","8.5228212185,76.9511654601"
Spunge Cakes and Cafe,Retail,Kerala,Near IDBI Bank Tirur; Tirur Tirur; 676101,,"linsonlisa01@gmail.com,",10.9207183; 75.9280516
Albaik Restaurant,Retail,Kerala,Near HP Petrol Pump Manjeri Kla; Calicut Road Manjeri Kla; 676121,8485922748.0,"ismayilchemban@gmail.com,x3einfo@albaik.com,info@albaik.com,xx@albaik.com,",11.120954; 76.116664
Inbare Indian Bakes & Restaurant,Retail,Kerala, Wandoor; Kalikavu Road Wandoor; 679328,8971298671.0,,11.192989; 76.246645
City Park Restaurant,Retail,Kerala,Near Kadheeja Auditorium Tirur; Pookkayil Tirur; 676101,7947174432.0,"la@gmail.com,",10.91589729624; 75.92398072014
Hotel Fast N Fast,Retail,Kerala,Jumma Masjid Edavanna; Sh28 Edavanna; 676541,,"hr@grandhotelkerala.com,reservations@lemontreehotels.com,",11.2125495; 76.1391324
Brown Beans Cafe,Retail,Kerala,Near AMHonda Showroom Manjeri Bazar; Thurakkal Manjeri Bazar; 676121,,"BROWNBEANS.IN@GMAIL.COM,",11.119368; 76.111673
Malabar White House Restaurant,Retail,Kerala,Near Police Station Ponnani; Chavakkad Road Ponnani; 679577,,"farookfm@gmail.com,i@gmail.com,",10.7573201; 75.9289406
Hotel Kailash,Retail,Kerala, Elappara Road; Elappara Road Elappara Road; 685503,,"delhi@wwicsgroup.com,hi.dn@lemontreehotels.com,",9.6877501; 76.9059062
Periyar Tiger Cafe Restaurant,Retail,Kerala,Near Periyar Tiger Reserve Entrance Gate Kumily; Kumali Lake Road Kumily; 685509,7411652050.0,"info@keralatourism.org,",9.5996781; 77.1713831
Babus Kitchen,Retail,Kerala,nan; 7aam Number Road; 685503,,"cochinreclaim@gmail.com,qrskollam@gmail.com,sara75@gmail.com,Info@babu-kitchen.com,",9.6905065; 76.9094002
Hotel Crown Plaza,Retail,Kerala, Vagamon; Pullikanam Ellapara Road Vagamon; 685503,,"mail@tamarind.co.in,reservations.crowneplazakochi@ihg.com,dinesh.rai@ihg.com,",9.687073; 76.905322
Vaikom Kanji Kada,Retail,Kerala, Vagamon; Vagamon Kannamkulam Vagamon; 685503,,"srovaikom.regn@kerala.gov.in,rupesh@keralatourism.org,",9.6772664; 76.9113991
Sabu'S Hotel,Retail,Kerala, Vagamon; 7aam Number Road Vagamon; 685503,,"tvmkaramana@qrs.in,ekm@qrs.in,x3eqrstvm@qrs.in,info@mediassist.in,",9.7010919; 76.9536874
Hotel Veettil Oonu,Retail,Kerala, Upputhara; Upputhara Vagamon Upputhara; 685505,,"hr@grandhotelkerala.com,",9.718591; 76.952305
Alsafa Hotel,Retail,Kerala,nan; Pullikkanam Elappara Road; 685503,,"Www.jayasiva.abi@gmail.com,mkramesh.rccl@gmail.com,roc.chennai@mca.gov.in,info@alsafasiyaha.com,",9.6884929; 76.9061093
Palette People Artists Residency,Retail,Kerala,Ulupponni Kottamala; Kottamala Road Kottamala; 685503,,"palettepeopleresidency@gmail.com,",9.7281804; 76.8980926
Mallikayil Hotel,Retail,Kerala, Vagamon; Vagamon; 685503,,"reservationskoz.keys@lemontreehotels.com,hotelmaharajapalace@gmail.com,",9.6883813; 76.9062941
Golden Arabic Food,Retail,Kerala,nan; Pullikkanam Elappara Road; 685503,,"sasi@baabood.com,bombayfruits@yahoo.com,sankar@abntrades.com,",9.6878895; 76.9060316
Palette Multi-Cuisine Restaurant,Retail,Kerala,Opposite Moon MalaPalette Hill View Resort; nan; 685503,,"lijinaliji44@gmail.com,mail@greenrouteshospitality.com,",9.706789; 76.936523
Hotel Vagaland,Retail,Kerala, Pullikkanam; Elappara Road Pullikkanam; 685503,,"info@keralatourism.org,hr@grandhotelkerala.com,",9.6878443; 76.9057396
Vagamon Hill Valley,Retail,Kerala,Opposite Arapucad Tunnel Idukki; Idukki; 685509,,"ananya.vagamon@gmail.com,info@dtpcidukki.com,sales@pagodaresorts.com,",9.678697; 76.92245
The Pantry,Retail,Kerala,Opposite Apsara Threatre Kovalam Beach; Beach road Kovalam Beach; 695527,,"retail@amul.coop,lijinaliji44@gmail.com,customercare@tastynibbles.in,",8.3988802; 76.9818171
Kingfisher restaurant & SEA FOOD CORNER,Retail,Kerala,Near Hawa Beach Kovalam HO; Beach Road Kovalam HO; 695527,,"hello@kingfishernyc.com,",8.3869717; 76.9769157
Coconut Grove,Retail,Kerala, Kovalam Ho; Kovalam Ho; 695527,,"a1greens.india@gmail.com,9@gmail.com,",8.3861484644; 76.9783915579
The Curry Pot Restaurant,Retail,Kerala, Kovalam Beach; GV Raja Road Kovalam Beach; 695527,,"email@thecurrypot.org,rt@keralatourism.org,",8.4021041; 76.9737338
The Chef's Studio,Retail,Kerala, Vazhamuttom; Vazhamuttom; 695527,,"mail@chefs-studio.com,roc.chennai@mca.gov.in,kristin@chef.studio,",8.4105197; 76.9768161
Emaar Kitchen,Retail,Kerala,nan; Vizhinjam; 695527,,"customercare@emaar.ae,sabir.km666@gmail.com,x3ecustomercare@emaar.ae,",8.3990119; 76.9820342
Molly's Retreat Restaurant,Retail,Kerala, Kovalam Beach; Kovalam Beach; 695527,,"INFO@MOLLYSRETREATKOVALAM.COM,",8.402257; 76.974027
Roof Top,Retail,Kerala, Kovalam HO; Light House Beach Kovalam HO; 695527,,"snroofs@rediffmail.com,",8.3851935241; 76.9796605781
Sanjeevni Restaurant,Retail,Kerala,Behind Ktdc Hotel Koval Beach Kovalam HO; Kovalam Kovalam HO; 695527,,"roc.chennai@mca.gov.in,",8.3990355; 76.9737186
Catamaran (Turtle On The Beach Hotel),Retail,Kerala, Kovalam Beach; ITDC Road Kovalam Beach; 695527,,"gm@turtleonthebeach.com,info@turtleonthebeach.com,fo.kovalam@gokulamhotels.com,",8.3903957; 76.9762042
Leo Restaurant,Retail,Kerala,Near Pappukutty Beach Resort Kovalam HO; Light House Beach Kovalam HO; 695527,,"info@leosindia.com,",8.3863983; 76.9780143
Thomason's Casa Restaurant,Retail,Kerala, Ikkanda Warrior Road Thrissur HO; Ikkanda Warrior Road-Thrissur HO; 680001,7383545727.0,"mail@everydaybakes.in,",10.521169638889; 76.224288916667
Alzaki Restaurant,Retail,Kerala,Near Ansar Hospital Perumpilavu; Perumpilavu Perumpilavu; 680519,8401585619.0,,10.701734; 76.090217
Blue Star Biryani Hut,Retail,Kerala,Near Jubilee Mission Hospital Thrissur East; East Fort Thrissur East; 680005,9054440662.0,"mmquickerala@gmail.com,",10.519985; 76.2257018
Keif Restaurant,Retail,Kerala,Near Salafi Masjid Vadakkekad; Kombathayilpadi Vadakkekad; 679562,8485953405.0,"khanbinish2006@rediffmail.com,mamatayadav06@gmail.com,",10.6491101; 76.0101791
Grill Inn Restaurant,Retail,Kerala,Near Koorkenchery Thrissur East; Shornur Road Thrissur East; 680005,,"grillinn@grillinn.in,info@grillinn.in,",10.503498; 76.211596
Hao Ming Chinese Restaurant,Retail,Kerala,Near St Thomas College Thrissur Ho; Bennette Road Thrissur Ho; 680001,,"mail_outlinehaomingrestaurant@gmail.com,vlal6767@gmail.com,aroundmangalore.com@gmail.com,",10.524901944444; 76.220152
Tonico Cafe,Retail,Kerala,Near Mutingoor Signal Muringoor Vadakkummuri; Road Muringoor Vadakkummuri; 680309,,"info@tonicocafe.com,customercare@tonicocafe.com,",10.278876; 76.3443522
Monks Inn,Retail,Kerala,Near Kalyan Hero Opposite Brand Factory kottappuram; M G Road kottappuram; 680667,,"automonkstrading@gmail.com,",10.5237558; 76.2092857
Soul Kitchen Co,Retail,Kerala,Christ College Junction irinjalakuda north; Thrissur Road irinjalakuda north; 680125,,"info@mastersindia.co,bandra.store@thesouledstore.com,hr@grandhotelkerala.com,",10.3543723; 76.2182775
Hotel Akshaya,Retail,Kerala, Guruvayur; Guruvayur Road Guruvayur; 680101,,"fo.akshaya@kerala.gov.in,akshayahotelthrissur@gmail.com,info@hotelakshayathrissur.com,",10.60416096; 76.04425397
Varnam Sea Food Restaurant,Retail,Kerala,Opposite to Dcc Office Palayam; Nandavanam Road Palayam; 695034,7022321086.0,"varnamcaterers@gmail.com,",8.5029834; 76.953754
Velvet Dawn Cafe & Restaurant,Retail,Kerala,Opposite Aham Boutique Sasthamangalam; Kurups Line Sasthamangalam; 695010,7947162511.0,,8.511783694444; 76.969393638889
Mothers Veg Plaza,Retail,Kerala, Palayam; Bakery Junction Palayam; 695034,8487031810.0,"mothersvegplaza@gmail.com,",8.5003097; 76.9531832
Krishna Hotel Kattachalkuzhi,Retail,Kerala,Opposite Coconut Research Centre Balaramapuram; Main Road Balaramapuram; 695501,8401289123.0,,8.4046391; 77.024826
Caffe Italiano,Retail,Kerala,Near Helipad Varkala; North Cliff Varkala; 695141,9725473748.0,"help@lollino.in,info@lollino.in,",8.7382888; 76.700056
Hotel Annapoorna,Retail,Kerala,Opposite PRS Hospital Killipalam; Bund Road Killipalam; 695002,7487958235.0,"hotelannapoornathellakom@gmail.com,",8.4816323; 76.958802
Al Haja Vazhiyorakkada,Retail,Kerala,Near Poovanpara Bridge Alamcode; Attingal Alamcodu Road Alamcode; 695102,,"tasteofalhaja@gmail.com,",8.7128958; 76.8118867
Sree Vinayaka Hotel,Retail,Kerala,Opposite Indian Oil Office Enjakkal; NH Bye Pass Enjakkal; 695008,7383618039.0,"la@gmail.com,",8.4786631; 76.9354513
THE AFC (AMERICAN FRIED CHICKEN),Retail,Kerala,Inchakkal Junction Vallakkadavu; Inchakkal Vallakkadavu; 695008,9035679070.0,"queries@afc.world,",8.478651916667; 76.93544
Opr Family Restaurant,Retail,Kerala,Near Shivas Sports Hub Pallichal; Vizhinjam Road Pallichal; 695020,8735029398.0,,8.4386571; 77.0181053
Irani Fast Food and Caterers,Retail,Kerala, Manikandeswaram; Vazhayila Manikandeswaram; 695013,9724820368.0,,8.54292958; 76.98206421
Saravana Bhavan,Retail,Kerala,Munnar Market Munnar Colony; MG Road Munnar Colony; 685612,,"hsbbangkok@saravanabhavan.com,feedback@saravanabhavan.com,parur@jumbokids.com,hsb@saravanabhavan.com,hsbcanada@saravanabhavan.com,",10.0872906; 77.0597034
Bala Restaurant,Retail,Kerala, Moolakadai; Jn Moolakadai Moolakadai; 685612,,"sraiyar@yahoo.com,bala@sraco.in,roc.chennai@mca.gov.in,sasi@baabood.com,Sridhar.Kothandaraman@ril.com,",10.0739071; 77.0622461
The Wind Munnar Restaurant,Retail,Kerala, Munnar HO; Chinakanal Munnar HO; 685612,,"manager@thewindmunnar.com,",10.017192; 77.162085
Chennai Star Biryani,Retail,Kerala,Near Palathottam Colony Road ikka nagar; Munnar Locality ikka nagar; 685612,,"feedback@amburstarbriyani.com,",10.08763; 77.067072
Maharani Hotel,Retail,Kerala,Opposite to Elanjikkal Building Munnar Ho; Mattupetti Road Munnar Ho; 685612,,"hotelmaharani.clt@gmail.com,holidays@welcomheritagehotels.in,hotelmaharanipalabooking@gmail.com,",10.0868124; 77.0605637
Poomaram Ram's Kitchen,Retail,Kerala,Opposite Lulu Mal Anayara; Byepass Anayara; 695023,,"poomaramrestaurant@gmail.com,",8.515775; 76.898772
Bungalow 47,Retail,Kerala,Opp Chithari Juma Masjid Kanhangad; Bekkal Road Kanhangad; 671531,8734917852.0,"keltron.enquiry@gmail.com,kavil1805@gmail.comAttention,iteg@keltron.org,i@gmail.com,",12.3556033; 75.0697685
Udupi Sree Krishna Veg Restaurant,Retail,Kerala,Opposite O Ranjees Theatre; nan; 671318,,"satannu63@yahoo.co.in,vikrammt_2000@yahoo.com,",12.4279893; 75.0232938
Royal Casino,Retail,Kerala, Periyattadukkam; Periyattadukkam Periyattadukkam; 671316,,"casinohotelsltdtcr@yahoo.co.in,casinotcr@yahoo.co.in,casinotcr@gmail.com,shoklgdpspkd.pol@kerala.gov.in,",12.4301498; 75.0729942
Vijay Dhaba,Retail,Kerala, Poinachi; Poinachi; 671541,,"ansondavid@live.in,",12.4587232; 75.0589981
Al Madeena Restaurant And Catering Service,Retail,Kerala,Near Periyattadukkam Town Periyattadukkam; NH 66 Periyattadukkam; 671316,,"info@alsagareng.com,nazeer.m@hotmail.com,",12.4289283; 75.07384
Hotel Kanmani,Retail,Kerala, Periyattadukkam; Periyattadukkam; 671316,,"a1greens.india@gmail.com,contact@cghearth.com,reservationskoc.keys@lemontreehotels.com,hckerala@nic.in,hr@grandhotelkerala.com,",12.4291626; 75.0724608
Ferrero Cafe,Retail,Kerala,nan; Palakunnu Temple Road; 671318,,"helpdesk@archiesonline.com,luigi.romano@ferrero.com,corporateIndia.Sales@ferrero.com,customercare@rct.in,x3eluigi.romano@ferrero.com,",12.4240227; 75.0225425
Md Rockzz,Retail,Kerala,nan; Panayal; 671318,,"gayathrihotels@gmail.com,shru.rockz@gmail.com,",12.4347131; 75.069608
Janakiya Hotel,Retail,Kerala,nan; Cherumba Road; 671316,,"info@kudumbashree.org,",12.4283598; 75.0755624
Hotel Century,Retail,Kerala,Cantral Medical Clg Poinachi; Poinachi; 671541,,"contact@centurygrandwayanad.com,book@spreehotels.com,sasca@sasca.in,",12.4640817; 75.0583128
Indian Coffee House Uduma,Retail,Kerala, Udma; Udma Udma; 671319,,"info@indiancoffeehouse.com,",12.4406671; 75.0248092
Mariya Family Restaurant,Retail,Kerala,Pullupara; nan; 685509,,"mmquickerala@gmail.com,",9.529316; 77.228193
Spice Haven,Retail,Kerala, Thekkady; Thekkady; 685509,,"info@keralaspicesonline.com,",9.460967889; 77.25543876
Anna's Homely Food,Retail,Kerala,Near Coffee Inn Periyar Lake; Lake Road Periyar Lake; 685509,,"lijinaliji44@gmail.com,",9.460967889; 77.25543876
Kunjar Reastaurant,Retail,Kerala,Near Entrance Gate Periyar Lake; Thekkady Periyar Lake; 685509,,"hr@grandhotelkerala.com,",9.460967889; 77.25543876
Eves Kitchen Restaurant,Retail,Kerala, Kumily; Thekkady Road Kumily; 685509,,"info@burmaburma.in,",9.5981475; 77.1718096
Thekkady Cafe,Retail,Kerala, Thekkady; Lake Road Thekkady; 685509,,"info@keralatourism.org,",9.6053479; 77.1668037
Gokul Pure Veg Restaurant,Retail,Kerala,Near Highrange Drug Main Street Kumily; Kottayamkumily Road Kumily; 685509,,"gokuldvgroad@gmail.com,info@gokulsweets.com,",9.60777; 77.1683854
Laxmi Pure Veg,Retail,Kerala, Kumily; Kumily Kumily; 685509,,"a1greens.india@gmail.com,roc.chennai@mca.gov.in,",9.606102; 77.1674404
Aryas Sree Haran Aryas,Retail,Kerala,Near Block Office Palakkad Fort; Fort Maidan Palakkad Fort; 678001,8460481214.0,"info@kudumbashree.org,",10.766151999722; 76.658564999722
Hotel Nalanda,Retail,Kerala, Sultanpet; Nurani Sultanpet; 678001,,"reservation@keralatravels.com,nalandatravel@vahoo.com,sgnrnalanda@gmail.com,",10.7766312; 76.6577043
D 9 Navaratna,Retail,Kerala, Stadium Bypass Road; Stadium Bypass Road; 678013,,"csashique@gmail.com,adlcst1.ctd@kerala.gov.in,dlskn.hy@cghs.nic.in,chandratractorsgzp@gmail.com,monarchd9restaurantplkd@gmail.com,",10.7672403; 76.6603094
Pizza Hut,Retail,Kerala,Opposite Noor Jehan Grill Above KFC Stadium Bypass Road; Bypass Stadium Bypass Road; 678001,,"HutCares@yum.com,",10.769358; 76.6616179
Flavours Restaurant,Retail,Kerala,Near Trinity Eye Hospital Stadium Bypass Road; Bypass Road Stadium Bypass Road; 678001,,"thekeralastore@gmail.com,contact@udayarestaurant.com,info@gosnax.in,",10.7672334; 76.6602658
Mulberry Chappathi Company,Retail,Kerala, Sekharipuram; 100 Feet Road Sekharipuram; 678010,,"lijinaliji44@gmail.com,",10.785602590511; 76.656364548731
Malabar Restaurant,Retail,Kerala,Near Saravana Bhavan Erimayur; Thottupalam Erimayur; 678546,,"email@malabarbeachresort.com,sunil@malabarbeachresort.com,",10.6698955; 76.5749065
Hotel Sreelakshmi,Retail,Kerala,Opposite Bus Stand Near SBI Bnk Ottapalam; Ottapalam; 679101,,"sreelakshmi.hotels@gmail.com,sleschennai@gmail.com,",10.773197166667; 76.376594527778
NMRS Uptown Fine Dine Restaurant,Retail,Kerala,Near Bharathmatha Hss Chandranagar Chandranagar; Chandranagar Colony Chandranagar; 678007,,"uptownpkd@gmail.com,",10.772745699722; 76.674930299722
Domino's Pizza,Retail,Kerala,nan; Victoria College Road; 678001,,"guestcaredominos@jublfood.com,x3eguestcareDominos@jubilantfood.com,",10.7837138; 76.6527938
Curryleaf Restaurant,Retail,Kerala,Kovalam Near Leela Hotel Kovalam Beach; Kovalam Beach; 695527,,"info@keralaspicestore.com,mail@vfpck.org,",8.3984543; 76.973573
Sea Rock Restaurant,Retail,Kerala, Kovalam Ho; Main Road Kovalam Ho; 695527,,"searockclub@live.co.uk,",8.3878197; 76.9764996
Village Kichen,Retail,Kerala, Kovalam HO; Kovalam Road Kovalam HO; 695527,,"kvkitchen20@gmail.com,villagecookings@gmail.com,",8.3955348; 76.9846244
The Terrace (The Leela Kovalam A Raviz Hotel),Retail,Kerala,Opposite Infinity Pool Kovalam Beach; Kovalam Beach road Kovalam Beach; 695527,,"sales.kovalam@theleela.com,hari.mohan@theleela.com,",8.3937157; 76.971777
Grandeur Multi Cuisine Restaurant Bakes & Supermarket,Retail,Kerala,Near Lekshmi Restaurant Bar Parippally; Kollam Road Parippally; 691574,8128398483.0,,8.812555305556; 76.758422833333
Lekshmi Edibles,Retail,Kerala,Muslim Street Kottarakara; Puthoor Road Kottarakara; 691506,7487866477.0,"lekshmiedibles@gmail.com,devachith1002@gmail.com,",8.98111191114; 76.7764179424
Arakallu Restaurant,Retail,Kerala,Near D Life Interiors Kollam Bazar; Ramankulangara Kollam Bazar; 691001,8460456533.0,,8.902925; 76.563386
Arabian Chickens,Retail,Kerala,Near Kollam Circle Andamukkam; New Plasa Beach Road Andamukkam; 691001,,"care@topchicken.in,info@topchicken.in,",8.8835174218; 76.5912250802
Hajees Biryani House,Retail,Kerala, thirumullavaram; thirumullavaram; 691012,,"info@foodlovers.in,info@paradisefoodcourt.in,",8.900676; 76.56403
Spicy Garage,Retail,Kerala,Nearby Lekshmi Bar Hotel Parippally; NH47 Parippally; 691574,,"cochinreclaim@gmail.com,sara75@gmail.com,rohanrobertinsta@gmail.com,admin@techtraveleat.com,",8.8141764; 76.7572991
Mughal Dharbar,Retail,Kerala, Nilamel; state highway Nilamel; 691535,,"info@mughaldarbar.in,",8.8120805; 76.8830655
All Spice Restaurant,Retail,Kerala,Near Post Office Chinnakada; Musaliar Building Chinnakada; 691001,,"info@supremefoodco.com,",8.8864705; 76.5903983
Calimiro Restaurant,Retail,Kerala,Nearkmml Panmana; Chavara Panmana; 691583,,"badarshahkutty@gmail.com,",9.0147409; 76.5365155
Soorya,Retail,Kerala, Kottiyam; Thazhuthala Kottiyam; 691571,,"info@suryaenterprisesgoa.com,sooryaresidency@gmail.com,sooryatraders786@gmail.com,emailsales@suryakerala.com,",8.8704293; 76.6715138
Ramees Restaurant,Retail,Kerala,Nr Lic Building Chinnakada; Chinnakada; 691001,,"info.rameesrestaurant@gmail.com,rameesrestaurant@hotmail.com,",8.8880973; 76.5912502
Lakshmi resturent,Retail,Kerala,Opposite Madathara Busstop Parippally; Madathara Road Parippally; 691574,,"info@lakshmiresorts.com,info@lakshmistores.com,",8.8123124; 76.7601344
Fayalwan Hotel,Retail,Kerala,Near to Veliyakada Market Chinnakada; Market Road Chinnakada; 691001,,"hr@grandhotelkerala.com,info@wyteportico.com,fayalwankollam@listinkerala.com,",8.884956; 76.585101
Ciscilla Heritage,Retail,Kerala,Nelliyampathi Seethargundu; Ranimedu Estate Seethargundu; 678508,,"stargatetravels@hotmail.com,sw_mumbai@edwiseinternational.com,info@wicci.in,reservation@cisciliaheritage.com,",10.5072705; 76.7063239
Spring Valley Restaurant,Retail,Kerala, Pulayanpara; Nelliyampathi Road Pulayanpara; 678508,,"info@springandvalleyviewthekkady.com,la@gmail.com,sales@springvalley.co.in,",10.5349175; 76.6932231
AYYAPPANs HOMELY MEALS,Retail,Kerala,nan; Edachira Road; 678506,,"info@beandes.com,",10.5992268; 76.7242596
Sree Ganesh Bhavan,Retail,Kerala, Kollengode West; Pollachi Road Kollengode West; 678506,,"Email-lk-cdl@nic.in,ganesh.hingmire@gmail.com,min.fin@kerala.gov.in,sudhahingmire@gmail.com,Cash@PoS-UPDATED-19-11-16.pdf,heavenhomefour@gmail.com,",10.6118414; 76.7064254
Light House Shawarma,Retail,Kerala, Kollengode; Payyallur Kollengode; 678506,,"info@hilitemall.com,",10.6167463; 76.6966569
Hotel Kalavara,Retail,Kerala,Kollengode Kollengode; Pollachi Road Kollengode; 678506,,"efilings@artismc.com,kalavarafoodproducts@gmail.com,",10.6120209; 76.7064313
Rayan Hotel,Retail,Kerala, Kollengode; Kollengode Kollengode; 678506,,"roc.chennai@mca.gov.in,hckerala@nic.in,",10.6125177; 76.7024326
Dining Delight Restaurant,Retail,Kerala,nan; nan; 678506,,"info@diningdelights.net.in,customercare@tastynibbles.in,",10.6090715; 76.7333765
Hotel Haneefa,Retail,Kerala, Kollengode; Kollengode Kollengode; 678506,,"saleenashams@gmail.com,seena101193@kerala.gov.in,kerala@indianfoundry.org,",10.6128869; 76.7015976
Tharavadu Hotel And Restaurant,Retail,Kerala, Kumarakom North; Kumarakom North; 686563,,"info@tharavadurestaurants.com,",9.6300692; 76.4298441
Kushini Restaurant,Retail,Kerala,Opposite Indair Rubber Factory; Cherpunkal Kozhuvanal Road; 686563,,"hr@grandhotelkerala.com,",9.5911785; 76.4288308
Kumarakom Toddy Parlour,Retail,Kerala, Chakrampady; Sh42 Chakrampady Chakrampady; 686563,,"info@keralatourism.org,",9.6181668; 76.4320712
Menani Restaurant,Retail,Kerala,Near Trivandrum Bypass Kumarakom North; Kavanattinkara Kumarakom North; 686563,,"info@tharavadurestaurants.com,",9.6302003; 76.4302073
The Kumarakom Kitchen,Retail,Kerala, Cheepunkal; Kavanattinkara Cheepunkal; 686563,,"chef.kumarakom@tajhotels.com,",9.6359099; 76.4303623
Brindhavan Pure Vegetarian Restaurant,Retail,Kerala,Near Kumarakom Town Dubai HotelOpposite St Johns Attamangalam Church Kumarakom HO; Kumarakom HO; 686563,,"brindhavan.b2@gmail.com,info@brindhavan.in,",9.5923184; 76.4411555
Dubai Restaurant,Retail,Kerala,Opposite Attamangalam Church; nan; 686563,,"vikas.milhoutra@tajhotels.com,",9.6175449; 76.430095
Ponmanthuruthu Toddy Shop,Retail,Kerala, Kumarakom North; Kumarakom North; 686563,,"oystergul@rediffmail.com,",9.5810812; 76.4286641
Greenland Family Restaurant,Retail,Kerala, Cheepunkal; Kavanattinkara Cheepunkal; 686563,,"roc.chennai@mca.gov.in,hirokomonsrud4086@yahoo.com,",9.6356624; 76.4303609
Kumarakom Bbq,Retail,Kerala, Kavanattinkara; Kavanattinkara; 686563,,"chef.kumarakom@tajhotels.com,",9.6304021; 76.4301637
Lime Tree (The Zuri Kumarakom ),Retail,Kerala,Karottukayal Kumarakom South; Kumarakom South; 686563,,"reservations.kumarakom@thezurihotels.com,",9.5923683; 76.4246701
Cocco Thottam,Retail,Kerala, Athikkalam; Boat Jetty Road Athikkalam; 686563,,"lijinaliji44@gmail.com,info@iofpcl.com,tenguraja@gmail.com,a1greens.india@gmail.com,",9.60144; 76.4324306
Nishant'S Restaurant,Retail,Kerala,nan; R-Block Kainakary; 686563,,"nishant@eatnino.com,us1971@rediffmail.com,anamika_rm2000@yahoo.co.in,va.jpaca@gmail.com,email@jpaca.com,",9.551193; 76.4347541
Hashe's Hotel,Retail,Kerala,Chakrampadi Kumarakom chakrampady; chakrampady; 686563,,"reservations@itchotels.in,reservationskoz.keys@lemontreehotels.com,kochi.grand@hyatt.com,marketing@lemontreehotels.com,",9.6145439; 76.4328429
Arabian Grills,Retail,Kerala, Nullatanni; Munnarnadayar Road Nullatanni; 685612,,"arabiangrill2019@gmail.com,bizklinfo@gmail.com,",10.085742; 77.059911
Surya Soma Restaurant,Retail,Kerala, Nullatanni; Munnar Udumalpet Road Nullatanni; 685612,,"info@suryaresidencyknr.com,roc.chennai@mca.gov.in,",10.0855524; 77.060149
Mirchis Restaurant,Retail,Kerala, munnar ho; munnar ho; 685612,,"MANDM@SQUAREMEALFOODS.COM,",10.07562836; 77.06319498
Bellmount Restaurant,Retail,Kerala,Opposite Govt High School Moolakadai; Moolakadai Moolakadai; 685612,,"info@thattu.com,bellmountresorts@gmail.com,",10.0802566; 77.0616068
Brothers Kitchen,Retail,Kerala, Aluva Munnar Road; Munnar Road Aluva Munnar Road; 685612,,"brotherskitchenhf@gmail.com,muzumdarrefrigereation@gmail.com,cochinreclaim@gmail.com,lijinaliji44@gmail.com,sara75@gmail.com,adc1.ctd@kerala.gov.in,",10.0762705; 77.0632464
Hornbill,Retail,Kerala, Pothamedu; Pothamedu View Point Pothamedu; 685612,,"ashy.eldhose@gmail.com,eldhose.kv@gmail.com,",10.0537706; 77.0671134
Mathai's Restocafe,Retail,Kerala,Near Kacheri Honda Sulthan Bathery; Dhottappankulam Sulthan Bathery; 673592,7411579419.0,"crafters6141@gmail.com,pandhalixe@cafs.in,",11.664833055556; 76.262351972222
Ruchipura Restaurant,Retail,Kerala,Opposite 7Days Hypermarket Sulthan Bathery; NH766 Sulthan Bathery; 673592,8401226908.0,,11.658577916667; 76.246696472222
Royal Restaurant,Retail,Kerala,Near Govt HSS School Ambalavayal Ambalavayal; Kolagappara Road Ambalavayal; 673593,9054492518.0,"royalrivierakumarakom@gmail.com,",11.6158335; 76.2110903
Jubilee Restaurant,Retail,Kerala,Near Post Office Sulthan Bathery; Main Road Sulthan Bathery; 673592,,"info@jubileerestaurant.in,info@keralatourism.org,629629info@jubileerestaurant.inwww.jubileerestaurant.in,",11.662127777778; 76.254505555556
Naduvath Kitchen,Retail,Kerala, Meppadi; State Highway 29 Meppadi; 673577,,"lijinaliji44@gmail.com,feedback@kitchentreasures.in,spswandoor@gmail.com,",11.5555912; 76.1307582
Holiday Hill Family Restaurant,Retail,Kerala,Opposite To Kartikulam; Mananthavady Road Kartikulam; 670646,,"info@holidayhillhotel.in,roc.chennai@mca.gov.in,holidayhillhotel@gmail.com,",11.8483328; 76.0649459
Poozhikuth Biriyani Hut,Retail,Kerala,Near D N Stores and Opposite Axis Bank Sulthan Bathery; Chulliyode Road Sulthan Bathery; 673592,,"mrinal89@yahoo.com,",11.6596246; 76.2569692
Rayan Arabic Restaurant,Retail,Kerala,Opposite Maharani Silks Kalpetta; Kairali Nagar Kalpetta; 673121,,"mail@rajagirihospital.com,",11.6196159; 76.0849749
Kuruva Family Restaurant,Retail,Kerala, Panamaram; Kalpetta Road Panamaram; 670721,,"info@lushgreenstays.com,mail@kuruvaisles.com,",11.7515986; 76.0680438
Nice Restaurant,Retail,Kerala, mananthavady; mananthavady; 670645,,"hr@grandhotelkerala.com,info@thattu.com,rtckeralastores@gmail.com,",11.82013; 75.98678
Hotel Udupi,Retail,Kerala,Near Kanyaka Sarees Sulthan Bathery; Sulthan Bathery Sulthan Bathery; 673592,,"sales@cismanipal.in,reservations@samanvayudupi.com,",11.664860888889; 76.264023694444
Cochin Majlis,Retail,Kerala,St Josephs Girls Higher Secondary School Alappuzha Collectorate; Alappuzha Collectorate; 688001,,"cochinmajlisalappy@gmail.com,cochinmajliskadavanthara@gmail.com,",9.4993732; 76.3305798
Uduppi Saravana Bhavan,Retail,Kerala,District Court Road Thathampally; Thondankulangara Thathampally; 688013,7411762498.0,"hsbuae@saravanabhavan.com,",9.5051309555; 76.340773556
Cake Hut And Resturant,Retail,Kerala,Esaf Bank Ambalapuzha; Highway Road Ambalapuzha; 688561,7411834638.0,,9.383452; 76.361136
Heavenly Hills Restaurant,Retail,Kerala,Shanthivanam Junction Cherukol; Mavelikara Cherukol; 690104,8485976029.0,"rd-kerala@esic.nic.in,",9.2673791405; 76.5357592499
Biriyani Palace,Retail,Kerala,Near Water Works Punnapra; Punnapra; 688004,,"ec.kbchilite@gmail.com,nisarbavu@gmail.com,",9.4476288; 76.3418575
Marari Edens Restaurant,Retail,Kerala,Near Karnosti Ayrvedha and Well Resort Mararikulam; Mararikulam; 688003,,"marariedens@gmail.com,",9.4584907; 76.3347838
Kalavara Cloud Kitchen,Retail,Kerala,Near Palace Ward chungam; Sreemuruga Puthuchira chungam; 688011,,"lijinaliji44@gmail.com,kalavarafoodproducts@gmail.com,",9.4920313861; 76.3466757675
Lake Paradise Restaurant,Retail,Kerala, Avalukkunnu; Avalukkunnu; 688006,,"ajay.mall@mallcom.in,",9.5019203; 76.3660067
Hotel Aryas,Retail,Kerala, Thekkekara; Globe Junction Thekkekara; 690107,,"aryamarketingcbe@gmail.com,rani.srinivasan@gmail.com,",9.2068; 76.571547
Harikrishnans Vegetarian Restaurant,Retail,Kerala,Oppposite KSRTC Bus Stand Mavelikara; Old Mavelikara Mavelikara; 690101,,"care@aabsweets.com,yamskerala@gmail.com,",9.2475326; 76.5401892
Lucamo Resto Cafe,Retail,Kerala,Opposite Aster Medcity South Chittoor; Cheranelloor South Chittoor; 682027,9725453463.0,,10.035024; 76.27812699989
Seagull Restaurant,Retail,Kerala,Near Cost Guard Kochi Fort; Calvathy Road Kochi Fort; 682001,,"hotelseagullindia@gmail.com,",9.9691128; 76.24997
David Hall,Retail,Kerala,Opposite Parade Ground Kochi Fort; Fort Cochin Kochi Fort; 682001,,"info@keralatourism.org,",9.9652292; 76.2395344
Old Harbour Hotel,Retail,Kerala,Opposite Nehru Park Fort Police Station Kochi; Fort Kochi Kochi; 682001,,"help@i-escape.com,info@keralatourism.org,raintree@fortcochin.com,",9.9672767; 76.2422243
Palaaram Restaurants,Retail,Kerala, Kochi; Kochi; 682001,,"palaaram@gmail.com,",9.952662; 76.245015
Loafers Corner,Retail,Kerala,Opposite Park Avenue Hotel Fort Road; Princess Street Fort Road; 682001,,"loaferscornerkochi@gmail.com,info@keralatourism.org,",9.9658571; 76.2420556
Balan Chettande Kada,Retail,Kerala, Mattancherry; Pullupalam Road Mattancherry; 682002,,"mrinal89@yahoo.com,",9.9627082; 76.2533258
Mocha Art Cafe,Retail,Kerala,Opposite Jew Synagogue Mattancherry; 6/127 Mattancherry; 682002,,"mochaartcafe@gmail.com,",9.9573239; 76.2595545
Rasoi,Retail,Kerala,Near St Francis Church Kochi; Fort Kochi Kochi; 682001,,"secdept@rasoigroup.in,",9.9661534; 76.2415572
Bristows Bistro,Retail,Kerala,Next to INS Dronacharya Kochi Fort; Old Beach Road Kochi Fort; 682001,,"reservations@oldlighthousehotel.com,reservation@ashextourism.com,",9.96292; 76.237862
Tibetan Chefs Restaurant,Retail,Kerala,Opposite Kerala Kathakali Centre Kochi; Santa Cruz School Road Kochi; 682001,,"admin@chefajaychopra.com,",9.964008; 76.2428527
Hotel Cochin,Retail,Kerala,Opposite Tata Sports Ground Munnar H O; Old Munnar Road Munnar H O; 685612,,"hr@grandhotelkerala.com,mail@themercy.in,relax@hotelkillians.com,reservations.kochi@radisson.com,info@thetrioshotel.com,reservations@thetrioshotel.com,",10.0804088; 77.0620483
The Spice Village,Retail,Kerala,Near Green Valley Cottage Kovalam Beach; Light House Beach Kovalam Beach; 695527,,"spicevillage@cghearth.com,contact@cghearth.com,keralaspicesvillage@gmail.com,",8.386785; 76.977498
Oyster Restaurant,Retail,Kerala,Samudra Beach; nan; 695527,,"cs@penverproducts.com,info@theoysteropera.com,",8.402731; 76.982241
Bethel Vegetarian Restaurant,Retail,Kerala,Near to Light House Beach Kovalam Beach; Kovalam Beach; 695527,,"care@aabsweets.com,",8.387299; 76.9772889
Punnamada Family Restaurant,Retail,Kerala,Near St Marys Catholic Church Valakom; Marangattukonam Valakom; 691532,,"mail@punnamada.com,",8.9490512; 76.8461955
Malabar Fried Chicken,Retail,Kerala, Ezhukone; Eliyodu Road Ezhukone; 691505,,"pyar1972@gmail.com,",8.9839382; 76.7310285
Green Park Family Restaurant,Retail,Kerala, Amrithapuri; Vallikavu Road Amrithapuri; 690525,,"care@aabsweets.com,",9.0913893; 76.4915411
Lake View Restaurant,Retail,Kerala, Thirumullavaram; Thirumullavaram; 691012,,"beachandlake@hotmail.com,reservation@casalakeview.com,beachandlake@gmail.com,x3ebeachandlake@hotmail.com,",8.8956437; 76.5712842
Bharat Cafe,Retail,Kerala, Karunagappally; Puthiyakavu Karunagappally; 690518,,"bharatparikhca@gmail.com,info@keralatourism.org,bharat.parikh@bpaca.com,",9.077717; 76.531626
Turkish Food,Retail,Kerala,Near Locality uliyakovil; uliyakovil; 691019,,"mdshfr786@gmail.com,info@hilitemall.com,",8.9003428; 76.6138375
Spicy Villa Family Restaurant,Retail,Kerala, Amrithapuri; Road Amrithapuri; 690546,,"hr@grandhotelkerala.com,mail@spicegrove.in,bdm@spicegrove.in,",9.0936601; 76.4937355
Cool Land,Retail,Kerala, Kannur Ho; S M Road Kannur Kannur Ho; 670001,8490008820.0,,11.8727388; 75.3646871
IGLOO Restaurant & Ice Cream Parlour,Retail,Kerala,Near New Bus Stand Thavakkara; Thavakara Thavakkara; 670012,9054644245.0,,11.8665923; 75.3718811
BARKA RESTAURANT,Retail,Kerala, Thavakkara; Thavakkara Thavakkara; 670012,9054935608.0,"admin@restaurantpassion.com,",11.868973083333; 75.369452777778
WESTIND BURGERS,Retail,Kerala,Opposite Blue Nile Hotel Kannur Ho; Kannur Ho; 670001,9725134816.0,,11.8701945; 75.3597488
Afc American Fried Chicken Restaurant,Retail,Kerala,Near Kothayimukku Junction Payyanur; Kothayimukku Payyanur; 670307,9725627931.0,"afcnainmarmoola786@gmail.com,",12.133097; 75.216176
Hotel Muthazham,Retail,Kerala,Near Malabar Soda Factory Payyanur; Kseb New Bus Stand Road Payyanur; 670307,,"hr@grandhotelkerala.com,",12.103714; 75.210528899722
Casa Rasa Taliparamba,Retail,Kerala,Near Jfc Fruits Centre Velapuram; Velapuram Velapuram; 670141,,"lijinaliji44@gmail.com,",12.0417839; 75.3633682
The Bamboo Restaurant,Retail,Kerala,Near Bheema Jewellery Civil Station Kannur; Civil Station Kannur; 670002,,"bamboofreshrestaurant@gmail.com,",11.8748773; 75.3798416
Bamboo Fresh,Retail,Kerala, Sreekandapuram; Sh36 Sreekandapuram; 670631,,"bamboofreshrestaurant@gmail.com,",12.044819; 75.505768
Raandhal Restaurant,Retail,Kerala,Near AKG Hospital Talap; Pamban Madhavan Road Talap; 670002,,"raandhal@gmail.com,",11.883676; 75.372464
P V S Tourist Home,Retail,Kerala, Kannur Ho; Kannur Ho; 670001,,"hotelpvs@gmail.com,acmgokulam@gmail.com,tripzoloindia@gmail.com,information@peevees.com,",11.8717705; 75.3624817
Hotel Woodlands And Sweets,Retail,Kerala,Near Zenora Home Essentials Thodupuzha; Highway  Road Thodupuzha; 685584,8123862773.0,"thewoodlandshotel@gmail.com,mail@cochinbakery.com,",9.917467; 76.68748
La La Land Cakeshop,Retail,Kerala,Near Private Bus Stand Thodupuzha; Ramamangalam Road Thodupuzha; 685584,,"abuse@godaddy.com,",9.8942777; 76.7062921
New Hi-range Hotels,Retail,Kerala,Near Private Bus Stand Thodupuzha; Pala Road Thodupuzha; 685584,7487848402.0,"hr@grandhotelkerala.com,hirangeresidency@gmail.com,",9.8940757; 76.707251799722
Hotel New A-One,Retail,Kerala,Near Katappana ATM Thankamony; Thankamani Building Thankamony; 685609,7947259916.0,"hr@grandhotelkerala.com,",9.840239; 77.0358622
Chickfest Restaurants,Retail,Kerala,Near Block Panchayat Office Kattappana; School Kavala Kattappana; 685508,8734070519.0,,9.7610621; 77.1197444
Betsy Hotel,Retail,Kerala, Peermade; Local Road Peermade; 685531,,"J.Smith@thebetsyhotel.com,",9.5719953; 76.9946359
Salkara Hotel,Retail,Kerala, Anachal; Munnar Bypass Road Anachal; 685565,,"abhilash@salkara.com,",10.0232393; 77.0386762
The Fuel,Retail,Kerala, Kattappana; Idukki Road Kattappana; 685508,,"mktg_blr@mrpl.co.in,rstulsi@indianoil.in,pkrajendra@indianoil.in,mktg.mlr@mrpl.co.in,rokeralamorth@gmail.com,",9.7610615; 77.1120912
Parakkat Spice Merchant Restaurant - Munnar,Retail,Kerala,nan; nan; 685565,,"booking@spicetreemunnar.com,",10.0403377; 77.0368399
Hotel Maharani,Retail,Kerala, Thodupuzha; Puliyanmala Road Thodupuzha; 685584,,"holidays@welcomheritagehotels.in,hotelmaharani.clt@gmail.com,hotelmaharanipalabooking@gmail.com,",9.845564; 76.960158
Lassibay,Retail,Kerala, Kattappana; Pallikavala Kattappana; 685508,,"ecoffice.exc@kerala.gov.in,",9.748775; 77.1145311
Pappens Restaurant,Retail,Kerala, Idukki; SH 43 Idukki; 685509,,"pappensidk@gmail.com,",9.858544; 76.962061
Nmr Biriyani House,Retail,Kerala, Sultanpet; Sultanpet; 678001,,"mail@mykeralatravel.com,manojrrg@gmail.com,bizklinfo@gmail.com,",10.7711578; 76.6552685
Hotel Malabari,Retail,Kerala,Near Mangalam Bridge Vadakkancherry Mbr; NH 544 Vadakkancherry Mbr; 678683,,"reservationskoz.keys@lemontreehotels.com,info@keralatourism.org,karthikaparkhotel@gmail.com,",10.602303499722; 76.491493599722
Top In Town Family Restaurant,Retail,Kerala,Near U Circle Vidyut Nagar Sultanpet; Harikkar Street Sultanpet; 678001,,"info@palakkadtopintown.com,",10.7707665; 76.6572949
Sandalwood Restaurant And Caterers,Retail,Kerala, Lakkidi; Lakkidi; 679301,,"roc.chennai@mca.gov.in,",10.7736501; 76.4317234
Adhi Bhavan,Retail,Kerala,Near Lg Showroom Sultanpet; Stadium Bypass Road Sultanpet; 678001,,"sasivenat@gmail.com,baroda@zenithfibres.com,sasi@baabood.com,roc.chennai@mca.gov.in,cs.shah@zenithfibres.com,Cash@PoS-UPDATED-19-11-16.pdf,bjrtrust@gmail.co,info@aadhibhavan.com,",10.7675377; 76.6604901
Clock Tower Restaurant,Retail,Kerala, Karapparambu; Karapparamba School Karapparambu; 673010,8401686359.0,"info@keralatourism.org,",11.2870784; 75.781336
The Light House,Retail,Kerala,Opposit Metro Hospital Thondayad Byepass; Airport Road Thondayad Byepass; 673016,9054476709.0,"reservation@theneelakantakovalam.com,",11.245596; 75.83709
Garlic Routes,Retail,Kerala,4th Gate Y M C A Calicut Fort Gate; Kannur Road Calicut Fort Gate; 673001,,"mail@garlicroutes.com,",11.243083087823; 75.780627128479
Kanjipanthal,Retail,Kerala, Calicut Beach; Convent Road Calicut Beach; 673032,9054355702.0,"shaijal.s@gmail.com,",11.253842333333; 75.77430725
Star Bakes And Restaurant,Retail,Kerala,PC Junction Mukkam Mukkam; Main Road Mukkam; 673602,8487862073.0,,11.320833333333; 75.995555555556
Cafe Pizza Corner,Retail,Kerala,Near IIMK Campus Kunnamangalam; Wayanad Road Kunnamangalam; 673571,8460551427.0,,11.304154; 75.875687
Todays Restaurant,Retail,Kerala, Thamarassery; Chungam Thamarassery; 673573,,"hr@grandhotelkerala.com,",11.4244313; 75.9383222
Nasar And Nissar Foods And Catering,Retail,Kerala,Near Moitheen Palli Palayam; Moitheenpalli Road Palayam; 673001,9054560576.0,"lijinaliji44@gmail.com,",11.221717833333; 75.792808527778
Hotel River View,Retail,Kerala,Near By Federal Baank Koorachundu; -Ballussery Road Koorachundu; 673527,9054486026.0,"info@keralatourism.org,gmhotelriverview@yahoo.co.in,reservationskodai@grtgreattrails.com,contact@keralatourism.org,crs@grthotels.com,",11.5379535; 75.8402643
A T Foods,Retail,Kerala,juinction Chelavoor; Kalandithazham Chelavoor; 673571,,"foofoodsindia@gmail.com,foodsafetykerala@gmail.com,info@kfcdoha.com,jyoti.chawla@atfoods.com,x3ejyoti.chawla@atfoods.com,elitefoods@eliteindia.com,fsoharipad@gmail.com,",11.287000472222; 75.837543388889
Hotel City,Retail,Kerala,Near Bypass Junction Meenchanda; Meenchanda Meenchanda; 673018,,"hr@grandhotelkerala.com,innercircle@tajhotels.com,",11.2141941; 75.8018727
Leaf Restaurant,Retail,Kerala,Opposite Ansari Silks Koduvalli; Kozhikkod Wayanad Road Koduvalli; 673572,,"sunilkmamba@gmail.com,",11.3590223; 75.9113786
Le ARABIA Restaurant,Retail,Kerala,Opposite Bismi Hypermarket Nadakkavu; Nadakkavu; 673011,,"info@learabia.in,",11.2734382; 75.7754041
Sunshine Dental & Orthodontic Centre,Retail,Kerala,Behind Kalyan Silks Near Hotel Oasis Palayam Palayam; Panjappura Road Palayam; 695034,8490027479.0,,8.5038711; 76.9528174
Happy Tooth Dental Care & Root Canal Centre,Retail,Kerala,600m From Kallambalam Junction Kallambalam; Varkala Road Kallambalam; 695605,7411833164.0,,8.76128888889; 76.7859194444
Dr.prasanths Smile D'zign Dental Clinic,Retail,Kerala,Opp Market Onninmoodu; Onninmoodu Road Onninmoodu; 695310,8460407227.0,"info@smiledzign.com,",8.801822638889; 76.718704222222
Dr. Anju'S Smile Care Multispeciality Dental Clinic,Retail,Kerala,Opposite VarkalaNear Sbi; nan; 695141,087140 70696,,8.733814; 76.726667
Smile Care Dental Clinic & Root Canal Centre,Retail,Kerala,Near Supplyco Supermarket Pallickal Pallikkal Kilimanoor; Pallickal Pallikkal Kilimanoor; 695604,8460523722.0,,8.8260252; 76.8101038
Aliya Multi Specialty Dental Care,Retail,Kerala,Behind City Medicals Karette Road Kilimanoor; Kilimanoor Jn Kilimanoor; 695601,8460415357.0,"info@dentalclinickerala.com,veeyesdentalhospital@gmail.com,faisalsrelief@gmail.com,",8.769793; 76.881247
Dr. Nabeel's Multispeciality Dental Clinic and Implant Centre,Retail,Kerala,Near to Mangalapuram Market; Mangalapuram; 695317,8460524887.0,,8.6246107; 76.8490844
Modern Smile Care Clinic,Retail,Kerala,Opposite to Kseb Office Pothencode; Pothencode Pothencode; 695584,8460472179.0,"unil@yahoo.co.in,",8.619466; 76.8987284
V Care Multi-Speciality Dental Clinic,Retail,Kerala,Opp Al Saj Conventional Centre Kazhakuttam; Vadakumbhagam Kazhakuttam; 695582,9725685519.0,"faizalpunnakkottil@gmail.com,jethythomas@gmail.com,basil.johnson068@gmail.com,",8.574409; 76.8688051
Vdentist Dental Care,Retail,Kerala,Near South Indian Bank Sreekaryam; NH Main Road Sreekaryam; 695017,099950 22199,"vddcpattom@gmail.com,vddctvm@gmail.com,",8.5477405; 76.9218248
Matha Dental Clinic,Retail,Kerala,Near Market Road Junction; Kottayam Kumarakom Road; 686563,,"dr_maryb@yahoo.com,drmamplan@gmail.com,",9.591191; 76.4373122
Alps Family Dental Clinic,Retail,Kerala,Market Road Junction Kumarakom HO; State Highway 42 Kumarakom HO; 686563,,"alpsfamilydentalclinic@gmail.com,",9.5921104; 76.4375182
Dr. George Thomas,Retail,Kerala,Near Police Station; Matha Dental Clinic; 686563,,"gthomas@doctor.com,",9.5912119; 76.4373119
Prabha Dental Clinic,Retail,Kerala, Varanam; Puthanambalam Varanam; 688555,,"DR1_SAMEER@YAHOO.COM,kaapa2007@gmail.com,ptprabhath@gmail.com,",9.6232555; 76.3810922
Dr. Praveens Dental Cosmetic Centre,Retail,Kerala,Near Mamman Mapilla Hall Kiliroor North; Kk Road Kiliroor North; 686020,,"sarikaraveendran25@gmail.com,drsuganyamohandoss@gmail.com,",9.577808; 76.47757
Moulana Dental Clinic,Retail,Kerala,Near Sbi IllickalNear Illickal Bridge Thiruvarppu; Illickal Thiruvarppu; 686020,,"mail@moulanahospital.com,info@medicalkerala.com,medicalkerala.com@gmail.com,",9.588015; 76.490038
Smile Makers,Retail,Kerala, Varanam; Puthanagadi Varanam; 688555,,"customer.service@smilemakers.com,drcvrajesh@gmail.com,support@distributorparle.in,support@Parledealership.in,",9.6413646; 76.3707783
Moss Dental Clinic,Retail,Kerala,Near Kodayampady Junction; Bypass Road; 686015,0481 239 1434,"info@motherdentalhospital.in,feedback.kcea@kerala.gov.in,",9.6154089; 76.5079358
Smyle N Care Dental Clinic,Retail,Kerala,nan; Sh40 Puthanagadi; 688527,,"n@rediffmail.com,",9.6426795; 76.3700551
Breeze Multispeciality Dental Care,Retail,Kerala,Opposite Petrol Pump; Cherthala; 688527,079075 22129,"anvarabdulhayya@gmail.com,veeyesdentalhospital@gmail.com,",9.675695499722; 76.3918045
Modern Dental Clinic,Retail,Kerala,Near Vismaya Fancy Collection Kudamaloor; Medical College Road Kudamaloor; 686017,,"drajithsubash@gmail.com,mdcthirumala@gmail.com,",9.6291536; 76.5116966
Fresh Dent Dental Clinic,Retail,Kerala,Opposite Aarpookara Villoonni; Villoonni; 686008,,"info@dentcaredental.com,freshsmile2009@gmail.com,mmquickerala@gmail.com,",9.642902; 76.508034
Modern dental clinic,Retail,Kerala,Arpookara Arpookara East; Panampalam Arpookara East; 686008,,"drajithsubash@gmail.com,mdcthirumala@gmail.com,",9.6289631; 76.5118468
Rebah Dental Clinic,Retail,Kerala,Arpookara East Arpookara East; Bypass Road Arpookara East; 686008,080892 49964,"drreenukurian@rebahdentalclinic.com,rebahdentalclinic@gmail.com,asraonagar@apolloclinic.com,ab.road@apolloclinic.com,",9.627942; 76.5122457
Dr. Dent Dental Clinic,Retail,Kerala, Muhamma; Muhamma; 688525,,"dentiquedentalstudio@gmail.com,babudr123@gmail.com,drrajumelvettom@gmail.com,",9.607648055556; 76.360665
Dr. K Thankappan Dental Clinic,Retail,Kerala,Near Indian Oil Petrol Pump Mattancherry; Kappalandimukku Mattancherry; 682002,9054803342.0,,9.9565902843; 76.2537901689
Sree Sudheendra Medical Mission Hospital,Retail,Kerala,Behind Seematti Kacherippady; Chittoor Road Kacherippady; 682018,,"advlakshminarayan@gmail.com,ssmmhospitalekm@gmail.com,info@ssmmhospital.com,vmanoher@gmail.com,",9.984972; 76.283094
J J Dental Care,Retail,Kerala,CUSAT Junction Kalamassery; South Kalamassery Kalamassery; 683104,8460544462.0,"drjaibin@gmail.com,jayarajkp@gmail.com,info@medicalkerala.com,medicalkerala.com@gmail.com,ddscochin@gmail.com,sales@jjortho.com,dentistdilip@gmail.com,info@jjdentalcare.com,",10.047836972222; 76.317989972222
The Pod Cochin Homestay,Retail,Kerala,Opposite to Empress Bakery Kochi Fort; Njaliparambu Kochi Fort; 682001,090200 26969,"info@keralatourism.org,info@thepodcochin.com,",9.9618839; 76.2426532
Dr Nevins And Dr Jefnas Family Dental Clinic And Orthodontic Center,Retail,Kerala, Amaravathy; Kb Jacob Road Amaravathy; 682001,098464 46333,,9.960597; 76.2430342
Dr. Amal's Multispecality Dental Clinic,Retail,Kerala,Near Vijaylaksmi Hotel Dariyasthan Building Mattancherry; Palace road Mattancherry; 682002,094466 27446,,9.9577948; 76.2556789
Poovath Dental Clinic,Retail,Kerala,Opposite Hotel City Lights; Tm Muhammad Road; 682001,080891 85249,"feedback.kcea@kerala.gov.in,info@motherdentalhospital.in,poovathdentalclinic@gmail.com,",9.9647277; 76.2454236
Vettickattil Dental Clinic,Retail,Kerala,Near Akshaya Kappalandimukku Mattancherry; KappalndImukku Mattancherry; 682002,,"sushsbiju@yahoo.co.in,sushabiju@yahoo.co.in,sushabiju@yahoo.co,vettickattildentalclinic@gmail.com,",9.9512236; 76.2577856
Dr. Shibu Sreedhar (the Outluk Centre For Advanced Dentistry),Retail,Kerala,Near Abad Hotel Chullickal; Chullickal; 682005,8460547270.0,"vkr.kerala@gov.in,gokilapuram@outlook.com,",9.9450322; 76.259149
Dr. Tinet's Pedorayz Dental Clinic,Retail,Kerala,Opposite Saritha Theatre Kacherippady; Banerji Road Kacherippady; 682018,9724728136.0,"pedorayz@gmail.com,",9.990986111111; 76.279230555556
Orocare Dental Clinic,Retail,Kerala,Near Pauls Hospital Kaloor; Kaloor -kadavanthra Kaloor; 682017,,"info@orocare.net,noufalnoufu054@gmail.com,titty_dental@yahoo.com,bindudental@yahoo.co.in,",9.98867197222; 76.295501
Dr. Anu Dental Speciality,Retail,Kerala,Opposite Max Showroom Kaloor; Kaloor -Kathrikadavu Road Kaloor; 682017,9054904148.0,,9.990835; 76.293265
DR. SREEDEVI'S MULTI SPECIALITY DENTAL CLINIC HAIR SKIN AND WELLNESS,Retail,Kerala,Opposite to Cochin TVS Showroom Vyttila; SA Road Vyttila; 682019,9054389391.0,,9.9675952; 76.3117226
Dr. Mohan Babu (Dr. Babus Dental Clinic),Retail,Kerala, Munnar Idukki; Maduppetty Rd Munnar Idukki; 685612,,"babudr123@gmail.com,",10.086311; 77.060858
Happy Dent Speciality Dental Clinic,Retail,Kerala,Opposite St George Catholic Church Anachal; Munnar Byepass Road Anachal; 685565,,"sameeralshifa@gmail.com,",10.0233451; 77.0394589
Aj Dental Care,Retail,Kerala,nan; nan; 685565,,"info@dentcaredental.com,info@ajglo.com,deanajids@gmail.com,dranishjohn@gmail.com,Email-ajhospital85@gmail.com,",10.012657; 77.0635387
V Care Dental Clinic,Retail,Kerala,nan; Kallar Mankulam Road; 685565,,"info@medicalkerala.com,medicalkerala.com@gmail.com,vigneshwaran.vcare@gmail.com,mmquickera@gmail.com,mmquickerala@gmail.com,",10.010176; 77.090462
Smile Care Dental Clinic,Retail,Kerala, Adimali; Polinjapalam Adimali; 685561,,"info@smiledentalcarethuravoor.com,mmquickerala@gmail.com,",10.0107243; 76.9579679
The Dental Studio Dental Clinic,Retail,Kerala,Opposite Mareena Tourist Home Adimali; Kallarkutti Road Adimali; 685561,,"chris@thedentalstudio.ie,dentiquedentalstudio@gmail.com,mail.elitedentalstudio@gmail.com,elitedentalstudioreception@gmail.com,",10.0128036; 76.9555987
Vijayaraja Dental Clinic,Retail,Kerala,Vijayaraja Hospital Adimali Adimali; Block Office Road Adimali; 685561,,"roc.chennai@mca.gov.in,cgpdtm@nic.in,",10.0138734; 76.9545908
Oro Dental Care,Retail,Kerala, Adimali; Rajakad Road Adimali; 685561,,"info@orohealthcare.com,noufalnoufu054@gmail.com,titty_dental@yahoo.com,bindudental@yahoo.co.in,",10.0118367; 76.9559086
Rj Dental Clinic,Retail,Kerala,nan; Rajakkad; 685566,094479 35434,"DR1_SAMEER@YAHOO.COM,kothandaram.rj@apolloclinic.com,mail@rajkrishnan.com,",9.9626342; 77.0980527
Dr Ajins,Retail,Kerala, Rajakumari; Rajakumari; 685619,,"roc.chennai@mca.gov.in,",9.9696459; 77.1478257
Smilecare Multispeciality Dental Clinic,Retail,Kerala, Rajakumari; Pooppara Road Rajakumari; 685619,,"Dr.mahantesh9@gmail.com,dr.mahantesh9@gmail.com,",9.9695695; 77.1477949
Mar Basil Speciality Dental Clinic,Retail,Kerala,Near City Rajakumari North Muthuvankudy Rd Rajakumari; Rajakumari; 685619,,"info@kamaladental.com,reach@mbdc.edu.in,",9.9690725; 77.1490994
Smile Care Super Speciality Dental Clinic,Retail,Kerala,Devamatha Hospital Rajakumari; Pooppara Road Rajakumari; 685619,,"drmalathi11@gmail.com,eldhosehipin@gmail.com,info@mydentalsquare.com,",9.9736688; 77.1681266
Precise Multispeciality Dental Clinic,Retail,Kerala, Murickassery; Sh40 Murickassery; 685604,097476 52262,,9.913965; 77.008302
Nirmal Dental Clinic,Retail,Kerala,Opp to Alphonsa Hospital Murickassery; 485-B Murickassery; 685604,,"nirmalahospitalclt@gmail.com,binukonni71@gmail.com,sainirmaldental@gmail.com,",9.913639; 77.009079
The Good Shepherd Dental Clinic,Retail,Kerala, Muttom Ek; Puliyanmala Road Muttom Ek; 685587,8460533935.0,,9.8384206; 76.7456556
Dr Alias Thomas BDS MPH,Retail,Kerala,Near Malabar Gold Thodupuzha; Temple Bypass Road Thodupuzha; 685584,7942769597.0,,9.8958261; 76.7249943
My Family Medicare,Retail,Kerala,Family Medicare Holistic Medical Services 1st Floor Sunbeam Tower MangattukavalaThodupuzha East P Thodupuzha East; Karikkode Thodupuzha East; 685585,8123750462.0,"roc.chennai@mca.gov.in,info.medisep@kerala.gov.in,",9.87095623; 76.75328056
Facets Poly Clinic,Retail,Kerala,Opposite St George Church Muthalakodam; Thodupuzha Muthalakodam; 685605,,"info@polyclinicthrissur.com,facetsdental2020@gmail.com,",9.9120263; 76.7323784
St Johns Hospital,Retail,Kerala, Kattappana South; Kattappana South; 685515,,"mail@stjohns.co.in,info@medicalkerala.com,medicalkerala.com@gmail.com,mail@rajagirihospital.com,sjmch.infodesk@stjohns.in,",9.746956; 77.109737
Holy Family Hospital,Retail,Kerala,Opposite Muthalakodam Church Muthalakodam; Muthalakodam; 685605,,"info@holyfamilyhospitals.com,panjoyarrohit@rediffmail.com,holyfamilyollur@gmail.com,",9.9119212; 76.7337369
Smiletree Dental Clinic,Retail,Kerala,Opposite Mangattukavala Busstand Thodupuzha East; Mangattukavala Thodupuzha East; 685585,,"mmquickerala@gmail.com,info@smiletreedental.com,",9.901765; 76.724149
Smile Care Multi Speciality Dental Clinic,Retail,Kerala, Nedumkandam; Nedumkandam; 685553,,"eldhosehipin@gmail.com,",9.8415888; 77.1532498
Dental Solutions Dental Clinic and Implant Center,Retail,Kerala,Near Old KSRTC Bus Stand Thodupuzha; Thodupuzha; 685584,020 2616 7383,,9.8964068; 76.7162752
Alphonsa Dental Clinic,Retail,Kerala,Near Thodupuzha KSRTC Opposite Evershine Digital Studio Thodupuzha; Bypass Junction Thodupuzha; 685584,,"binibenny@gmail.com,mmquickerala@gmail.com,",9.895391666667; 76.717972222222
Smile Boutique Multi Speciality Family Dental Clinic,Retail,Kerala,Opposite KSRTC Thodupuzha; Idukki Road Thodupuzha; 685584,097474 12211,"boutique4smile@gmail.com,info@mydentalsquare.com,",9.8940869; 76.7142892
Sunny Dental Clinic,Retail,Kerala, Thodupuzha; Temple Byepass Road Thodupuzha; 685584,,"sunnyclinickochi@gmail.com,drraju_sunny@yahoo.co.in,draliasthomas@gmail.com,tessymsunny@gmail.com,sunnydentalclinic@gmail.com,",9.8979914; 76.7135172
Dr. Alias' Sunny Dental Clinic And Implants,Retail,Kerala, Thodupuzha; Temple Byepass Road Thodupuzha; 685584,094460 17455,"n@gmail.com,abrahamthomas@yahoo.com,n.abrahamthomas@yahoo.com,",9.900402; 76.712709
Dr. Tooth Family Dental Care,Retail,Kerala,Near St Mary Thodupuzha; Idukki Road Thodupuzha; 685584,,"drtoothfamilydentalcare123@gmail.com,soumithran@hotmail.com,",9.891077; 76.714535
Smile 'N Care,Retail,Kerala, Kattappana; Erattayar Road Kattappana; 685508,077569 53557,,9.7594251; 77.1149817
Grace Dental Care,Retail,Kerala,Near Vimala Public School Thodupuzha; Byepass Road Thodupuzha; 685584,,"biju.grace@gmail.com,albin.alex@gmail.com,gracedentalclinic@gmail.com,",9.8868052; 76.7195307
Dr Rinas Dental Clinic,Retail,Kerala,Opposite Sheron Cultural Centre Thodupuzha; Thodupuzha; 685608,097449 70562,"mayuri.dr@gmail.com,",9.907688888889; 76.7054
Facevalue Dental & Smile Clinic,Retail,Kerala,Opposite Pvt Bus Stand Thodupuzha; Bus Stand Thodupuzha Thodupuzha; 685584,04862 222 687,,9.894319; 76.707188
Signature Dentalcare,Retail,Kerala,Opp Village Office Palissery; Palakal Palissery; 680027,,"signaturedentalcenter@gmail.com,Sigdent2016@gmail.com,signaturedentaltemec@gmail.com,",10.4730356; 76.2129069
MYO Clinic,Retail,Kerala,Opposite Petrol Pump Vadakkekad; Vattampadam Vadakkekad; 679562,8401897385.0,"kallmes.david@mayo.edu,researchservicecenter@mayo.edu,",10.6577045; 76.0322333
Noor Oral Care,Retail,Kerala, Punnayurkulam; Chemmannur Punnayurkulam; 679561,8460398457.0,"roc.chennai@mca.gov.in,info@annoordentalcollege.org,",10.684683333333; 76.020719444444
Hamza's Dental Speciality Clinic,Retail,Kerala,OppBSNL Office Akkikkavu; Pazhanji Road Akkikkavu; 680519,8904971889.0,"dentalspeciality2016@gmail.com,elitedentalkochireception@gmail.com,info@kamaladental.com,info@motherdentalhospital.in,",10.6958119; 76.0913012
St. Joseph Hospital,Retail,Kerala,Guruchipala Bus Stop and Near StJoseph Church and Near StJoseph School Annallur; Chalakudi Mala Road Annallur; 680731,,"st.josephacademykottayam@gmail.com,st.jhospitalmkm@gmail.com,stjosephhosp@gmail.com,hr@sjmhospital.org,info@sjmhospital.org,bizklinfo@gmail.com,",10.280646; 76.293079
Care 32 Multispeciality Dental Care,Retail,Kerala,Opposite Chathottil Regency Shaji Hall Vadakkekad; Manikandaesharam Vadakkekad; 679562,,"soumithran@hotmail.com,",10.650929; 76.008494
Rays Multi - Speciality Dental Clinic ,Retail,Kerala, Kuriachira; Highway Kuriachira; 680006,095672 83055,"KannanurMSDC@gmail.com,vijayadental@rediffmail.com,drriyasdentalclinic@gmail.com,jacobkorahmelel@yahoo.com,",10.4959655; 76.230412
T32 Multispeciality Dental Clinic,Retail,Kerala,Opposite Aravind Textiles Kodungallur; South Nada Kodungallur; 680664,,"ve@t32dental.com,t32dentalcare@gmail.com,dentalcareclinicpd@gmail.com,",10.2255126; 76.1994767
Dr. Roshan's Dental Solutions,Retail,Kerala, Kurkancheri; Baker Tower Kurkancheri; 680007,7947326060.0,"info@drroshansdental.in,",10.5012496; 76.21209
Care Homeo Care and Dental Care,Retail,Kerala,Near Chavakkad Bus Stand Chavakkad; Chavakkad Chavakkad; 680506,8460389139.0,"arogyakeralam@gmail.com,",10.5819482778; 76.0262908889
Lizz & Charles Dental Clinic,Retail,Kerala,Near Paravattani Ground Paravattani; Mannuthy Road Paravattani; 680005,8460426889.0,,10.522759; 76.2412
Dr. Baby Memorial Speciality Dental Clinic,Retail,Kerala, Mannuthy; YMCA Road Mannuthy; 680651,095399 86134,,10.5333126; 76.2615853
Toothcare Dental Clinic,Retail,Kerala,Above Baskin Robbins Ice Cream Parlour Punkunnu; Guruvayoor Road Punkunnu; 680002,,"info@medicalkerala.com,rhlnandakumar@gmail.com,toothcaremdc@gmail.com,",10.5325831944; 76.2013236111
Dr Ismails Family Dental Care,Retail,Kerala,Opp Mother Hospital Olarikkara; Olarikkara; 680012,7411838821.0,,10.520767; 76.173956
Southshore Ent Hospital,Retail,Kerala, Kunnamkulam; Arthat Kunnamkulam; 680503,04885 228 300,"drnoushadhospitalkochi@gmail.com,southshoreent2020@gmail.com,",10.6330172; 76.0578557
Radiance Dental Care,Retail,Kerala,Opp Seventh Day School Chelakkotukara; Chelakkottukara Chelakkotukara; 680005,8460418584.0,"smile@radiantdentalcare.in,",10.518059722222; 76.231597888889
White Dental Care,Retail,Kerala,Near Karengal Auditorium Velur Thrissur; Office Junction Velur Thrissur; 680601,9725892335.0,"whiteorchiddental@gmail.com,pearlwhitedentalclinic@gmail.com,",10.639951111111; 76.164406944444
Creadent multispeciality dental clinic,Retail,Kerala,Near to Hyundai Showroom Kumily; 1st Mile Kumily; 685509,,"mail@rajkrishnan.com,creadentmultispecialitydentalc@gmail.com,info@dentalclinickerala.com,sarath24dec@gmail.com,",9.6167879; 77.1586406
Apollos Multispeciality Dental Clinic,Retail,Kerala,Opposite Holiday Home Resort Kumily; Kottayamkumily Road Kumily; 685509,098474 80513,"asraonagar@apolloclinic.com,x3eapollodentistry@gmail.com,anvarabdulhayya@gmail.com,apollodentistry@gmail.com,vijayadental@rediffmail.com,",9.6069614; 77.162971
St Josephs Dental Clinic,Retail,Kerala,Near Bustop Anakkara; Anakkara Anakkara; 685512,,"mail@rajagirihospital.com,",9.664935; 77.1577737
Dr. Mani (Periyar Dental Clinic),Retail,Kerala,Opposite To Union Bank Vandiperiyar; Vandiperiyar; 685533,,"chiefsecy@kerala.gov.in,moneydr90@gmail.com,mani.josek@sansad.nic.in,josek@sansad.nic.in,",9.5722971307; 77.0870793953
Emmanuel Dental Care,Retail,Kerala, Puttady; Puttady; 685551,,"mail@rajagirihospital.com,clinic.smile@yahoo.com,",9.6959201; 77.1615663
Dr. Lovin Dental And Orthodontic Centre,Retail,Kerala,Opposite to Government School Puttady; Puttady Puttady; 685551,,"lovinorthodontics@gmail.com,",9.6948532; 77.1600775
Dentsquare Multi Speciality Dental Clinic,Retail,Kerala, Nettithozhu; Nettithozhu; 685551,,"info@harashop.com,info@mydentalsquare.com,",9.7346551; 77.1773464
Carmel Homeo And Dental Clinic,Retail,Kerala,nan; nan; 685515,094972 41707,"drvijimohan@gmail.com,carmeldentalcaremanjeri@gmail.com,",9.759695; 77.145389
DR. SHINU MULTISPECIALITY DENTAL CLINIC - DENTAL MEDICITY UPPUTHARA,Retail,Kerala,Above Chalunkal Jewellery Upputhara; Upputhara-Vagamon Road Upputhara; 685505,,"veeyesdentalhospital@gmail.com,",9.700043722222; 77.021797972222
Thomson'S Multispeciality Dental Clinic,Retail,Kerala,Near Triveni Super Market Manikoth; KANHANGAD Manikoth; 671316,8460503409.0,"contact@doctorsfinder.in,veeyesdentalhospital@gmail.com,",12.359488888889; 75.065311111111
Dcare Multispeciality Dental Clinic,Retail,Kerala,Opposite Azeezia Buiding Trikaripur; Near Farmers Bank Trikaripur; 671310,,"soumithran@hotmail.com,info@medicalkerala.com,",12.1410587; 75.1766452
Dr Manu K Vijayan,Retail,Kerala,Near Juma Masjid Chimeni; Cheemeni Chimeni; 671313,9725646645.0,"annur@gmail.co,anil100510@kerala.gov.in,dr.ratheeshkaliyadan@gmail.com,",12.23808333; 75.23228056
Care 32 Multi-Speciality Dental Clinic,Retail,Kerala,Near Bovikanam Bus Stand; Bovikanam; 671542,9054924180.0,"revathymuraliv@gmail.com,soumithran@hotmail.com,",12.5077131; 75.0960927
K A H M Hospital,Retail,Kerala,Near J K Residency Chervathur; Nh Highway Chervathur; 671313,8485948655.0,"Email-lk-cdl@nic.in,ramanagouda12@gmail.com,",12.2133624; 75.1630895
Dr Nambiar'S Dental Centre and Face Clinic,Retail,Kerala,Near Icici Bank; Bank Road; 671121,9054941768.0,,12.505077777778; 74.987555555556
Classic Dental Care And Orthodontic Centre,Retail,Kerala,Near By Community Health Center Periye; Pournami Complex Periye; 671316,8460410441.0,"info@cochindentalclinic.com,info@classicdental.com.au,",12.401981; 75.098443
The Dental Tree,Retail,Kerala,Opposite Telephone Exchange Kanhangad; Puthiyakota Kanhangad; 671315,7947283543.0,,12.3158777778; 75.0897892778
Sini Memmorial Dental Speciality Clinic,Retail,Kerala,Opposite bus stand cherupuzha Vellarikundu; road cherupuzha Vellarikundu; 671534,094462 20423,"sinidentalcherupuzha@gmail.com,info@kamaladental.com,",12.363328; 75.287857
Smile Dental Care,Retail,Kerala,Near Kerala Gramin Bank Near Kankol Road Chimeni; Cheemeni - Kankol Road Chimeni; 671313,,"x3ehelp@smile.io,smileorthoclinic@gmail.com,",12.2383045767; 75.2322954321
City Medical Centre,Retail,Kerala,Bank Of Baroda Chattanchal; Kalanad Road Chattanchal; 671541,,"cityroadmedicalcentre@nhs.net,tsonta12@gmail.com,sgkamat2003@yahoo.com,vijaygawli15@gmail.com,drmanumenon@gmail.com,x3ecityroadmedicalcentre@nhs.net,",12.4798393; 75.0574488
Ave Multispeciality Dental Centre,Retail,Kerala,Opposite Shoprixx Shopping Centre Kanhangad; Kanhangad Kanhangad; 671315,,"soumithran@hotmail.com,info@medicalkerala.com,medicalkerala.com@gmail.com,x3eapollodentistry@gmail.com,anvarabdulhayya@gmail.com,customer.support@secondmedic.com,",12.3199898; 75.0871246
KIMS Sunrise Hospital,Retail,Kerala,Kims Sunrise Hospital Kasaragod Ho; Ashwini Nagar Kasaragod Ho; 671121,04994 219 400,"kimssunrise89@gmail.com,relations@kimsglobal.com,x3erelations@kimsglobal.com,marketingkimssunrise@gmail.com,info@kimssunrisehospital.com,marketing@kimshealth.sa,",12.5074623; 74.9909354
Doctors' Dental Care-Dental Clinic and Implant Centre,Retail,Kerala,Near Hotel Highway Castle Opposite Yogis Tyre House Doctors Dental Care Kasaragod HO; Nullippady Kasaragod HO; 671121,089433 78950,"x3eapollodentistry@gmail.com,apollodentistry@gmail.com,",12.5132316; 74.9997769
Novadent Dental Hospital,Retail,Kerala,nan; Melparamba; 671317,,"feedback.kcea@kerala.gov.in,",12.4673168; 75.0071391
Dr Prabaths Dent care,Retail,Kerala,Near SBI Chimeni; Kayyur Road Chimeni; 671313,,"info@dentcaredental.com,csupport@nesmedicorp.com,",12.237856532458; 75.230734823342
Al Ameen Dentocare Dental Clinic,Retail,Kerala,Near GHSS Adkathbail; MG Road Adkathbail; 671121,,"dentocareksd@gmail.com,raneefva@gmail.com,",12.502268; 74.987816
Dr John's Dental Centre,Retail,Kerala,Near Trinity Marthoma ChurchOpp Tvm Surgicals Thiruvananthapuram Medical College; Thiruvananthapuram Medical College; 695011,9054766097.0,"info@medicalkerala.com,medicalkerala.com@gmail.com,dr.johnjoseph@yahoo.com,drabrahamjohn@gmail.com,cheriansdental@yahoo.co.in,",8.527033333333; 76.917091666667
Dr.Rudh Dental Studio & Pharma,Retail,Kerala,Near Autospa Vettamukku Thirumala; Vettamuku Thirumala; 695006,8460461908.0,,8.5090838; 76.9885842
Dr. Alitta's Dental Clinic,Retail,Kerala,Near Best Bakery Pettah; Pettah; 695024,8460418487.0,"feedback.kcea@kerala.gov.in,",8.493721; 76.926523000067
Lavender Smiles Dental Practice.,Retail,Kerala,Opposite Musilum Association Model School Thycaud; Association Model School Thycaud; 695014,095448 92684,"contact@doctorsfinder.in,balbriggan@smiles.ie,info@lavendersmilesdentalpractice.com,",8.495188; 76.9604998
Dental Studio,Retail,Kerala,Kurishadi Jn Nalanchira; Market Road Nalanchira; 695015,7947061783.0,"elitedentalkochireception@gmail.com,x3eapollodentistry@gmail.com,elitedentalstudioreception@gmail.com,cswafiling@gmail.com,faithdentalstudio@yahoo.co.in,panna.dental@gmail.com,mail.elitedentalstudio@gmail.com,",8.54557258333; 76.9451098889
Meditrina Hospital,Retail,Kerala,Vrindavan Gardens Pattom; 1st Street Pattom; 695004,7487973804.0,"info@meditrinahospital.com,meditrinacc@gmail.com,recruitment@meditrinahospital.com,sxxxxxxxxxxxxxe@meditrinahospitals.com,prathapndr@gmail.com,",8.5154775; 76.9443128
Dr. Vivek's Dental Clinic,Retail,Kerala,Near All India Radio Vazhuthacaud; 3rd Street Vazhuthacaud; 695014,,"calicutendo@gmail.com,drvivekmds@rediffmail.com,",8.4992388; 76.9609541
Madonna Dental & Orthodontic Care,Retail,Kerala, Vattiyoorkavu; Nettayam Vattiyoorkavu; 695013,7947281434.0,,8.525952; 76.99213
Crescent 432 Dental and Implant Centre,Retail,Kerala,Mar Ivanious College Steps Nalanchira; Nalanchira Nalanchira; 695015,7942599561.0,,8.5485658; 76.9428414
Dr. Unu S Specialists Dental Clinic,Retail,Kerala,Near Divyaprabha Eye Hospital Kumarapuram; Kannamoola Road Kumarapuram; 695011,7411579062.0,"unuclinic@gmail.com,",8.502291; 76.959207
Sree Mookambika Dental Square,Retail,Kerala,Near Balaramapuram HSS Balaramapuram; Main Road Balaramapuram; 695501,7947268185.0,"info@mydentalsquare.com,",8.426597222222; 77.044533333333
Dm Wims Medical College and Aster Wayanad Speciality Hospital,Retail,Kerala,Naseera Nagar Meppadi; Meppadi; 673577,7487089908.0,"medicalcollege@dmwims.com,director.ims@kerala.gov.in,info.wayanad@asterhospital.com,dean@dmwims.com,x3einfo@asterpharmacy.com,info@asterpharmacy.com,",11.560532; 76.161706
MINT SPECIALITY DENTAL CLINIC,Retail,Kerala,Near Reliance Petrol Pump Beside Rahul Gandhi Office Kalpetta North; Kalpetta North; 673122,8460395148.0,"mintdentaleye@gmail.com,",11.629471; 76.088488972222
Dr. Jesraj'S Dental and Maxillofacial Centre (Dental Clinic),Retail,Kerala,Opposite Ilu Used Cars Kottakunnu Sulthan Bathery; College Road Sulthan Bathery; 673592,7947158523.0,,11.668302527778; 76.263969416667
Dr. Sanojs Family Dental Care,Retail,Kerala,Near Aramana Sulthan Bathery; Manichira Road Sulthan Bathery; 673592,7947376520.0,"drbhimsain@hotmail.com,",11.656405444444; 76.249023416667
Mercy Multi Speciality Dental Care,Retail,Kerala, Muttil; C Y Arcade Muttil; 673122,8734807675.0,"drriyasdentalclinic@gmail.com,pro@mercyindia.com,info@exodusdental.com,",11.641258222222; 76.109802222222
Fatima Smile Dental Clinic,Retail,Kerala, Kalpetta; Pinangode Road Kalpetta; 673121,8460544110.0,,11.616719444444; 76.081066666667
Mint Speciality Dental Clinic,Retail,Kerala,Near Reliance Petrol Pump Beside Rahul Gandhi Office Kalpetta North; Kalpetta North; 673122,8460399953.0,"mintdentaleye@gmail.com,",11.629444444444; 76.088611111111
LITTLE SMILES KIDS AND FAMILY DENTAL CLINIC,Retail,Kerala,Above VRL OFFICE Sulthan Bathery; KALLUVAYAL Jn Sulthan Bathery; 673592,9725635426.0,"anoopdentist@gmail.com,",11.652888277778; 76.2582855
Dr Aleem's Meppadi Dental Clinic and Orthodontic Centre,Retail,Kerala,Near New Post Office Meppadi; Meppadi Meppadi; 673577,7947374424.0,"info@draphale.in,",11.553748111111; 76.135238638889
Craft Dental Care,Retail,Kerala,Near Gandhi Junction Sulthan Bathery Sulthan Bathery; Memorial Road Sulthan Bathery; 673592,7942609486.0,"craftdentalcliniciso@gmail.com,dentcraftdc@gmail.com,",11.663269444444; 76.255063888889
Root Care Multi Speciality - Dental Care and Root Canal Center,Retail,Kerala,Near Zubis Inn Luxury Hotel Kalpetta; Leo Hospital Road Kalpetta; 673121,7411579421.0,,11.604489305556; 76.084762555556
VAYALNAD MEDICAL CENTRE,Retail,Kerala,Near SKMG School Kalpetta; Perloth Building Kalpetta; 673121,,"bvmcmoolamattom@gmail.com,mail@emccochin.com,",11.624114; 76.087726
Fatima Mata Mission Hospital,Retail,Kerala, Kalpetta; Pinangode Road Kalpetta Kalpetta; 673121,04936 204 018,,11.6140231; 76.0789264
Meethal Dental Clinic,Retail,Kerala,Near Old Bus Stand Sindur Textiles Kalpetta; Wayanad Kalpetta; 673121,04936 203 539,"meethaldental@gmail.com,",11.6151811; 76.0829616
Iqraa Hospital Sulthan Bathery,Retail,Kerala, Sulthan Bathery; Kottakunnu Sulthan Bathery; 673592,095263 50011,"kasp.iqraabathei@gmail.com,wayanad@iqraahospital.in,mail@iqraahospital.in,hiteshkumargupta002@gmail.com,drjohncmathew@gmail.com,",11.6644958889; 76.2636615833
A M Dent Multispeciality Dental Clinic,Retail,Kerala, Vellamunda; 10th mile road Vellamunda; 670731,073063 60574,"familydent@gmail.com,kailaskollam@gmail.com,",11.7351132; 75.9546516
Mes Hospital,Retail,Kerala, Sulthan Bathery; MG Road Sulthan Bathery; 673592,,"admission@mesams.com,mesmch.it@gmail.com,info@medicalkerala.com,info@indcareer.com,mesmc@mesams.com,medicalkerala.com@gmail.com,",11.6616495; 76.2570471
Whites Dental Clinic,Retail,Kerala, Panamaram; High School Road Panamaram; 670721,,"soumithran@hotmail.com,info@medicalkerala.com,medicalkerala.com@gmail.com,clinic@whiteandpink.in,",11.7381011; 76.0711344
Smile Designerz Multispeciality Dental Clinic,Retail,Kerala,Near Indian Coffee House South Bazar Road; Caltex Junction South Bazar Road; 670002,8128777935.0,"quickeralateam@gmail.com,",11.8771741; 75.3738955
Care Dental Clinic,Retail,Kerala,Next to Talap Temple Talap; Talap Temple Road Talap; 670002,9054557953.0,,11.884162888889; 75.369194027778
Prism Dental Care,Retail,Kerala,Opposite Mango Super Market Thottada; Thottada; 670007,8460433317.0,"care@prismdental.co.in,roc.chennai@mca.gov.in,info.prism@kerala.gov.in,info@dentcaredental.com,",11.841261861111; 75.420806861111
Xpert Dentcare Multi Speciality Clinic,Retail,Kerala, Karivellur; Onakkunnu (Po) Karivellur; 670521,,"info@dentcaredental.com,",12.1744314; 75.1938676
Smile Care Dental Speciality Centre,Retail,Kerala,Opp Syndicate Bank Kattampally; Kambil Road Kattampally; 670011,9725685308.0,"drmalathi11@gmail.com,",11.932829833333; 75.374191277778
Sini Memmorial Dental Specialty Clinic,Retail,Kerala,Opp Pavithra Jewellary Cherupuzha; Main Road Cherupuzha Cherupuzha; 670511,094462 20423,"sinidentalcherupuzha@gmail.com,dentalspeciality2016@gmail.com,",12.2739772; 75.3637991
Anaamaya Medical Institute,Retail,Kerala,Opposite Fire Station Payyanur; Annur Road Payyanur; 670307,7383412046.0,"anaamayahospital@gmail.com,venturepmc@yahoo.in,anandhism@gmail.com,",12.119992347445; 75.209139688011
Dr Neeraj's White Dental Care Orthodontic & Implant Center,Retail,Kerala,NH Perumba Near Bus Bay Payyanur; National Highway Payyanur; 670307,8904984825.0,,12.1115731; 75.2194783
Dcode Super Speciality Dental Center,Retail,Kerala,Opposite Railway Muthappan Temple Kannur Ho; Kannur Ho; 670001,9724642109.0,"roc.chennai@mca.gov.in,care@renaimedicity.org,",11.869527805556; 75.368469222222
Central Dental Clinic & Laboratory,Retail,Kerala,Near Hamdard College Araat Road; Anayidukku Road Araat Road; 670003,0497 273 2583,,11.860555555556; 75.380555555556
Dr.Naveens Dental Clinic,Retail,Kerala,Near DCC Office Congress Bhavan Talap; Pamban Madhavan Road Talap; 670002,7411841581.0,"naveenravi79@gmail.com,",11.871388888889; 75.361111111111
Payyanur Medi Centre,Retail,Kerala,Near Gandhi Park Payyanur; MS Mall Payyanur; 670307,8488068192.0,"anaamayahospital@gmail.com,payyanurmedicentre@gmail.com,",12.1079; 75.208069444444
Anitha Dental Clinic,Retail,Kerala,Opposite Cheruthayam Bank Pilathara; MM ROAD Pilathara; 670501,0497 280 0499,"dmekerala@gmail.com,",12.081388888889; 75.263611111111
Vs Maxillofacial Dental Clinic,Retail,Kerala,Opposite Lathra Indo Stadium Pilathara; Pilathara Pilathara; 670504,087145 96103,"mail@rajagirihospital.com,zahndmc@gmail.com,",12.0777771; 75.2672356
Arcs Dental,Retail,Kerala,Near Koodali Juma Masjid Koodali; Koodali; 670592,087142 62794,"registrar.kdc@kerala.gov.in,office@idakerala.in,",11.921249388889; 75.477622972222
King Multi Speciality Dental Care,Retail,Kerala,Opposite DIS Girls H S School Kannur City; City Road Kannur City; 670003,,"kingdentalcarelaboratory@gmail.com,roc.chennai@mca.gov.in,",11.860714888889; 75.379425027778
Shifa Multispeciality Dental Clinic,Retail,Kerala,Opp Federal Bank Mannancherry; Asiya Complex Mannancherry; 688538,9035108225.0,"soumithran@hotmail.com,dentalclinicshifa@gmail.com,info@alshifadental.in,drvinunassim@gmail.com,",9.5748349; 76.348189399722
Shalom House Of Dental Care,Retail,Kerala, Alappuzha Collectorate; Ward Alappuzha Collectorate; 688001,7947357764.0,"dr.reenapaul@gmail.com,mathewsarun@hotmail.com,",9.4904191; 76.3234033
Dent Zone Multispecialty Dental Clinic,Retail,Kerala,East Of KSRTC Bus Stand Near Hotel Keerthi Regency Cherthala; Kalikulam Cherthala; 688524,7947269040.0,"soumithran@hotmail.com,familydent@gmail.com,",9.6852589; 76.3497047
V B Dental Clinic,Retail,Kerala,KacherimukkuNear Nh 47 Ambalapuzha; Komana Ambalapuzha; 688561,,"roc.chennai@mca.gov.in,",9.3808922; 76.3564624
Dr. Aryas Dental Clinic,Retail,Kerala,Near Essaf Bank Cherthala; AC Road Cherthala; 688524,,"kuruvillasdental@gmail.com,dr.sumitarya@gmail.com,",9.6768386; 76.3404778
Dr. Tijo Alex,Retail,Kerala,Radio Center Alappuzha Collectorate; - 688001 Alappuzha Collectorate; 688001,0477 297 0297,"drtijoalex@yahoo.co.in,priyankavatsya0285@gmail.com,info@drtijoalexorthodonticcentre.com,",9.5000995; 76.3335658
Raihan Dental Speciality Centre,Retail,Kerala,Msm College Kayamkulam; Kayamkulam; 690502,7022125638.0,"raihandentalcentre@gmail.com,",9.183292; 76.490173
Chempakasseril Dental Care,Retail,Kerala,Opposite to Agricultural Office Pallipad Pallippadu; Pallippad Pallippadu; 690512,7942767598.0,,9.261731; 76.4795124
Dr. Aravind From Multispeciality Dental Clinic,Retail,Kerala,Near Turtle On The Beach Resort Avaduthura Near central bank of India Kovalam Beach; Kovalam Beach; 695527,,"jyothisharavind@gmail.com,info@aravindsdentalcare.in,ansar980@gmail.com,",8.3900784; 76.9770333
Aesthetic Dental Care,Retail,Kerala, Kovalam HO; Kovalam Kovalam HO; 695527,,"aestheticdental@gmail.com,soumithran@hotmail.com,dreapencherian@gmail.com,info@aestheticclinicindia.com,info@dentcaredental.com,info@medicalkerala.com,medicalkerala.com@gmail.com,",8.399542805556; 76.980758666667
Vineyard Dental Clinic,Retail,Kerala,nan; Samudra Beach Roadbeach Road; 695527,,"feedback.kcea@kerala.gov.in,info@motherdentalhospital.in,",8.390711; 76.977404
Smile Stylers,Retail,Kerala, Kovalam Beach; Samudra Beach Kovalam Beach; 695527,,"drsukukoshy@gmail.com,cds.smilestylers@gmail.com,unil@yahoo.co.in,cds@smilestylers.net,",8.402303; 76.973992
Iface Multispeciality Dental Clinic,Retail,Kerala, Kovalam Beach; Kovalam Beach; 695527,,"veeyesdentalhospital@gmail.com,",8.3969078; 76.9836982
Dr. Aravind Krishnan (Kovalam Multispeciality Dental Centre),Retail,Kerala, Kovalam Beach; Kovalam Beach; 695527,094479 65132,,8.399738611271; 76.981273591518
Ms Dental & Maxillofacial Centre,Retail,Kerala, Vizhinajam; Theatre Junction Vizhinajam; 695521,094463 22148,,8.3897579; 76.9900206
Fathima Dental Care,Retail,Kerala, Pachallor; Kuzhiyan Villa Road Pachallor; 695027,,"medicalkerala.com@gmail.com,mail@fathimadentacare.com,info@medicalkerala.com,",8.418485; 76.969345
Elegant Dental Care,Retail,Kerala,Near Bank Of India Vizhinajam; Mukkola P.o Vizhinajam; 695521,,"info@dentcaredental.com,elegantdentalcarejo@gmail.com,elegantdhc@gmail.com,",8.3834991; 76.9998264
Sky Dental Clinic,Retail,Kerala,Near St Marys Higher Secondary School; Kottappuram Road; 695521,,"infoskydentalclinic@gmail.com,roc.chennai@mca.gov.in,kaapa2007@gmail.com,aparna.clinic@apolloclinic.com,",8.3797879; 76.9974777
Dr. Lekshmi's Smile Dental Clinc,Retail,Kerala, Pallichal; Peringammala Pallichal; 695020,082814 69457,"nsmile.dr@gmail.com,",8.4193997; 77.0211698
Aavani Dental Clinic,Retail,Kerala, Thiruvallam Junction; Road Thiruvallam Junction; 695027,7947268179.0,"DR1_SAMEER@YAHOO.COM,",8.4404909; 76.9563703
S N Dental Clinic,Retail,Kerala,20 Mtrs Downkodinada Jn Balaramapuram; Main Road Balaramapuram; 695501,,"trichycghs@gmail.com,krisnakumar@yahoo.com,mail@sndentalclinic.com,",8.407402777778; 77.026680555556
Valliyath Dental Care,Retail,Kerala,Opp Thiruvallam Temple Thiruvallam Junction; Thiruvallam Thiruvallam Junction; 695027,094951 97113,"kripahospital@gmail.com,",8.4401963; 76.954684
Elite Dental Studio,Retail,Kerala,Opposite Swapna Nagari Eranhipalam; Road-Eranhipalam Eranhipalam; 673006,7411841300.0,"elitedentalstudioreception@gmail.com,mail.elitedentalstudio@gmail.com,",11.2971175; 75.7779196
Dento Care Dental Clinic,Retail,Kerala,Near Malabar Flat Opp Kallai; Kallai Kallai; 673002,8488871424.0,"arun7111987@gmail.com,wecare@dentocare.in,",11.2435656; 75.7851892
TMH Hospital Pvt Ltd,Retail,Kerala, Kadalundi; Kottakadavu Junction Kadalundi; 673302,8401315015.0,"hospital.tmh@gmail.com,msoffice@tmc.gov.in,statehealthagencykerala@gmail.com,x3emsoffice@tmc.gov.in,",11.1388619722; 75.837681
Awake Dental,Retail,Kerala,Near Karaparamba Govt School Karaparamba; East Hill Road Karaparamba; 673010,9725014066.0,"dental@kmct.edu.in,hr@grandhotelkerala.com,",11.288000083333; 75.778488138889
Ak Ardent Speciality Clinics,Retail,Kerala,Palakottuvayal Junction Palakottuvayal; Mannam Arcade Palakottuvayal; 673008,7947381264.0,,11.286421255719; 75.845452289662
Queenhauora,Retail,Kerala, Arayidathupalam; Ariyadathupalm Arayidathupalam; 673001,8487920467.0,"drshihabmm@gmail.com,help@trademarking.in,info@queenhauora.com,",11.2492916667; 75.783125
Iqraa Community Clinic Kallai,Retail,Kerala,Near Kallai Railway Station Kallai; VK Krishnamenon Road Kallai; 673003,097442 22682,"mail@iqraahospital.in,",11.2342529; 75.789597
Denta Care Dental Clinic,Retail,Kerala,Near Fathima Hospital Bank Road; Bank Road; 673001,,"tomjose@rediffmail.com,mmquickerala@gmail.com,drrajumelvettom@gmail.com,",11.2626689; 75.7805155
Dr. Rashi's Shafi Dental Care (Dr. Mohamed Rashid),Retail,Kerala,Near AMUP School Puthoormadam; Shafi Dental Care Puthoormadam; 673019,8123792519.0,"keralacmps@gmail.com,pkclt9@gmail.com,",11.2411111111; 75.8741166667
Zahn Dental and Maxillo Facial Centre,Retail,Kerala,Near BMW Showroom Nadakkavu; Vandipetta Nadakkavu; 673011,,"zahndmc@gmail.com,",11.274433333333; 75.773505555556
Poly Dental Clinic,Retail,Kerala,Opp Indoor Stadium Rajaji Road; Rajaji Road Rajaji Road; 673004,,"polydentalclinic@yahoo.co.in,feedback.kcea@kerala.gov.in,info@polyclinicthrissur.com,ad.tr@cghs.nic.in,",11.257312; 75.7867005
INAAYA Dental Care,Retail,Kerala,Nr Meleppattil Jewellery Parambil; Parambil Bazar Po Parambil; 673012,8460473623.0,"info@dentcaredental.com,info@motherdentalhospital.in,",11.3107305556; 75.8262611111
Sankar's Dental Clinic,Retail,Kerala,Opp Canara Bnk Vellimadukunnu; Wayanad Road Vellimadukunnu; 673012,8733055212.0,"sathishsankar4700@gmail.com,poovathdentalclinic@gmail.com,",11.2926683333; 75.8207855
Midac Dental Centre,Retail,Kerala,Near Old Passport Office Eranhipalam; Mine Bypass Eranhipalam; 673006,7490027636.0,"techipixseo@gmail.com,midacmathottam@gmail.com,mail@midac.in,",11.274166666667; 75.786666666667
Orbit Dental Care,Retail,Kerala,OPP TO HEAD POST OFFICE Main Road Koyilandy Koyilandi; Road Junction) Koyilandi; 673305,8460409865.0,"orbitdentalcare@yahoo.com,medicalkerala.com@gmail.com,info@medicalkerala.com,",11.441842055556; 75.693466166667
Dentart Multispeciality Dental Clinic,Retail,Kerala,Opposite Apollo Gold Near New Bus Stand vadakara; NH Bypass vadakara; 673101,8460515948.0,"familydent@gmail.com,anvarabdulhayya@gmail.com,",11.599050972222; 75.593345972222
Medihome Family Clinic Pvt. Ltd,Retail,Kerala,nan; Calicut; 673004,8487899395.0,"mail@medihomeindia.com,smkkd19@gmail.com,nowfalsalam1@gmail.com,",11.262802; 75.776088
Medident Health Clinic,Retail,Kerala,Opposite Kseb Office Kakkodi; Chelapuram Road Kakkodi; 673611,7947394269.0,"medidenthealthclinic@gmail.com,",11.3195323; 75.7992925
Astra Medi Care,Retail,Kerala,Near Govt Homeo College Karapparambu; Karaparmba Karapparambu; 673010,9724800877.0,"astramediservices@gmail.com,roc.chennai@mca.gov.in,",11.288844444444; 75.786208333333
Dr. Indu Sajeev,Retail,Kerala, Ramanattukara; Mubarak Jewellery Ramanattukara; 673633,8460411978.0,"panayamayurveda@gmail.com,ghdkrishnapuram@kerala.gov.in,dr.ratheeshkaliyadan@gmail.com,indulalr@gmail.com,",11.1769580833; 75.8670196389
V Care Speciality Dental Clinic Thopramkudy,Retail,Kerala,Near Our Family Clinic Thopramkduy; Thopramkudy Junction Thopramkduy; 685609,,"faizalpunnakkottil@gmail.com,",9.8788033; 77.0542685
Kailas Super Speciality Dental Clinic And Implant Centre,Retail,Kerala,Opposite Sankers Hospital Chinnakada; Anjili Road Chinnakada; 691001,8485958812.0,,8.888446805556; 76.598960861111
Visage Dental Care,Retail,Kerala,Amardeep Eye Hospital; 2nd Mile Stone; 691021,8460519609.0,,8.90135; 76.616930555556
Dr Nehas Smyle Artz Speciality Dental Clinic,Retail,Kerala,Near Vibes Boutiques Decent Junction; Decent Jn Decent Junction; 691577,8460389797.0,,8.897788; 76.649298
Kannanalloor Multispeciality Dental Clinic,Retail,Kerala, Kannanallur; Thrikkovilvattom Kannanallur; 691576,8735848923.0,"anvarabdulhayya@gmail.com,kailaskollam@gmail.com,",8.8944679; 76.6813688
Rapha Health,Retail,Kerala,Near Marthoma Girls Higher Secondary Kottarakara; Kripa Nagar-2 Kottarakara; 691506,7947223086.0,"roc.chennai@mca.gov.in,raphahealthindia@gmail.com,raphadiag@yahoo.com,chosenmanoj@gmail.com,info@medicalkerala.com,medicalkerala.com@gmail.com,",9.001149; 76.774873
Sparsh Dental Care,Retail,Kerala,Near KSEB Office Panmana; Edappallykotta Panmana; 691583,8105776151.0,"info@sparshhospital.com,cmdalshifa@yahoo.com,drshanranpatil@sparshhospital.com,",9.011996899722; 76.536293799722
Cheshaire Dental Studio,Retail,Kerala,Opposite Vallikeezh Temple Kavanad; Vallikeezh Kavanad; 691003,8460504654.0,,8.911969; 76.559993
Amruthanjali Multi Speciality Dental Clinic Ayurvedic Hospital,Retail,Kerala,Near IDBI Bank Thirumullavaram; Kankathumukku Thirumullavaram; 691012,0474 279 3849,"drmuralikm@gmail.com,mmquickerala@gmail.com,",8.8949712; 76.5694564
Roots and Canals Dental Clinic,Retail,Kerala,Near Ramavarma Club Thevally; Thevally Thevally; 691009,9724794002.0,"soumithran@hotmail.com,delhidentalcenter@gmail.com,info@kamaladental.com,pramodclinic@gmail.com,MADHUSDENTALCARE@GMAIL.COM,",8.896386111111; 76.578188888889
Rashmis Dento Facial Multispeciality Centre,Retail,Kerala,Adjacent to Vallikeezhu Temple Kavanad Kavanad; Vallikeezhu Kavanad Kavanad; 691003,8123772064.0,"roc.chennai@mca.gov.in,drresminair@gmail.com,",8.912800777778; 76.560211166667
Arjun's Clinic,Retail,Kerala,Chavara Chavara; Kottankulangara Chavara; 691583,9724763350.0,"alv@dermavue.com,Email-maira.bhat143@gmail.com,arjunsclinic@gmail.com,",8.979188972222; 76.537362972222
Dr Maneesh Specialist Dental Care,Retail,Kerala,Near Indian Oil Pump Kottarakara; MGK Tower Kottarakara; 691506,8735008091.0,,8.993016222222; 76.749626138889
Kumar Multi Speciality Dental Clinic,Retail,Kerala,Near Ramankulangara Junction; Medayil Junction; 691001,094470 77147,"n@gmail.com,drgopakumarn@gmail.com,drvnmanojkumar@gmail.com,",8.8983333333; 76.6066666667
Dental Diaries Dental Clinic,Retail,Kerala,Near LIC OFFICE AND RK CLINIC Bharanikavu; Bharanikkavu Bharanikavu; 690520,094830 64733,"pmadzima@cimas.co.zw,roc.chennai@mca.gov.in,vivrockz@gmail.com,",9.059093; 76.6387083
Puthiyakavu Dental Clinic,Retail,Kerala, Karunagappally North; Junction Karunagappally North; 690544,,"feedback.kcea@kerala.gov.in,jayakrishnan.ar@gmail.com,",9.0774539; 76.531661
Dentacare Dental Clinic,Retail,Kerala, Chakkuvally; Puthiyakavu Road Chakkuvally; 690520,,"soumithran@hotmail.com,info@dentcaredental.com,last@dentcaredental.com,Info@Scientificdentalclinic.Com,tomjose@rediffmail.com,drrajumelvettom@gmail.com,",9.0887279; 76.6372122
Shifa Dental Clinic Implant Surgical and Orthodonic Centre,Retail,Kerala,Near Federal Bnk Umayanallur I E; Umayanallur I E; 691589,082815 58518,"soumithran@hotmail.com,",8.865177; 76.6549998
Unity Dental Care,Retail,Kerala,Near Bus Stand Cherupuzha; Main Road Cherupuzha; 670511,,"spottappalam.keralapost@gmail.com,unitydental07@gmail.com,",12.2741794; 75.3637218
Oro Care Multispeciality Dental Clinic,Retail,Kerala,nan; Mattukatta Vellilamkandam; 685507,,"soumithran@hotmail.com,info@orocare.net,titty_dental@yahoo.com,bindudental@yahoo.co.in,",9.7029659; 77.0408905
Matha Speciality Dental Clinic,Retail,Kerala, Kanchiyar; Lebbakkada Kanchiyar; 685511,,"dr_maryb@yahoo.com,",9.7384851; 77.0626686
Peermade,Retail,Kerala, Peermade; Kuttikkanam Peermade; 685531,,"ctopeermade@gmail.com,x3ejcai.ctd@kerala.gov.in,adlcst1.ctd@kerala.gov.in,sales@mistymountain.in,sureshk.ctd@kerala.gov.in,jclaw.ctd@kerala.gov.in,x3ejclaw.ctd@kerala.gov.in,jcg.ctd@kerala.gov.in,x3esureshk.ctd@kerala.gov.in,x3ejcg.ctd@kerala.gov.in,mbc@mbcpeermade.com,jcai.ctd@kerala.gov.in,",9.5783991; 76.9746975
Dev Dental Clinic,Retail,Kerala, Cheruthoni; Neriyamangalam Road Cheruthoni; 685602,,"info2@allforkidsindia.com,devdentalcare.clt@gmail.com,nazimadentalcare@gmail.com,",9.8579319; 76.962209
Palace Dental Clinic,Retail,Kerala, Kuttikkanam; Kuttikkanam; 685531,,"yourpediatricdentist@gmail.com,info@medicalkerala.com,aparna.clinic@apolloclinic.com,ceasarpalacehotel@gmail.com,medicalkerala.com@gmail.com,",9.5817407; 76.9704891
Dr. Mathew Thomas,Retail,Kerala, Kanjar; Arakulam Road Kanjar; 685590,,"store.dmekerala@gmail.com,mathewtthomas@niyamasabha.nic.in,drmathew@medayilhealthcare.com,mail@marsleevamedicity.com,dmestorec3medicine@gmail.com,",9.8172469; 76.8095871
Dr. K Rajagopal,Retail,Kerala,Near District Co Operative Bank Idukki Colony; Cheruthoni Idukki Colony; 685602,,"dr.ratheeshkaliyadan@gmail.com,info@medicalkerala.com,mathewtthomas@kerala.gov.in,medicalkerala.com@gmail.com,",9.8481773238; 76.9810690616
Denthashupathri,Retail,Kerala, Cheruthoni; Cheruthoni; 685602,093881 30124,"feedback.kcea@kerala.gov.in,",9.8579086; 76.9621759
Speciality Dental Care Centre,Retail,Kerala, Cheruthoni; Cheruthoni; 685602,,"soumithran@hotmail.com,medicalkerala.com@gmail.com,info@medicalkerala.com,",9.8579905; 76.9621397
Welfare Dental Clinic,Retail,Kerala,Near Jan Aushadhi Idukki; Kattappana; 685515,,"dhskerala.hlth@kerala.gov.in,dhskerala@gmail.com,",9.7680661; 77.1040607
Dr Lakshmi's Crown Dental Clinic & Orthodontic Center,Retail,Kerala,Near Junction Kalmandapam; Coimbatore Road Kalmandapam; 678013,088911 15066,,10.7724590278; 76.6722488333
My Tooth Care,Retail,Kerala,Near Fathima Medicals Kuzhalmannam; Kottayi Road Kuzhalmannam; 678702,8735830263.0,"feedback.kcea@kerala.gov.in,",10.7205429722; 76.5994859722
Narayana Speciality Dental Care,Retail,Kerala,Near Head Post Office and Nalanda Inn Palakkad HO; College Road Palakkad HO; 678001,7411839733.0,"email.rtiics@narayanahealth.org,narayanadental@nsdcpalakkad.in,",10.767217; 76.655465
Nirmala Dental Care,Retail,Kerala,Near Cooperative Hospital Cherpalcheri; Pattambi Road Cherpalcheri; 679503,8460381311.0,"quickeralateam@gmail.com,sainirmaldental@gmail.com,nirmaladentalcare2007@gmail.com,info@nirmalahospital.com,nirmalamedical@gmail.com,",10.8785643; 76.3136905
Malabar Dental Care,Retail,Kerala,Near Saya Bakery Mannarkkad; Hospital Junction Mannarkkad; 678582,8735915741.0,"drfmoopen@gmail.com,ratnakarandr@gmail.in,drfmoopen@doctor.com,sonymevada@gmail.com,",10.99392; 76.4660347
Sree Ayyappa Medical Center,Retail,Kerala,Opposite Ayyapankavu Pirayiri; Kottayi Road Pirayiri; 678004,8487066704.0,"principalsace@gmail.com,sreeayyappacollege@gmail.com,",10.769024083333; 76.621970583333
Dr Suresh's Kalathil Dental Clinic,Retail,Kerala,Near Hotel Highways Parking Mannarkkad; Mannarkkad; 678582,9725389531.0,,10.9889377; 76.4515819
Dr Avanis Pedocare Pediatric And Family Dental Clinic,Retail,Kerala,College Of Commerce Building Near Nemmara Bus Stand Nemmara; Thottamkulam Nemmara; 678508,7942773098.0,,10.5907997964; 76.590636291
Jaya Multi Specialty Dental Care,Retail,Kerala, Pattambi; Perinthalmanna Road Pattambi; 679303,092070 77575,"soumithran@hotmail.com,medicalkerala.com@gmail.com,info@medicalkerala.com,",10.8062863; 76.1874899
Sradha Dental Clinic,Retail,Kerala,Near Stadium Bus Stand Palakkad Town; Coimbatore Road Palakkad Town; 678001,8460402258.0,"drsubodh@gmail.com,mmquickerala@gmail.com,",10.7733496; 76.6631546
Classic Smile Dental Clinic,Retail,Kerala,Near Rave Football Turf Kavalpad; Melamuri Kavalpad; 678012,9725916054.0,"soumithran@hotmail.com,clonshaugh@smiles.ie,cds@smilestylers.net,",10.7737988; 76.635335
James Multi Speciality Dental Clinic,Retail,Kerala,Near Municipal Market Complex Chittur Pg; Main Road Chittur Chittur Pg; 678101,083040 75328,"soumithran@hotmail.com,bizklinfo@gmail.com,mmquickerala@gmail.com,",10.700757; 76.747772194444
Palakkad Diabetic Centre,Retail,Kerala,Near South Police Station Kunnathurmedu; Road Kunnathurmedu; 678013,099477 17903,"mail.adh@ahalia.in,palakkaddiabeticcentre@rediffmail.com,u003epalakkaddiabeticcentre2007@gmail.com,info@medicalkerala.com,betadiabetesclinicpkd@gmail.com,palakkaddiabeticcentre2007@gmail.com,medicalkerala.com@gmail.com,palakkaddiabeticcentre@gmail.com,",10.7655001; 76.6601609
Ss Dental Clinic And Implant Centre,Retail,Kerala,Near Poly Hospital Kunnathurmedu; Coimbatore Road Kunnathurmedu; 678013,7947444717.0,"skshiva32@rediffmail.com,",10.772349; 76.6724549722
D Face,Retail,Kerala,Opposite Indian Petrol Pump Valancheri; Vaikkathur Valancheri; 676552,8147009346.0,"cru.agridir@kerala.gov,hckerala@nic.in,adpksgd.dop.lsgd@kerala.gov.in,pamlabs@parathuvayalilhospital.com,murti@vsnl.com,",10.894090277778; 76.074543611111
Mother Dental Super Speciality Clinic,Retail,Kerala,Near Zeenath Silks Kottakkal; Main Road Kottakkal; 676503,9054045974.0,"motherdentalcalicut@gmail.com,asa.acs@gmail.cpm,",11.000032; 76.001337
Carmel Dental Care,Retail,Kerala,Near IGBT Bustand Manjeri Kla; Kacherippadi Manjeri Kla; 676121,9054566092.0,"spur.ah@cghs.nic.in,",11.110094444444; 76.118775
Liberty Dental Clinic and Tmj,Retail,Kerala,Above Address Fashion Manjeri; Baputty Bypass Road Manjeri; 676122,9054034338.0,"medicalkerala.com@gmail.com,info@medicalkerala.com,",11.1122507; 76.1165769
S.M Ayurveda Hospital,Retail,Kerala,Near Juma Masjid Wandoor; Perinthalmanna Road Wandoor; 679328,8490942096.0,"drsulaimankk@yahoo.co.in,",11.18873219; 76.2338514
D4u Multi Speciality Dental Clinic,Retail,Kerala, Perintalmanna; Mannarkkad Road Perintalmanna; 679322,8460545223.0,,10.975702777778; 76.228102777778
Supriya Speciality Hospital,Retail,Kerala, Kalpakancheri; Thirunavaya Road Kalpakancheri; 676551,7487937964.0,"supriyaofficeacc@gmail.com,sshmanager44@gmail.com,info@supriyahospital.com,",10.926514611111; 75.997314444444
Ideal Medical Center And Dental Care,Retail,Kerala,Near Mini Industrial Kottakkal; Mini Road Changuvetty Kottakkal; 676503,7942593154.0,"store.dmekerala@gmail.com,idealdentaltirur@gmail.com,dmestorec3medicine@gmail.com,",11.001733; 75.997173
Dr. Hassan's Al-raha Dental Clinic,Retail,Kerala,Palathingal Bridge Palathingal; Parappangadi Palathingal; 676303,070343 70561,"samsher@vdcl.co.in,",11.0370667; 75.8761308
Grand Medical Centre & Laboratary,Retail,Kerala,Near Honda Service Centre Alankode; Changaramkulam Alankode; 679585,8490074048.0,,10.7444228; 76.0288667
Dr.Jijin My Dentist Speciality Dental Care,Retail,Kerala,Opposite Bus Waiting Shed Valancheri; Valanchery Valancheri; 676552,0494 264 4226,"dr.jijopaul@gmail.com,mazhuvencheryclinic@gmail.com,",10.8912835527; 76.0741789805
Modern Dental Speciality Clinic,Retail,Kerala,Opp District Hospital Manjeri; Opp. District Hospitali Manjeri; 676122,7942592449.0,,11.1169049; 76.1194225
PULATH DENTCARE,Retail,Kerala,Branch In VP Apartment Near Arafa Medical Shope Anchachavidi Wandoor; Nilambur Road Wandoor; 679328,9054696119.0,"info@dentcaredental.com,info@didtindia.com,info@dentcaredental.com,info@didtindia.com,",11.215763694444; 76.223585388889
Malayatoo Dental Clinic,Retail,Kerala,Near Mar Ivanios Nalanchira; Main Gate Nalanchira; 695015,094470 30663,"feedback.kcea@kerala.gov.in,feedback.kcea@kerala.gov.in,",8.5428913; 76.94214
