Name,Sector,City,Address,Phone,Email,Lat-Long
Sabarigiri English School,School,Kerala,Anchal Junction Anchal; Anchal Road Anchal; 691306,8460405941.0,"sabarigiriresidentialschool@gmail.com,",8.918169; 76.9102836
Sree Budha Centre For Information Technology,School,Kerala,Near Palkulangara Temple Uliyakovil; Kollam Bypass Road Uliyakovil; 691019,,"principal@sbce.ac.in,sbcskarunagappally@gmail.com,",8.898861; 76.6245448
Irez School Of Health Care,School,Kerala,Near Vidya Nagar; Vidya Nagar; 691013,,"info@irez.in,",8.8913758; 76.5811792
Thekkan Guruvayoor English Medium School,School,Kerala, Thevalakkara; Thevalakkara; 690524,,"info@admissionschool.com,stvincentskkpuram@gmail.com,",9.0067609; 76.5765237
St Gregorious Central School,School,Kerala, Karunagappally North; Thazhava Karunagappally North; 690544,,"u003estgcschool@gmail.com,sobhasoman111@gmail.com,stgcschool@gmail.com,info@stgcs.ac.in,",9.104597; 76.541399
Navdeep Public School,School,Kerala, Mundakkal; Decent Junction Po Mundakkal; 691010,,"navdeeppublicschool@gmail.com,",8.874705; 76.6025071
Infant Jesus Anglo Indian Higher Secondary School,School,Kerala, Thangasserry; Thangasserry; 691007,,"staff@ke023cisce.org,principal@ijhss.org,",8.8845216; 76.5650454
Sree Narayana Public School,School,Kerala, Vadakkevila; Vadakkevila; 691010,,"kollengodesreenarayana@gmail.com,sreenarayanaadmissions@gmail.com,snpsambazhachal@gmail.com,snvpschool@gmail.com,",8.8788955; 76.6311631
Oxford School,School,Kerala,Nr Alliance Food Products Umayanallur Kollam; Mylapore Umayanallur Kollam; 691589,,"oxfordkannur@gmail.com,oxfordcalicut@mhtrust.com,oxfordmodelschoolvembayam@gmail.com,u003eoxford@mhtrust.com,principal@oxfordtvm.com,oxford@mhtrust.com,info@oxfordcalicut.com,",8.878289; 76.643306
Krist Raj Higher Secondary School,School,Kerala, Karbala; Jawahar Nagar Karbala Karbala; 691001,,"41066kollam@gmail.com,krhssklm02056@gmail.com,",8.8842897; 76.6045799
Bambino International Montessori School,School,Kerala,Kuravankonam Kowdiar; Gokulam Junction Kowdiar; 695003,9054625954.0,"bambinokowdiar@gmail.com,info@bambinokidz.com,bambinotvm@gmail.com,pramodnarayanpn@gmail.com,worldkids2121@gmail.com,",8.5274342; 76.9557232
Solispehdee Pre School,School,Kerala,Near Corporation Office Pongumoodu; Prasanthnagar Road Pongumoodu; 695011,8147955062.0,"ncontact@solispehdee.com,keralatribes@gmail.com,solispehdee.preschool@gmail.com,contact@solispehdee.com,info@entranceindia.com,",8.537608; 76.9233949722
Santhigiri Vidyabhavan Senior Secondary School,School,Kerala,Santhiri Asramam Pothencode; Santhigiri Post Pothencode; 695584,,"communication@santhigiriashram.org,santhigirividyabhavanss@gmail.com,santhigirividyabhavansss@gmail.com,",8.635135; 76.897102
Angel Kids Montessori School & International Teacher Training Centre,School,Kerala,Near Railway Gate Kaniyapuram; Chirayinkeezhu Road Kaniyapuram; 695301,9054431151.0,,8.583930555556; 76.845211111111
Sabarigiri International School,School,Kerala,Via Powdikonam Njandoorkonam; Sreekaryam Pothencode Road; 695587,7411832719.0,"SISTVM17@GMAIL.COM,sistvm17@gmail.com,sabarigiriresidentialschool@gmail.com,",8.572615; 76.912447
Kinder Steps Edu,School,Kerala,Vyasa Nagar Near MG College Gate Paruthippara Paruthipara; Padmanabhan Road Paruthipara; 695025,9725435024.0,"adminschool@choicegroup.in,admission@dpskollam.com,Uscarmelpsvazhakulam@gmail.com,info@kindersteps.in,principalmmount@gmail.com,",8.5292715; 76.9380777778
Jyothis Central School,School,Kerala, Kazhakuttam; Menamkulam Road Kazhakuttam; 695582,,"jyothisgroup@gmail.com,jyothiscentralschool@gmail.com,",8.560549972222; 76.866651
Little Flower English Medium Higher Secondary School,School,Kerala, Edava; Little Flower Edava; 695311,,"edavalittleflower@gmail.com,",8.7586473; 76.7001772
Vyasa Vidya Bhavan,School,Kerala, Machel; Machel Machel; 695570,,"XXXX@XXXXXX.XXX,vyasavidyabhavan@gmail.com,sreepadamsreekumar@gmail.com,",8.490152; 77.0494365
Lords School,School,Kerala,Aruvikarakonam Panthalakkode; Panthalkodu Po Panthalakkode; 695028,,"LORDSJUNIORSCHOOL@GMAIL.COM,info@lordsschool.in,sushmatush@gmail.com,lordsvply@gmail.com,",8.577783333333; 76.960352777778
World Magic Mithra,School,Kerala,Opposit Town Hall Aralumoodu; Alummoodu Aralumoodu; 695123,,"jayakeralachry@gmail.com,mala_malhotra@yahoo.com,roc.chennai@mca.gov.in,Mommyandvihaan@gmail.com,",8.404339; 77.08368
Global Kids International Montessori School,School,Kerala,Near Federal Bank Kaniyapuram; Main Road Kaniyapuram; 695301,,"bluemountimttc@gmail.com,bambinokowdiar@gmail.com,info@bambinokidz.com,",8.5845344; 76.8615394
Dr. Yesodharan's Arsha International Model School,School,Kerala,Near Devi Temple Kallingal Nedumangadu; Karipoor Road Nedumangadu; 695541,,"ob0908113nios@gmail.com,arshainternationalschool@gmail.com,",8.6049296; 77.0091275
Kalyan School And Day Care,School,Kerala,Edacode Nemam; Sivaji Nagar Nemam; 695020,,"kalyanschool@gmail.com,admin@trinitykalyan.com,priyabalan2000@yahoo.com,",8.45727; 77.0002
A2Z DRIVING SCHOOL & INSTITUTE OF HEAVY EQUIPMENTS ITC,School,Kerala, Willingdon Island; A2Z BUILDING Willingdon Island; 682003,7947270317.0,,9.93881; 76.269986
Rajagiri Seahore Cmi School,School,Kerala,South Malipuram P O Vypin Azheekal; Rajagiri Road Azheekal; 682508,,"shprovince@hotmail.com,rajagirist.chavara@gmail.com,rajagirips@gmail.com,",9.9966509; 76.2329078
Little Legend Nursery and Pre School,School,Kerala, Maradu; Upasana Nagar Maradu; 682304,8460396481.0,"info@hellosamkids.com,littlelegendschool@gmail.com,",9.952741; 76.3279653
St Marys Anglo Indian Girls High School,School,Kerala, Kochi; Bastian Road Kochi; 682001,,"sjaighss@gmail.com,stmarys.aihss@gmail.com,stmarys1889@gmail.com,u003estmarys1889@gmail.com,stjosephstpn@gmail.com,",9.9655682; 76.2424493
Delta Study,School,Kerala,Opp Fort Kochi Policestation Kochi; Fort Kochi Kochi; 682001,,"principal@deltastudy.org,deltastudyoffice@deltastudy.org,",9.966064; 76.243386
Santa Cruz High School,School,Kerala, Kochi; Santa Cruz road Kochi; 682001,,"santacruz930678@gmail.com,santacruz_hss@yahoo.com,XXXX@XXXXXX.XXX,santacruzhss@yahoo.com,santacruzsavior@gmail.com,",9.9642298; 76.2419053
St John De Britto Anglo Indian High School,School,Kerala,Near Cochin Fort Kochi; Kochi; 682001,,"mmquickerala@gmail.com,",9.9631365; 76.2399456
Tirumala Devaswom Higher Secondary School,School,Kerala, Mattancherry; Road Mattancherry; 682002,,"jairanips@yahoo.com,enquiry@gosripuram.org,lakefordschool@gmail.com,",9.9587657; 76.2517003
St Pauls English Medium School,School,Kerala, Kochi; Tower road Kochi; 682001,,"stpaulscehss@gmail.com,stpaulspublicschool@gmail.com,binduedathattel@gmail.com,u003estpaulsenglishmedium777@gmail.com,mail@stpaulsenglishschool.com,stpaulsenglishmedium777@gmail.com,",9.9673082; 76.2458826
Horizo Public School,School,Kerala,Near Euro Kids Kakkanad; Civil Line Road Kakkanad; 682030,8460509038.0,"u003eoffice@thehorizonschool.com,registrar@newhorizonindia.edu,office@thehorizonschool.com,office@horizonpublicschool.co.in,principal@newhorizonindia.edu,principal@thehorizonschool.com,",10.0242969; 76.3419273
Kidzee (Kakkanad),School,Kerala, Thrikkakara; & Reliance Fresh Thrikkakara; 682021,,"kidzee1538@kidzee.com,kidzee.kakkanad@yahoo.com,u003ekidzee2606@kidzee.com,kidzee2606@kidzee.com,care@kidzee.com,",10.0178603; 76.3310183
Al - Ameen Public School Sreemoolanagaram Aluva,School,Kerala,Aluva Kalady Road Aluva; Sreemoolanagaram Aluva; 683101,7411552871.0,"mail@al-ameen.ac.in,alameensree@gmail.com,kavithasantony@gmail.com,",10.101192; 76.362018
Aasia Bai Higher Secondary School,School,Kerala, Mattancherry; Iqbal Library Road Mattancherry; 682002,,"schools@indcareer.com,aasiabai.2007@gmail.com,u003eaaiaabai2007@gmail.com,aaiaabai2007@gmail.com,mmquickerala@gmail.com,",9.9631102; 76.2554537
Sri Gujarathi Vidyalaya High School,School,Kerala, Mattancherry; No.2180 Mattancherry; 682002,,"sri-gujarathi-vidyalaya-higher-secondary-school-kozhikode-h6htqww@n.html,silverhillshss@gmail.com,gujarathividhyalayam@gmail.com,",9.959755; 76.255367
Loretto School,School,Kerala, Kochi; Moolamkuzhi Mundamveli Kochi; 682001,,"contact@loretoshillong.in,schoolloretto@yahoo.in,",9.9384607; 76.2494282
Government Higher Secondary School,School,Kerala, Devikulam; Devikulam; 685613,,"govt.boys.hss.mavelikkara@gmail.com,directorhse.ker@gmail.com,jd2hse.dge@kerala.gov.in,aohse.dge@kerala.gov.in,min.edu@kerala.gov.in,ghsskltr@gmail.com,rddtvm.dge@kerala.gov.in,secy.gedu@kerala.gov.in,jd1hse.dge@kerala.gov.in,gmrskalpetta@gmail.com,gmhssvarkala.varkala@gmail.com,hitcchorod9@gmail.com,",10.0639345; 77.1093181
Govt. HR Sec School,School,Kerala, Devikulam; Devikulam; 685613,,"contact@kite.kerala.gov.in,govthssnta@yahoo.co.in,govt.vhssmogral@gmail.com,ghssk639@gmail.com,x3escertkerala@gmail.com,ghssokl@gmail.com,x3edirector.dge@kerala.gov.in,min.edu@kerala.gov.in,secy.gedu@kerala.gov.in,ict.dge@kerala.gov.in,hmtharuvana@gmail.com,x3econtact@kite.kerala.gov.in,scertkerala@gmail.com,director.dge@kerala.gov.in,x3esecy.gedu@kerala.gov.in,",10.0641906; 77.1089467
Tagore Mount School,School,Kerala, Pallivasal; Pallivasal; 685565,,"tmschool@md4.vsnl.net.in,mountthabore@yahoo.com,",10.0362047; 77.0764964
Holy Family Public School,School,Kerala,nan; Kunchithanny; 685565,,"publicschoolholyfamily@gmail.com,holyfamilypschittar@gmail.com,holyfamilyschool2000@gmail.com,holyfamilypublicschoolanchal@gmail.com,",10.0160942; 77.0667418
St.Sebastians High School,School,Kerala, Pottenkad; Pottankadu Pottenkad; 685565,,"ssupschool593@gmail.com,anicadu28044@rocketmail.com,sshsscheenthalar@gmail.com,05042_sshsskadanad@live.com,phssvandiperiyar@gmail.com,",10.0079813; 77.083919
Montfort School,School,Kerala, Idukki Painavu; Idukki Distt Idukki Painavu; 685603,,"montfortschool.chinnakanal@gmail.com,montfortanakkara@gmail.com,joetecch2k2@hotmail.com,Francissg1979@gmail.com,",10.048931; 77.181457
ST Marys Central School,School,Kerala, Chinnakkanal; Rajakumari Chinnakkanal; 685618,,"stmrcstvm@gmail.com,stmrcsk@gmail.com,stmaryrcschool@gmail.com,stmrcstvm@satyam.net.in,josejpurayidam@gmail.com,mailatstmarys@gmail.com,",10.0377531611; 77.1781760654
Government Higher Secondary School Kunchithanni,School,Kerala,Nr Co Op Bank Kunchithanni; No.1/25 Kunchithanni; 685565,,"ddeidk@education.kerala.gov.in,29037ghss@gmail.com,govthsskumily@gmail.com,hitcchorod9@gmail.com,ghsskltr@gmail.com,",10.0088965; 77.0672035
St Joseph's Lp School,School,Kerala, Anakulam; Mankulam Road Anakulam; 685565,,"u003estjosephems@yahoo.com,29202stups@gmail.com,mail@cmicarmel.org,office@dunlaoghairens.ie,pavarattyshrine@gmail.com,stjosephems@yahoo.com,secretarycarmel@gmail.com,josephites14a@gmail.com,x3eoffice@dunlaoghairens.ie,sanjosevlkn@gmail.com,sjttimananthavady@gmail.com,gkmhskaniyaram@gmail.com,",10.000947; 77.065151
St Antony's L.P School,School,Kerala, Anakulam; Devasia Ellackal Anakulam; 685565,,"stantonysjr@gmail.com,aupspazhoor@gmail.com,st.ant.ems@gmail.com,vadakara16002@gmail.com,stantonypublicschool@gmail.com,sjttimananthavady@gmail.com,stantonyspublicschool@gmail.com,gkmhskaniyaram@gmail.com,",9.999849; 77.0654346
Christu Jyothi Public School,School,Kerala, Rajakad; Rajakad Po Idukki Rajakad; 685566,,"kristujyotihss@gmail.com,srtreesamarysh@gmail.com,christujyothichmr@yahoo.co.in,jyothivalley@gmail.com,",9.964622; 77.102552
Government Higher Secondary School Rajakad,School,Kerala, Rajakad; Ponmudi Rajakad; 685566,,"ddeidk@education.kerala.gov.in,ghssrajakad@gmail.com,gmail.com_ghssvtl@yahoo.com,ghssthodupuzha@gmail.com,u003eghssrajakad@gmail.com,hitcchorod9@gmail.com,29043rajakkad@gmail.com,ghssvtl@yahoo.com,ghsskltr@gmail.com,ghss@gmail.com,",9.964091; 77.097365
government vocational higher secondary school,School,Kerala,nan; Rajakumary; 685619,,"panangadvhss@gmail.com,dirvhse@yahoo.com,tamilhsschalai@gmail.com,fohse.dge@kerala.gov.in,dirvhse.dge@kerala.gov.in,ict.dge@kerala.gov.in,ghsskltr@gmail.com,rovhsechngr@yahoo.co.in,vhsths.sby@gmail.com,ghsskty@gmail.com,hitcchorod9@gmail.com,",9.9762975; 77.1591865
Sree Narayana Vilaasam Higher Secondary School,School,Kerala,Near City; Kerala; 685566,,"principal7064@gmail.com,sreedurgavilasamschool@gmail.com,sreenarayanaadmissions@gmail.com,smtghsschelakkara@gmail.com,sdvhssperamangalam@gmail.com,",9.9708633; 77.1145003
St Marys Central School,School,Kerala,Main Road Aruvilanchal; Arivilamchal Aruvilanchal; 685619,,"stmrcstvm@gmail.com,stmrcsk@gmail.com,stmaryrcschool@gmail.com,stmrcstvm@satyam.net.in,josejpurayidam@gmail.com,mailatstmarys@gmail.com,",9.9546081; 77.1444619
Carmel Matha High School,School,Kerala, Koompanpara; Mankadavu Road Koompanpara; 685561,,"carmelghss@gmail.com,ddeidk@education.kerala.gov.in,carmelhsschalakudy@yahoo.com,29046cmhs@gmail.com,",9.9987016; 77.000439
Government Higher Secondary School Vellathooval,School,Kerala, Vellathooval; No.1/418 Vellathooval; 685563,,"ddeidk@education.kerala.gov.in,ghsskltr@gmail.com,ghssvtl@yahoo.com,amaravathyghss@gmail.com,hitcchorod9@gmail.com,29038ghsvellathooval@gmail.com,",9.979713; 77.029438
Govt Model Hss,School,Kerala, Varkala; Main Road Varkala; 695141,,"ghssk639@gmail.com,ghsschinnakal@gmail.com,ghssokl@gmail.com,mrspeermade@gmail.com,40051gmrskpLza@gmail.com,gmhssvarkala.varkala@gmail.com,",8.7323351; 76.7166764
Ghss,School,Kerala, Vettoor; Varkala Kadakkavoor Road Vettoor; 695312,,"jairanips@yahoo.com,govthssnta@gmail.com,ghssperintalmanna@gmail.com,29010ghs@gmail.com,ict.dge@kerala.gov.in,ghss.mathil@gmail.com,ghsspnm@gmail.com,ghss@gmail.com,",8.7123406; 76.7410469
Bharath Public School,School,Kerala,Near Kannamba Varkala; Bharath Public School Varkala; 695141,,"bharathpublicschool@yahoo.com,jyothisbharathpublicschool@gmail.com,jyothiscentralschoolvarkala@gmail.com,",8.7539162; 76.7222694
Kidz Palace Global Smart Pre-School,School,Kerala, Palachira; Kallambalam Road Palachira; 695143,,"info@kidzpalaceuk.com,info@entranceindia.com,",8.736477; 76.745907
Amtti School,School,Kerala, Vettoor; Vettoor-Cherunniyoor Vettoor; 695312,,"ddetvm.dge@kerala.gov.in,sitttr@gmail.com,secy.gedu@kerala.gov.in,gupsmananthavady@gmail.com,min.edu@kerala.gov.in,jd_cdc@yahoo.com,ghstholpetty@gmail.com,",8.7123624; 76.7405575
Shakti Ashram Healing Center,School,Kerala,nan; nan; 695141,,"yoga@sobg.org,admin@phmumbai.com,drvijimohan@gmail.com,",8.7402181; 76.7109392
Govt. Muslim High School,School,Kerala, Varkala; Nadayara Varkala; 695141,,"govt.vhssmogral@gmail.com,35052alappuzha@gmail.com,muslimhss@gmail.com,kallupura@gmail.com,",8.7570196; 76.7233289
Al Fithrah Learning School,School,Kerala, Vettoor; Male Vetoor Road Vettoor; 695312,,"quickeralateam@gmail.com,alfitrahbglr@gmail.com,pattomstmarys@gmail.com,arifthekkil@gmail.com,alfitrahpulikkal@gmail.com,preprimaryschoolsindia@gmail.com,preschool@trins.org,alfitrahcvkd@gmail.com,",8.7105058; 76.7336342
Nice Public School,School,Kerala,Bp Angadi Pulinchod Bettath Pudiangadi; Bp Angadi Bettath Pudiangadi; 676102,8904979777.0,"mail@globalpublicschool.org,contact@ksvp.org,keralaschoolrkpuram@gmail.com,office@saps.ac.in,",10.8792507; 75.9379426
ABC Training Academy,School,Kerala,Near Post Office Malappuram Civil Station; Uphill Malappuram Civil Station; 676505,,"terrafirma.training@yahoo.co.in,abctrainingacademymlp@gmail.com,mmquickerala@gmail.com,kgnanjundappa@gmail.com,",11.04206600889; 76.081229873771
Pkmm Higher Secondary School,School,Kerala, Edarikode; Pottippara Edarikode; 676501,,"school.mangalam43@gmail.com,ghssporuvazhy@gmail.com,pkmmhssedarikode2@gmail.com,principalemea@gmail.com,bv.sivasankar@gmail.com,",11.0018796; 75.9838773
Government Girls High School,School,Kerala,Opposite Of Malappuram Municipality Downhill; Downhill; 676519,,"jairanips@yahoo.com,dth.class12@ciet.nic.in,dth.class9@ciet.nic.in,dth.class6@ciet.nic.in,",11.0480647; 76.071653
Madin Public School,School,Kerala, Malappuram Ho; Malappuram Ho; 676505,,"info@madinps.edu.in,academics@madin.edu.in,pskoyathurakkal@gmail.com,hss@madin.edu.in,nacademics@madin.edu.in,",11.067654; 76.078133
Gvhss Pullanoor,School,Kerala,nan; Sh 28; 676517,,"XXXX@XXXXXX.XXX,jd1hse.dge@kerala.gov.in,gvhss.muvattupuzha@gmail.com,aohse.dge@kerala.gov.in,jd2hse.dge@kerala.gov.in,shajukpengkdbr@gmail.com,",11.1230526; 76.0559836
Devadhar Government Higher Secondary School,School,Kerala, Tanalur; Tanalur; 676307,,"gvhssmadappally@gmail.com,dghsstanur@gmail.com,dghsstanur11004@gmail.com,govthssmavoor@gmail.com,",10.9649487; 75.891175
The Springs Continental School,School,Kerala, Manjeri Kla; Estate Road Manjeri Kla; 676121,,"sdsprings@gmail.com,mail@thespringscontinentalschools.com,",11.1173323; 76.1173991
Ideal Public School,School,Kerala,Bsnl Exchange Kadalundinagaram; Anangadi Kadalundinagaram; 673314,,"mail@idealeducation.org,idealpublicschoolaluva@gmail.com,info@ideal-englishschool.com,idealpublicschoolkul@gmail.com,",11.109255; 75.8351392
Amalambika Convent English School,School,Kerala, Thekkady; Thekkady; 685509,,"amalambika@yahoo.com,info@amalambika.com,amalambika@sancharnet.in,",9.6031879; 77.1614286
St. Thomas English Medium School,School,Kerala, Kumily; - First Mile road Kumily; 685509,,"mail@stemskattanam.org,stthomaspublicschoolmvpa@gmail.com,st_thomasschoolldh@rediffmail.com,stsschool@gmail.com,stemhssattappallam@gmail.com,stneerattupuram@gmail.com,u003email@stemskattanam.org,stemskattanam@yahoo.in,x3est_thomasschoolldh@rediffmail.com,x3estsschool@gmail.com,",9.6179978; 77.156277
Smmi Convent,School,Kerala, Kumily; Labhakandam Kumily; 685509,,"micnagpur@gmail.com,alicejoseph55@gmail.com,generalatsmmi.gentilly@orange.fr,crikeralaregion@gmail.com,rcaidedganjam@gmail.com,dssgeneralateptvm@gmail.com,vincyg.smmi@gmail.com,",9.6039918; 77.1637874
M.A.M Bethany Public School,School,Kerala, Kumily; Chelimada Kumily; 685509,,"mambpschool@gmail.com,",9.6152845; 77.159493
Bethany School,School,Kerala, Kumily; Kumily; 685509,,"bethany_cpushpa@yahoo.com,bethanykkm@gmail.com,bethanyivanios@gmail.com,bethany.ngra@gmail.com,marivanios@yahoo.co.in,stpaulsbethany@gmail.com,mambpschool@gmail.com,ettcomp@md3.vsnl.net.in,",9.6145203; 77.160354
Monkompu Andi Iyer High School,School,Kerala, Murukady; Murukkady Murukady; 685535,,"9@gmail.com,",9.6173473; 77.1351761
Highrange Madrasathul Islamiyya,School,Kerala, Chottupara Periyar; Chottupara Periyar; 685533,,"ddeidukki@gmail.com,75027@cbseshiksha.in,hrs.munnar@tataconsumer.com,ddektm.dge@kerala.gov.in,",9.5856537; 77.1148446
St. Joseph's High School,School,Kerala, Vandiperiyar; Kottayamkumily Road Vandiperiyar; 685533,,"hsschengal@gmail.com,office@dunlaoghairens.ie,sjghss05066@yahoo.com,josephites14a@gmail.com,hmsjhsskallody@gmail.com,stjosephems@yahoo.com,x3eoffice@dunlaoghairens.ie,",9.5754027; 77.0916331
Trinity Garden Public School,School,Kerala, Vandiperiyar; Vandiperiyar; 685533,,"trinitygardenvpr@gmail.com,TRINITYGARDEN@BSNL.IN,TRINITYGARDENVPR@GMAIL.COM,",9.5721121; 77.0895961
Panchayath Higher Secondary School,School,Kerala,Vandiperiyar; Theni Kottarakkara Highway; 685532,,"pgmhsst@gmail.com,",9.5733834; 77.0767559
NSS LP School,School,Kerala, Anakkara; Mannoor Anakkara; 685512,,"XXXX@XXXXXX.XXX,Copyright@nss.org.in,mesktm@gmail.com,ddeidk@education.kerala.gov.in,glpschelachuvadu@gmail.com,nssglpsmanakkad@gmail.com,nssemschool@gmail.com,",9.6646067; 77.1657716
Mont Fort School,School,Kerala, Anakkara; Sh 19 Bypass Anakkara; 685512,,"Francissg1979@gmail.com,montfortschool.chinnakanal@gmail.com,montfortanakkara@gmail.com,",9.6740359; 77.1647655
St. Mary's HSS Vellaramkunnu,School,Kerala, Vellaramkunnu; Kumily Alady Road Vellaramkunnu; 685535,,"principalsmhss@gmail.com,6076sghssk@gmail.com,smhsvellaramkunnu@gmail.com,",9.6365122; 77.1091516
Nehru Smaraka Panchayath High School,School,Kerala, Vandanmettu; Puttady Po Vandanmettu; 685551,,"nsphssputtady@gmail.com,mrsmunnar@gmail.com,ghssmullaringadu@gmail.com,",9.6961642; 77.1604505
St Mary's UP School,School,Kerala, Puttady; Munnarkumily Hwy Puttady; 685551,,"smupsthariode@gmail.com,stmaryschvm@gmail.com,stmarysthuruthiply@gmail.com,",9.6996305; 77.1628243
S N Upper Primary School,School,Kerala,nan; Pothinkandam; 685551,,"gupsmananthavady@gmail.com,ghstholpetty@gmail.com,keralaschoolrkpuram@gmail.com,",9.7486587; 77.1877956
S K M Public School,School,Kerala,Near Subramanyaswami Temple; Kumarakom Vaikom road; 686563,,"info@keralatourism.org,snvpschool@gmail.com,",9.5892584; 76.4299358
Government Vocational Higher Secondary School,School,Kerala, Kumarakom East; Attipeedika Road Kumarakom East; 686563,,"dirvhse@yahoo.com,fohse.dge@kerala.gov.in,panangadvhss@gmail.com,tamilhsschalai@gmail.com,hitcchorod9@gmail.com,rovhsechngr@yahoo.co.in,ghsskltr@gmail.com,ict.dge@kerala.gov.in,vhsths.sby@gmail.com,dirvhse.dge@kerala.gov.in,",9.5872408; 76.4376515
Sree Kumaramangalam Higher Secondary School,School,Kerala, Kattakayam; Sh42 Kattakayam Kattakayam; 686563,,"mmquickerala@gmail.com,info@keralatourism.org,sreekumaramangalampublicschool@gmail.com,",9.596241; 76.4322658
NNC JM LP School,School,Kerala, Kumarakom South; Puthuchara Kumarakom South; 686563,,"principalmmount@gmail.com,jd1hse.dge@kerala.gov.in,brcanthikad@gmail.com,aohse.dge@kerala.gov.in,secy.gedu@kerala.gov.in,glpsabvl@gmail.com,min.edu@kerala.gov.in,jd2hse.dge@kerala.gov.in,",9.5782592; 76.4239025
Government Up School,School,Kerala,nan; Pariyapuram Bankpady; 686563,,"jd1hse.dge@kerala.gov.in,brcanthikad@gmail.com,aohse.dge@kerala.gov.in,ddeklm.dge@kerala.gov.in,jd2hse.dge@kerala.gov.in,gupstharuvana@gmail.com,",9.5827394; 76.4353716
De Paul International Residential School,School,Kerala,Near Mk Padi; Kattapana; 685514,,"dpirskerala@gmail.com,office@dpirs.org,dpriskerala@gmail.com,relations@abhyasaschool.com,enquiries@dpirs.org,x3erelations@abhyasaschool.com,",9.836643194444; 77.056266777778
Depaul Public School,School,Kerala, Thodupuzha; Thodupuzha; 685584,,"depaulpublictdpa@gmail.com,principal@depaulnh.ac.in,depaulpublicschool@gmail.com,",9.899519444444; 76.719661111111
G.H.S Mamalakandam,School,Kerala,nan; nan; 685561,,"ghsmamalakkandam@gmail.com,",10.0898243; 76.8216868
The Village International School,School,Kerala, Thodupuzha; Kumaramangalam Thodupuzha; 685584,,"admissions@villageschool.in,VILLAGEINSCHOOL@YAHOO.COM,mail@villageschool.in,",9.936156; 76.706231
Vimala Public School,School,Kerala,Near Newman School Thodupuzha East; Thodupuzha East; 685585,,"u003evimalapublicschool@yahoo.com,vpstdza@sancharnet.in,vimalapublicschool@yahoo.com,vimalacentralschool@yahoo.co.in,elizecmc@yahoo.com,vimalacentralschool@gmail.com,vimalakuttampuzha@gmail.com,",9.896891; 76.723152
Ossanam English Medium Hss,School,Kerala, Kattappana South; Bypass Road Kattappana South; 685515,,"info@oemhss.in,u003eossanamhss@gmail.com,ossanamhss@gmail.com,info@ossanamschoolkattappana.org,gmail.com_mpsmarykulam@gmail.com,29013shemhs@gmail.com,snemsthoppippala@gmail.com,mpsmarykulam@gmail.com,",9.7499382; 77.1136701
St George Higher Secondary School,School,Kerala, Kattappana South; No.13/1138 Kattappana South; 685515,,"kulathuvayalhss@gmail.com,aruvithurachurch@gmail.com,stgeorgehssputhenpally@gmail.com,stgcbsemnr@rediffmail.com,sghss6017@gmail.com,mshss@gmail.com,46065alappuzha@gmail.com,",9.7481263; 77.1128041
Natyanjali School Of Arts,School,Kerala,Opposite Union Bank Nedumkandam; Nedumkandam; 685553,,"lrubin7777@aol.com,padmamurali@yahoo.com,",9.8385238; 77.1593967
Shanthal Jyothi Public School,School,Kerala, Thodupuzha; Muttom Thodupuzha; 685584,,"shanthaljyothis@gmail.com,principalshanthal@gmail.com,srlizaputhenveedu@gmail.com,u003eshanthaljyothis@gmail.com,",9.839561; 76.747763
ST. George's Higher Secondary School,School,Kerala,Opposite St Georges Forane Church Muthalakodam; Idukki Muthalakodam; 685605,,"kulathuvayalhss@gmail.com,stgeorge6023@gmail.com,46065alappuzha@gmail.com,st.maryskmkd@gmail.com,",9.9109362; 76.7317997
Vijaya Matha School,School,Kerala, Chottupara; Thokkuplam Chottupara; 685552,,"principalvijayamatha@gmail.com,neethuj18@gmail.com,vijayamathachittur@gmail.com,vmpstacademics@gmail.com,office@vijayamathaschool.com,IDvijayam.publicschool@gmail.com,",9.8146331; 77.2026362
Holy Cross Senior Secondary School,School,Kerala, Nedumkandam; Sh40 Nedumkandam; 685553,,"holycrossndkm@gmail.com,holycross15104@gmail.com,mholycrossschool@yahoo.com,plustwohchs@gmail.com,holycrossvidyasadan@gmail.com,mailto@holycrosshss.com,",9.8397966; 77.1491455
Jawahar Navodaya Vidyalayam,School,Kerala, Kulamavu; Kulamavu; 685601,,"u003ejnvernakulam86@gmail.com,jnvernakulam86@gmail.com,",9.7940083; 76.8866218
Mannam Memorial High School,School,Kerala, Nariampara; Kanchiyar Nariampara; 685511,,"mannammemorial@yahoo.co.in,mmrhss@asianetindia.com,stmrcsk@gmail.com,kattukulamhss@gmail.com,nmmrhss@asianetindia.com,mmrhsstvm@gmail.com,",9.7300949; 77.0842489
Petals Day Care N Junior School,School,Kerala,Opposite Reliance Mall Kalarcode; NH Road Kalarcode; 688003,,"support@petalspreschool.com,preprimaryschoolsindia@gmail.com,quickeralateam@gmail.com,",9.466643; 76.3394577
SDV English Medium School,School,Kerala,Near District Court Alappuzha Ho; Santhanam Ward Alappuzha Ho; 688001,,"sdvemhss@yahoo.com,sdvcentralschool@gmail.com,indu@dutt.com,psraghavan13@gmail.com,",9.5019454; 76.3399691
Sree Narayana Central School,School,Kerala, Mavelikara; Thekkekara Mavelikara; 690101,,"Sncs.kply@yahoo.com,principal@sngcs.org,snvmkodaly@gmail.com,sngcs@hotmail.com,sncentralschoolply@gmail.com,u003eSncs.kply@yahoo.com,sncskylm@hotmail.com,info@snvmcentralschool.com,sncsmk@gmail.com,sncsnedungolam@gmail.com,",9.2228965; 76.5640121
Vidyadhiraja Vidyapeetom Central School,School,Kerala, Mavelikara; Old Mavelikkara Mavelikara; 690101,,"principalvidyadhiraja@gmail.com,info@vidyadhiraja.in,vrvpmvk@yahoo.in,",9.2360648; 76.5318615
St. Joseph Public School,School,Kerala, Cherthala; P.O. Cherthala Cherthala; 688524,,"x3eoffice@dunlaoghairens.ie,ppublicschool@gmail.com,stjosephsanandapuram@yahoo.com,stjosephpublicschool2018@gmail.com,stjosephems@yahoo.com,st.josephpublicschool@gmail.com,u003est.josephpublicschool@gmail.com,stjosephnkl@gmail.com,stjosephspollethai@gmail.com,",9.725379; 76.318166
K E Carmel Central School,School,Kerala, Muhamma; Muhamma; 688525,,"school@schoolmykids.com,kemuhamma@gmail.com,shinyjoseera@gmail.com,",9.6036502; 76.3543343
St John's Hss Nursery And Primary School,School,Kerala,Near Indian Overseas Mavelikara; Thattarambalam Mavelikara; 690101,,"stjohnsmodelhss@gmail.com,mail@stjohnsschoolkerala.com,stjohnskerala2011@gmail.com,",9.2445042; 76.5202787
Jyothi Nikhethan School,School,Kerala,Between Paravoor and Punnapara Punnapra; Punnapara Punnapra; 688004,,"kallupura@gmail.com,35052alappuzha@gmail.com,kallupura@hotmail.com,",9.4425693; 76.3381516
Bishop Moore Vidyapith,School,Kerala,CMS Junction Kalavanacodam Cherthala Kalavankodam; Kalavankodam; 688524,,"bmvidyapithcherthala@gmail.com,school@bishopmoorekayamkulam.com,johnbose.mglth@gamil.com,bmvidyapith@gmail.com,bishopmoorevidyapith@gmail.com,emailbmvidyapithcherthala@gmail.com,",9.7108621; 76.3173585
Mathews Mar Athanasius Residential School,School,Kerala, Angadical South; Chengannur Angadical South; 689122,,"mmarcentralschool@gmail.com,preprimaryschoolsindia@gmail.com,",9.3002503; 76.6266561
The International School Thrissur,School,Kerala,Near Mannuthy Chirakkakkode; Chirakkakkode; 680654,9054653846.0,"admissions@tist.school,info@tist.school,",10.562672222222; 76.294583333333
Manappuram Geetha Ravy Public School (Mageet),School,Kerala,Near Kurisupalli Valapad; West Of NH66 Valapad; 680567,7947357192.0,"career@manappurampublicschool.com,mageet@manappuramfoundation.org,",10.39898325; 76.112516916667
Alsalama School Of Safety Studies,School,Kerala,Opposite to BLM Church Alur; Pottakal Complex Alur; 680683,,"n@gmail.com,u003einfo@alsalamasafetystudies.com,manager.alsalamakdr@gmail.com,thrissur@alsalamacollege.com,admission@alsalamacollege.com,info@alsalamasafetystudies.com,",10.340829; 76.289641
Lemer Public School,School,Kerala, Nattika; Thriprayar Nattika; 680566,,"lemerschool@gmail.com,lksopanam@gmail.com,",10.4121601; 76.0999122
Mukundapuram Public School,School,Kerala, Nadavaramba; Nadavaramba; 680661,,"promps@manappuramschools.com,u003epromps@manappuramschools.com,contact@mukundapuram.com,",10.3171359; 76.2239814
Devamatha CMI Public School,School,Kerala, Thrissur City; Thiruvambadi Po Thrissur City; 680020,,"office@devamatha.com,Office@devamatha.com,principal@devamatha.com,office@idevamatha.com,",10.5394292; 76.2127852
Ansar English School,School,Kerala, Kunnamkulam; Perumpilavu Kunnamkulam; 680503,,"info@ansar.in,principal@ansar.in,pradu1977@gmail.com,",10.699523; 76.090673
Vivekodayam Boys Higher Secondary School,School,Kerala, Ar Menon Road Thrissur HO; Ar Menon Road-Thrissur HO; 680001,,"vivekodayamboys@rediffmail.com,gmbhss@gmail.com,vivekodayamedu@rediffmail.com,principalghssrpm@gmail.com,",10.5286048; 76.2109867
Fr. Mathew Alakalam Public School,School,Kerala, Kodassery; Chalakudy Kodassery; 680721,,"maps.chalakudy@gmail.com,admin@maps.chalakudy.com,",10.3479083; 76.364111
Hari Sri Vidya Nidhi School,School,Kerala,Near Sree Rama Krishan Ashram Punkunnu; Krishan Ashram Lane Punkunnu; 680002,,"nharisrividyanidhischool@yahoo.com,mail@harisrividyanidhi.com,harisrividyanidhischool@yahoo.com,",10.5348368; 76.1987539
Nirmala Matha Central School,School,Kerala,Near Kizhakkumpattukara Thrissur East; East Fort Thrissur East; 680005,,"nmcst2000@gmail.com,",10.5222343; 76.2284442
The High Range School,School,Kerala, Mattupetty; Mattupetty Post Mattupetty; 685612,,"75027@cbseshiksha.in,hrs.munnar@tataconsumer.com,hrs.munnar@tatatea.co.in,",10.1005711; 77.1126478
L F Girls High School,School,Kerala,Near Tea Museum Munnar HO; Nullathanni Road Munnar HO; 685612,,"gupsmananthavady@gmail.com,gghssaluva@gmail.com,lsnghsotp@rediffmail.com,brcned@gmail.com,ghstholpetty@gmail.com,",10.0930109; 77.0505492
Government Model Residential School,School,Kerala,nan; nan; 685612,,"support-eproc@nic.in,keralatribes@gmail.com,ayyankalieeschool@gmail.com,principalhsskmbr@gmail.com,glpschekady@gmail.com,sammrshss@gmail.com,gmrskannur@gmail.com,",10.0895228; 77.07937
Lions English Medium School,School,Kerala,Opposite Hotel Hill View; nan; 685612,,"val_lcsct@rediffmail.com,lionschool@live.com,info@palghatlionsschool.com,",10.0697183; 77.0599438
Government Higher Secondary School Vaguvarrai,School,Kerala,nan; Kannan Devan Hills; 685612,,"ict.dge@kerala.gov.in,elapparaphss@gmail.com,min.edu@kerala.gov.in,fohse.dge@kerala.gov.in,director.dge@kerala.gov.in,29010ghs@gmail.com,ghss6060@gmail.com,gmrskalpetta@gmail.com,x3edirector.dge@kerala.gov.in,x3escertkerala@gmail.com,x3econtact@kite.kerala.gov.in,secy.gedu@kerala.gov.in,gmail.com_elapparaphss@gmail.com,x3esecy.gedu@kerala.gov.in,principal6059@gmail.com,contact@kite.kerala.gov.in,u003eprincipal6059@gmail.com,scertkerala@gmail.com,",10.1687732; 77.1017772
Time Kids,School,Kerala,Near KPRP HSS Kongad Post Kongad; 12/4 Shaila Nivas Kongad; 678631,,"tochschoolvyttila@gmail.com,contact@ksvp.org,tkkln@timekidspreschools.com,info@timekidspreschools.com,thannissery@timekidspreschools.com,",10.8581716; 76.5189844
Mount Seena Public School,School,Kerala, Nagaripuram; 14 Mile Nagaripuram; 678642,,"mail@mountseena.com,publicschool@mountseena.com,",10.7785264; 76.4620006
Mes International School,School,Kerala,Near Government Hospital Pattambi; Pattambi; 679303,,"mespattambi@gmail.com,pgt.mespts@gmail.com,messchool@mespattambi.org,ashabyju1967@gmail.com,",10.8034705; 76.1765791
Carmel Cmi School,School,Kerala,Near State Bank Of India Shornur; Main Road Shornur; 679121,,"carmelpsvazhakulam@gmail.com,secretarycarmel@gmail.com,mail@cmicarmel.org,sacredheartcmi@gmail.com,carmelcmischool@yahoo.co.in,Uscarmelpsvazhakulam@gmail.com,office@carmelcmischool.in,",10.7765835; 76.2900935
Government Moyan Model Girls Higher Secondary School,School,Kerala, Tharekkad; Vinayaka Colony Tharekkad; 678001,,"sdahsotp4@gmail.com,gmmghsspkd@yahoo.in,",10.7796383; 76.6549909
Kanikkamatha Convent English Medium Higher Secondary School,School,Kerala, Pallipuram; College Junction Pallipuram; 679305,,"info@kanikkamatha.in,kanikkamatha@yahoo.co.in,u003einfo@kanikkamatha.in,",10.771117; 76.634005
Shalom Residential Public School,School,Kerala, Chittur Pg; Chittur Chittur Pg; 678101,,"mail@shalomschool.co.in,shalomschoolchittur@gmail.com,mail@shalomschool.co,anitamenon2015@gmail.com,",10.7051614; 76.7530707
B E M Higher Secondary School,School,Kerala, Sultanpet; English Church Road Sultanpet; 678001,,"thomsthekkini@gmail.com,principalbem@gmail.com,XXXX@XXXXXX.XXX,14100bemhss@gmail.com,bindiyab21@gmail.com,",10.768482; 76.6514074
Palghat Lions Senior Secondary School,School,Kerala, Koppam; Koppam; 679307,,"lionschool@live.com,info@palghatlionsschool.com,",10.776971; 76.660222
Bss Gurukulam Higher Secondary School,School,Kerala, Alathur Palakkad; Alathur Palakkad; 678541,,"bssgurukulam.12@gmail.com,",10.6483475; 76.5564478
Kendriya Vidhyalaya,School,Kerala,Ottapalam Palappuram; Palappuram; 679103,,"kv1navalbasekochi@gmail.com,kvernakulam@yahoo.com,ppl.kollam@kvs.gov.in,kv2principalksd@rediffmail.com,",10.7561802; 76.4034071
Kids Palace Pre School,School,Kerala,Near Our Tuition Center Kunnamangalam; Kunnamangalam Kunnamangalam; 673571,7411575974.0,"info@kidspalace.ca,info@kindersteps.in,info@kidzpalaceuk.com,",11.3067655556; 75.8784561111
Kidz World Pre School,School,Kerala,Opposite Presentation High School Chevayur; Medical College Road Chevayur; 673017,,"info@kidstownpreschool.in,bambinokowdiar@gmail.com,info@bambinokidz.com,info@hellosamkids.com,calicutkidzee@gmail.com,bizklinfo@gmail.com,",11.2666545; 75.8248914
The White School International,School,Kerala,Near Hilite City Hilite Knowledge Village Perumanna; Parammal Perumanna; 673019,,"admissions@twsinternational.in,info@thewhiteschool.in,info@twsinternational.in,",11.247893; 75.89395
St. Joseph's Boys Higher Secondary School,School,Kerala, Vellayil; Zilla Housing Colony Vellayil; 673011,,"principal@stjosephsboysschool.org,sjboyshss@gmail.com,Principal@stjosephsboysschool.org,",11.2578637; 75.7747345
Mmvhs School,School,Kerala,Opposite Shaduli Palli Masjid Parappil Parappil; Francis Rd Parappil; 673001,,"min.edu@kerala.gov.in,jd2hse.dge@kerala.gov.in,jd1hse.dge@kerala.gov.in,contact@ksvp.org,secy.gedu@kerala.gov.in,aohse.dge@kerala.gov.in,",11.2389475; 75.7766587
Logic School Of Management,School,Kerala,Opposite Jayalakshmi Silks Mavoor Road; Arayidathupalam Mavoor Road; 673004,,"mlp@logiccpacma.com,logicmanagements@gmail.com,clt@logiccpacma.com,hr@logicschool.org,hxxxxxxh@logiceducation.org,cochin@logiccpacma.com,info@logiceducation.org,ratlincomputers@gmail.com,",11.245521; 75.7870062
c m makham school,School,Kerala, Narikkuny; Madavoor Narikkuny; 673585,,"carmelpsvazhakulam@gmail.com,min.edu@kerala.gov.in,secy.gedu@kerala.gov.in,principal@markazschool.com,",11.3474619; 75.8705363
Govt Vocational Higher Secondary School,School,Kerala,Near Police Station Skpark Nadakkavu East; Park Puthiyara Nadakkavu East; 673006,,"vhsths.sby@gmail.com,ict.dge@kerala.gov.in,vhseklm@gmail.com,fohse.dge@kerala.gov.in,kpmvocationalhss@gmail.com,rovhsechngr@yahoo.co.in,dirvhse@yahoo.com,tamilhsschalai@gmail.com,panangadvhss@gmail.com,principalghssrpm@gmail.com,",11.2705613; 75.7757634
Devagiri Cmi Public School,School,Kerala,Near Devagiri College Cherukulathoor; Devagiri road Cherukulathoor; 673008,,"u003edevagiricmipublicschool@yahoo.co.in,jkanjirathinkal@gmail.com,devagiricmipublicschool@yahoo.co.in,",11.262659; 75.835783
Rani Public School,School,Kerala, Vadakara Bazar; Chorode Phed Rd Vadakara Bazar; 673101,,"ranischool@yahoo.com,u003eranischool@yahoo.com,maryranischool@yahoo.co.in,ranischool@bsnl.in,",11.623209; 75.580405
St George English Medium School,School,Kerala, Nadakkavu; Bilathikulam Rd Nadakkavu; 673011,,"stgcbsemnr@rediffmail.com,stgeorgiya2015@gmail.com,mmquickerala@gmail.com,stgeorgeem@gmail.com,",11.2749361; 75.7754593
Presentation Higher Secondary School,School,Kerala,Near Medical College Chevayur; Medical College Road Chevayur; 673017,,"presenthss@gmail.com,presentationhssclt@gmail.com,",11.2687599; 75.8213865
Kendriya Vidyalaya School,School,Kerala, West Hill; West Hill; 673005,,"gupsmananthavady@gmail.com,principal_327@yahoo.co.in,drmpgt@srm.railnet.gov,ghstholpetty@gmail.com,pushpa5259@gmail.com,dcernakulamregion@gmail.com,kvmalappuram@yahoo.co.in,",11.2915641; 75.7786502
Government VHSS,School,Kerala, Atholi; Atholi; 673315,,"x3edirector.dge@kerala.gov.in,dirvhse@yahoo.com,x3escertkerala@gmail.com,x3econtact@kite.kerala.gov.in,ghsskltr@gmail.com,x3esecy.gedu@kerala.gov.in,hitcchorod9@gmail.com,",11.3898755; 75.7601311
Providence Girls Higher Secondary School,School,Kerala,Near Cet College Nadakkave Behind Vellayil Railway Station Nadakkavu; Gandhi Road Nadakkavu; 673011,,"providence_hss@yahoo.in,",11.2643492; 75.7757521
Nithyananda Bhavan English Medium School,School,Kerala,Near Toyota Service Centre Chirakkal; Highway Junction Chirakkal; 670011,9725292413.0,"balakrishnan_ariyambeth@yahoo.com,nithyananda12@dataone.in,nithyananda_bhavan@yahoo.in,",11.910118; 75.3616223
Ryan International Montessori School,School,Kerala,Vadakancherry Road Taliparamba; Street No. 3; 670562,,"info@ryanschool.ac.in,ris.cochin@ryangroup.org,preprimaryschoolsindia@gmail.com,",12.0135735; 75.3743015
St. Michael's Anglo Indian Higher Secondary School,School,Kerala, Burnacherry; Burnacherry; 670013,,"mcjithesh@gmail.com,schools@olympiadsuccess.com,",11.8654982; 75.3644513
St. Joseph's Higher Secondary School,School,Kerala,nan; Tellicherry Fort Road; 670103,,"hsschengal@gmail.com,x3eoffice@dunlaoghairens.ie,josephites14a@gmail.com,stjosephems@yahoo.com,principalhsskodanchery@yahoo.in,sjaighss@gmail.com,sjghss05066@yahoo.com,",11.7483836; 75.4855382
Kadambur Higher Secondary School,School,Kerala,Near Kadambur Post Office Kadambur Kannur; Road Kadambur Kannur; 670663,,"kadamburhss13064@gmail.com,",11.813651; 75.45555
Sreepuram English Medium School,School,Kerala, Pallikunnu; Nh 66 Pallikkunnu Pallikunnu; 670004,,"sreepuramschool@dataone.in,head@ke052cisce.org,",11.8901969; 75.3700626
Ursuline SR Secondary School,School,Kerala, Payyambalam; Payyambalam Road Payyambalam; 670001,,"ursknr@gmail.com,ursuline.prm@gmail.com,svpmalil@gmail.com,ursknr@dataone.in,",11.8670216; 75.3539709
Ursuline Senior Secondary School,School,Kerala,Near Lions Club Payyambalam Cannanore; Cannanore; 670001,,"ursknr@gmail.com,ursuline.prm@gmail.com,ursknr@dataone.in,8330816378ursknr@gmail.com,",11.8670216; 75.3539709
Bharatiya Vidya Bhavan,School,Kerala, Talap; Kanthra Talap; 670002,,"bvbwayanad@gmail.com,bhavansbalmandireroor@gmail.com,n@yahoo.co.in,erwarrier@gmail.com,bvbchevayur@yahoo.com,qybhavan@yahoo.co.in,bvmtcr@gmail.com,",11.8933213; 75.3821679
CHM Higher Secondary School,School,Kerala, Mattannur; Kannur Mattannur Road Mattannur; 670702,,"chmhsspkr@gmail.com,chmhss13143@gmail.com,ghss13034@gmail.com,school.mangalam43@gmail.com,",11.924703; 75.669798
Ramavilasam Higher Secondary School.,School,Kerala, Chokli; Chokli; 670672,,"rvvhssvalakom@yahhoo.com,schools@olympiadsuccess.com,rvhsvalakom@gmail.com,ramavilasam@gmail.com,",11.7222711; 75.5627858
Kavummannam Hs Junction,School,Kerala, Kalpetta; Thariode Vattoth Road Kalpetta; 673121,,"0402102@supplycomail.com,cru.kavummannam@kerala.gov.in,jishamolk4@gmail.com,kgb123@keralagbank.com,sjhsskallody12022@gmail.com,",11.6437887; 76.003131
Government Vocational Higher Secondary High School,School,Kerala, Mananthavady; Mananthavady; 670645,,"panangadvhss@gmail.com,vhseklm@gmail.com,dirvhse@yahoo.com,gmrskalpetta@gmail.com,rovhsechngr@yahoo.co.in,vhsths.sby@gmail.com,",11.7899591; 76.0022411
Skmj Higher Secondary School,School,Kerala,Nr Civil Station Kalpetta North; NH212 Kalpetta North; 673122,,"skmjhss12020@gmail.com,myschoolskmj@gmail.com,",11.6210001; 76.0869366
The Greenhills Public School,School,Kerala,Near State Bank Of Travancore; Moolankavu; 673576,,"greenhillsbathery@yahoo.co.in,georgegreenhills@yahoo.co.in,",11.672671; 76.289002
M G M Higher Secondary School,School,Kerala, Mananthavady; Ambukutty Mananthavady; 670645,,"mgmrps@mgmedugroup.com,mgmschoolraipur@gmail.com,preprimaryschoolsindia@gmail.com,",11.8200255; 76.007055
W.O.H.S.S,School,Kerala, Pinangode; Vengapally Pinangode; 673122,,"dpi@education.kerala.gov.in,min.edu@kerala.gov.in,vhseklm@gmail.com,wovhssmuttil@gmail.com,dirvhse@yahoo.com,jd2hse.dge@kerala.gov.in,idcthamarassery@gmail.com,secy.gedu@kerala.gov.in,jd1hse.dge@kerala.gov.in,aohse.dge@kerala.gov.in,rovhsechngr@yahoo.co.in,principalwohss@gmail.com,",11.626052; 76.017679
St Patricks School,School,Kerala, Mananthavady; - Mananthavady road Mananthavady; 670645,,"spapatrician@gmail.com,info@stpatricksmananthavady.com,stpatsmtdy@gmail.com,school@schoolmykids.com,spabeacon@gmail.com,",11.8122646; 76.0158173
Government Sarvajana Vocational Higher Secondary School,School,Kerala, Sulthan Bathery; Ooty Road Sulthan Bathery; 673592,,"vhseklm@gmail.com,dirvhse@yahoo.com,dhsesarvajana@gmail.com,gvghssvythiri01@gmail.com,rovhsechngr@yahoo.co.in,",11.6627019; 76.2685061
St Josephs English Medium High School,School,Kerala, Sulthan Bathery; Cheeral Road Sulthan Bathery; 673592,,"x3eoffice@dunlaoghairens.ie,sjfusco@ymail.com,sjghss05066@yahoo.com,sanjosevlkn@gmail.com,sjcemsp@gmail.com,stjosephems@yahoo.com,",11.6633229; 76.2710127
Bharatiya Vidya Bhavans Vidya Mandir,School,Kerala, Sulthan Bathery; Calicut Sulthan Bathery; 673592,,"bhavansbalmandireroor@gmail.com,principalbvm@yahoo.com,bharatiyavidyabhavancochin@yahoo.co.in,bvbchevayur@yahoo.com,bvm_elmk@yahoo.com,bvmtcr@gmail.com,",11.6660793; 76.2373214
St. Joseph's Convent School,School,Kerala, Kalpetta; State Highway Kalpetta; 673121,,"sjcskalpetta@rediffmail.com,u003esjcskalpetta@rediffmail.com,st_josephs_fbd@yahoo.co.in,sjcemsp@gmail.com,sjcskaletta@gmail.com,stjosephscghs-kanjoor@rediffmail.com,x3est_josephs_fbd@yahoo.co.in,jyothizita@gmail.com,secretaryvijayapuram@gmail.com,",11.6105504; 76.0794063
FR. G.K.M High School,School,Kerala, Mananthavady; Wayanad - Mananthavady; 670645,,"ammrghss@gmail.com,ghstholpetty@gmail.com,frgkmhsskaniyaram@gmail.com,gupsmananthavady@gmail.com,",11.807112; 75.997662
Jawahar Navodaya Vidyalaya,School,Kerala, Wayanad; Pookode Wayanad; 673576,,"u003ejnvernakulam86@gmail.com,jnvernakulam86@gmail.com,",11.5351137; 76.0196829
Vijaya Higher Secondary School,School,Kerala, Pulpally; Pulpally; 673579,,"XXXX@XXXXXX.XXX,holyfamilyhssktm2010@gmil.com,brcned@gmail.com,principalvijayamatha@gmail.com,vijayahsspulpally@gmail.com,",11.7909352; 76.1667323
Sacred Heart Higher Secondary School,School,Kerala, Mananthavady; Nalloornad Mananthavady; 670645,,"moothedathhss@gmail.com,dwrakashs@gmail.com,shghschool@gmail.com,nsacredheartpublicschool2@gmail.com,sacredheartpublicschool2@gmail.com,info@shpublicschool.org,u003eshghschool@gmail.com,sacredheartkottakkal@gmail.com,sacredhearthss1@gmail.com,",11.7596383; 76.0108306
Indo-American International School,School,Kerala, Vagamon; Kottayam Vagamon; 685503,,"lictemk@gmail.com,indoamericanschool@yahoo.co.in,",9.6788514; 76.8954009
St. Mary's Higher Secondary School,School,Kerala, Marykulam; Kuttikkanam Road Marykulam; 685507,,"pattomstmarys@gmail.com,smhsschampakulam@gmail.com,6076sghssk@gmail.com,u003estmaryshssirinjalakuda@yahoo.com,stmaryshssirinjalakuda@yahoo.com,stmarysalakode@yahoo.co.in,kallanodehss@gmail.com,06022smhss@gmail.com,st.maryskmkd@gmail.com,contactus@stmaryspattom.org,",9.6992065; 77.0396727
I.H.E.P. U.P. School,School,Kerala, Moolamattom; Vagamon Road Moolamattom; 685589,,"min.edu@kerala.gov.in,ict.dge@kerala.gov.in,jd2hse.dge@kerala.gov.in,contact@ksvp.org,secy.gedu@kerala.gov.in,jd1hse.dge@kerala.gov.in,aohse.dge@kerala.gov.in,information@peevees.com,amritavidyalayamhinjewadi@gmail.com,",9.7881076; 76.8520367
Grace Garden Public School,School,Kerala, Ayyappancoil; road Ayyappancoil; 685507,,"bcgracegardenschool@yahoo.com,annacheriyan@yahoo.com,principal@bcgracegarden.edu.in,u003eprincipal@bcgracegarden.edu.in,",9.7012215; 77.0402756
St Mary's U P School,School,Kerala, Marykulam; Road Marykulam; 685507,,"stmaryschvm@gmail.com,stmarysthuruthiply@gmail.com,smupsthariode@gmail.com,",9.6964592; 77.0401374
Marian Public School,School,Kerala, Marykulam; Iyyappan Kovil Marykulam; 685507,,"marianemschool@gmail.com,admin@marianschool.in,marianpublicschool@gmail.com,marian.school@yahoo.in,fr.shajibehanan@yahoo.co.in,nmarianpublicschool@gmail.com,",9.6960147; 77.0409222
Government U P School,School,Kerala, Elappara; Elappara; 685501,,"brcanthikad@gmail.com,id-sreeja101619@kerala.gov.in,jd2hse.dge@kerala.gov.in,gupstharuvana@gmail.com,jd1hse.dge@kerala.gov.in,aohse.dge@kerala.gov.in,",9.6339581; 76.9782517
Chavaragiri Cmi Special School,School,Kerala, Ayyappancoil; Kerala Ayyappancoil; 685507,,"chavaradarsan@yahoo.com,cmichavaragiri@gmail.com,chavaraamanakara@gmail.com,info@cps.ac.in,chavarahillsps@gmail.com,",9.697641; 77.023063
Zion Public School,School,Kerala, Kanchiyar; Kuttikkanam Road Kanchiyar; 685511,,"zionpublicschoolswaraj@gmail.com,frsibytmcbs2006@gmail.com,",9.7245705; 77.0496297
St. Mary's High School,School,Kerala, Arakulam; Pathipally Arakulam; 685591,,"stmaryshss@yahoo.co.in,pattomstmarys@gmail.com,smhsschampakulam@gmail.com,u003estmaryshssirinjalakuda@yahoo.com,smemps@gmail.com,stmaryshssirinjalakuda@yahoo.com,stmarysalakode@yahoo.co.in,",9.8084087; 76.8317682
Modal Residential School,School,Kerala, Idukki Colony; Painavu Po Idukki Colony; 685602,,"keralatribes@gmail.com,sammrshss@gmail.com,garvinwaters@gmail.com,information@peevees.com,ayyankalieeschool@gmail.com,",9.850617; 76.941729
S. H. English Medium Higher Secondary School,School,Kerala, Moolamattom; Idukki Moolamattom; 685589,,"shchanganassery@gmail.com,info@shpublicschool.org,",9.7949996; 76.8454046
St George Up School,School,Kerala,Moolamattom Arakulam; Sh 42 Arakulam; 685591,,"sjttimananthavady@gmail.com,aruvithurachurch@gmail.com,gkmhskaniyaram@gmail.com,suniaugustin1970@gmail.com,stgeorgepublicschool@gmail.com,stgcbsemnr@rediffmail.com,29028shghs@gmail.com,",9.7968012; 76.8462723
Government Tribal Higher Secondary School,School,Kerala, Kanchiyar; Kuttikkanam Road Kanchiyar; 685511,,"keralatribes@gmail.com,mountcarmelhsmamanna@gmail.com,gthsspoomala@gmail.com,gmrskalpetta@gmail.com,gvhssmadappally@gmail.com,govthssmavoor@gmail.com,ghsskty@gmail.com,",9.7237146; 77.0507401
S N English Medium School,School,Kerala,Kanchiyar Thoppipala Thoppipala; Kuttikkanam Road Thoppipala; 685511,,"cpravi@md3.vsnl.net.in,harisreelps@gmail.com,snvpschool@gmail.com,snemsckm@gmail.com,snpublic123@yahoo.co.in,u003esnemsckm@gmail.com,",9.737315; 77.0540744
Sree Narayan Central School,School,Kerala, Kovalam Beach; Kayamkulam Kovalam Beach; 695527,,"u003eSncs.kply@yahoo.com,sncentralschoolply@gmail.com,Sncs.kply@yahoo.com,sncskylm@hotmail.com,info@snvmcentralschool.com,sngcs@hotmail.com,sncsnedungolam@gmail.com,snvmkodaly@gmail.com,sncsmk@gmail.com,principal@sngcs.org,",8.40311; 76.978249
Lms Lps Muttakkad,School,Kerala,nan; Ks Road; 695527,,"XXXX@XXXXXX.XXX,glpsmuttacaud@gmail.com,kalolsavam@kite.kerala.gov.in,",8.4091479; 76.9818992
St Mary's Hs School Vizhinjam,School,Kerala," Vizhinajam; Thiruvananthapuram,Vizhinajam; 695521",,"pattomstmarys@gmail.com,stmaryshssvzm@gmail.com,johnyjoseph189@gmail.com,kallanodehss@gmail.com,st.maryskmkd@gmail.com,",8.3794618; 76.997387
